<?xml version="1.0" encoding="UTF-8"?>
<gpx version="1.1" creator="sentieri-vda" xmlns="http://www.topografix.com/GPX/1/1">
  <metadata>
    <name>La Clusaz - Pas de Planaval</name>
    <desc>Catasto Sentieri VdA — 06_S31</desc>
    <author><name>Regione Autonoma Valle d'Aosta</name></author>
  </metadata>
  <trk>
    <name>La Clusaz - Pas de Planaval</name>
    <src>Catasto Sentieri VdA (06_S31)</src>
    <trkseg>
      <trkpt lat="45.6591471" lon="7.0202320">
        <ele>1660</ele>
      </trkpt>
      <trkpt lat="45.6592496" lon="7.0207500">
        <ele>1662</ele>
      </trkpt>
      <trkpt lat="45.6593626" lon="7.0210030">
        <ele>1664</ele>
      </trkpt>
      <trkpt lat="45.6596186" lon="7.0212510">
        <ele>1666</ele>
      </trkpt>
      <trkpt lat="45.6596646" lon="7.0218140">
        <ele>1668</ele>
      </trkpt>
      <trkpt lat="45.6599606" lon="7.0223170">
        <ele>1670</ele>
      </trkpt>
      <trkpt lat="45.6600776" lon="7.0228260">
        <ele>1672</ele>
      </trkpt>
      <trkpt lat="45.6604856" lon="7.0234790">
        <ele>1675</ele>
      </trkpt>
      <trkpt lat="45.6606226" lon="7.0251690">
        <ele>1677</ele>
      </trkpt>
      <trkpt lat="45.6611666" lon="7.0260090">
        <ele>1679</ele>
      </trkpt>
      <trkpt lat="45.6609566" lon="7.0265390">
        <ele>1681</ele>
      </trkpt>
      <trkpt lat="45.6609266" lon="7.0269190">
        <ele>1683</ele>
      </trkpt>
      <trkpt lat="45.6609966" lon="7.0269290">
        <ele>1685</ele>
      </trkpt>
      <trkpt lat="45.6609766" lon="7.0271590">
        <ele>1687</ele>
      </trkpt>
      <trkpt lat="45.6611366" lon="7.0275090">
        <ele>1689</ele>
      </trkpt>
      <trkpt lat="45.6611766" lon="7.0277090">
        <ele>1691</ele>
      </trkpt>
      <trkpt lat="45.6611866" lon="7.0278590">
        <ele>1693</ele>
      </trkpt>
      <trkpt lat="45.6616366" lon="7.0286090">
        <ele>1695</ele>
      </trkpt>
      <trkpt lat="45.6618466" lon="7.0289290">
        <ele>1697</ele>
      </trkpt>
      <trkpt lat="45.6619066" lon="7.0290890">
        <ele>1699</ele>
      </trkpt>
      <trkpt lat="45.6620066" lon="7.0292190">
        <ele>1702</ele>
      </trkpt>
      <trkpt lat="45.6619166" lon="7.0293890">
        <ele>1704</ele>
      </trkpt>
      <trkpt lat="45.6618766" lon="7.0294290">
        <ele>1706</ele>
      </trkpt>
      <trkpt lat="45.6619766" lon="7.0300390">
        <ele>1708</ele>
      </trkpt>
      <trkpt lat="45.6622166" lon="7.0306790">
        <ele>1710</ele>
      </trkpt>
      <trkpt lat="45.6622766" lon="7.0311090">
        <ele>1712</ele>
      </trkpt>
      <trkpt lat="45.6626666" lon="7.0318490">
        <ele>1714</ele>
      </trkpt>
      <trkpt lat="45.6629466" lon="7.0326490">
        <ele>1716</ele>
      </trkpt>
      <trkpt lat="45.6628766" lon="7.0328590">
        <ele>1718</ele>
      </trkpt>
      <trkpt lat="45.6631066" lon="7.0336290">
        <ele>1720</ele>
      </trkpt>
      <trkpt lat="45.6638566" lon="7.0353090">
        <ele>1722</ele>
      </trkpt>
      <trkpt lat="45.6640266" lon="7.0359790">
        <ele>1724</ele>
      </trkpt>
      <trkpt lat="45.6642366" lon="7.0364090">
        <ele>1726</ele>
      </trkpt>
      <trkpt lat="45.6644866" lon="7.0372490">
        <ele>1728</ele>
      </trkpt>
      <trkpt lat="45.6647266" lon="7.0378190">
        <ele>1731</ele>
      </trkpt>
      <trkpt lat="45.6648466" lon="7.0378490">
        <ele>1733</ele>
      </trkpt>
      <trkpt lat="45.6650166" lon="7.0380490">
        <ele>1735</ele>
      </trkpt>
      <trkpt lat="45.6652566" lon="7.0380490">
        <ele>1737</ele>
      </trkpt>
      <trkpt lat="45.6657366" lon="7.0383090">
        <ele>1739</ele>
      </trkpt>
      <trkpt lat="45.6661266" lon="7.0386290">
        <ele>1741</ele>
      </trkpt>
      <trkpt lat="45.6669366" lon="7.0395590">
        <ele>1743</ele>
      </trkpt>
      <trkpt lat="45.6675466" lon="7.0400090">
        <ele>1745</ele>
      </trkpt>
      <trkpt lat="45.6675366" lon="7.0401290">
        <ele>1747</ele>
      </trkpt>
      <trkpt lat="45.6676766" lon="7.0402390">
        <ele>1749</ele>
      </trkpt>
      <trkpt lat="45.6679966" lon="7.0402890">
        <ele>1751</ele>
      </trkpt>
      <trkpt lat="45.6687166" lon="7.0409090">
        <ele>1753</ele>
      </trkpt>
      <trkpt lat="45.6688566" lon="7.0409290">
        <ele>1755</ele>
      </trkpt>
      <trkpt lat="45.6689666" lon="7.0411090">
        <ele>1758</ele>
      </trkpt>
      <trkpt lat="45.6692966" lon="7.0419090">
        <ele>1760</ele>
      </trkpt>
      <trkpt lat="45.6696166" lon="7.0423790">
        <ele>1762</ele>
      </trkpt>
      <trkpt lat="45.6696766" lon="7.0426090">
        <ele>1764</ele>
      </trkpt>
      <trkpt lat="45.6698566" lon="7.0427490">
        <ele>1766</ele>
      </trkpt>
      <trkpt lat="45.6701066" lon="7.0440390">
        <ele>1768</ele>
      </trkpt>
      <trkpt lat="45.6704666" lon="7.0453490">
        <ele>1770</ele>
      </trkpt>
      <trkpt lat="45.6707566" lon="7.0457290">
        <ele>1772</ele>
      </trkpt>
      <trkpt lat="45.6707966" lon="7.0459690">
        <ele>1774</ele>
      </trkpt>
      <trkpt lat="45.6712466" lon="7.0465490">
        <ele>1776</ele>
      </trkpt>
      <trkpt lat="45.6715466" lon="7.0470690">
        <ele>1778</ele>
      </trkpt>
      <trkpt lat="45.6717366" lon="7.0475690">
        <ele>1780</ele>
      </trkpt>
      <trkpt lat="45.6720066" lon="7.0480990">
        <ele>1782</ele>
      </trkpt>
      <trkpt lat="45.6726266" lon="7.0490590">
        <ele>1785</ele>
      </trkpt>
      <trkpt lat="45.6728566" lon="7.0499030">
        <ele>1787</ele>
      </trkpt>
      <trkpt lat="45.6729466" lon="7.0500590">
        <ele>1789</ele>
      </trkpt>
      <trkpt lat="45.6730866" lon="7.0507390">
        <ele>1791</ele>
      </trkpt>
      <trkpt lat="45.6732666" lon="7.0508990">
        <ele>1793</ele>
      </trkpt>
      <trkpt lat="45.6733366" lon="7.0508990">
        <ele>1795</ele>
      </trkpt>
      <trkpt lat="45.6737766" lon="7.0519890">
        <ele>1797</ele>
      </trkpt>
      <trkpt lat="45.6738966" lon="7.0525390">
        <ele>1799</ele>
      </trkpt>
      <trkpt lat="45.6740566" lon="7.0528090">
        <ele>1801</ele>
      </trkpt>
      <trkpt lat="45.6742966" lon="7.0526890">
        <ele>1803</ele>
      </trkpt>
      <trkpt lat="45.6748266" lon="7.0532990">
        <ele>1805</ele>
      </trkpt>
      <trkpt lat="45.6752666" lon="7.0536190">
        <ele>1807</ele>
      </trkpt>
      <trkpt lat="45.6755166" lon="7.0540190">
        <ele>1809</ele>
      </trkpt>
      <trkpt lat="45.6756566" lon="7.0539890">
        <ele>1811</ele>
      </trkpt>
      <trkpt lat="45.6758866" lon="7.0542390">
        <ele>1814</ele>
      </trkpt>
      <trkpt lat="45.6761066" lon="7.0544090">
        <ele>1816</ele>
      </trkpt>
      <trkpt lat="45.6765266" lon="7.0552090">
        <ele>1818</ele>
      </trkpt>
      <trkpt lat="45.6770166" lon="7.0552790">
        <ele>1820</ele>
      </trkpt>
      <trkpt lat="45.6772366" lon="7.0554190">
        <ele>1822</ele>
      </trkpt>
      <trkpt lat="45.6772994" lon="7.0553732">
        <ele>1824</ele>
      </trkpt>
      <trkpt lat="45.6772968" lon="7.0553982">
        <ele>1826</ele>
      </trkpt>
      <trkpt lat="45.6773154" lon="7.0554361">
        <ele>1828</ele>
      </trkpt>
      <trkpt lat="45.6773176" lon="7.0554474">
        <ele>1830</ele>
      </trkpt>
      <trkpt lat="45.6773170" lon="7.0554488">
        <ele>1832</ele>
      </trkpt>
      <trkpt lat="45.6773096" lon="7.0554855">
        <ele>1834</ele>
      </trkpt>
      <trkpt lat="45.6773120" lon="7.0555145">
        <ele>1836</ele>
      </trkpt>
      <trkpt lat="45.6773258" lon="7.0555491">
        <ele>1838</ele>
      </trkpt>
      <trkpt lat="45.6773314" lon="7.0555698">
        <ele>1841</ele>
      </trkpt>
      <trkpt lat="45.6773357" lon="7.0555987">
        <ele>1843</ele>
      </trkpt>
      <trkpt lat="45.6773408" lon="7.0556248">
        <ele>1845</ele>
      </trkpt>
      <trkpt lat="45.6773493" lon="7.0556515">
        <ele>1847</ele>
      </trkpt>
      <trkpt lat="45.6773595" lon="7.0556669">
        <ele>1849</ele>
      </trkpt>
      <trkpt lat="45.6774152" lon="7.0557445">
        <ele>1851</ele>
      </trkpt>
      <trkpt lat="45.6774437" lon="7.0558645">
        <ele>1853</ele>
      </trkpt>
      <trkpt lat="45.6774624" lon="7.0558855">
        <ele>1855</ele>
      </trkpt>
      <trkpt lat="45.6774896" lon="7.0559311">
        <ele>1857</ele>
      </trkpt>
      <trkpt lat="45.6775066" lon="7.0559807">
        <ele>1859</ele>
      </trkpt>
      <trkpt lat="45.6775037" lon="7.0560082">
        <ele>1861</ele>
      </trkpt>
      <trkpt lat="45.6775087" lon="7.0560519">
        <ele>1863</ele>
      </trkpt>
      <trkpt lat="45.6775149" lon="7.0560687">
        <ele>1865</ele>
      </trkpt>
      <trkpt lat="45.6775191" lon="7.0560758">
        <ele>1868</ele>
      </trkpt>
      <trkpt lat="45.6775498" lon="7.0561308">
        <ele>1870</ele>
      </trkpt>
      <trkpt lat="45.6775754" lon="7.0561609">
        <ele>1872</ele>
      </trkpt>
      <trkpt lat="45.6776123" lon="7.0562433">
        <ele>1874</ele>
      </trkpt>
      <trkpt lat="45.6776264" lon="7.0562712">
        <ele>1876</ele>
      </trkpt>
      <trkpt lat="45.6776841" lon="7.0563528">
        <ele>1878</ele>
      </trkpt>
      <trkpt lat="45.6777320" lon="7.0563870">
        <ele>1880</ele>
      </trkpt>
      <trkpt lat="45.6777878" lon="7.0563767">
        <ele>1882</ele>
      </trkpt>
      <trkpt lat="45.6779378" lon="7.0564418">
        <ele>1884</ele>
      </trkpt>
      <trkpt lat="45.6779448" lon="7.0564417">
        <ele>1886</ele>
      </trkpt>
      <trkpt lat="45.6779865" lon="7.0564470">
        <ele>1888</ele>
      </trkpt>
      <trkpt lat="45.6780228" lon="7.0564673">
        <ele>1890</ele>
      </trkpt>
      <trkpt lat="45.6780577" lon="7.0565201">
        <ele>1892</ele>
      </trkpt>
      <trkpt lat="45.6780790" lon="7.0565608">
        <ele>1894</ele>
      </trkpt>
      <trkpt lat="45.6781002" lon="7.0566239">
        <ele>1897</ele>
      </trkpt>
      <trkpt lat="45.6781219" lon="7.0566488">
        <ele>1899</ele>
      </trkpt>
      <trkpt lat="45.6781713" lon="7.0567031">
        <ele>1901</ele>
      </trkpt>
      <trkpt lat="45.6782127" lon="7.0567469">
        <ele>1903</ele>
      </trkpt>
      <trkpt lat="45.6782656" lon="7.0567835">
        <ele>1905</ele>
      </trkpt>
      <trkpt lat="45.6783608" lon="7.0568638">
        <ele>1907</ele>
      </trkpt>
      <trkpt lat="45.6784155" lon="7.0569491">
        <ele>1909</ele>
      </trkpt>
      <trkpt lat="45.6784582" lon="7.0569841">
        <ele>1911</ele>
      </trkpt>
      <trkpt lat="45.6785286" lon="7.0570474">
        <ele>1913</ele>
      </trkpt>
      <trkpt lat="45.6785657" lon="7.0571392">
        <ele>1915</ele>
      </trkpt>
      <trkpt lat="45.6786529" lon="7.0573009">
        <ele>1917</ele>
      </trkpt>
      <trkpt lat="45.6787017" lon="7.0574207">
        <ele>1919</ele>
      </trkpt>
      <trkpt lat="45.6787419" lon="7.0574422">
        <ele>1921</ele>
      </trkpt>
      <trkpt lat="45.6788445" lon="7.0575854">
        <ele>1924</ele>
      </trkpt>
      <trkpt lat="45.6788495" lon="7.0576136">
        <ele>1926</ele>
      </trkpt>
      <trkpt lat="45.6788565" lon="7.0576356">
        <ele>1928</ele>
      </trkpt>
      <trkpt lat="45.6788948" lon="7.0577139">
        <ele>1930</ele>
      </trkpt>
      <trkpt lat="45.6789296" lon="7.0577863">
        <ele>1932</ele>
      </trkpt>
      <trkpt lat="45.6789658" lon="7.0578552">
        <ele>1934</ele>
      </trkpt>
      <trkpt lat="45.6790040" lon="7.0579052">
        <ele>1936</ele>
      </trkpt>
      <trkpt lat="45.6790374" lon="7.0579506">
        <ele>1938</ele>
      </trkpt>
      <trkpt lat="45.6792745" lon="7.0583363">
        <ele>1940</ele>
      </trkpt>
      <trkpt lat="45.6793385" lon="7.0584989">
        <ele>1942</ele>
      </trkpt>
      <trkpt lat="45.6795750" lon="7.0588832">
        <ele>1944</ele>
      </trkpt>
      <trkpt lat="45.6797162" lon="7.0590682">
        <ele>1946</ele>
      </trkpt>
      <trkpt lat="45.6797917" lon="7.0592051">
        <ele>1948</ele>
      </trkpt>
      <trkpt lat="45.6799754" lon="7.0594380">
        <ele>1951</ele>
      </trkpt>
      <trkpt lat="45.6800429" lon="7.0596064">
        <ele>1953</ele>
      </trkpt>
      <trkpt lat="45.6800517" lon="7.0596921">
        <ele>1955</ele>
      </trkpt>
      <trkpt lat="45.6800764" lon="7.0598100">
        <ele>1957</ele>
      </trkpt>
      <trkpt lat="45.6801113" lon="7.0599154">
        <ele>1959</ele>
      </trkpt>
      <trkpt lat="45.6801145" lon="7.0599355">
        <ele>1961</ele>
      </trkpt>
      <trkpt lat="45.6801156" lon="7.0601164">
        <ele>1963</ele>
      </trkpt>
      <trkpt lat="45.6801077" lon="7.0603151">
        <ele>1965</ele>
      </trkpt>
      <trkpt lat="45.6801077" lon="7.0604298">
        <ele>1967</ele>
      </trkpt>
      <trkpt lat="45.6800997" lon="7.0605718">
        <ele>1969</ele>
      </trkpt>
      <trkpt lat="45.6800875" lon="7.0606302">
        <ele>1971</ele>
      </trkpt>
      <trkpt lat="45.6800676" lon="7.0607430">
        <ele>1973</ele>
      </trkpt>
      <trkpt lat="45.6800558" lon="7.0608851">
        <ele>1975</ele>
      </trkpt>
      <trkpt lat="45.6800505" lon="7.0610162">
        <ele>1977</ele>
      </trkpt>
      <trkpt lat="45.6800131" lon="7.0611565">
        <ele>1980</ele>
      </trkpt>
      <trkpt lat="45.6799471" lon="7.0613342">
        <ele>1982</ele>
      </trkpt>
      <trkpt lat="45.6799292" lon="7.0614509">
        <ele>1984</ele>
      </trkpt>
      <trkpt lat="45.6799149" lon="7.0615405">
        <ele>1986</ele>
      </trkpt>
      <trkpt lat="45.6798682" lon="7.0616353">
        <ele>1988</ele>
      </trkpt>
      <trkpt lat="45.6798266" lon="7.0617433">
        <ele>1990</ele>
      </trkpt>
      <trkpt lat="45.6797644" lon="7.0619290">
        <ele>1992</ele>
      </trkpt>
      <trkpt lat="45.6797325" lon="7.0621231">
        <ele>1994</ele>
      </trkpt>
      <trkpt lat="45.6797125" lon="7.0622021">
        <ele>1996</ele>
      </trkpt>
      <trkpt lat="45.6797219" lon="7.0622538">
        <ele>1998</ele>
      </trkpt>
      <trkpt lat="45.6797369" lon="7.0622849">
        <ele>2000</ele>
      </trkpt>
      <trkpt lat="45.6797560" lon="7.0623093">
        <ele>2002</ele>
      </trkpt>
      <trkpt lat="45.6797700" lon="7.0623553">
        <ele>2004</ele>
      </trkpt>
      <trkpt lat="45.6797704" lon="7.0623814">
        <ele>2007</ele>
      </trkpt>
      <trkpt lat="45.6797560" lon="7.0624244">
        <ele>2009</ele>
      </trkpt>
      <trkpt lat="45.6796358" lon="7.0626001">
        <ele>2011</ele>
      </trkpt>
      <trkpt lat="45.6796307" lon="7.0627067">
        <ele>2013</ele>
      </trkpt>
      <trkpt lat="45.6796837" lon="7.0628612">
        <ele>2015</ele>
      </trkpt>
      <trkpt lat="45.6797543" lon="7.0632734">
        <ele>2017</ele>
      </trkpt>
      <trkpt lat="45.6797540" lon="7.0632778">
        <ele>2019</ele>
      </trkpt>
      <trkpt lat="45.6797519" lon="7.0633237">
        <ele>2021</ele>
      </trkpt>
      <trkpt lat="45.6797419" lon="7.0633484">
        <ele>2023</ele>
      </trkpt>
      <trkpt lat="45.6797157" lon="7.0634221">
        <ele>2025</ele>
      </trkpt>
      <trkpt lat="45.6796917" lon="7.0634940">
        <ele>2027</ele>
      </trkpt>
      <trkpt lat="45.6796549" lon="7.0634776">
        <ele>2029</ele>
      </trkpt>
      <trkpt lat="45.6796282" lon="7.0633651">
        <ele>2031</ele>
      </trkpt>
      <trkpt lat="45.6795939" lon="7.0633825">
        <ele>2034</ele>
      </trkpt>
      <trkpt lat="45.6795723" lon="7.0634446">
        <ele>2036</ele>
      </trkpt>
      <trkpt lat="45.6795836" lon="7.0635198">
        <ele>2038</ele>
      </trkpt>
      <trkpt lat="45.6796259" lon="7.0635292">
        <ele>2040</ele>
      </trkpt>
      <trkpt lat="45.6796386" lon="7.0635738">
        <ele>2042</ele>
      </trkpt>
      <trkpt lat="45.6795831" lon="7.0636582">
        <ele>2044</ele>
      </trkpt>
      <trkpt lat="45.6795299" lon="7.0637856">
        <ele>2046</ele>
      </trkpt>
      <trkpt lat="45.6795189" lon="7.0638129">
        <ele>2048</ele>
      </trkpt>
      <trkpt lat="45.6794998" lon="7.0638578">
        <ele>2050</ele>
      </trkpt>
      <trkpt lat="45.6795292" lon="7.0639633">
        <ele>2052</ele>
      </trkpt>
      <trkpt lat="45.6795935" lon="7.0640255">
        <ele>2054</ele>
      </trkpt>
      <trkpt lat="45.6796179" lon="7.0640846">
        <ele>2056</ele>
      </trkpt>
      <trkpt lat="45.6795871" lon="7.0641949">
        <ele>2058</ele>
      </trkpt>
      <trkpt lat="45.6796110" lon="7.0642251">
        <ele>2061</ele>
      </trkpt>
      <trkpt lat="45.6796089" lon="7.0642522">
        <ele>2063</ele>
      </trkpt>
      <trkpt lat="45.6795946" lon="7.0642814">
        <ele>2065</ele>
      </trkpt>
      <trkpt lat="45.6795687" lon="7.0642863">
        <ele>2067</ele>
      </trkpt>
      <trkpt lat="45.6795504" lon="7.0643293">
        <ele>2069</ele>
      </trkpt>
      <trkpt lat="45.6795373" lon="7.0644193">
        <ele>2071</ele>
      </trkpt>
      <trkpt lat="45.6796346" lon="7.0644466">
        <ele>2073</ele>
      </trkpt>
      <trkpt lat="45.6796671" lon="7.0644998">
        <ele>2075</ele>
      </trkpt>
      <trkpt lat="45.6796386" lon="7.0645326">
        <ele>2077</ele>
      </trkpt>
      <trkpt lat="45.6796091" lon="7.0645188">
        <ele>2079</ele>
      </trkpt>
      <trkpt lat="45.6796116" lon="7.0645592">
        <ele>2081</ele>
      </trkpt>
      <trkpt lat="45.6796318" lon="7.0646030">
        <ele>2083</ele>
      </trkpt>
      <trkpt lat="45.6796179" lon="7.0646220">
        <ele>2085</ele>
      </trkpt>
      <trkpt lat="45.6795558" lon="7.0646387">
        <ele>2087</ele>
      </trkpt>
      <trkpt lat="45.6795587" lon="7.0647219">
        <ele>2090</ele>
      </trkpt>
      <trkpt lat="45.6796374" lon="7.0647661">
        <ele>2092</ele>
      </trkpt>
      <trkpt lat="45.6796438" lon="7.0648101">
        <ele>2094</ele>
      </trkpt>
      <trkpt lat="45.6796217" lon="7.0648429">
        <ele>2096</ele>
      </trkpt>
      <trkpt lat="45.6795327" lon="7.0648440">
        <ele>2098</ele>
      </trkpt>
      <trkpt lat="45.6795328" lon="7.0648737">
        <ele>2100</ele>
      </trkpt>
      <trkpt lat="45.6795416" lon="7.0648943">
        <ele>2102</ele>
      </trkpt>
      <trkpt lat="45.6795721" lon="7.0649091">
        <ele>2104</ele>
      </trkpt>
      <trkpt lat="45.6795925" lon="7.0649440">
        <ele>2106</ele>
      </trkpt>
      <trkpt lat="45.6795114" lon="7.0650210">
        <ele>2108</ele>
      </trkpt>
      <trkpt lat="45.6794846" lon="7.0650071">
        <ele>2110</ele>
      </trkpt>
      <trkpt lat="45.6794632" lon="7.0650546">
        <ele>2112</ele>
      </trkpt>
      <trkpt lat="45.6794742" lon="7.0650866">
        <ele>2114</ele>
      </trkpt>
      <trkpt lat="45.6794353" lon="7.0651122">
        <ele>2117</ele>
      </trkpt>
      <trkpt lat="45.6794269" lon="7.0651456">
        <ele>2119</ele>
      </trkpt>
      <trkpt lat="45.6795114" lon="7.0651912">
        <ele>2121</ele>
      </trkpt>
      <trkpt lat="45.6795141" lon="7.0652130">
        <ele>2123</ele>
      </trkpt>
      <trkpt lat="45.6795116" lon="7.0652567">
        <ele>2125</ele>
      </trkpt>
      <trkpt lat="45.6794847" lon="7.0652479">
        <ele>2127</ele>
      </trkpt>
      <trkpt lat="45.6794460" lon="7.0652280">
        <ele>2129</ele>
      </trkpt>
      <trkpt lat="45.6794210" lon="7.0652399">
        <ele>2131</ele>
      </trkpt>
      <trkpt lat="45.6793755" lon="7.0652944">
        <ele>2133</ele>
      </trkpt>
      <trkpt lat="45.6793801" lon="7.0653412">
        <ele>2135</ele>
      </trkpt>
      <trkpt lat="45.6794337" lon="7.0653778">
        <ele>2137</ele>
      </trkpt>
      <trkpt lat="45.6794140" lon="7.0654446">
        <ele>2139</ele>
      </trkpt>
      <trkpt lat="45.6793753" lon="7.0654775">
        <ele>2141</ele>
      </trkpt>
      <trkpt lat="45.6792922" lon="7.0654802">
        <ele>2144</ele>
      </trkpt>
      <trkpt lat="45.6792550" lon="7.0655040">
        <ele>2146</ele>
      </trkpt>
      <trkpt lat="45.6792303" lon="7.0655303">
        <ele>2148</ele>
      </trkpt>
      <trkpt lat="45.6792228" lon="7.0655784">
        <ele>2150</ele>
      </trkpt>
      <trkpt lat="45.6792025" lon="7.0656217">
        <ele>2152</ele>
      </trkpt>
      <trkpt lat="45.6791815" lon="7.0656718">
        <ele>2154</ele>
      </trkpt>
      <trkpt lat="45.6791632" lon="7.0656812">
        <ele>2156</ele>
      </trkpt>
      <trkpt lat="45.6791509" lon="7.0657410">
        <ele>2158</ele>
      </trkpt>
      <trkpt lat="45.6791649" lon="7.0657817">
        <ele>2160</ele>
      </trkpt>
      <trkpt lat="45.6791116" lon="7.0659019">
        <ele>2162</ele>
      </trkpt>
      <trkpt lat="45.6791088" lon="7.0659024">
        <ele>2164</ele>
      </trkpt>
      <trkpt lat="45.6790821" lon="7.0659162">
        <ele>2166</ele>
      </trkpt>
      <trkpt lat="45.6790750" lon="7.0659447">
        <ele>2168</ele>
      </trkpt>
      <trkpt lat="45.6790601" lon="7.0659857">
        <ele>2170</ele>
      </trkpt>
      <trkpt lat="45.6790442" lon="7.0660248">
        <ele>2173</ele>
      </trkpt>
      <trkpt lat="45.6790294" lon="7.0660739">
        <ele>2175</ele>
      </trkpt>
      <trkpt lat="45.6790033" lon="7.0661419">
        <ele>2177</ele>
      </trkpt>
      <trkpt lat="45.6789689" lon="7.0662072">
        <ele>2179</ele>
      </trkpt>
      <trkpt lat="45.6789371" lon="7.0662852">
        <ele>2181</ele>
      </trkpt>
      <trkpt lat="45.6789140" lon="7.0663468">
        <ele>2183</ele>
      </trkpt>
      <trkpt lat="45.6789081" lon="7.0664178">
        <ele>2185</ele>
      </trkpt>
      <trkpt lat="45.6789199" lon="7.0664728">
        <ele>2187</ele>
      </trkpt>
      <trkpt lat="45.6789279" lon="7.0665044">
        <ele>2189</ele>
      </trkpt>
      <trkpt lat="45.6789950" lon="7.0667419">
        <ele>2191</ele>
      </trkpt>
      <trkpt lat="45.6789922" lon="7.0667480">
        <ele>2193</ele>
      </trkpt>
      <trkpt lat="45.6789388" lon="7.0668058">
        <ele>2195</ele>
      </trkpt>
      <trkpt lat="45.6788998" lon="7.0668780">
        <ele>2197</ele>
      </trkpt>
      <trkpt lat="45.6788730" lon="7.0669404">
        <ele>2200</ele>
      </trkpt>
      <trkpt lat="45.6788549" lon="7.0671222">
        <ele>2202</ele>
      </trkpt>
      <trkpt lat="45.6788560" lon="7.0671572">
        <ele>2204</ele>
      </trkpt>
      <trkpt lat="45.6788413" lon="7.0672671">
        <ele>2206</ele>
      </trkpt>
      <trkpt lat="45.6788317" lon="7.0673740">
        <ele>2208</ele>
      </trkpt>
      <trkpt lat="45.6788402" lon="7.0675104">
        <ele>2210</ele>
      </trkpt>
      <trkpt lat="45.6788576" lon="7.0675914">
        <ele>2212</ele>
      </trkpt>
      <trkpt lat="45.6788981" lon="7.0677030">
        <ele>2214</ele>
      </trkpt>
      <trkpt lat="45.6789043" lon="7.0677560">
        <ele>2216</ele>
      </trkpt>
      <trkpt lat="45.6789025" lon="7.0677583">
        <ele>2218</ele>
      </trkpt>
      <trkpt lat="45.6789008" lon="7.0677968">
        <ele>2220</ele>
      </trkpt>
      <trkpt lat="45.6789045" lon="7.0678189">
        <ele>2222</ele>
      </trkpt>
      <trkpt lat="45.6789134" lon="7.0678409">
        <ele>2224</ele>
      </trkpt>
      <trkpt lat="45.6789142" lon="7.0678415">
        <ele>2227</ele>
      </trkpt>
      <trkpt lat="45.6789197" lon="7.0678883">
        <ele>2229</ele>
      </trkpt>
      <trkpt lat="45.6789194" lon="7.0678891">
        <ele>2231</ele>
      </trkpt>
      <trkpt lat="45.6789161" lon="7.0679068">
        <ele>2233</ele>
      </trkpt>
      <trkpt lat="45.6789136" lon="7.0679317">
        <ele>2235</ele>
      </trkpt>
      <trkpt lat="45.6789137" lon="7.0679499">
        <ele>2237</ele>
      </trkpt>
      <trkpt lat="45.6789178" lon="7.0679759">
        <ele>2239</ele>
      </trkpt>
      <trkpt lat="45.6789247" lon="7.0680029">
        <ele>2241</ele>
      </trkpt>
      <trkpt lat="45.6789265" lon="7.0680399">
        <ele>2243</ele>
      </trkpt>
      <trkpt lat="45.6789347" lon="7.0680815">
        <ele>2245</ele>
      </trkpt>
      <trkpt lat="45.6789529" lon="7.0681597">
        <ele>2247</ele>
      </trkpt>
      <trkpt lat="45.6789715" lon="7.0682292">
        <ele>2249</ele>
      </trkpt>
      <trkpt lat="45.6789714" lon="7.0683061">
        <ele>2251</ele>
      </trkpt>
      <trkpt lat="45.6789642" lon="7.0683557">
        <ele>2253</ele>
      </trkpt>
      <trkpt lat="45.6789695" lon="7.0683858">
        <ele>2256</ele>
      </trkpt>
      <trkpt lat="45.6789719" lon="7.0684209">
        <ele>2258</ele>
      </trkpt>
      <trkpt lat="45.6789618" lon="7.0684367">
        <ele>2260</ele>
      </trkpt>
      <trkpt lat="45.6789543" lon="7.0684424">
        <ele>2262</ele>
      </trkpt>
      <trkpt lat="45.6789416" lon="7.0684475">
        <ele>2264</ele>
      </trkpt>
      <trkpt lat="45.6789443" lon="7.0684913">
        <ele>2266</ele>
      </trkpt>
      <trkpt lat="45.6789465" lon="7.0685101">
        <ele>2268</ele>
      </trkpt>
      <trkpt lat="45.6789360" lon="7.0685905">
        <ele>2270</ele>
      </trkpt>
      <trkpt lat="45.6789351" lon="7.0686229">
        <ele>2272</ele>
      </trkpt>
      <trkpt lat="45.6789512" lon="7.0686756">
        <ele>2274</ele>
      </trkpt>
      <trkpt lat="45.6789609" lon="7.0686922">
        <ele>2276</ele>
      </trkpt>
      <trkpt lat="45.6789746" lon="7.0687173">
        <ele>2278</ele>
      </trkpt>
      <trkpt lat="45.6790484" lon="7.0688019">
        <ele>2280</ele>
      </trkpt>
      <trkpt lat="45.6790506" lon="7.0688021">
        <ele>2283</ele>
      </trkpt>
      <trkpt lat="45.6791239" lon="7.0688253">
        <ele>2285</ele>
      </trkpt>
      <trkpt lat="45.6791423" lon="7.0688503">
        <ele>2287</ele>
      </trkpt>
      <trkpt lat="45.6791623" lon="7.0689157">
        <ele>2289</ele>
      </trkpt>
      <trkpt lat="45.6791622" lon="7.0689524">
        <ele>2291</ele>
      </trkpt>
      <trkpt lat="45.6791452" lon="7.0690243">
        <ele>2293</ele>
      </trkpt>
      <trkpt lat="45.6791264" lon="7.0691396">
        <ele>2295</ele>
      </trkpt>
      <trkpt lat="45.6791164" lon="7.0692196">
        <ele>2297</ele>
      </trkpt>
      <trkpt lat="45.6791270" lon="7.0692867">
        <ele>2299</ele>
      </trkpt>
      <trkpt lat="45.6791147" lon="7.0693452">
        <ele>2301</ele>
      </trkpt>
      <trkpt lat="45.6791107" lon="7.0694466">
        <ele>2303</ele>
      </trkpt>
      <trkpt lat="45.6790898" lon="7.0695499">
        <ele>2305</ele>
      </trkpt>
      <trkpt lat="45.6790858" lon="7.0696526">
        <ele>2307</ele>
      </trkpt>
      <trkpt lat="45.6790779" lon="7.0697433">
        <ele>2310</ele>
      </trkpt>
      <trkpt lat="45.6790906" lon="7.0698792">
        <ele>2312</ele>
      </trkpt>
      <trkpt lat="45.6791071" lon="7.0699028">
        <ele>2314</ele>
      </trkpt>
      <trkpt lat="45.6791741" lon="7.0699642">
        <ele>2316</ele>
      </trkpt>
      <trkpt lat="45.6793383" lon="7.0702396">
        <ele>2318</ele>
      </trkpt>
      <trkpt lat="45.6794036" lon="7.0704115">
        <ele>2320</ele>
      </trkpt>
      <trkpt lat="45.6794007" lon="7.0704392">
        <ele>2322</ele>
      </trkpt>
      <trkpt lat="45.6795291" lon="7.0706403">
        <ele>2324</ele>
      </trkpt>
      <trkpt lat="45.6796252" lon="7.0708299">
        <ele>2326</ele>
      </trkpt>
      <trkpt lat="45.6797345" lon="7.0709798">
        <ele>2328</ele>
      </trkpt>
      <trkpt lat="45.6797721" lon="7.0711090">
        <ele>2330</ele>
      </trkpt>
      <trkpt lat="45.6797981" lon="7.0713404">
        <ele>2332</ele>
      </trkpt>
      <trkpt lat="45.6798451" lon="7.0714155">
        <ele>2334</ele>
      </trkpt>
      <trkpt lat="45.6798886" lon="7.0714351">
        <ele>2337</ele>
      </trkpt>
      <trkpt lat="45.6799103" lon="7.0714915">
        <ele>2339</ele>
      </trkpt>
      <trkpt lat="45.6799308" lon="7.0716381">
        <ele>2341</ele>
      </trkpt>
      <trkpt lat="45.6799840" lon="7.0716732">
        <ele>2343</ele>
      </trkpt>
      <trkpt lat="45.6800182" lon="7.0717287">
        <ele>2345</ele>
      </trkpt>
      <trkpt lat="45.6800288" lon="7.0720606">
        <ele>2347</ele>
      </trkpt>
      <trkpt lat="45.6801376" lon="7.0722618">
        <ele>2349</ele>
      </trkpt>
      <trkpt lat="45.6802843" lon="7.0727848">
        <ele>2351</ele>
      </trkpt>
      <trkpt lat="45.6803225" lon="7.0728215">
        <ele>2353</ele>
      </trkpt>
      <trkpt lat="45.6803620" lon="7.0729543">
        <ele>2355</ele>
      </trkpt>
      <trkpt lat="45.6804913" lon="7.0732364">
        <ele>2357</ele>
      </trkpt>
      <trkpt lat="45.6805814" lon="7.0733156">
        <ele>2359</ele>
      </trkpt>
      <trkpt lat="45.6806929" lon="7.0735187">
        <ele>2361</ele>
      </trkpt>
      <trkpt lat="45.6806844" lon="7.0735902">
        <ele>2363</ele>
      </trkpt>
      <trkpt lat="45.6807448" lon="7.0738189">
        <ele>2366</ele>
      </trkpt>
      <trkpt lat="45.6807346" lon="7.0738787">
        <ele>2368</ele>
      </trkpt>
      <trkpt lat="45.6805912" lon="7.0738477">
        <ele>2370</ele>
      </trkpt>
      <trkpt lat="45.6805854" lon="7.0738685">
        <ele>2372</ele>
      </trkpt>
      <trkpt lat="45.6806408" lon="7.0739405">
        <ele>2374</ele>
      </trkpt>
      <trkpt lat="45.6806690" lon="7.0741506">
        <ele>2376</ele>
      </trkpt>
      <trkpt lat="45.6807432" lon="7.0743508">
        <ele>2378</ele>
      </trkpt>
      <trkpt lat="45.6807602" lon="7.0744802">
        <ele>2380</ele>
      </trkpt>
      <trkpt lat="45.6807364" lon="7.0746471">
        <ele>2382</ele>
      </trkpt>
      <trkpt lat="45.6807604" lon="7.0747570">
        <ele>2384</ele>
      </trkpt>
      <trkpt lat="45.6807400" lon="7.0748323">
        <ele>2386</ele>
      </trkpt>
      <trkpt lat="45.6806938" lon="7.0748390">
        <ele>2388</ele>
      </trkpt>
      <trkpt lat="45.6806260" lon="7.0748038">
        <ele>2390</ele>
      </trkpt>
      <trkpt lat="45.6806361" lon="7.0748908">
        <ele>2393</ele>
      </trkpt>
      <trkpt lat="45.6806736" lon="7.0750458">
        <ele>2395</ele>
      </trkpt>
      <trkpt lat="45.6806402" lon="7.0751059">
        <ele>2397</ele>
      </trkpt>
      <trkpt lat="45.6806369" lon="7.0751119">
        <ele>2399</ele>
      </trkpt>
      <trkpt lat="45.6806101" lon="7.0752073">
        <ele>2401</ele>
      </trkpt>
      <trkpt lat="45.6806509" lon="7.0753260">
        <ele>2403</ele>
      </trkpt>
      <trkpt lat="45.6806491" lon="7.0754435">
        <ele>2405</ele>
      </trkpt>
      <trkpt lat="45.6806594" lon="7.0754944">
        <ele>2407</ele>
      </trkpt>
      <trkpt lat="45.6806820" lon="7.0755703">
        <ele>2409</ele>
      </trkpt>
      <trkpt lat="45.6806648" lon="7.0756658">
        <ele>2411</ele>
      </trkpt>
      <trkpt lat="45.6806508" lon="7.0756521">
        <ele>2413</ele>
      </trkpt>
      <trkpt lat="45.6806260" lon="7.0756851">
        <ele>2415</ele>
      </trkpt>
      <trkpt lat="45.6806116" lon="7.0758466">
        <ele>2417</ele>
      </trkpt>
      <trkpt lat="45.6805394" lon="7.0760308">
        <ele>2420</ele>
      </trkpt>
      <trkpt lat="45.6805001" lon="7.0759713">
        <ele>2422</ele>
      </trkpt>
      <trkpt lat="45.6804416" lon="7.0761058">
        <ele>2424</ele>
      </trkpt>
      <trkpt lat="45.6803856" lon="7.0760785">
        <ele>2426</ele>
      </trkpt>
      <trkpt lat="45.6803606" lon="7.0761949">
        <ele>2428</ele>
      </trkpt>
      <trkpt lat="45.6802565" lon="7.0763870">
        <ele>2430</ele>
      </trkpt>
      <trkpt lat="45.6801916" lon="7.0763385">
        <ele>2432</ele>
      </trkpt>
      <trkpt lat="45.6801964" lon="7.0764097">
        <ele>2434</ele>
      </trkpt>
      <trkpt lat="45.6801816" lon="7.0765031">
        <ele>2436</ele>
      </trkpt>
      <trkpt lat="45.6801398" lon="7.0765608">
        <ele>2438</ele>
      </trkpt>
      <trkpt lat="45.6801116" lon="7.0766905">
        <ele>2440</ele>
      </trkpt>
      <trkpt lat="45.6801102" lon="7.0768690">
        <ele>2442</ele>
      </trkpt>
      <trkpt lat="45.6800826" lon="7.0769955">
        <ele>2444</ele>
      </trkpt>
      <trkpt lat="45.6800158" lon="7.0771776">
        <ele>2446</ele>
      </trkpt>
      <trkpt lat="45.6799704" lon="7.0772572">
        <ele>2449</ele>
      </trkpt>
      <trkpt lat="45.6799047" lon="7.0770462">
        <ele>2451</ele>
      </trkpt>
      <trkpt lat="45.6798909" lon="7.0770463">
        <ele>2453</ele>
      </trkpt>
      <trkpt lat="45.6798668" lon="7.0770826">
        <ele>2455</ele>
      </trkpt>
      <trkpt lat="45.6798509" lon="7.0771465">
        <ele>2457</ele>
      </trkpt>
      <trkpt lat="45.6798433" lon="7.0771994">
        <ele>2459</ele>
      </trkpt>
      <trkpt lat="45.6798343" lon="7.0772834">
        <ele>2461</ele>
      </trkpt>
      <trkpt lat="45.6798130" lon="7.0773705">
        <ele>2463</ele>
      </trkpt>
      <trkpt lat="45.6797792" lon="7.0774419">
        <ele>2465</ele>
      </trkpt>
      <trkpt lat="45.6797694" lon="7.0775300">
        <ele>2467</ele>
      </trkpt>
      <trkpt lat="45.6797574" lon="7.0776073">
        <ele>2469</ele>
      </trkpt>
      <trkpt lat="45.6797583" lon="7.0776613">
        <ele>2471</ele>
      </trkpt>
      <trkpt lat="45.6797416" lon="7.0776794">
        <ele>2473</ele>
      </trkpt>
      <trkpt lat="45.6797258" lon="7.0776948">
        <ele>2476</ele>
      </trkpt>
      <trkpt lat="45.6797348" lon="7.0777282">
        <ele>2478</ele>
      </trkpt>
      <trkpt lat="45.6797372" lon="7.0777538">
        <ele>2480</ele>
      </trkpt>
      <trkpt lat="45.6797348" lon="7.0778942">
        <ele>2482</ele>
      </trkpt>
      <trkpt lat="45.6797321" lon="7.0779138">
        <ele>2484</ele>
      </trkpt>
      <trkpt lat="45.6797085" lon="7.0778931">
        <ele>2486</ele>
      </trkpt>
      <trkpt lat="45.6796802" lon="7.0778941">
        <ele>2488</ele>
      </trkpt>
      <trkpt lat="45.6796771" lon="7.0779360">
        <ele>2490</ele>
      </trkpt>
      <trkpt lat="45.6796817" lon="7.0779852">
        <ele>2492</ele>
      </trkpt>
      <trkpt lat="45.6796633" lon="7.0780590">
        <ele>2494</ele>
      </trkpt>
      <trkpt lat="45.6796593" lon="7.0780594">
        <ele>2496</ele>
      </trkpt>
      <trkpt lat="45.6796382" lon="7.0780966">
        <ele>2498</ele>
      </trkpt>
      <trkpt lat="45.6796277" lon="7.0781483">
        <ele>2500</ele>
      </trkpt>
      <trkpt lat="45.6796283" lon="7.0781860">
        <ele>2503</ele>
      </trkpt>
      <trkpt lat="45.6796209" lon="7.0781971">
        <ele>2505</ele>
      </trkpt>
      <trkpt lat="45.6796092" lon="7.0781772">
        <ele>2507</ele>
      </trkpt>
      <trkpt lat="45.6795953" lon="7.0781109">
        <ele>2509</ele>
      </trkpt>
      <trkpt lat="45.6795910" lon="7.0781036">
        <ele>2511</ele>
      </trkpt>
      <trkpt lat="45.6795771" lon="7.0781257">
        <ele>2513</ele>
      </trkpt>
      <trkpt lat="45.6795651" lon="7.0781949">
        <ele>2515</ele>
      </trkpt>
      <trkpt lat="45.6795561" lon="7.0782744">
        <ele>2517</ele>
      </trkpt>
      <trkpt lat="45.6795565" lon="7.0782779">
        <ele>2519</ele>
      </trkpt>
      <trkpt lat="45.6795583" lon="7.0782994">
        <ele>2521</ele>
      </trkpt>
      <trkpt lat="45.6795547" lon="7.0783242">
        <ele>2523</ele>
      </trkpt>
      <trkpt lat="45.6795469" lon="7.0783407">
        <ele>2525</ele>
      </trkpt>
      <trkpt lat="45.6795413" lon="7.0783446">
        <ele>2527</ele>
      </trkpt>
      <trkpt lat="45.6795309" lon="7.0783429">
        <ele>2529</ele>
      </trkpt>
      <trkpt lat="45.6795215" lon="7.0783182">
        <ele>2532</ele>
      </trkpt>
      <trkpt lat="45.6795145" lon="7.0783111">
        <ele>2534</ele>
      </trkpt>
      <trkpt lat="45.6795055" lon="7.0783107">
        <ele>2536</ele>
      </trkpt>
      <trkpt lat="45.6795014" lon="7.0783169">
        <ele>2538</ele>
      </trkpt>
      <trkpt lat="45.6795002" lon="7.0783325">
        <ele>2540</ele>
      </trkpt>
      <trkpt lat="45.6795068" lon="7.0783606">
        <ele>2542</ele>
      </trkpt>
      <trkpt lat="45.6795091" lon="7.0783700">
        <ele>2544</ele>
      </trkpt>
      <trkpt lat="45.6795031" lon="7.0784356">
        <ele>2546</ele>
      </trkpt>
      <trkpt lat="45.6794699" lon="7.0784825">
        <ele>2548</ele>
      </trkpt>
      <trkpt lat="45.6794516" lon="7.0785626">
        <ele>2550</ele>
      </trkpt>
      <trkpt lat="45.6793815" lon="7.0784299">
        <ele>2552</ele>
      </trkpt>
      <trkpt lat="45.6793700" lon="7.0783423">
        <ele>2554</ele>
      </trkpt>
      <trkpt lat="45.6793790" lon="7.0782607">
        <ele>2556</ele>
      </trkpt>
      <trkpt lat="45.6793551" lon="7.0782153">
        <ele>2559</ele>
      </trkpt>
      <trkpt lat="45.6793481" lon="7.0781623">
        <ele>2561</ele>
      </trkpt>
      <trkpt lat="45.6792821" lon="7.0780862">
        <ele>2563</ele>
      </trkpt>
      <trkpt lat="45.6792249" lon="7.0779755">
        <ele>2565</ele>
      </trkpt>
      <trkpt lat="45.6792169" lon="7.0779764">
        <ele>2567</ele>
      </trkpt>
      <trkpt lat="45.6792111" lon="7.0779948">
        <ele>2569</ele>
      </trkpt>
      <trkpt lat="45.6792227" lon="7.0780358">
        <ele>2571</ele>
      </trkpt>
      <trkpt lat="45.6791862" lon="7.0781110">
        <ele>2573</ele>
      </trkpt>
      <trkpt lat="45.6791823" lon="7.0782054">
        <ele>2575</ele>
      </trkpt>
      <trkpt lat="45.6791676" lon="7.0782811">
        <ele>2577</ele>
      </trkpt>
      <trkpt lat="45.6791212" lon="7.0782473">
        <ele>2579</ele>
      </trkpt>
      <trkpt lat="45.6791119" lon="7.0782530">
        <ele>2581</ele>
      </trkpt>
      <trkpt lat="45.6791000" lon="7.0782730">
        <ele>2583</ele>
      </trkpt>
      <trkpt lat="45.6790881" lon="7.0783010">
        <ele>2586</ele>
      </trkpt>
      <trkpt lat="45.6790798" lon="7.0783101">
        <ele>2588</ele>
      </trkpt>
      <trkpt lat="45.6790639" lon="7.0783214">
        <ele>2590</ele>
      </trkpt>
      <trkpt lat="45.6790615" lon="7.0783472">
        <ele>2592</ele>
      </trkpt>
      <trkpt lat="45.6790679" lon="7.0783942">
        <ele>2594</ele>
      </trkpt>
      <trkpt lat="45.6790773" lon="7.0784424">
        <ele>2596</ele>
      </trkpt>
      <trkpt lat="45.6790733" lon="7.0784601">
        <ele>2598</ele>
      </trkpt>
      <trkpt lat="45.6790681" lon="7.0784866">
        <ele>2600</ele>
      </trkpt>
      <trkpt lat="45.6790648" lon="7.0785158">
        <ele>2602</ele>
      </trkpt>
      <trkpt lat="45.6790526" lon="7.0785486">
        <ele>2604</ele>
      </trkpt>
      <trkpt lat="45.6790442" lon="7.0785873">
        <ele>2606</ele>
      </trkpt>
      <trkpt lat="45.6790363" lon="7.0786254">
        <ele>2608</ele>
      </trkpt>
      <trkpt lat="45.6790201" lon="7.0786413">
        <ele>2610</ele>
      </trkpt>
      <trkpt lat="45.6790008" lon="7.0786553">
        <ele>2612</ele>
      </trkpt>
      <trkpt lat="45.6789764" lon="7.0786730">
        <ele>2615</ele>
      </trkpt>
      <trkpt lat="45.6789342" lon="7.0786987">
        <ele>2617</ele>
      </trkpt>
      <trkpt lat="45.6789245" lon="7.0787409">
        <ele>2619</ele>
      </trkpt>
      <trkpt lat="45.6789211" lon="7.0787883">
        <ele>2621</ele>
      </trkpt>
      <trkpt lat="45.6789211" lon="7.0788167">
        <ele>2623</ele>
      </trkpt>
      <trkpt lat="45.6788989" lon="7.0787951">
        <ele>2625</ele>
      </trkpt>
      <trkpt lat="45.6788832" lon="7.0787902">
        <ele>2627</ele>
      </trkpt>
      <trkpt lat="45.6788514" lon="7.0788102">
        <ele>2629</ele>
      </trkpt>
      <trkpt lat="45.6788209" lon="7.0788511">
        <ele>2631</ele>
      </trkpt>
      <trkpt lat="45.6788085" lon="7.0788724">
        <ele>2633</ele>
      </trkpt>
      <trkpt lat="45.6788058" lon="7.0788799">
        <ele>2635</ele>
      </trkpt>
      <trkpt lat="45.6787928" lon="7.0788889">
        <ele>2637</ele>
      </trkpt>
      <trkpt lat="45.6787177" lon="7.0788443">
        <ele>2639</ele>
      </trkpt>
      <trkpt lat="45.6786813" lon="7.0788194">
        <ele>2642</ele>
      </trkpt>
      <trkpt lat="45.6786713" lon="7.0788440">
        <ele>2644</ele>
      </trkpt>
      <trkpt lat="45.6786644" lon="7.0788557">
        <ele>2646</ele>
      </trkpt>
      <trkpt lat="45.6786475" lon="7.0788914">
        <ele>2648</ele>
      </trkpt>
      <trkpt lat="45.6786395" lon="7.0789497">
        <ele>2650</ele>
      </trkpt>
      <trkpt lat="45.6786293" lon="7.0790196">
        <ele>2652</ele>
      </trkpt>
      <trkpt lat="45.6786405" lon="7.0790955">
        <ele>2654</ele>
      </trkpt>
      <trkpt lat="45.6786725" lon="7.0791996">
        <ele>2656</ele>
      </trkpt>
      <trkpt lat="45.6786849" lon="7.0792216">
        <ele>2658</ele>
      </trkpt>
      <trkpt lat="45.6787931" lon="7.0794165">
        <ele>2660</ele>
      </trkpt>
      <trkpt lat="45.6788063" lon="7.0795140">
        <ele>2662</ele>
      </trkpt>
      <trkpt lat="45.6786601" lon="7.0795408">
        <ele>2664</ele>
      </trkpt>
      <trkpt lat="45.6786732" lon="7.0796468">
        <ele>2666</ele>
      </trkpt>
      <trkpt lat="45.6785505" lon="7.0798549">
        <ele>2669</ele>
      </trkpt>
      <trkpt lat="45.6785617" lon="7.0799079">
        <ele>2671</ele>
      </trkpt>
      <trkpt lat="45.6786207" lon="7.0800865">
        <ele>2673</ele>
      </trkpt>
      <trkpt lat="45.6786732" lon="7.0802514">
        <ele>2675</ele>
      </trkpt>
      <trkpt lat="45.6787137" lon="7.0803519">
        <ele>2677</ele>
      </trkpt>
      <trkpt lat="45.6787150" lon="7.0804392">
        <ele>2679</ele>
      </trkpt>
      <trkpt lat="45.6787249" lon="7.0805786">
        <ele>2681</ele>
      </trkpt>
      <trkpt lat="45.6787281" lon="7.0806534">
        <ele>2683</ele>
      </trkpt>
      <trkpt lat="45.6787291" lon="7.0807701">
        <ele>2685</ele>
      </trkpt>
      <trkpt lat="45.6787230" lon="7.0809444">
        <ele>2687</ele>
      </trkpt>
      <trkpt lat="45.6787190" lon="7.0809844">
        <ele>2689</ele>
      </trkpt>
      <trkpt lat="45.6787120" lon="7.0810026">
        <ele>2691</ele>
      </trkpt>
      <trkpt lat="45.6787017" lon="7.0809968">
        <ele>2693</ele>
      </trkpt>
      <trkpt lat="45.6786342" lon="7.0809138">
        <ele>2696</ele>
      </trkpt>
      <trkpt lat="45.6786218" lon="7.0810072">
        <ele>2698</ele>
      </trkpt>
      <trkpt lat="45.6786419" lon="7.0811260">
        <ele>2700</ele>
      </trkpt>
      <trkpt lat="45.6786171" lon="7.0812121">
        <ele>2702</ele>
      </trkpt>
      <trkpt lat="45.6786565" lon="7.0813204">
        <ele>2704</ele>
      </trkpt>
      <trkpt lat="45.6787795" lon="7.0813506">
        <ele>2706</ele>
      </trkpt>
      <trkpt lat="45.6788697" lon="7.0814796">
        <ele>2708</ele>
      </trkpt>
      <trkpt lat="45.6788731" lon="7.0814937">
        <ele>2710</ele>
      </trkpt>
      <trkpt lat="45.6789043" lon="7.0816046">
        <ele>2712</ele>
      </trkpt>
      <trkpt lat="45.6789694" lon="7.0817050">
        <ele>2714</ele>
      </trkpt>
      <trkpt lat="45.6790245" lon="7.0817787">
        <ele>2716</ele>
      </trkpt>
      <trkpt lat="45.6790560" lon="7.0818464">
        <ele>2718</ele>
      </trkpt>
      <trkpt lat="45.6790931" lon="7.0819180">
        <ele>2720</ele>
      </trkpt>
      <trkpt lat="45.6791252" lon="7.0820249">
        <ele>2722</ele>
      </trkpt>
      <trkpt lat="45.6791374" lon="7.0820852">
        <ele>2725</ele>
      </trkpt>
      <trkpt lat="45.6791309" lon="7.0821902">
        <ele>2727</ele>
      </trkpt>
      <trkpt lat="45.6791745" lon="7.0823212">
        <ele>2729</ele>
      </trkpt>
      <trkpt lat="45.6792176" lon="7.0823859">
        <ele>2731</ele>
      </trkpt>
      <trkpt lat="45.6791991" lon="7.0825723">
        <ele>2733</ele>
      </trkpt>
      <trkpt lat="45.6792841" lon="7.0827473">
        <ele>2735</ele>
      </trkpt>
      <trkpt lat="45.6792844" lon="7.0828292">
        <ele>2737</ele>
      </trkpt>
      <trkpt lat="45.6792737" lon="7.0828411">
        <ele>2739</ele>
      </trkpt>
      <trkpt lat="45.6792191" lon="7.0827890">
        <ele>2741</ele>
      </trkpt>
      <trkpt lat="45.6790959" lon="7.0826344">
        <ele>2743</ele>
      </trkpt>
      <trkpt lat="45.6791429" lon="7.0828890">
        <ele>2745</ele>
      </trkpt>
      <trkpt lat="45.6792336" lon="7.0831087">
        <ele>2747</ele>
      </trkpt>
      <trkpt lat="45.6792983" lon="7.0835061">
        <ele>2749</ele>
      </trkpt>
      <trkpt lat="45.6793174" lon="7.0835602">
        <ele>2752</ele>
      </trkpt>
      <trkpt lat="45.6793737" lon="7.0836138">
        <ele>2754</ele>
      </trkpt>
      <trkpt lat="45.6794146" lon="7.0837814">
        <ele>2756</ele>
      </trkpt>
      <trkpt lat="45.6793553" lon="7.0839559">
        <ele>2758</ele>
      </trkpt>
      <trkpt lat="45.6792888" lon="7.0840215">
        <ele>2760</ele>
      </trkpt>
      <trkpt lat="45.6791711" lon="7.0842013">
        <ele>2762</ele>
      </trkpt>
      <trkpt lat="45.6791356" lon="7.0843026">
        <ele>2764</ele>
      </trkpt>
      <trkpt lat="45.6791157" lon="7.0843868">
        <ele>2766</ele>
      </trkpt>
      <trkpt lat="45.6792051" lon="7.0845263">
        <ele>2768</ele>
      </trkpt>
      <trkpt lat="45.6792345" lon="7.0846121">
        <ele>2770</ele>
      </trkpt>
      <trkpt lat="45.6792308" lon="7.0846844">
        <ele>2772</ele>
      </trkpt>
      <trkpt lat="45.6791774" lon="7.0845896">
        <ele>2774</ele>
      </trkpt>
      <trkpt lat="45.6792046" lon="7.0847108">
        <ele>2776</ele>
      </trkpt>
      <trkpt lat="45.6791700" lon="7.0846971">
        <ele>2779</ele>
      </trkpt>
      <trkpt lat="45.6791262" lon="7.0846352">
        <ele>2781</ele>
      </trkpt>
      <trkpt lat="45.6790831" lon="7.0846043">
        <ele>2783</ele>
      </trkpt>
      <trkpt lat="45.6790532" lon="7.0846303">
        <ele>2785</ele>
      </trkpt>
      <trkpt lat="45.6790584" lon="7.0846787">
        <ele>2787</ele>
      </trkpt>
      <trkpt lat="45.6790614" lon="7.0847749">
        <ele>2789</ele>
      </trkpt>
      <trkpt lat="45.6790851" lon="7.0847983">
        <ele>2791</ele>
      </trkpt>
      <trkpt lat="45.6790876" lon="7.0848329">
        <ele>2793</ele>
      </trkpt>
      <trkpt lat="45.6790427" lon="7.0847982">
        <ele>2795</ele>
      </trkpt>
      <trkpt lat="45.6790340" lon="7.0848077">
        <ele>2797</ele>
      </trkpt>
      <trkpt lat="45.6790755" lon="7.0848779">
        <ele>2799</ele>
      </trkpt>
      <trkpt lat="45.6790325" lon="7.0848845">
        <ele>2801</ele>
      </trkpt>
      <trkpt lat="45.6790345" lon="7.0849014">
        <ele>2803</ele>
      </trkpt>
      <trkpt lat="45.6790846" lon="7.0849712">
        <ele>2805</ele>
      </trkpt>
      <trkpt lat="45.6790504" lon="7.0850251">
        <ele>2808</ele>
      </trkpt>
      <trkpt lat="45.6790645" lon="7.0850674">
        <ele>2810</ele>
      </trkpt>
      <trkpt lat="45.6790688" lon="7.0852148">
        <ele>2812</ele>
      </trkpt>
      <trkpt lat="45.6790570" lon="7.0852868">
        <ele>2814</ele>
      </trkpt>
      <trkpt lat="45.6790805" lon="7.0853964">
        <ele>2816</ele>
      </trkpt>
      <trkpt lat="45.6790795" lon="7.0854879">
        <ele>2818</ele>
      </trkpt>
      <trkpt lat="45.6790392" lon="7.0854414">
        <ele>2820</ele>
      </trkpt>
      <trkpt lat="45.6790237" lon="7.0854631">
        <ele>2822</ele>
      </trkpt>
      <trkpt lat="45.6790345" lon="7.0855010">
        <ele>2824</ele>
      </trkpt>
      <trkpt lat="45.6790285" lon="7.0855189">
        <ele>2826</ele>
      </trkpt>
      <trkpt lat="45.6790196" lon="7.0855226">
        <ele>2828</ele>
      </trkpt>
      <trkpt lat="45.6790038" lon="7.0855393">
        <ele>2830</ele>
      </trkpt>
      <trkpt lat="45.6789951" lon="7.0855585">
        <ele>2832</ele>
      </trkpt>
      <trkpt lat="45.6789921" lon="7.0855775">
        <ele>2835</ele>
      </trkpt>
      <trkpt lat="45.6789988" lon="7.0856087">
        <ele>2837</ele>
      </trkpt>
      <trkpt lat="45.6789989" lon="7.0856393">
        <ele>2839</ele>
      </trkpt>
      <trkpt lat="45.6789879" lon="7.0856633">
        <ele>2841</ele>
      </trkpt>
      <trkpt lat="45.6789839" lon="7.0856707">
        <ele>2843</ele>
      </trkpt>
      <trkpt lat="45.6789677" lon="7.0857906">
        <ele>2845</ele>
      </trkpt>
      <trkpt lat="45.6789497" lon="7.0858421">
        <ele>2847</ele>
      </trkpt>
      <trkpt lat="45.6789321" lon="7.0858906">
        <ele>2849</ele>
      </trkpt>
      <trkpt lat="45.6789264" lon="7.0859428">
        <ele>2851</ele>
      </trkpt>
      <trkpt lat="45.6789268" lon="7.0859691">
        <ele>2853</ele>
      </trkpt>
      <trkpt lat="45.6789251" lon="7.0859806">
        <ele>2855</ele>
      </trkpt>
      <trkpt lat="45.6789156" lon="7.0859810">
        <ele>2857</ele>
      </trkpt>
      <trkpt lat="45.6789116" lon="7.0859810">
        <ele>2859</ele>
      </trkpt>
      <trkpt lat="45.6789100" lon="7.0859747">
        <ele>2862</ele>
      </trkpt>
      <trkpt lat="45.6788987" lon="7.0859535">
        <ele>2864</ele>
      </trkpt>
      <trkpt lat="45.6788874" lon="7.0859546">
        <ele>2866</ele>
      </trkpt>
      <trkpt lat="45.6788784" lon="7.0859819">
        <ele>2868</ele>
      </trkpt>
      <trkpt lat="45.6788754" lon="7.0860002">
        <ele>2870</ele>
      </trkpt>
      <trkpt lat="45.6788681" lon="7.0860416">
        <ele>2872</ele>
      </trkpt>
      <trkpt lat="45.6788637" lon="7.0860706">
        <ele>2874</ele>
      </trkpt>
      <trkpt lat="45.6788599" lon="7.0861182">
        <ele>2876</ele>
      </trkpt>
      <trkpt lat="45.6788477" lon="7.0862117">
        <ele>2878</ele>
      </trkpt>
      <trkpt lat="45.6788453" lon="7.0862907">
        <ele>2880</ele>
      </trkpt>
      <trkpt lat="45.6788424" lon="7.0864491">
        <ele>2882</ele>
      </trkpt>
      <trkpt lat="45.6788362" lon="7.0865330">
        <ele>2884</ele>
      </trkpt>
      <trkpt lat="45.6788039" lon="7.0866400">
        <ele>2886</ele>
      </trkpt>
      <trkpt lat="45.6787940" lon="7.0867517">
        <ele>2888</ele>
      </trkpt>
      <trkpt lat="45.6787723" lon="7.0868401">
        <ele>2891</ele>
      </trkpt>
      <trkpt lat="45.6787756" lon="7.0869186">
        <ele>2893</ele>
      </trkpt>
      <trkpt lat="45.6787756" lon="7.0869187">
        <ele>2895</ele>
      </trkpt>
      <trkpt lat="45.6787774" lon="7.0869213">
        <ele>2897</ele>
      </trkpt>
      <trkpt lat="45.6787957" lon="7.0869646">
        <ele>2899</ele>
      </trkpt>
      <trkpt lat="45.6788029" lon="7.0870575">
        <ele>2901</ele>
      </trkpt>
      <trkpt lat="45.6788062" lon="7.0871680">
        <ele>2903</ele>
      </trkpt>
      <trkpt lat="45.6788063" lon="7.0872308">
        <ele>2905</ele>
      </trkpt>
      <trkpt lat="45.6787934" lon="7.0873952">
        <ele>2907</ele>
      </trkpt>
      <trkpt lat="45.6787586" lon="7.0874909">
        <ele>2909</ele>
      </trkpt>
      <trkpt lat="45.6787311" lon="7.0875633">
        <ele>2911</ele>
      </trkpt>
      <trkpt lat="45.6787156" lon="7.0875996">
        <ele>2913</ele>
      </trkpt>
      <trkpt lat="45.6787087" lon="7.0876100">
        <ele>2915</ele>
      </trkpt>
      <trkpt lat="45.6787088" lon="7.0876215">
        <ele>2918</ele>
      </trkpt>
      <trkpt lat="45.6787191" lon="7.0876387">
        <ele>2920</ele>
      </trkpt>
      <trkpt lat="45.6787187" lon="7.0876447">
        <ele>2922</ele>
      </trkpt>
      <trkpt lat="45.6787084" lon="7.0876532">
        <ele>2924</ele>
      </trkpt>
      <trkpt lat="45.6786985" lon="7.0876549">
        <ele>2926</ele>
      </trkpt>
      <trkpt lat="45.6786939" lon="7.0876638">
        <ele>2928</ele>
      </trkpt>
      <trkpt lat="45.6786932" lon="7.0876740">
        <ele>2930</ele>
      </trkpt>
      <trkpt lat="45.6786981" lon="7.0876886">
        <ele>2932</ele>
      </trkpt>
      <trkpt lat="45.6786969" lon="7.0876968">
        <ele>2934</ele>
      </trkpt>
      <trkpt lat="45.6786842" lon="7.0877040">
        <ele>2936</ele>
      </trkpt>
      <trkpt lat="45.6786797" lon="7.0877142">
        <ele>2938</ele>
      </trkpt>
      <trkpt lat="45.6786840" lon="7.0877451">
        <ele>2940</ele>
      </trkpt>
      <trkpt lat="45.6786894" lon="7.0877598">
        <ele>2942</ele>
      </trkpt>
      <trkpt lat="45.6786964" lon="7.0877832">
        <ele>2945</ele>
      </trkpt>
      <trkpt lat="45.6786966" lon="7.0878210">
        <ele>2947</ele>
      </trkpt>
      <trkpt lat="45.6786747" lon="7.0878710">
        <ele>2949</ele>
      </trkpt>
      <trkpt lat="45.6786569" lon="7.0879576">
        <ele>2951</ele>
      </trkpt>
      <trkpt lat="45.6786568" lon="7.0880103">
        <ele>2953</ele>
      </trkpt>
      <trkpt lat="45.6786456" lon="7.0880464">
        <ele>2955</ele>
      </trkpt>
      <trkpt lat="45.6786211" lon="7.0880837">
        <ele>2957</ele>
      </trkpt>
      <trkpt lat="45.6786055" lon="7.0881041">
        <ele>2959</ele>
      </trkpt>
      <trkpt lat="45.6785787" lon="7.0882133">
        <ele>2961</ele>
      </trkpt>
      <trkpt lat="45.6785402" lon="7.0882388">
        <ele>2963</ele>
      </trkpt>
      <trkpt lat="45.6784877" lon="7.0881353">
        <ele>2965</ele>
      </trkpt>
      <trkpt lat="45.6784895" lon="7.0882451">
        <ele>2967</ele>
      </trkpt>
      <trkpt lat="45.6784652" lon="7.0883096">
        <ele>2969</ele>
      </trkpt>
      <trkpt lat="45.6784185" lon="7.0882636">
        <ele>2971</ele>
      </trkpt>
      <trkpt lat="45.6783592" lon="7.0881469">
        <ele>2974</ele>
      </trkpt>
      <trkpt lat="45.6783435" lon="7.0881603">
        <ele>2976</ele>
      </trkpt>
      <trkpt lat="45.6783460" lon="7.0882613">
        <ele>2978</ele>
      </trkpt>
      <trkpt lat="45.6783087" lon="7.0886765">
        <ele>2980</ele>
      </trkpt>
      <trkpt lat="45.6783310" lon="7.0888998">
        <ele>2982</ele>
      </trkpt>
      <trkpt lat="45.6783121" lon="7.0890669">
        <ele>2984</ele>
      </trkpt>
      <trkpt lat="45.6783245" lon="7.0892397">
        <ele>2986</ele>
      </trkpt>
      <trkpt lat="45.6782759" lon="7.0894731">
        <ele>2988</ele>
      </trkpt>
      <trkpt lat="45.6781957" lon="7.0895974">
        <ele>2990</ele>
      </trkpt>
      <trkpt lat="45.6780865" lon="7.0897025">
        <ele>2992</ele>
      </trkpt>
      <trkpt lat="45.6779984" lon="7.0899005">
        <ele>2994</ele>
      </trkpt>
      <trkpt lat="45.6779765" lon="7.0898877">
        <ele>2996</ele>
      </trkpt>
      <trkpt lat="45.6779583" lon="7.0897660">
        <ele>2998</ele>
      </trkpt>
      <trkpt lat="45.6779318" lon="7.0897833">
        <ele>3001</ele>
      </trkpt>
      <trkpt lat="45.6778926" lon="7.0900113">
        <ele>3003</ele>
      </trkpt>
      <trkpt lat="45.6778682" lon="7.0901055">
        <ele>3005</ele>
      </trkpt>
      <trkpt lat="45.6778171" lon="7.0902203">
        <ele>3007</ele>
      </trkpt>
      <trkpt lat="45.6777927" lon="7.0902906">
        <ele>3009</ele>
      </trkpt>
      <trkpt lat="45.6777816" lon="7.0903018">
        <ele>3011</ele>
      </trkpt>
      <trkpt lat="45.6777724" lon="7.0902920">
        <ele>3013</ele>
      </trkpt>
    </trkseg>
  </trk>
</gpx>
