<?xml version="1.0" encoding="UTF-8"?>
<gpx version="1.1" creator="sentieri-vda" xmlns="http://www.topografix.com/GPX/1/1">
  <metadata>
    <name>Avise - Saint-Nicolas</name>
    <desc>Catasto Sentieri VdA — 06_S14</desc>
    <author><name>Regione Autonoma Valle d'Aosta</name></author>
  </metadata>
  <trk>
    <name>Avise - Saint-Nicolas</name>
    <src>Catasto Sentieri VdA (06_S14)</src>
    <trkseg>
      <trkpt lat="45.7087869" lon="7.1417839">
        <ele>782</ele>
      </trkpt>
      <trkpt lat="45.7088783" lon="7.1418545">
        <ele>784</ele>
      </trkpt>
      <trkpt lat="45.7089509" lon="7.1419533">
        <ele>787</ele>
      </trkpt>
      <trkpt lat="45.7089219" lon="7.1421591">
        <ele>789</ele>
      </trkpt>
      <trkpt lat="45.7089519" lon="7.1422203">
        <ele>791</ele>
      </trkpt>
      <trkpt lat="45.7089596" lon="7.1422749">
        <ele>794</ele>
      </trkpt>
      <trkpt lat="45.7089182" lon="7.1425104">
        <ele>796</ele>
      </trkpt>
      <trkpt lat="45.7089294" lon="7.1426165">
        <ele>798</ele>
      </trkpt>
      <trkpt lat="45.7089565" lon="7.1426985">
        <ele>801</ele>
      </trkpt>
      <trkpt lat="45.7090255" lon="7.1428045">
        <ele>803</ele>
      </trkpt>
      <trkpt lat="45.7091065" lon="7.1429494">
        <ele>806</ele>
      </trkpt>
      <trkpt lat="45.7091483" lon="7.1431066">
        <ele>808</ele>
      </trkpt>
      <trkpt lat="45.7092354" lon="7.1431953">
        <ele>810</ele>
      </trkpt>
      <trkpt lat="45.7093623" lon="7.1433123">
        <ele>813</ele>
      </trkpt>
      <trkpt lat="45.7094565" lon="7.1434304">
        <ele>815</ele>
      </trkpt>
      <trkpt lat="45.7094848" lon="7.1434374">
        <ele>817</ele>
      </trkpt>
      <trkpt lat="45.7095086" lon="7.1434268">
        <ele>820</ele>
      </trkpt>
      <trkpt lat="45.7095557" lon="7.1433838">
        <ele>822</ele>
      </trkpt>
      <trkpt lat="45.7095912" lon="7.1433588">
        <ele>824</ele>
      </trkpt>
      <trkpt lat="45.7096063" lon="7.1433699">
        <ele>827</ele>
      </trkpt>
      <trkpt lat="45.7095945" lon="7.1434026">
        <ele>829</ele>
      </trkpt>
      <trkpt lat="45.7095890" lon="7.1434309">
        <ele>831</ele>
      </trkpt>
      <trkpt lat="45.7095811" lon="7.1434720">
        <ele>834</ele>
      </trkpt>
      <trkpt lat="45.7095762" lon="7.1435106">
        <ele>836</ele>
      </trkpt>
      <trkpt lat="45.7095752" lon="7.1435535">
        <ele>838</ele>
      </trkpt>
      <trkpt lat="45.7095828" lon="7.1435930">
        <ele>841</ele>
      </trkpt>
      <trkpt lat="45.7096004" lon="7.1436485">
        <ele>843</ele>
      </trkpt>
      <trkpt lat="45.7096270" lon="7.1437056">
        <ele>846</ele>
      </trkpt>
      <trkpt lat="45.7096671" lon="7.1437567">
        <ele>848</ele>
      </trkpt>
      <trkpt lat="45.7098007" lon="7.1438248">
        <ele>850</ele>
      </trkpt>
      <trkpt lat="45.7100467" lon="7.1439156">
        <ele>853</ele>
      </trkpt>
      <trkpt lat="45.7100675" lon="7.1439303">
        <ele>855</ele>
      </trkpt>
      <trkpt lat="45.7101151" lon="7.1439684">
        <ele>857</ele>
      </trkpt>
      <trkpt lat="45.7101479" lon="7.1440149">
        <ele>860</ele>
      </trkpt>
      <trkpt lat="45.7101693" lon="7.1440685">
        <ele>862</ele>
      </trkpt>
      <trkpt lat="45.7101855" lon="7.1441234">
        <ele>864</ele>
      </trkpt>
      <trkpt lat="45.7101925" lon="7.1441871">
        <ele>867</ele>
      </trkpt>
      <trkpt lat="45.7101943" lon="7.1442042">
        <ele>869</ele>
      </trkpt>
      <trkpt lat="45.7101890" lon="7.1442721">
        <ele>871</ele>
      </trkpt>
      <trkpt lat="45.7101755" lon="7.1443347">
        <ele>874</ele>
      </trkpt>
      <trkpt lat="45.7101507" lon="7.1444100">
        <ele>876</ele>
      </trkpt>
      <trkpt lat="45.7101070" lon="7.1445477">
        <ele>878</ele>
      </trkpt>
      <trkpt lat="45.7100780" lon="7.1446813">
        <ele>881</ele>
      </trkpt>
      <trkpt lat="45.7100651" lon="7.1447805">
        <ele>883</ele>
      </trkpt>
      <trkpt lat="45.7100671" lon="7.1448524">
        <ele>885</ele>
      </trkpt>
      <trkpt lat="45.7100778" lon="7.1449222">
        <ele>888</ele>
      </trkpt>
      <trkpt lat="45.7101143" lon="7.1450631">
        <ele>890</ele>
      </trkpt>
      <trkpt lat="45.7101396" lon="7.1451501">
        <ele>893</ele>
      </trkpt>
      <trkpt lat="45.7101817" lon="7.1452911">
        <ele>895</ele>
      </trkpt>
      <trkpt lat="45.7102043" lon="7.1453934">
        <ele>897</ele>
      </trkpt>
      <trkpt lat="45.7102145" lon="7.1454973">
        <ele>900</ele>
      </trkpt>
      <trkpt lat="45.7102251" lon="7.1456263">
        <ele>902</ele>
      </trkpt>
      <trkpt lat="45.7102281" lon="7.1456530">
        <ele>904</ele>
      </trkpt>
      <trkpt lat="45.7102371" lon="7.1456814">
        <ele>907</ele>
      </trkpt>
      <trkpt lat="45.7102486" lon="7.1457060">
        <ele>909</ele>
      </trkpt>
      <trkpt lat="45.7102631" lon="7.1457293">
        <ele>911</ele>
      </trkpt>
      <trkpt lat="45.7102047" lon="7.1458299">
        <ele>914</ele>
      </trkpt>
      <trkpt lat="45.7101443" lon="7.1460452">
        <ele>916</ele>
      </trkpt>
      <trkpt lat="45.7100470" lon="7.1462142">
        <ele>918</ele>
      </trkpt>
      <trkpt lat="45.7099355" lon="7.1464886">
        <ele>921</ele>
      </trkpt>
      <trkpt lat="45.7099003" lon="7.1466045">
        <ele>923</ele>
      </trkpt>
      <trkpt lat="45.7099171" lon="7.1467436">
        <ele>925</ele>
      </trkpt>
      <trkpt lat="45.7099195" lon="7.1468914">
        <ele>928</ele>
      </trkpt>
      <trkpt lat="45.7098593" lon="7.1470588">
        <ele>930</ele>
      </trkpt>
      <trkpt lat="45.7097990" lon="7.1472306">
        <ele>933</ele>
      </trkpt>
      <trkpt lat="45.7097876" lon="7.1473455">
        <ele>935</ele>
      </trkpt>
      <trkpt lat="45.7098112" lon="7.1474599">
        <ele>937</ele>
      </trkpt>
      <trkpt lat="45.7098941" lon="7.1475804">
        <ele>940</ele>
      </trkpt>
      <trkpt lat="45.7100429" lon="7.1478346">
        <ele>942</ele>
      </trkpt>
      <trkpt lat="45.7101395" lon="7.1480461">
        <ele>944</ele>
      </trkpt>
      <trkpt lat="45.7103315" lon="7.1485123">
        <ele>947</ele>
      </trkpt>
      <trkpt lat="45.7104267" lon="7.1487459">
        <ele>949</ele>
      </trkpt>
      <trkpt lat="45.7104655" lon="7.1491788">
        <ele>951</ele>
      </trkpt>
      <trkpt lat="45.7103342" lon="7.1493000">
        <ele>954</ele>
      </trkpt>
      <trkpt lat="45.7102442" lon="7.1495900">
        <ele>956</ele>
      </trkpt>
      <trkpt lat="45.7102442" lon="7.1496700">
        <ele>958</ele>
      </trkpt>
      <trkpt lat="45.7102142" lon="7.1497300">
        <ele>961</ele>
      </trkpt>
      <trkpt lat="45.7101942" lon="7.1498300">
        <ele>963</ele>
      </trkpt>
      <trkpt lat="45.7102342" lon="7.1499200">
        <ele>965</ele>
      </trkpt>
      <trkpt lat="45.7101742" lon="7.1498900">
        <ele>968</ele>
      </trkpt>
      <trkpt lat="45.7100142" lon="7.1499100">
        <ele>970</ele>
      </trkpt>
      <trkpt lat="45.7100242" lon="7.1499800">
        <ele>973</ele>
      </trkpt>
      <trkpt lat="45.7100042" lon="7.1500700">
        <ele>975</ele>
      </trkpt>
      <trkpt lat="45.7098142" lon="7.1501900">
        <ele>977</ele>
      </trkpt>
      <trkpt lat="45.7097542" lon="7.1501600">
        <ele>980</ele>
      </trkpt>
      <trkpt lat="45.7094742" lon="7.1501500">
        <ele>982</ele>
      </trkpt>
      <trkpt lat="45.7093742" lon="7.1504500">
        <ele>984</ele>
      </trkpt>
      <trkpt lat="45.7092942" lon="7.1505200">
        <ele>987</ele>
      </trkpt>
      <trkpt lat="45.7091242" lon="7.1506100">
        <ele>989</ele>
      </trkpt>
      <trkpt lat="45.7090142" lon="7.1506000">
        <ele>991</ele>
      </trkpt>
      <trkpt lat="45.7088942" lon="7.1506400">
        <ele>994</ele>
      </trkpt>
      <trkpt lat="45.7088042" lon="7.1507100">
        <ele>996</ele>
      </trkpt>
      <trkpt lat="45.7086242" lon="7.1506400">
        <ele>998</ele>
      </trkpt>
      <trkpt lat="45.7084142" lon="7.1504800">
        <ele>1001</ele>
      </trkpt>
      <trkpt lat="45.7083842" lon="7.1505100">
        <ele>1003</ele>
      </trkpt>
      <trkpt lat="45.7084942" lon="7.1507200">
        <ele>1005</ele>
      </trkpt>
      <trkpt lat="45.7085542" lon="7.1509300">
        <ele>1008</ele>
      </trkpt>
      <trkpt lat="45.7087042" lon="7.1510800">
        <ele>1010</ele>
      </trkpt>
      <trkpt lat="45.7088142" lon="7.1512800">
        <ele>1012</ele>
      </trkpt>
      <trkpt lat="45.7088842" lon="7.1513300">
        <ele>1015</ele>
      </trkpt>
      <trkpt lat="45.7088042" lon="7.1513200">
        <ele>1017</ele>
      </trkpt>
      <trkpt lat="45.7087742" lon="7.1513600">
        <ele>1020</ele>
      </trkpt>
      <trkpt lat="45.7088442" lon="7.1514000">
        <ele>1022</ele>
      </trkpt>
      <trkpt lat="45.7092442" lon="7.1521400">
        <ele>1024</ele>
      </trkpt>
      <trkpt lat="45.7093042" lon="7.1524300">
        <ele>1027</ele>
      </trkpt>
      <trkpt lat="45.7094142" lon="7.1526900">
        <ele>1029</ele>
      </trkpt>
      <trkpt lat="45.7095342" lon="7.1528400">
        <ele>1031</ele>
      </trkpt>
      <trkpt lat="45.7096242" lon="7.1529100">
        <ele>1034</ele>
      </trkpt>
      <trkpt lat="45.7096542" lon="7.1530500">
        <ele>1036</ele>
      </trkpt>
      <trkpt lat="45.7098642" lon="7.1534200">
        <ele>1038</ele>
      </trkpt>
      <trkpt lat="45.7098942" lon="7.1535600">
        <ele>1041</ele>
      </trkpt>
      <trkpt lat="45.7099642" lon="7.1537300">
        <ele>1043</ele>
      </trkpt>
      <trkpt lat="45.7098942" lon="7.1537400">
        <ele>1045</ele>
      </trkpt>
      <trkpt lat="45.7099742" lon="7.1539400">
        <ele>1048</ele>
      </trkpt>
      <trkpt lat="45.7099242" lon="7.1539500">
        <ele>1050</ele>
      </trkpt>
      <trkpt lat="45.7098742" lon="7.1539200">
        <ele>1052</ele>
      </trkpt>
      <trkpt lat="45.7099142" lon="7.1541200">
        <ele>1055</ele>
      </trkpt>
      <trkpt lat="45.7099542" lon="7.1542000">
        <ele>1057</ele>
      </trkpt>
      <trkpt lat="45.7099542" lon="7.1542700">
        <ele>1060</ele>
      </trkpt>
      <trkpt lat="45.7099142" lon="7.1542500">
        <ele>1062</ele>
      </trkpt>
      <trkpt lat="45.7099042" lon="7.1543500">
        <ele>1064</ele>
      </trkpt>
      <trkpt lat="45.7099842" lon="7.1546800">
        <ele>1067</ele>
      </trkpt>
      <trkpt lat="45.7100042" lon="7.1549200">
        <ele>1069</ele>
      </trkpt>
      <trkpt lat="45.7100442" lon="7.1550700">
        <ele>1071</ele>
      </trkpt>
      <trkpt lat="45.7101442" lon="7.1551700">
        <ele>1074</ele>
      </trkpt>
      <trkpt lat="45.7101742" lon="7.1554300">
        <ele>1076</ele>
      </trkpt>
      <trkpt lat="45.7102242" lon="7.1555300">
        <ele>1078</ele>
      </trkpt>
      <trkpt lat="45.7104442" lon="7.1557100">
        <ele>1081</ele>
      </trkpt>
      <trkpt lat="45.7105142" lon="7.1558200">
        <ele>1083</ele>
      </trkpt>
      <trkpt lat="45.7109342" lon="7.1562200">
        <ele>1085</ele>
      </trkpt>
      <trkpt lat="45.7111542" lon="7.1561800">
        <ele>1088</ele>
      </trkpt>
      <trkpt lat="45.7113542" lon="7.1559000">
        <ele>1090</ele>
      </trkpt>
      <trkpt lat="45.7114242" lon="7.1556500">
        <ele>1092</ele>
      </trkpt>
      <trkpt lat="45.7114762" lon="7.1553530">
        <ele>1095</ele>
      </trkpt>
      <trkpt lat="45.7115642" lon="7.1553900">
        <ele>1097</ele>
      </trkpt>
      <trkpt lat="45.7116542" lon="7.1554900">
        <ele>1100</ele>
      </trkpt>
      <trkpt lat="45.7116642" lon="7.1556900">
        <ele>1102</ele>
      </trkpt>
      <trkpt lat="45.7116442" lon="7.1558500">
        <ele>1104</ele>
      </trkpt>
      <trkpt lat="45.7116842" lon="7.1560000">
        <ele>1107</ele>
      </trkpt>
      <trkpt lat="45.7116242" lon="7.1560700">
        <ele>1109</ele>
      </trkpt>
      <trkpt lat="45.7117342" lon="7.1562100">
        <ele>1111</ele>
      </trkpt>
      <trkpt lat="45.7117642" lon="7.1564400">
        <ele>1114</ele>
      </trkpt>
      <trkpt lat="45.7118042" lon="7.1564000">
        <ele>1116</ele>
      </trkpt>
      <trkpt lat="45.7118242" lon="7.1564500">
        <ele>1118</ele>
      </trkpt>
      <trkpt lat="45.7118542" lon="7.1566900">
        <ele>1121</ele>
      </trkpt>
      <trkpt lat="45.7118942" lon="7.1567500">
        <ele>1123</ele>
      </trkpt>
      <trkpt lat="45.7119842" lon="7.1570300">
        <ele>1125</ele>
      </trkpt>
      <trkpt lat="45.7122742" lon="7.1576800">
        <ele>1128</ele>
      </trkpt>
      <trkpt lat="45.7122942" lon="7.1579000">
        <ele>1130</ele>
      </trkpt>
      <trkpt lat="45.7121942" lon="7.1581000">
        <ele>1132</ele>
      </trkpt>
      <trkpt lat="45.7120542" lon="7.1582400">
        <ele>1135</ele>
      </trkpt>
      <trkpt lat="45.7120242" lon="7.1583200">
        <ele>1137</ele>
      </trkpt>
      <trkpt lat="45.7121042" lon="7.1583600">
        <ele>1139</ele>
      </trkpt>
      <trkpt lat="45.7121742" lon="7.1583700">
        <ele>1142</ele>
      </trkpt>
      <trkpt lat="45.7122042" lon="7.1584700">
        <ele>1144</ele>
      </trkpt>
      <trkpt lat="45.7121642" lon="7.1586200">
        <ele>1147</ele>
      </trkpt>
      <trkpt lat="45.7121742" lon="7.1587400">
        <ele>1149</ele>
      </trkpt>
      <trkpt lat="45.7122342" lon="7.1589600">
        <ele>1151</ele>
      </trkpt>
      <trkpt lat="45.7123542" lon="7.1591300">
        <ele>1154</ele>
      </trkpt>
      <trkpt lat="45.7124042" lon="7.1592800">
        <ele>1156</ele>
      </trkpt>
      <trkpt lat="45.7125242" lon="7.1595400">
        <ele>1158</ele>
      </trkpt>
      <trkpt lat="45.7126802" lon="7.1597638">
        <ele>1161</ele>
      </trkpt>
      <trkpt lat="45.7128405" lon="7.1601378">
        <ele>1163</ele>
      </trkpt>
      <trkpt lat="45.7129865" lon="7.1606723">
        <ele>1165</ele>
      </trkpt>
      <trkpt lat="45.7130766" lon="7.1612346">
        <ele>1168</ele>
      </trkpt>
      <trkpt lat="45.7132655" lon="7.1620096">
        <ele>1170</ele>
      </trkpt>
      <trkpt lat="45.7133051" lon="7.1622829">
        <ele>1172</ele>
      </trkpt>
      <trkpt lat="45.7134060" lon="7.1626885">
        <ele>1175</ele>
      </trkpt>
      <trkpt lat="45.7134436" lon="7.1627900">
        <ele>1177</ele>
      </trkpt>
      <trkpt lat="45.7135264" lon="7.1629030">
        <ele>1179</ele>
      </trkpt>
      <trkpt lat="45.7136166" lon="7.1630343">
        <ele>1182</ele>
      </trkpt>
      <trkpt lat="45.7137570" lon="7.1632997">
        <ele>1184</ele>
      </trkpt>
      <trkpt lat="45.7141071" lon="7.1640784">
        <ele>1187</ele>
      </trkpt>
      <trkpt lat="45.7143648" lon="7.1646614">
        <ele>1189</ele>
      </trkpt>
      <trkpt lat="45.7145130" lon="7.1649264">
        <ele>1191</ele>
      </trkpt>
      <trkpt lat="45.7145808" lon="7.1652196">
        <ele>1194</ele>
      </trkpt>
      <trkpt lat="45.7146656" lon="7.1654610">
        <ele>1196</ele>
      </trkpt>
      <trkpt lat="45.7151618" lon="7.1666525">
        <ele>1198</ele>
      </trkpt>
      <trkpt lat="45.7151906" lon="7.1666874">
        <ele>1201</ele>
      </trkpt>
      <trkpt lat="45.7152201" lon="7.1667145">
        <ele>1203</ele>
      </trkpt>
    </trkseg>
  </trk>
</gpx>
