<?xml version="1.0" encoding="UTF-8"?>
<gpx version="1.1" creator="sentieri-vda" xmlns="http://www.topografix.com/GPX/1/1">
  <metadata>
    <name>Baulin - Alpage du Glacier</name>
    <desc>Catasto Sentieri VdA — 06_S29</desc>
    <author><name>Regione Autonoma Valle d'Aosta</name></author>
  </metadata>
  <trk>
    <name>Baulin - Alpage du Glacier</name>
    <src>Catasto Sentieri VdA (06_S29)</src>
    <trkseg>
      <trkpt lat="45.6803225" lon="7.0728215">
        <ele>1771</ele>
      </trkpt>
      <trkpt lat="45.6803763" lon="7.0728199">
        <ele>1774</ele>
      </trkpt>
      <trkpt lat="45.6807461" lon="7.0730510">
        <ele>1776</ele>
      </trkpt>
      <trkpt lat="45.6812661" lon="7.0736310">
        <ele>1779</ele>
      </trkpt>
      <trkpt lat="45.6815461" lon="7.0737510">
        <ele>1782</ele>
      </trkpt>
      <trkpt lat="45.6818261" lon="7.0741010">
        <ele>1785</ele>
      </trkpt>
      <trkpt lat="45.6818461" lon="7.0744710">
        <ele>1787</ele>
      </trkpt>
      <trkpt lat="45.6819651" lon="7.0747210">
        <ele>1790</ele>
      </trkpt>
      <trkpt lat="45.6820651" lon="7.0748010">
        <ele>1793</ele>
      </trkpt>
      <trkpt lat="45.6821651" lon="7.0751210">
        <ele>1796</ele>
      </trkpt>
      <trkpt lat="45.6821851" lon="7.0753210">
        <ele>1798</ele>
      </trkpt>
      <trkpt lat="45.6821251" lon="7.0755510">
        <ele>1801</ele>
      </trkpt>
      <trkpt lat="45.6822151" lon="7.0755710">
        <ele>1804</ele>
      </trkpt>
      <trkpt lat="45.6822351" lon="7.0757510">
        <ele>1806</ele>
      </trkpt>
      <trkpt lat="45.6820951" lon="7.0760910">
        <ele>1809</ele>
      </trkpt>
      <trkpt lat="45.6821651" lon="7.0762110">
        <ele>1812</ele>
      </trkpt>
      <trkpt lat="45.6821351" lon="7.0762810">
        <ele>1815</ele>
      </trkpt>
      <trkpt lat="45.6823651" lon="7.0763110">
        <ele>1817</ele>
      </trkpt>
      <trkpt lat="45.6823851" lon="7.0764910">
        <ele>1820</ele>
      </trkpt>
      <trkpt lat="45.6824851" lon="7.0766610">
        <ele>1823</ele>
      </trkpt>
      <trkpt lat="45.6826451" lon="7.0766510">
        <ele>1825</ele>
      </trkpt>
      <trkpt lat="45.6827751" lon="7.0763410">
        <ele>1828</ele>
      </trkpt>
      <trkpt lat="45.6828951" lon="7.0762710">
        <ele>1831</ele>
      </trkpt>
      <trkpt lat="45.6832451" lon="7.0762810">
        <ele>1834</ele>
      </trkpt>
      <trkpt lat="45.6836951" lon="7.0761910">
        <ele>1836</ele>
      </trkpt>
      <trkpt lat="45.6839051" lon="7.0763210">
        <ele>1839</ele>
      </trkpt>
      <trkpt lat="45.6840351" lon="7.0766610">
        <ele>1842</ele>
      </trkpt>
      <trkpt lat="45.6842251" lon="7.0768510">
        <ele>1845</ele>
      </trkpt>
      <trkpt lat="45.6849551" lon="7.0771910">
        <ele>1847</ele>
      </trkpt>
      <trkpt lat="45.6854051" lon="7.0780310">
        <ele>1850</ele>
      </trkpt>
      <trkpt lat="45.6854851" lon="7.0782810">
        <ele>1853</ele>
      </trkpt>
      <trkpt lat="45.6854851" lon="7.0786110">
        <ele>1855</ele>
      </trkpt>
      <trkpt lat="45.6853551" lon="7.0790810">
        <ele>1858</ele>
      </trkpt>
      <trkpt lat="45.6850952" lon="7.0795010">
        <ele>1861</ele>
      </trkpt>
      <trkpt lat="45.6850051" lon="7.0797810">
        <ele>1864</ele>
      </trkpt>
      <trkpt lat="45.6848151" lon="7.0799610">
        <ele>1866</ele>
      </trkpt>
      <trkpt lat="45.6846651" lon="7.0802510">
        <ele>1869</ele>
      </trkpt>
      <trkpt lat="45.6844951" lon="7.0807610">
        <ele>1872</ele>
      </trkpt>
      <trkpt lat="45.6845651" lon="7.0807910">
        <ele>1874</ele>
      </trkpt>
      <trkpt lat="45.6845651" lon="7.0809210">
        <ele>1877</ele>
      </trkpt>
      <trkpt lat="45.6848251" lon="7.0809810">
        <ele>1880</ele>
      </trkpt>
      <trkpt lat="45.6852551" lon="7.0816710">
        <ele>1883</ele>
      </trkpt>
      <trkpt lat="45.6852651" lon="7.0819410">
        <ele>1885</ele>
      </trkpt>
      <trkpt lat="45.6854252" lon="7.0820110">
        <ele>1888</ele>
      </trkpt>
      <trkpt lat="45.6854352" lon="7.0820810">
        <ele>1891</ele>
      </trkpt>
      <trkpt lat="45.6855651" lon="7.0822410">
        <ele>1894</ele>
      </trkpt>
      <trkpt lat="45.6857192" lon="7.0823330">
        <ele>1896</ele>
      </trkpt>
      <trkpt lat="45.6855751" lon="7.0825710">
        <ele>1899</ele>
      </trkpt>
      <trkpt lat="45.6855352" lon="7.0830310">
        <ele>1902</ele>
      </trkpt>
      <trkpt lat="45.6852851" lon="7.0833010">
        <ele>1904</ele>
      </trkpt>
      <trkpt lat="45.6850251" lon="7.0834610">
        <ele>1907</ele>
      </trkpt>
      <trkpt lat="45.6849651" lon="7.0838910">
        <ele>1910</ele>
      </trkpt>
      <trkpt lat="45.6847551" lon="7.0842010">
        <ele>1913</ele>
      </trkpt>
      <trkpt lat="45.6845251" lon="7.0847410">
        <ele>1915</ele>
      </trkpt>
      <trkpt lat="45.6845451" lon="7.0851710">
        <ele>1918</ele>
      </trkpt>
      <trkpt lat="45.6842251" lon="7.0857110">
        <ele>1921</ele>
      </trkpt>
      <trkpt lat="45.6842251" lon="7.0858210">
        <ele>1923</ele>
      </trkpt>
      <trkpt lat="45.6845951" lon="7.0863310">
        <ele>1926</ele>
      </trkpt>
      <trkpt lat="45.6846151" lon="7.0864610">
        <ele>1929</ele>
      </trkpt>
      <trkpt lat="45.6848551" lon="7.0866610">
        <ele>1932</ele>
      </trkpt>
      <trkpt lat="45.6845451" lon="7.0871310">
        <ele>1934</ele>
      </trkpt>
      <trkpt lat="45.6844551" lon="7.0871110">
        <ele>1937</ele>
      </trkpt>
      <trkpt lat="45.6843251" lon="7.0872310">
        <ele>1940</ele>
      </trkpt>
      <trkpt lat="45.6840851" lon="7.0876010">
        <ele>1943</ele>
      </trkpt>
      <trkpt lat="45.6837451" lon="7.0877510">
        <ele>1945</ele>
      </trkpt>
      <trkpt lat="45.6835451" lon="7.0877510">
        <ele>1948</ele>
      </trkpt>
      <trkpt lat="45.6836151" lon="7.0881410">
        <ele>1951</ele>
      </trkpt>
      <trkpt lat="45.6834751" lon="7.0882810">
        <ele>1953</ele>
      </trkpt>
      <trkpt lat="45.6834851" lon="7.0884810">
        <ele>1956</ele>
      </trkpt>
      <trkpt lat="45.6834051" lon="7.0884110">
        <ele>1959</ele>
      </trkpt>
      <trkpt lat="45.6832351" lon="7.0884610">
        <ele>1962</ele>
      </trkpt>
      <trkpt lat="45.6829651" lon="7.0884110">
        <ele>1964</ele>
      </trkpt>
      <trkpt lat="45.6829251" lon="7.0885210">
        <ele>1967</ele>
      </trkpt>
      <trkpt lat="45.6825951" lon="7.0886810">
        <ele>1970</ele>
      </trkpt>
      <trkpt lat="45.6825251" lon="7.0888810">
        <ele>1972</ele>
      </trkpt>
      <trkpt lat="45.6826351" lon="7.0890910">
        <ele>1975</ele>
      </trkpt>
      <trkpt lat="45.6826151" lon="7.0891910">
        <ele>1978</ele>
      </trkpt>
      <trkpt lat="45.6827851" lon="7.0894000">
        <ele>1981</ele>
      </trkpt>
      <trkpt lat="45.6827351" lon="7.0895100">
        <ele>1983</ele>
      </trkpt>
      <trkpt lat="45.6827151" lon="7.0897000">
        <ele>1986</ele>
      </trkpt>
      <trkpt lat="45.6826651" lon="7.0897600">
        <ele>1989</ele>
      </trkpt>
      <trkpt lat="45.6826451" lon="7.0897000">
        <ele>1992</ele>
      </trkpt>
      <trkpt lat="45.6826151" lon="7.0897800">
        <ele>1994</ele>
      </trkpt>
      <trkpt lat="45.6826151" lon="7.0901800">
        <ele>1997</ele>
      </trkpt>
      <trkpt lat="45.6825551" lon="7.0902100">
        <ele>2000</ele>
      </trkpt>
      <trkpt lat="45.6827451" lon="7.0907500">
        <ele>2002</ele>
      </trkpt>
      <trkpt lat="45.6827351" lon="7.0911900">
        <ele>2005</ele>
      </trkpt>
      <trkpt lat="45.6825251" lon="7.0910300">
        <ele>2008</ele>
      </trkpt>
      <trkpt lat="45.6824951" lon="7.0911900">
        <ele>2011</ele>
      </trkpt>
      <trkpt lat="45.6828351" lon="7.0921900">
        <ele>2013</ele>
      </trkpt>
      <trkpt lat="45.6827851" lon="7.0923600">
        <ele>2016</ele>
      </trkpt>
      <trkpt lat="45.6826851" lon="7.0923800">
        <ele>2019</ele>
      </trkpt>
      <trkpt lat="45.6826651" lon="7.0926100">
        <ele>2021</ele>
      </trkpt>
      <trkpt lat="45.6824351" lon="7.0928500">
        <ele>2024</ele>
      </trkpt>
      <trkpt lat="45.6824151" lon="7.0931100">
        <ele>2027</ele>
      </trkpt>
      <trkpt lat="45.6828551" lon="7.0942200">
        <ele>2030</ele>
      </trkpt>
      <trkpt lat="45.6830051" lon="7.0947300">
        <ele>2032</ele>
      </trkpt>
      <trkpt lat="45.6830251" lon="7.0951100">
        <ele>2035</ele>
      </trkpt>
      <trkpt lat="45.6831951" lon="7.0953500">
        <ele>2038</ele>
      </trkpt>
      <trkpt lat="45.6832251" lon="7.0955600">
        <ele>2041</ele>
      </trkpt>
      <trkpt lat="45.6834451" lon="7.0960700">
        <ele>2043</ele>
      </trkpt>
      <trkpt lat="45.6836751" lon="7.0967600">
        <ele>2046</ele>
      </trkpt>
      <trkpt lat="45.6836851" lon="7.0969700">
        <ele>2049</ele>
      </trkpt>
      <trkpt lat="45.6838351" lon="7.0972700">
        <ele>2051</ele>
      </trkpt>
      <trkpt lat="45.6837451" lon="7.0972400">
        <ele>2054</ele>
      </trkpt>
      <trkpt lat="45.6836651" lon="7.0974400">
        <ele>2057</ele>
      </trkpt>
      <trkpt lat="45.6835451" lon="7.0975200">
        <ele>2060</ele>
      </trkpt>
      <trkpt lat="45.6832651" lon="7.0972800">
        <ele>2062</ele>
      </trkpt>
      <trkpt lat="45.6832051" lon="7.0975100">
        <ele>2065</ele>
      </trkpt>
      <trkpt lat="45.6829851" lon="7.0974100">
        <ele>2068</ele>
      </trkpt>
      <trkpt lat="45.6829251" lon="7.0975100">
        <ele>2070</ele>
      </trkpt>
      <trkpt lat="45.6828951" lon="7.0977800">
        <ele>2073</ele>
      </trkpt>
      <trkpt lat="45.6829451" lon="7.0978800">
        <ele>2076</ele>
      </trkpt>
      <trkpt lat="45.6824951" lon="7.0977400">
        <ele>2079</ele>
      </trkpt>
      <trkpt lat="45.6824851" lon="7.0983500">
        <ele>2081</ele>
      </trkpt>
      <trkpt lat="45.6825951" lon="7.0987500">
        <ele>2084</ele>
      </trkpt>
      <trkpt lat="45.6825251" lon="7.0990300">
        <ele>2087</ele>
      </trkpt>
      <trkpt lat="45.6825951" lon="7.0993400">
        <ele>2090</ele>
      </trkpt>
      <trkpt lat="45.6825351" lon="7.0993700">
        <ele>2092</ele>
      </trkpt>
      <trkpt lat="45.6825051" lon="7.0993200">
        <ele>2095</ele>
      </trkpt>
      <trkpt lat="45.6825651" lon="7.0996300">
        <ele>2098</ele>
      </trkpt>
      <trkpt lat="45.6825451" lon="7.0999000">
        <ele>2100</ele>
      </trkpt>
      <trkpt lat="45.6825751" lon="7.1000400">
        <ele>2103</ele>
      </trkpt>
      <trkpt lat="45.6825151" lon="7.1001100">
        <ele>2106</ele>
      </trkpt>
      <trkpt lat="45.6825451" lon="7.1004500">
        <ele>2109</ele>
      </trkpt>
      <trkpt lat="45.6824651" lon="7.1005300">
        <ele>2111</ele>
      </trkpt>
      <trkpt lat="45.6824951" lon="7.1009600">
        <ele>2114</ele>
      </trkpt>
      <trkpt lat="45.6824251" lon="7.1012400">
        <ele>2117</ele>
      </trkpt>
      <trkpt lat="45.6824181" lon="7.1016800">
        <ele>2119</ele>
      </trkpt>
      <trkpt lat="45.6823451" lon="7.1014500">
        <ele>2122</ele>
      </trkpt>
      <trkpt lat="45.6823351" lon="7.1015100">
        <ele>2125</ele>
      </trkpt>
      <trkpt lat="45.6822251" lon="7.1011900">
        <ele>2128</ele>
      </trkpt>
      <trkpt lat="45.6821951" lon="7.1012000">
        <ele>2130</ele>
      </trkpt>
      <trkpt lat="45.6820551" lon="7.1014700">
        <ele>2133</ele>
      </trkpt>
      <trkpt lat="45.6820751" lon="7.1016900">
        <ele>2136</ele>
      </trkpt>
      <trkpt lat="45.6819351" lon="7.1019900">
        <ele>2139</ele>
      </trkpt>
      <trkpt lat="45.6819751" lon="7.1022000">
        <ele>2141</ele>
      </trkpt>
      <trkpt lat="45.6820351" lon="7.1022800">
        <ele>2144</ele>
      </trkpt>
      <trkpt lat="45.6820951" lon="7.1027700">
        <ele>2147</ele>
      </trkpt>
      <trkpt lat="45.6822851" lon="7.1030700">
        <ele>2149</ele>
      </trkpt>
      <trkpt lat="45.6822190" lon="7.1033577">
        <ele>2152</ele>
      </trkpt>
      <trkpt lat="45.6822497" lon="7.1036130">
        <ele>2155</ele>
      </trkpt>
      <trkpt lat="45.6822231" lon="7.1036660">
        <ele>2158</ele>
      </trkpt>
      <trkpt lat="45.6821528" lon="7.1037134">
        <ele>2160</ele>
      </trkpt>
      <trkpt lat="45.6818892" lon="7.1037058">
        <ele>2163</ele>
      </trkpt>
    </trkseg>
  </trk>
</gpx>
