<?xml version="1.0" encoding="UTF-8"?>
<gpx version="1.1" creator="sentieri-vda" xmlns="http://www.topografix.com/GPX/1/1">
  <metadata>
    <name>Runaz - Rochefort (Arvier)</name>
    <desc>Catasto Sentieri VdA — 06_S23</desc>
    <author><name>Regione Autonoma Valle d'Aosta</name></author>
  </metadata>
  <trk>
    <name>Runaz - Rochefort (Arvier)</name>
    <src>Catasto Sentieri VdA (06_S23)</src>
    <trkseg>
      <trkpt lat="45.7005706" lon="7.1517789">
        <ele>839</ele>
      </trkpt>
      <trkpt lat="45.7006539" lon="7.1517104">
        <ele>839</ele>
      </trkpt>
      <trkpt lat="45.7008242" lon="7.1514090">
        <ele>839</ele>
      </trkpt>
      <trkpt lat="45.7008642" lon="7.1509390">
        <ele>839</ele>
      </trkpt>
      <trkpt lat="45.7008242" lon="7.1508300">
        <ele>839</ele>
      </trkpt>
      <trkpt lat="45.7008642" lon="7.1507300">
        <ele>840</ele>
      </trkpt>
      <trkpt lat="45.7007642" lon="7.1505800">
        <ele>840</ele>
      </trkpt>
      <trkpt lat="45.7008242" lon="7.1502900">
        <ele>840</ele>
      </trkpt>
      <trkpt lat="45.7008632" lon="7.1501673">
        <ele>840</ele>
      </trkpt>
      <trkpt lat="45.7011121" lon="7.1500041">
        <ele>840</ele>
      </trkpt>
      <trkpt lat="45.7012846" lon="7.1497394">
        <ele>840</ele>
      </trkpt>
      <trkpt lat="45.7017848" lon="7.1493600">
        <ele>840</ele>
      </trkpt>
      <trkpt lat="45.7017042" lon="7.1491300">
        <ele>840</ele>
      </trkpt>
      <trkpt lat="45.7016342" lon="7.1490200">
        <ele>840</ele>
      </trkpt>
      <trkpt lat="45.7016842" lon="7.1489400">
        <ele>841</ele>
      </trkpt>
      <trkpt lat="45.7016242" lon="7.1488400">
        <ele>841</ele>
      </trkpt>
      <trkpt lat="45.7016942" lon="7.1486300">
        <ele>841</ele>
      </trkpt>
      <trkpt lat="45.7020942" lon="7.1480300">
        <ele>841</ele>
      </trkpt>
      <trkpt lat="45.7024242" lon="7.1476800">
        <ele>841</ele>
      </trkpt>
      <trkpt lat="45.7026542" lon="7.1476800">
        <ele>841</ele>
      </trkpt>
      <trkpt lat="45.7027242" lon="7.1473700">
        <ele>841</ele>
      </trkpt>
      <trkpt lat="45.7026742" lon="7.1472900">
        <ele>841</ele>
      </trkpt>
      <trkpt lat="45.7027642" lon="7.1472300">
        <ele>841</ele>
      </trkpt>
      <trkpt lat="45.7027042" lon="7.1470400">
        <ele>842</ele>
      </trkpt>
      <trkpt lat="45.7029542" lon="7.1470700">
        <ele>842</ele>
      </trkpt>
      <trkpt lat="45.7029742" lon="7.1470100">
        <ele>842</ele>
      </trkpt>
      <trkpt lat="45.7030142" lon="7.1466700">
        <ele>842</ele>
      </trkpt>
      <trkpt lat="45.7029242" lon="7.1459600">
        <ele>842</ele>
      </trkpt>
      <trkpt lat="45.7032542" lon="7.1452400">
        <ele>842</ele>
      </trkpt>
      <trkpt lat="45.7032842" lon="7.1452430">
        <ele>842</ele>
      </trkpt>
      <trkpt lat="45.7033142" lon="7.1444900">
        <ele>842</ele>
      </trkpt>
      <trkpt lat="45.7033842" lon="7.1441400">
        <ele>842</ele>
      </trkpt>
      <trkpt lat="45.7032742" lon="7.1432500">
        <ele>843</ele>
      </trkpt>
      <trkpt lat="45.7032042" lon="7.1428000">
        <ele>843</ele>
      </trkpt>
      <trkpt lat="45.7030842" lon="7.1426800">
        <ele>843</ele>
      </trkpt>
      <trkpt lat="45.7030542" lon="7.1424700">
        <ele>843</ele>
      </trkpt>
      <trkpt lat="45.7030342" lon="7.1425200">
        <ele>843</ele>
      </trkpt>
      <trkpt lat="45.7030142" lon="7.1424800">
        <ele>843</ele>
      </trkpt>
      <trkpt lat="45.7031742" lon="7.1419600">
        <ele>843</ele>
      </trkpt>
      <trkpt lat="45.7031242" lon="7.1415500">
        <ele>843</ele>
      </trkpt>
      <trkpt lat="45.7031342" lon="7.1408600">
        <ele>843</ele>
      </trkpt>
      <trkpt lat="45.7031237" lon="7.1407767">
        <ele>844</ele>
      </trkpt>
      <trkpt lat="45.7031494" lon="7.1406469">
        <ele>844</ele>
      </trkpt>
      <trkpt lat="45.7031453" lon="7.1405138">
        <ele>844</ele>
      </trkpt>
      <trkpt lat="45.7031206" lon="7.1404569">
        <ele>844</ele>
      </trkpt>
      <trkpt lat="45.7030009" lon="7.1402939">
        <ele>844</ele>
      </trkpt>
      <trkpt lat="45.7029651" lon="7.1401527">
        <ele>844</ele>
      </trkpt>
      <trkpt lat="45.7029163" lon="7.1397900">
        <ele>844</ele>
      </trkpt>
      <trkpt lat="45.7029007" lon="7.1395322">
        <ele>844</ele>
      </trkpt>
      <trkpt lat="45.7027418" lon="7.1385409">
        <ele>844</ele>
      </trkpt>
      <trkpt lat="45.7026666" lon="7.1383507">
        <ele>845</ele>
      </trkpt>
      <trkpt lat="45.7025591" lon="7.1381620">
        <ele>845</ele>
      </trkpt>
      <trkpt lat="45.7025308" lon="7.1380859">
        <ele>845</ele>
      </trkpt>
      <trkpt lat="45.7025202" lon="7.1379835">
        <ele>845</ele>
      </trkpt>
      <trkpt lat="45.7025664" lon="7.1369543">
        <ele>845</ele>
      </trkpt>
      <trkpt lat="45.7025519" lon="7.1360684">
        <ele>845</ele>
      </trkpt>
      <trkpt lat="45.7025783" lon="7.1360290">
        <ele>845</ele>
      </trkpt>
      <trkpt lat="45.7026038" lon="7.1359383">
        <ele>845</ele>
      </trkpt>
      <trkpt lat="45.7026184" lon="7.1357322">
        <ele>845</ele>
      </trkpt>
      <trkpt lat="45.7026153" lon="7.1355397">
        <ele>846</ele>
      </trkpt>
      <trkpt lat="45.7025657" lon="7.1352587">
        <ele>846</ele>
      </trkpt>
      <trkpt lat="45.7025630" lon="7.1350918">
        <ele>846</ele>
      </trkpt>
      <trkpt lat="45.7027094" lon="7.1344125">
        <ele>846</ele>
      </trkpt>
      <trkpt lat="45.7028092" lon="7.1341844">
        <ele>846</ele>
      </trkpt>
      <trkpt lat="45.7028535" lon="7.1341444">
        <ele>846</ele>
      </trkpt>
      <trkpt lat="45.7029788" lon="7.1341017">
        <ele>846</ele>
      </trkpt>
      <trkpt lat="45.7031303" lon="7.1340067">
        <ele>846</ele>
      </trkpt>
      <trkpt lat="45.7032012" lon="7.1339402">
        <ele>846</ele>
      </trkpt>
      <trkpt lat="45.7032449" lon="7.1338616">
        <ele>847</ele>
      </trkpt>
      <trkpt lat="45.7032962" lon="7.1336929">
        <ele>847</ele>
      </trkpt>
      <trkpt lat="45.7032951" lon="7.1336287">
        <ele>847</ele>
      </trkpt>
      <trkpt lat="45.7033282" lon="7.1334478">
        <ele>847</ele>
      </trkpt>
      <trkpt lat="45.7034303" lon="7.1330847">
        <ele>847</ele>
      </trkpt>
      <trkpt lat="45.7034769" lon="7.1326336">
        <ele>847</ele>
      </trkpt>
      <trkpt lat="45.7035103" lon="7.1324783">
        <ele>847</ele>
      </trkpt>
      <trkpt lat="45.7035702" lon="7.1322836">
        <ele>847</ele>
      </trkpt>
      <trkpt lat="45.7037875" lon="7.1318139">
        <ele>847</ele>
      </trkpt>
      <trkpt lat="45.7038302" lon="7.1316712">
        <ele>848</ele>
      </trkpt>
      <trkpt lat="45.7038199" lon="7.1315945">
        <ele>848</ele>
      </trkpt>
      <trkpt lat="45.7038354" lon="7.1315394">
        <ele>848</ele>
      </trkpt>
      <trkpt lat="45.7038088" lon="7.1314664">
        <ele>848</ele>
      </trkpt>
      <trkpt lat="45.7038172" lon="7.1314276">
        <ele>848</ele>
      </trkpt>
      <trkpt lat="45.7037969" lon="7.1312869">
        <ele>848</ele>
      </trkpt>
      <trkpt lat="45.7037128" lon="7.1310970">
        <ele>848</ele>
      </trkpt>
      <trkpt lat="45.7036460" lon="7.1308680">
        <ele>848</ele>
      </trkpt>
      <trkpt lat="45.7036257" lon="7.1307274">
        <ele>848</ele>
      </trkpt>
      <trkpt lat="45.7036326" lon="7.1305987">
        <ele>849</ele>
      </trkpt>
      <trkpt lat="45.7036667" lon="7.1304820">
        <ele>849</ele>
      </trkpt>
      <trkpt lat="45.7037018" lon="7.1304294">
        <ele>849</ele>
      </trkpt>
      <trkpt lat="45.7040125" lon="7.1301621">
        <ele>849</ele>
      </trkpt>
      <trkpt lat="45.7041181" lon="7.1300173">
        <ele>849</ele>
      </trkpt>
      <trkpt lat="45.7042656" lon="7.1296784">
        <ele>849</ele>
      </trkpt>
      <trkpt lat="45.7045906" lon="7.1291923">
        <ele>849</ele>
      </trkpt>
      <trkpt lat="45.7048260" lon="7.1287219">
        <ele>849</ele>
      </trkpt>
      <trkpt lat="45.7050426" lon="7.1282137">
        <ele>849</ele>
      </trkpt>
      <trkpt lat="45.7052288" lon="7.1274881">
        <ele>850</ele>
      </trkpt>
      <trkpt lat="45.7052737" lon="7.1269342">
        <ele>850</ele>
      </trkpt>
      <trkpt lat="45.7053076" lon="7.1268046">
        <ele>850</ele>
      </trkpt>
      <trkpt lat="45.7054040" lon="7.1266472">
        <ele>850</ele>
      </trkpt>
      <trkpt lat="45.7055809" lon="7.1264599">
        <ele>850</ele>
      </trkpt>
    </trkseg>
  </trk>
</gpx>
