<?xml version="1.0" encoding="UTF-8"?>
<gpx version="1.1" creator="sentieri-vda" xmlns="http://www.topografix.com/GPX/1/1">
  <metadata>
    <name>Résy - Palon de Résy</name>
    <desc>Catasto Sentieri VdA — 07_S34</desc>
    <author><name>Regione Autonoma Valle d'Aosta</name></author>
  </metadata>
  <trk>
    <name>Résy - Palon de Résy</name>
    <src>Catasto Sentieri VdA (07_S34)</src>
    <trkseg>
      <trkpt lat="45.8754733" lon="7.7520890">
        <ele>2085</ele>
      </trkpt>
      <trkpt lat="45.8754043" lon="7.7520800">
        <ele>2089</ele>
      </trkpt>
      <trkpt lat="45.8753643" lon="7.7519000">
        <ele>2093</ele>
      </trkpt>
      <trkpt lat="45.8753243" lon="7.7519000">
        <ele>2096</ele>
      </trkpt>
      <trkpt lat="45.8752343" lon="7.7519700">
        <ele>2100</ele>
      </trkpt>
      <trkpt lat="45.8751443" lon="7.7519400">
        <ele>2104</ele>
      </trkpt>
      <trkpt lat="45.8751243" lon="7.7519700">
        <ele>2108</ele>
      </trkpt>
      <trkpt lat="45.8750743" lon="7.7518400">
        <ele>2111</ele>
      </trkpt>
      <trkpt lat="45.8749543" lon="7.7519400">
        <ele>2115</ele>
      </trkpt>
      <trkpt lat="45.8749143" lon="7.7516500">
        <ele>2119</ele>
      </trkpt>
      <trkpt lat="45.8748643" lon="7.7514800">
        <ele>2123</ele>
      </trkpt>
      <trkpt lat="45.8747043" lon="7.7514900">
        <ele>2126</ele>
      </trkpt>
      <trkpt lat="45.8745843" lon="7.7514600">
        <ele>2130</ele>
      </trkpt>
      <trkpt lat="45.8744543" lon="7.7515200">
        <ele>2134</ele>
      </trkpt>
      <trkpt lat="45.8742743" lon="7.7517900">
        <ele>2138</ele>
      </trkpt>
      <trkpt lat="45.8742343" lon="7.7518100">
        <ele>2142</ele>
      </trkpt>
      <trkpt lat="45.8741943" lon="7.7517800">
        <ele>2145</ele>
      </trkpt>
      <trkpt lat="45.8740343" lon="7.7518600">
        <ele>2149</ele>
      </trkpt>
      <trkpt lat="45.8739743" lon="7.7518400">
        <ele>2153</ele>
      </trkpt>
      <trkpt lat="45.8737643" lon="7.7518500">
        <ele>2157</ele>
      </trkpt>
      <trkpt lat="45.8737043" lon="7.7517800">
        <ele>2160</ele>
      </trkpt>
      <trkpt lat="45.8736143" lon="7.7517500">
        <ele>2164</ele>
      </trkpt>
      <trkpt lat="45.8735843" lon="7.7517100">
        <ele>2168</ele>
      </trkpt>
      <trkpt lat="45.8735443" lon="7.7515600">
        <ele>2172</ele>
      </trkpt>
      <trkpt lat="45.8734243" lon="7.7516400">
        <ele>2175</ele>
      </trkpt>
      <trkpt lat="45.8732643" lon="7.7516100">
        <ele>2179</ele>
      </trkpt>
      <trkpt lat="45.8731843" lon="7.7517300">
        <ele>2183</ele>
      </trkpt>
      <trkpt lat="45.8731343" lon="7.7517300">
        <ele>2187</ele>
      </trkpt>
      <trkpt lat="45.8730343" lon="7.7515800">
        <ele>2191</ele>
      </trkpt>
      <trkpt lat="45.8729643" lon="7.7514200">
        <ele>2194</ele>
      </trkpt>
      <trkpt lat="45.8728743" lon="7.7513300">
        <ele>2198</ele>
      </trkpt>
      <trkpt lat="45.8728243" lon="7.7513300">
        <ele>2202</ele>
      </trkpt>
      <trkpt lat="45.8727843" lon="7.7512400">
        <ele>2206</ele>
      </trkpt>
      <trkpt lat="45.8725443" lon="7.7509300">
        <ele>2209</ele>
      </trkpt>
      <trkpt lat="45.8724543" lon="7.7508900">
        <ele>2213</ele>
      </trkpt>
      <trkpt lat="45.8723843" lon="7.7508100">
        <ele>2217</ele>
      </trkpt>
      <trkpt lat="45.8722843" lon="7.7507500">
        <ele>2221</ele>
      </trkpt>
      <trkpt lat="45.8722343" lon="7.7506900">
        <ele>2224</ele>
      </trkpt>
      <trkpt lat="45.8721143" lon="7.7506000">
        <ele>2228</ele>
      </trkpt>
      <trkpt lat="45.8720143" lon="7.7502100">
        <ele>2232</ele>
      </trkpt>
      <trkpt lat="45.8719543" lon="7.7501200">
        <ele>2236</ele>
      </trkpt>
      <trkpt lat="45.8719043" lon="7.7499800">
        <ele>2240</ele>
      </trkpt>
      <trkpt lat="45.8718843" lon="7.7499600">
        <ele>2243</ele>
      </trkpt>
      <trkpt lat="45.8718443" lon="7.7499800">
        <ele>2247</ele>
      </trkpt>
      <trkpt lat="45.8717943" lon="7.7498800">
        <ele>2251</ele>
      </trkpt>
      <trkpt lat="45.8717743" lon="7.7497900">
        <ele>2255</ele>
      </trkpt>
      <trkpt lat="45.8717343" lon="7.7493000">
        <ele>2258</ele>
      </trkpt>
      <trkpt lat="45.8717443" lon="7.7490300">
        <ele>2262</ele>
      </trkpt>
      <trkpt lat="45.8717143" lon="7.7489000">
        <ele>2266</ele>
      </trkpt>
      <trkpt lat="45.8716743" lon="7.7485500">
        <ele>2270</ele>
      </trkpt>
      <trkpt lat="45.8716243" lon="7.7483800">
        <ele>2273</ele>
      </trkpt>
      <trkpt lat="45.8715943" lon="7.7481000">
        <ele>2277</ele>
      </trkpt>
      <trkpt lat="45.8715643" lon="7.7481100">
        <ele>2281</ele>
      </trkpt>
      <trkpt lat="45.8715443" lon="7.7481600">
        <ele>2285</ele>
      </trkpt>
      <trkpt lat="45.8714843" lon="7.7482100">
        <ele>2289</ele>
      </trkpt>
      <trkpt lat="45.8714143" lon="7.7483800">
        <ele>2292</ele>
      </trkpt>
      <trkpt lat="45.8713943" lon="7.7483400">
        <ele>2296</ele>
      </trkpt>
      <trkpt lat="45.8713343" lon="7.7479400">
        <ele>2300</ele>
      </trkpt>
      <trkpt lat="45.8713343" lon="7.7477500">
        <ele>2304</ele>
      </trkpt>
      <trkpt lat="45.8713143" lon="7.7476900">
        <ele>2307</ele>
      </trkpt>
      <trkpt lat="45.8713243" lon="7.7473900">
        <ele>2311</ele>
      </trkpt>
      <trkpt lat="45.8713543" lon="7.7473200">
        <ele>2315</ele>
      </trkpt>
      <trkpt lat="45.8713343" lon="7.7469500">
        <ele>2319</ele>
      </trkpt>
      <trkpt lat="45.8713443" lon="7.7467400">
        <ele>2322</ele>
      </trkpt>
      <trkpt lat="45.8713243" lon="7.7466400">
        <ele>2326</ele>
      </trkpt>
      <trkpt lat="45.8713143" lon="7.7463500">
        <ele>2330</ele>
      </trkpt>
      <trkpt lat="45.8712443" lon="7.7461700">
        <ele>2334</ele>
      </trkpt>
      <trkpt lat="45.8710643" lon="7.7462400">
        <ele>2338</ele>
      </trkpt>
      <trkpt lat="45.8709743" lon="7.7462400">
        <ele>2341</ele>
      </trkpt>
      <trkpt lat="45.8709343" lon="7.7462600">
        <ele>2345</ele>
      </trkpt>
      <trkpt lat="45.8708643" lon="7.7464300">
        <ele>2349</ele>
      </trkpt>
      <trkpt lat="45.8708443" lon="7.7465200">
        <ele>2353</ele>
      </trkpt>
      <trkpt lat="45.8708043" lon="7.7465900">
        <ele>2356</ele>
      </trkpt>
      <trkpt lat="45.8707443" lon="7.7465800">
        <ele>2360</ele>
      </trkpt>
      <trkpt lat="45.8707343" lon="7.7465000">
        <ele>2364</ele>
      </trkpt>
      <trkpt lat="45.8706843" lon="7.7465000">
        <ele>2368</ele>
      </trkpt>
      <trkpt lat="45.8706243" lon="7.7464600">
        <ele>2371</ele>
      </trkpt>
      <trkpt lat="45.8705343" lon="7.7463200">
        <ele>2375</ele>
      </trkpt>
      <trkpt lat="45.8705043" lon="7.7462300">
        <ele>2379</ele>
      </trkpt>
      <trkpt lat="45.8704343" lon="7.7461400">
        <ele>2383</ele>
      </trkpt>
      <trkpt lat="45.8704243" lon="7.7460900">
        <ele>2387</ele>
      </trkpt>
      <trkpt lat="45.8702943" lon="7.7459900">
        <ele>2390</ele>
      </trkpt>
      <trkpt lat="45.8702543" lon="7.7458200">
        <ele>2394</ele>
      </trkpt>
      <trkpt lat="45.8702043" lon="7.7457800">
        <ele>2398</ele>
      </trkpt>
      <trkpt lat="45.8701943" lon="7.7457400">
        <ele>2402</ele>
      </trkpt>
      <trkpt lat="45.8701443" lon="7.7457400">
        <ele>2405</ele>
      </trkpt>
      <trkpt lat="45.8700843" lon="7.7456500">
        <ele>2409</ele>
      </trkpt>
      <trkpt lat="45.8700543" lon="7.7456500">
        <ele>2413</ele>
      </trkpt>
      <trkpt lat="45.8700043" lon="7.7455500">
        <ele>2417</ele>
      </trkpt>
      <trkpt lat="45.8699343" lon="7.7455300">
        <ele>2420</ele>
      </trkpt>
      <trkpt lat="45.8699343" lon="7.7453600">
        <ele>2424</ele>
      </trkpt>
      <trkpt lat="45.8699143" lon="7.7452800">
        <ele>2428</ele>
      </trkpt>
      <trkpt lat="45.8698443" lon="7.7452400">
        <ele>2432</ele>
      </trkpt>
      <trkpt lat="45.8698043" lon="7.7452500">
        <ele>2436</ele>
      </trkpt>
      <trkpt lat="45.8697443" lon="7.7453000">
        <ele>2439</ele>
      </trkpt>
      <trkpt lat="45.8696543" lon="7.7452300">
        <ele>2443</ele>
      </trkpt>
      <trkpt lat="45.8695443" lon="7.7454200">
        <ele>2447</ele>
      </trkpt>
      <trkpt lat="45.8695043" lon="7.7454400">
        <ele>2451</ele>
      </trkpt>
      <trkpt lat="45.8694643" lon="7.7454300">
        <ele>2454</ele>
      </trkpt>
      <trkpt lat="45.8694143" lon="7.7455100">
        <ele>2458</ele>
      </trkpt>
      <trkpt lat="45.8693343" lon="7.7455100">
        <ele>2462</ele>
      </trkpt>
      <trkpt lat="45.8692443" lon="7.7456900">
        <ele>2466</ele>
      </trkpt>
      <trkpt lat="45.8691243" lon="7.7459900">
        <ele>2469</ele>
      </trkpt>
      <trkpt lat="45.8689843" lon="7.7461900">
        <ele>2473</ele>
      </trkpt>
      <trkpt lat="45.8690043" lon="7.7463300">
        <ele>2477</ele>
      </trkpt>
      <trkpt lat="45.8689443" lon="7.7464200">
        <ele>2481</ele>
      </trkpt>
      <trkpt lat="45.8688643" lon="7.7464600">
        <ele>2485</ele>
      </trkpt>
      <trkpt lat="45.8688043" lon="7.7466000">
        <ele>2488</ele>
      </trkpt>
      <trkpt lat="45.8686843" lon="7.7467900">
        <ele>2492</ele>
      </trkpt>
      <trkpt lat="45.8686043" lon="7.7468700">
        <ele>2496</ele>
      </trkpt>
      <trkpt lat="45.8685743" lon="7.7468500">
        <ele>2500</ele>
      </trkpt>
      <trkpt lat="45.8685243" lon="7.7467300">
        <ele>2503</ele>
      </trkpt>
      <trkpt lat="45.8684743" lon="7.7468000">
        <ele>2507</ele>
      </trkpt>
      <trkpt lat="45.8684443" lon="7.7468000">
        <ele>2511</ele>
      </trkpt>
      <trkpt lat="45.8684243" lon="7.7467600">
        <ele>2515</ele>
      </trkpt>
      <trkpt lat="45.8683443" lon="7.7468200">
        <ele>2518</ele>
      </trkpt>
      <trkpt lat="45.8683243" lon="7.7467800">
        <ele>2522</ele>
      </trkpt>
      <trkpt lat="45.8682843" lon="7.7468900">
        <ele>2526</ele>
      </trkpt>
      <trkpt lat="45.8682543" lon="7.7469200">
        <ele>2530</ele>
      </trkpt>
      <trkpt lat="45.8682043" lon="7.7470800">
        <ele>2534</ele>
      </trkpt>
      <trkpt lat="45.8681043" lon="7.7471400">
        <ele>2537</ele>
      </trkpt>
      <trkpt lat="45.8680543" lon="7.7472700">
        <ele>2541</ele>
      </trkpt>
      <trkpt lat="45.8679143" lon="7.7473800">
        <ele>2545</ele>
      </trkpt>
      <trkpt lat="45.8679043" lon="7.7474200">
        <ele>2549</ele>
      </trkpt>
      <trkpt lat="45.8678743" lon="7.7474100">
        <ele>2552</ele>
      </trkpt>
      <trkpt lat="45.8677943" lon="7.7476200">
        <ele>2556</ele>
      </trkpt>
      <trkpt lat="45.8677643" lon="7.7478400">
        <ele>2560</ele>
      </trkpt>
      <trkpt lat="45.8677343" lon="7.7478400">
        <ele>2564</ele>
      </trkpt>
      <trkpt lat="45.8676943" lon="7.7479900">
        <ele>2567</ele>
      </trkpt>
      <trkpt lat="45.8676643" lon="7.7480000">
        <ele>2571</ele>
      </trkpt>
      <trkpt lat="45.8676143" lon="7.7482800">
        <ele>2575</ele>
      </trkpt>
      <trkpt lat="45.8675343" lon="7.7483400">
        <ele>2579</ele>
      </trkpt>
      <trkpt lat="45.8675143" lon="7.7483000">
        <ele>2583</ele>
      </trkpt>
      <trkpt lat="45.8674443" lon="7.7485300">
        <ele>2586</ele>
      </trkpt>
      <trkpt lat="45.8674143" lon="7.7485300">
        <ele>2590</ele>
      </trkpt>
      <trkpt lat="45.8673743" lon="7.7486300">
        <ele>2594</ele>
      </trkpt>
      <trkpt lat="45.8673497" lon="7.7487672">
        <ele>2598</ele>
      </trkpt>
      <trkpt lat="45.8672794" lon="7.7488289">
        <ele>2601</ele>
      </trkpt>
      <trkpt lat="45.8672214" lon="7.7484801">
        <ele>2605</ele>
      </trkpt>
      <trkpt lat="45.8672055" lon="7.7482550">
        <ele>2609</ele>
      </trkpt>
      <trkpt lat="45.8671009" lon="7.7477452">
        <ele>2613</ele>
      </trkpt>
      <trkpt lat="45.8670490" lon="7.7473180">
        <ele>2616</ele>
      </trkpt>
      <trkpt lat="45.8669043" lon="7.7468478">
        <ele>2620</ele>
      </trkpt>
      <trkpt lat="45.8667303" lon="7.7463718">
        <ele>2624</ele>
      </trkpt>
      <trkpt lat="45.8666055" lon="7.7458658">
        <ele>2628</ele>
      </trkpt>
      <trkpt lat="45.8665882" lon="7.7457212">
        <ele>2632</ele>
      </trkpt>
      <trkpt lat="45.8666087" lon="7.7453342">
        <ele>2635</ele>
      </trkpt>
      <trkpt lat="45.8665999" lon="7.7449447">
        <ele>2639</ele>
      </trkpt>
      <trkpt lat="45.8665191" lon="7.7445536">
        <ele>2643</ele>
      </trkpt>
      <trkpt lat="45.8663777" lon="7.7441767">
        <ele>2647</ele>
      </trkpt>
      <trkpt lat="45.8663469" lon="7.7440325">
        <ele>2650</ele>
      </trkpt>
      <trkpt lat="45.8663220" lon="7.7436176">
        <ele>2654</ele>
      </trkpt>
      <trkpt lat="45.8663438" lon="7.7433433">
        <ele>2658</ele>
      </trkpt>
      <trkpt lat="45.8662571" lon="7.7428235">
        <ele>2662</ele>
      </trkpt>
      <trkpt lat="45.8662436" lon="7.7426209">
        <ele>2665</ele>
      </trkpt>
      <trkpt lat="45.8662201" lon="7.7425345">
        <ele>2669</ele>
      </trkpt>
      <trkpt lat="45.8661589" lon="7.7418788">
        <ele>2673</ele>
      </trkpt>
    </trkseg>
  </trk>
</gpx>
