<?xml version="1.0" encoding="UTF-8"?>
<gpx version="1.1" creator="sentieri-vda" xmlns="http://www.topografix.com/GPX/1/1">
  <metadata>
    <name>Crest - Résy</name>
    <desc>Catasto Sentieri VdA — 07_S45</desc>
    <author><name>Regione Autonoma Valle d'Aosta</name></author>
  </metadata>
  <trk>
    <name>Crest - Résy</name>
    <src>Catasto Sentieri VdA (07_S45)</src>
    <trkseg>
      <trkpt lat="45.8333963" lon="7.7409040">
        <ele>1925</ele>
      </trkpt>
      <trkpt lat="45.8329353" lon="7.7423390">
        <ele>1926</ele>
      </trkpt>
      <trkpt lat="45.8325653" lon="7.7428090">
        <ele>1926</ele>
      </trkpt>
      <trkpt lat="45.8326551" lon="7.7436673">
        <ele>1927</ele>
      </trkpt>
      <trkpt lat="45.8326786" lon="7.7440567">
        <ele>1928</ele>
      </trkpt>
      <trkpt lat="45.8329743" lon="7.7440750">
        <ele>1928</ele>
      </trkpt>
      <trkpt lat="45.8330640" lon="7.7437465">
        <ele>1929</ele>
      </trkpt>
      <trkpt lat="45.8331828" lon="7.7434844">
        <ele>1930</ele>
      </trkpt>
      <trkpt lat="45.8332435" lon="7.7433763">
        <ele>1930</ele>
      </trkpt>
      <trkpt lat="45.8333002" lon="7.7432782">
        <ele>1931</ele>
      </trkpt>
      <trkpt lat="45.8333811" lon="7.7432118">
        <ele>1931</ele>
      </trkpt>
      <trkpt lat="45.8334838" lon="7.7431658">
        <ele>1932</ele>
      </trkpt>
      <trkpt lat="45.8335735" lon="7.7431477">
        <ele>1933</ele>
      </trkpt>
      <trkpt lat="45.8339912" lon="7.7430643">
        <ele>1933</ele>
      </trkpt>
      <trkpt lat="45.8343771" lon="7.7431650">
        <ele>1934</ele>
      </trkpt>
      <trkpt lat="45.8344612" lon="7.7432468">
        <ele>1935</ele>
      </trkpt>
      <trkpt lat="45.8346082" lon="7.7433143">
        <ele>1935</ele>
      </trkpt>
      <trkpt lat="45.8347404" lon="7.7434659">
        <ele>1936</ele>
      </trkpt>
      <trkpt lat="45.8348308" lon="7.7434993">
        <ele>1937</ele>
      </trkpt>
      <trkpt lat="45.8348710" lon="7.7434726">
        <ele>1937</ele>
      </trkpt>
      <trkpt lat="45.8350073" lon="7.7431830">
        <ele>1938</ele>
      </trkpt>
      <trkpt lat="45.8350853" lon="7.7431169">
        <ele>1939</ele>
      </trkpt>
      <trkpt lat="45.8351772" lon="7.7430859">
        <ele>1939</ele>
      </trkpt>
      <trkpt lat="45.8353212" lon="7.7430858">
        <ele>1940</ele>
      </trkpt>
      <trkpt lat="45.8355603" lon="7.7431320">
        <ele>1941</ele>
      </trkpt>
      <trkpt lat="45.8356763" lon="7.7430457">
        <ele>1941</ele>
      </trkpt>
      <trkpt lat="45.8360462" lon="7.7429182">
        <ele>1942</ele>
      </trkpt>
      <trkpt lat="45.8363475" lon="7.7429050">
        <ele>1943</ele>
      </trkpt>
      <trkpt lat="45.8365966" lon="7.7428382">
        <ele>1943</ele>
      </trkpt>
      <trkpt lat="45.8369659" lon="7.7426593">
        <ele>1944</ele>
      </trkpt>
      <trkpt lat="45.8373501" lon="7.7424028">
        <ele>1944</ele>
      </trkpt>
      <trkpt lat="45.8374822" lon="7.7423483">
        <ele>1945</ele>
      </trkpt>
      <trkpt lat="45.8375838" lon="7.7423782">
        <ele>1946</ele>
      </trkpt>
      <trkpt lat="45.8377469" lon="7.7424775">
        <ele>1946</ele>
      </trkpt>
      <trkpt lat="45.8378326" lon="7.7424949">
        <ele>1947</ele>
      </trkpt>
      <trkpt lat="45.8379113" lon="7.7424931">
        <ele>1948</ele>
      </trkpt>
      <trkpt lat="45.8380683" lon="7.7424445">
        <ele>1948</ele>
      </trkpt>
      <trkpt lat="45.8384394" lon="7.7424265">
        <ele>1949</ele>
      </trkpt>
      <trkpt lat="45.8392479" lon="7.7424952">
        <ele>1950</ele>
      </trkpt>
      <trkpt lat="45.8394962" lon="7.7425637">
        <ele>1950</ele>
      </trkpt>
      <trkpt lat="45.8395231" lon="7.7425598">
        <ele>1951</ele>
      </trkpt>
      <trkpt lat="45.8396699" lon="7.7424020">
        <ele>1952</ele>
      </trkpt>
      <trkpt lat="45.8397414" lon="7.7423618">
        <ele>1952</ele>
      </trkpt>
      <trkpt lat="45.8398806" lon="7.7423297">
        <ele>1953</ele>
      </trkpt>
      <trkpt lat="45.8403322" lon="7.7422712">
        <ele>1954</ele>
      </trkpt>
      <trkpt lat="45.8405314" lon="7.7421766">
        <ele>1954</ele>
      </trkpt>
      <trkpt lat="45.8407906" lon="7.7420065">
        <ele>1955</ele>
      </trkpt>
      <trkpt lat="45.8409364" lon="7.7419710">
        <ele>1955</ele>
      </trkpt>
      <trkpt lat="45.8412196" lon="7.7419421">
        <ele>1956</ele>
      </trkpt>
      <trkpt lat="45.8413188" lon="7.7419528">
        <ele>1957</ele>
      </trkpt>
      <trkpt lat="45.8414861" lon="7.7420263">
        <ele>1957</ele>
      </trkpt>
      <trkpt lat="45.8417835" lon="7.7420646">
        <ele>1958</ele>
      </trkpt>
      <trkpt lat="45.8420465" lon="7.7422454">
        <ele>1959</ele>
      </trkpt>
      <trkpt lat="45.8421415" lon="7.7422916">
        <ele>1959</ele>
      </trkpt>
      <trkpt lat="45.8423311" lon="7.7423388">
        <ele>1960</ele>
      </trkpt>
      <trkpt lat="45.8428050" lon="7.7422670">
        <ele>1961</ele>
      </trkpt>
      <trkpt lat="45.8430412" lon="7.7422616">
        <ele>1961</ele>
      </trkpt>
      <trkpt lat="45.8437916" lon="7.7423639">
        <ele>1962</ele>
      </trkpt>
      <trkpt lat="45.8442814" lon="7.7424977">
        <ele>1963</ele>
      </trkpt>
      <trkpt lat="45.8444423" lon="7.7426003">
        <ele>1963</ele>
      </trkpt>
      <trkpt lat="45.8446748" lon="7.7428720">
        <ele>1964</ele>
      </trkpt>
      <trkpt lat="45.8448827" lon="7.7429606">
        <ele>1965</ele>
      </trkpt>
      <trkpt lat="45.8451440" lon="7.7429805">
        <ele>1965</ele>
      </trkpt>
      <trkpt lat="45.8452501" lon="7.7430103">
        <ele>1966</ele>
      </trkpt>
      <trkpt lat="45.8457330" lon="7.7433472">
        <ele>1966</ele>
      </trkpt>
      <trkpt lat="45.8458172" lon="7.7434290">
        <ele>1967</ele>
      </trkpt>
      <trkpt lat="45.8461658" lon="7.7440328">
        <ele>1968</ele>
      </trkpt>
      <trkpt lat="45.8462526" lon="7.7441436">
        <ele>1968</ele>
      </trkpt>
      <trkpt lat="45.8465913" lon="7.7444611">
        <ele>1969</ele>
      </trkpt>
      <trkpt lat="45.8466711" lon="7.7445592">
        <ele>1970</ele>
      </trkpt>
      <trkpt lat="45.8467628" lon="7.7447116">
        <ele>1970</ele>
      </trkpt>
      <trkpt lat="45.8468230" lon="7.7448648">
        <ele>1971</ele>
      </trkpt>
      <trkpt lat="45.8469053" lon="7.7449853">
        <ele>1972</ele>
      </trkpt>
      <trkpt lat="45.8470828" lon="7.7451616">
        <ele>1972</ele>
      </trkpt>
      <trkpt lat="45.8471583" lon="7.7452726">
        <ele>1973</ele>
      </trkpt>
      <trkpt lat="45.8472179" lon="7.7453775">
        <ele>1974</ele>
      </trkpt>
      <trkpt lat="45.8472873" lon="7.7455498">
        <ele>1974</ele>
      </trkpt>
      <trkpt lat="45.8473352" lon="7.7458096">
        <ele>1975</ele>
      </trkpt>
      <trkpt lat="45.8474931" lon="7.7462632">
        <ele>1976</ele>
      </trkpt>
      <trkpt lat="45.8475345" lon="7.7463428">
        <ele>1976</ele>
      </trkpt>
      <trkpt lat="45.8477053" lon="7.7465321">
        <ele>1977</ele>
      </trkpt>
      <trkpt lat="45.8480290" lon="7.7467019">
        <ele>1978</ele>
      </trkpt>
      <trkpt lat="45.8481856" lon="7.7468272">
        <ele>1978</ele>
      </trkpt>
      <trkpt lat="45.8482464" lon="7.7468355">
        <ele>1979</ele>
      </trkpt>
      <trkpt lat="45.8482800" lon="7.7468186">
        <ele>1979</ele>
      </trkpt>
      <trkpt lat="45.8483043" lon="7.7467762">
        <ele>1980</ele>
      </trkpt>
      <trkpt lat="45.8483541" lon="7.7464829">
        <ele>1981</ele>
      </trkpt>
      <trkpt lat="45.8483759" lon="7.7464181">
        <ele>1981</ele>
      </trkpt>
      <trkpt lat="45.8484434" lon="7.7464165">
        <ele>1982</ele>
      </trkpt>
      <trkpt lat="45.8484730" lon="7.7464358">
        <ele>1983</ele>
      </trkpt>
      <trkpt lat="45.8484996" lon="7.7464896">
        <ele>1983</ele>
      </trkpt>
      <trkpt lat="45.8485822" lon="7.7464696">
        <ele>1984</ele>
      </trkpt>
      <trkpt lat="45.8486268" lon="7.7464660">
        <ele>1985</ele>
      </trkpt>
      <trkpt lat="45.8486838" lon="7.7464131">
        <ele>1985</ele>
      </trkpt>
      <trkpt lat="45.8487605" lon="7.7462641">
        <ele>1986</ele>
      </trkpt>
      <trkpt lat="45.8489049" lon="7.7460875">
        <ele>1987</ele>
      </trkpt>
      <trkpt lat="45.8489712" lon="7.7459792">
        <ele>1987</ele>
      </trkpt>
      <trkpt lat="45.8490270" lon="7.7459349">
        <ele>1988</ele>
      </trkpt>
      <trkpt lat="45.8491376" lon="7.7457351">
        <ele>1989</ele>
      </trkpt>
      <trkpt lat="45.8492179" lon="7.7458083">
        <ele>1989</ele>
      </trkpt>
      <trkpt lat="45.8492427" lon="7.7458697">
        <ele>1990</ele>
      </trkpt>
      <trkpt lat="45.8492965" lon="7.7459053">
        <ele>1990</ele>
      </trkpt>
      <trkpt lat="45.8493519" lon="7.7459167">
        <ele>1991</ele>
      </trkpt>
      <trkpt lat="45.8494134" lon="7.7458953">
        <ele>1992</ele>
      </trkpt>
      <trkpt lat="45.8494409" lon="7.7459103">
        <ele>1992</ele>
      </trkpt>
      <trkpt lat="45.8494811" lon="7.7458506">
        <ele>1993</ele>
      </trkpt>
      <trkpt lat="45.8495489" lon="7.7459228">
        <ele>1994</ele>
      </trkpt>
      <trkpt lat="45.8495860" lon="7.7459375">
        <ele>1994</ele>
      </trkpt>
      <trkpt lat="45.8496605" lon="7.7458617">
        <ele>1995</ele>
      </trkpt>
      <trkpt lat="45.8497987" lon="7.7459341">
        <ele>1996</ele>
      </trkpt>
      <trkpt lat="45.8498576" lon="7.7459428">
        <ele>1996</ele>
      </trkpt>
      <trkpt lat="45.8500904" lon="7.7457894">
        <ele>1997</ele>
      </trkpt>
      <trkpt lat="45.8503067" lon="7.7458164">
        <ele>1998</ele>
      </trkpt>
      <trkpt lat="45.8504503" lon="7.7456814">
        <ele>1998</ele>
      </trkpt>
      <trkpt lat="45.8504991" lon="7.7455229">
        <ele>1999</ele>
      </trkpt>
      <trkpt lat="45.8505355" lon="7.7454671">
        <ele>2000</ele>
      </trkpt>
      <trkpt lat="45.8505350" lon="7.7452128">
        <ele>2000</ele>
      </trkpt>
      <trkpt lat="45.8505510" lon="7.7450353">
        <ele>2001</ele>
      </trkpt>
      <trkpt lat="45.8505814" lon="7.7449348">
        <ele>2002</ele>
      </trkpt>
      <trkpt lat="45.8506414" lon="7.7448659">
        <ele>2002</ele>
      </trkpt>
      <trkpt lat="45.8507887" lon="7.7447563">
        <ele>2003</ele>
      </trkpt>
      <trkpt lat="45.8509601" lon="7.7443789">
        <ele>2003</ele>
      </trkpt>
      <trkpt lat="45.8511128" lon="7.7441469">
        <ele>2004</ele>
      </trkpt>
      <trkpt lat="45.8512843" lon="7.7439852">
        <ele>2005</ele>
      </trkpt>
      <trkpt lat="45.8514206" lon="7.7439017">
        <ele>2005</ele>
      </trkpt>
      <trkpt lat="45.8514836" lon="7.7439003">
        <ele>2006</ele>
      </trkpt>
      <trkpt lat="45.8515968" lon="7.7439685">
        <ele>2007</ele>
      </trkpt>
      <trkpt lat="45.8518080" lon="7.7441409">
        <ele>2007</ele>
      </trkpt>
      <trkpt lat="45.8518555" lon="7.7441591">
        <ele>2008</ele>
      </trkpt>
      <trkpt lat="45.8520372" lon="7.7441164">
        <ele>2009</ele>
      </trkpt>
      <trkpt lat="45.8522564" lon="7.7439947">
        <ele>2009</ele>
      </trkpt>
      <trkpt lat="45.8523824" lon="7.7440299">
        <ele>2010</ele>
      </trkpt>
      <trkpt lat="45.8525795" lon="7.7439978">
        <ele>2011</ele>
      </trkpt>
      <trkpt lat="45.8530822" lon="7.7441316">
        <ele>2011</ele>
      </trkpt>
      <trkpt lat="45.8533891" lon="7.7440795">
        <ele>2012</ele>
      </trkpt>
      <trkpt lat="45.8539137" lon="7.7440127">
        <ele>2013</ele>
      </trkpt>
      <trkpt lat="45.8542165" lon="7.7440923">
        <ele>2013</ele>
      </trkpt>
      <trkpt lat="45.8544374" lon="7.7440216">
        <ele>2014</ele>
      </trkpt>
      <trkpt lat="45.8549894" lon="7.7439703">
        <ele>2014</ele>
      </trkpt>
      <trkpt lat="45.8552752" lon="7.7438774">
        <ele>2015</ele>
      </trkpt>
      <trkpt lat="45.8554939" lon="7.7437482">
        <ele>2016</ele>
      </trkpt>
      <trkpt lat="45.8556810" lon="7.7435765">
        <ele>2016</ele>
      </trkpt>
      <trkpt lat="45.8560278" lon="7.7431958">
        <ele>2017</ele>
      </trkpt>
      <trkpt lat="45.8563059" lon="7.7429125">
        <ele>2018</ele>
      </trkpt>
      <trkpt lat="45.8564848" lon="7.7427452">
        <ele>2018</ele>
      </trkpt>
      <trkpt lat="45.8566228" lon="7.7426937">
        <ele>2019</ele>
      </trkpt>
      <trkpt lat="45.8567520" lon="7.7427962">
        <ele>2020</ele>
      </trkpt>
      <trkpt lat="45.8568598" lon="7.7428560">
        <ele>2020</ele>
      </trkpt>
      <trkpt lat="45.8569863" lon="7.7428221">
        <ele>2021</ele>
      </trkpt>
      <trkpt lat="45.8570235" lon="7.7427210">
        <ele>2022</ele>
      </trkpt>
      <trkpt lat="45.8570713" lon="7.7426698">
        <ele>2022</ele>
      </trkpt>
      <trkpt lat="45.8573604" lon="7.7426368">
        <ele>2023</ele>
      </trkpt>
      <trkpt lat="45.8579129" lon="7.7427532">
        <ele>2024</ele>
      </trkpt>
      <trkpt lat="45.8581711" lon="7.7427400">
        <ele>2024</ele>
      </trkpt>
      <trkpt lat="45.8583847" lon="7.7426332">
        <ele>2025</ele>
      </trkpt>
      <trkpt lat="45.8584270" lon="7.7425286">
        <ele>2026</ele>
      </trkpt>
      <trkpt lat="45.8584020" lon="7.7424526">
        <ele>2026</ele>
      </trkpt>
      <trkpt lat="45.8584014" lon="7.7422850">
        <ele>2027</ele>
      </trkpt>
      <trkpt lat="45.8584432" lon="7.7421336">
        <ele>2027</ele>
      </trkpt>
      <trkpt lat="45.8585570" lon="7.7420373">
        <ele>2028</ele>
      </trkpt>
      <trkpt lat="45.8588126" lon="7.7420620">
        <ele>2029</ele>
      </trkpt>
      <trkpt lat="45.8589726" lon="7.7421041">
        <ele>2029</ele>
      </trkpt>
      <trkpt lat="45.8591314" lon="7.7420396">
        <ele>2030</ele>
      </trkpt>
      <trkpt lat="45.8592165" lon="7.7420377">
        <ele>2031</ele>
      </trkpt>
      <trkpt lat="45.8593240" lon="7.7421418">
        <ele>2031</ele>
      </trkpt>
      <trkpt lat="45.8594409" lon="7.7424128">
        <ele>2032</ele>
      </trkpt>
      <trkpt lat="45.8596259" lon="7.7426524">
        <ele>2033</ele>
      </trkpt>
      <trkpt lat="45.8598071" lon="7.7427676">
        <ele>2033</ele>
      </trkpt>
      <trkpt lat="45.8599496" lon="7.7429345">
        <ele>2034</ele>
      </trkpt>
      <trkpt lat="45.8601324" lon="7.7431131">
        <ele>2035</ele>
      </trkpt>
      <trkpt lat="45.8602836" lon="7.7433228">
        <ele>2035</ele>
      </trkpt>
      <trkpt lat="45.8604336" lon="7.7434259">
        <ele>2036</ele>
      </trkpt>
      <trkpt lat="45.8605856" lon="7.7437118">
        <ele>2037</ele>
      </trkpt>
      <trkpt lat="45.8610163" lon="7.7441892">
        <ele>2037</ele>
      </trkpt>
      <trkpt lat="45.8617110" lon="7.7444932">
        <ele>2038</ele>
      </trkpt>
      <trkpt lat="45.8621183" lon="7.7446830">
        <ele>2038</ele>
      </trkpt>
      <trkpt lat="45.8622993" lon="7.7447895">
        <ele>2039</ele>
      </trkpt>
      <trkpt lat="45.8624713" lon="7.7448462">
        <ele>2040</ele>
      </trkpt>
      <trkpt lat="45.8626067" lon="7.7447121">
        <ele>2040</ele>
      </trkpt>
      <trkpt lat="45.8627519" lon="7.7445515">
        <ele>2041</ele>
      </trkpt>
      <trkpt lat="45.8628300" lon="7.7443897">
        <ele>2042</ele>
      </trkpt>
      <trkpt lat="45.8629311" lon="7.7443158">
        <ele>2042</ele>
      </trkpt>
      <trkpt lat="45.8630242" lon="7.7443025">
        <ele>2043</ele>
      </trkpt>
      <trkpt lat="45.8631192" lon="7.7443150">
        <ele>2044</ele>
      </trkpt>
      <trkpt lat="45.8631958" lon="7.7443727">
        <ele>2044</ele>
      </trkpt>
      <trkpt lat="45.8632528" lon="7.7444746">
        <ele>2045</ele>
      </trkpt>
      <trkpt lat="45.8634097" lon="7.7445905">
        <ele>2046</ele>
      </trkpt>
      <trkpt lat="45.8635542" lon="7.7448312">
        <ele>2046</ele>
      </trkpt>
      <trkpt lat="45.8636926" lon="7.7451865">
        <ele>2047</ele>
      </trkpt>
      <trkpt lat="45.8637631" lon="7.7452949">
        <ele>2048</ele>
      </trkpt>
      <trkpt lat="45.8639127" lon="7.7454045">
        <ele>2048</ele>
      </trkpt>
      <trkpt lat="45.8639711" lon="7.7454148">
        <ele>2049</ele>
      </trkpt>
      <trkpt lat="45.8640987" lon="7.7453785">
        <ele>2049</ele>
      </trkpt>
      <trkpt lat="45.8641064" lon="7.7453239">
        <ele>2050</ele>
      </trkpt>
      <trkpt lat="45.8641694" lon="7.7451971">
        <ele>2051</ele>
      </trkpt>
      <trkpt lat="45.8641772" lon="7.7451256">
        <ele>2051</ele>
      </trkpt>
      <trkpt lat="45.8642190" lon="7.7450167">
        <ele>2052</ele>
      </trkpt>
      <trkpt lat="45.8642497" lon="7.7449539">
        <ele>2053</ele>
      </trkpt>
      <trkpt lat="45.8642809" lon="7.7449425">
        <ele>2053</ele>
      </trkpt>
      <trkpt lat="45.8643040" lon="7.7449826">
        <ele>2054</ele>
      </trkpt>
      <trkpt lat="45.8642934" lon="7.7450274">
        <ele>2055</ele>
      </trkpt>
      <trkpt lat="45.8643030" lon="7.7450487">
        <ele>2055</ele>
      </trkpt>
      <trkpt lat="45.8643303" lon="7.7450409">
        <ele>2056</ele>
      </trkpt>
      <trkpt lat="45.8643583" lon="7.7451390">
        <ele>2057</ele>
      </trkpt>
      <trkpt lat="45.8643548" lon="7.7452361">
        <ele>2057</ele>
      </trkpt>
      <trkpt lat="45.8643802" lon="7.7454056">
        <ele>2058</ele>
      </trkpt>
      <trkpt lat="45.8644013" lon="7.7454458">
        <ele>2059</ele>
      </trkpt>
      <trkpt lat="45.8645675" lon="7.7447051">
        <ele>2059</ele>
      </trkpt>
      <trkpt lat="45.8646781" lon="7.7445247">
        <ele>2060</ele>
      </trkpt>
      <trkpt lat="45.8647164" lon="7.7442950">
        <ele>2061</ele>
      </trkpt>
      <trkpt lat="45.8647480" lon="7.7442585">
        <ele>2061</ele>
      </trkpt>
      <trkpt lat="45.8647575" lon="7.7441866">
        <ele>2062</ele>
      </trkpt>
      <trkpt lat="45.8648649" lon="7.7439416">
        <ele>2062</ele>
      </trkpt>
      <trkpt lat="45.8648799" lon="7.7439500">
        <ele>2063</ele>
      </trkpt>
      <trkpt lat="45.8648985" lon="7.7439109">
        <ele>2064</ele>
      </trkpt>
      <trkpt lat="45.8649738" lon="7.7439755">
        <ele>2064</ele>
      </trkpt>
      <trkpt lat="45.8650479" lon="7.7440610">
        <ele>2065</ele>
      </trkpt>
      <trkpt lat="45.8651070" lon="7.7441861">
        <ele>2066</ele>
      </trkpt>
      <trkpt lat="45.8651640" lon="7.7442018">
        <ele>2066</ele>
      </trkpt>
      <trkpt lat="45.8652083" lon="7.7441907">
        <ele>2067</ele>
      </trkpt>
    </trkseg>
  </trk>
</gpx>
