<?xml version="1.0" encoding="UTF-8"?>
<gpx version="1.1" creator="sentieri-vda" xmlns="http://www.topografix.com/GPX/1/1">
  <metadata>
    <name>Fiéry - Résy</name>
    <desc>Catasto Sentieri VdA — 07_S32</desc>
    <author><name>Regione Autonoma Valle d'Aosta</name></author>
  </metadata>
  <trk>
    <name>Fiéry - Résy</name>
    <src>Catasto Sentieri VdA (07_S32)</src>
    <trkseg>
      <trkpt lat="45.8661589" lon="7.7418788">
        <ele>1865</ele>
      </trkpt>
      <trkpt lat="45.8661322" lon="7.7414584">
        <ele>1868</ele>
      </trkpt>
      <trkpt lat="45.8661393" lon="7.7413117">
        <ele>1870</ele>
      </trkpt>
      <trkpt lat="45.8660730" lon="7.7410638">
        <ele>1873</ele>
      </trkpt>
      <trkpt lat="45.8661052" lon="7.7408660">
        <ele>1876</ele>
      </trkpt>
      <trkpt lat="45.8662263" lon="7.7406014">
        <ele>1878</ele>
      </trkpt>
      <trkpt lat="45.8661744" lon="7.7405399">
        <ele>1881</ele>
      </trkpt>
      <trkpt lat="45.8662005" lon="7.7404675">
        <ele>1884</ele>
      </trkpt>
      <trkpt lat="45.8661043" lon="7.7404642">
        <ele>1886</ele>
      </trkpt>
      <trkpt lat="45.8661130" lon="7.7404418">
        <ele>1889</ele>
      </trkpt>
      <trkpt lat="45.8660183" lon="7.7401276">
        <ele>1892</ele>
      </trkpt>
      <trkpt lat="45.8660436" lon="7.7400918">
        <ele>1894</ele>
      </trkpt>
      <trkpt lat="45.8660427" lon="7.7399562">
        <ele>1897</ele>
      </trkpt>
      <trkpt lat="45.8660580" lon="7.7399059">
        <ele>1899</ele>
      </trkpt>
      <trkpt lat="45.8660489" lon="7.7398893">
        <ele>1902</ele>
      </trkpt>
      <trkpt lat="45.8659686" lon="7.7399001">
        <ele>1905</ele>
      </trkpt>
      <trkpt lat="45.8659555" lon="7.7398767">
        <ele>1907</ele>
      </trkpt>
      <trkpt lat="45.8659701" lon="7.7398643">
        <ele>1910</ele>
      </trkpt>
      <trkpt lat="45.8659469" lon="7.7398142">
        <ele>1913</ele>
      </trkpt>
      <trkpt lat="45.8659957" lon="7.7397731">
        <ele>1915</ele>
      </trkpt>
      <trkpt lat="45.8658864" lon="7.7397115">
        <ele>1918</ele>
      </trkpt>
      <trkpt lat="45.8658738" lon="7.7396838">
        <ele>1921</ele>
      </trkpt>
      <trkpt lat="45.8658921" lon="7.7396200">
        <ele>1923</ele>
      </trkpt>
      <trkpt lat="45.8659317" lon="7.7395631">
        <ele>1926</ele>
      </trkpt>
      <trkpt lat="45.8658948" lon="7.7394696">
        <ele>1929</ele>
      </trkpt>
      <trkpt lat="45.8658617" lon="7.7394278">
        <ele>1931</ele>
      </trkpt>
      <trkpt lat="45.8658956" lon="7.7394060">
        <ele>1934</ele>
      </trkpt>
      <trkpt lat="45.8659363" lon="7.7392535">
        <ele>1937</ele>
      </trkpt>
      <trkpt lat="45.8666643" lon="7.7390600">
        <ele>1939</ele>
      </trkpt>
      <trkpt lat="45.8668343" lon="7.7389300">
        <ele>1942</ele>
      </trkpt>
      <trkpt lat="45.8673243" lon="7.7379600">
        <ele>1945</ele>
      </trkpt>
      <trkpt lat="45.8667643" lon="7.7378100">
        <ele>1947</ele>
      </trkpt>
      <trkpt lat="45.8669443" lon="7.7372300">
        <ele>1950</ele>
      </trkpt>
      <trkpt lat="45.8673443" lon="7.7365700">
        <ele>1952</ele>
      </trkpt>
      <trkpt lat="45.8683387" lon="7.7352634">
        <ele>1955</ele>
      </trkpt>
      <trkpt lat="45.8683317" lon="7.7346904">
        <ele>1958</ele>
      </trkpt>
      <trkpt lat="45.8683223" lon="7.7344208">
        <ele>1960</ele>
      </trkpt>
      <trkpt lat="45.8685331" lon="7.7343435">
        <ele>1963</ele>
      </trkpt>
      <trkpt lat="45.8687637" lon="7.7343326">
        <ele>1966</ele>
      </trkpt>
      <trkpt lat="45.8690052" lon="7.7343470">
        <ele>1968</ele>
      </trkpt>
      <trkpt lat="45.8692918" lon="7.7343094">
        <ele>1971</ele>
      </trkpt>
      <trkpt lat="45.8693708" lon="7.7342922">
        <ele>1974</ele>
      </trkpt>
      <trkpt lat="45.8694527" lon="7.7342616">
        <ele>1976</ele>
      </trkpt>
      <trkpt lat="45.8695324" lon="7.7342656">
        <ele>1979</ele>
      </trkpt>
      <trkpt lat="45.8696325" lon="7.7343009">
        <ele>1982</ele>
      </trkpt>
      <trkpt lat="45.8697002" lon="7.7342644">
        <ele>1984</ele>
      </trkpt>
      <trkpt lat="45.8697274" lon="7.7341936">
        <ele>1987</ele>
      </trkpt>
      <trkpt lat="45.8697275" lon="7.7340846">
        <ele>1990</ele>
      </trkpt>
      <trkpt lat="45.8697238" lon="7.7339819">
        <ele>1992</ele>
      </trkpt>
      <trkpt lat="45.8696996" lon="7.7337753">
        <ele>1995</ele>
      </trkpt>
      <trkpt lat="45.8696800" lon="7.7336495">
        <ele>1998</ele>
      </trkpt>
      <trkpt lat="45.8696870" lon="7.7335326">
        <ele>2000</ele>
      </trkpt>
      <trkpt lat="45.8697605" lon="7.7334185">
        <ele>2003</ele>
      </trkpt>
      <trkpt lat="45.8698908" lon="7.7333262">
        <ele>2005</ele>
      </trkpt>
      <trkpt lat="45.8700380" lon="7.7332930">
        <ele>2008</ele>
      </trkpt>
      <trkpt lat="45.8701497" lon="7.7332761">
        <ele>2011</ele>
      </trkpt>
      <trkpt lat="45.8702770" lon="7.7332243">
        <ele>2013</ele>
      </trkpt>
      <trkpt lat="45.8703821" lon="7.7331492">
        <ele>2016</ele>
      </trkpt>
      <trkpt lat="45.8704972" lon="7.7331027">
        <ele>2019</ele>
      </trkpt>
      <trkpt lat="45.8706982" lon="7.7329101">
        <ele>2021</ele>
      </trkpt>
      <trkpt lat="45.8708752" lon="7.7328860">
        <ele>2024</ele>
      </trkpt>
      <trkpt lat="45.8710234" lon="7.7329416">
        <ele>2027</ele>
      </trkpt>
      <trkpt lat="45.8711128" lon="7.7329534">
        <ele>2029</ele>
      </trkpt>
      <trkpt lat="45.8711625" lon="7.7329334">
        <ele>2032</ele>
      </trkpt>
      <trkpt lat="45.8712109" lon="7.7328709">
        <ele>2035</ele>
      </trkpt>
      <trkpt lat="45.8711927" lon="7.7326545">
        <ele>2037</ele>
      </trkpt>
      <trkpt lat="45.8711026" lon="7.7322704">
        <ele>2040</ele>
      </trkpt>
      <trkpt lat="45.8710881" lon="7.7321467">
        <ele>2043</ele>
      </trkpt>
      <trkpt lat="45.8711310" lon="7.7319317">
        <ele>2045</ele>
      </trkpt>
      <trkpt lat="45.8711356" lon="7.7317671">
        <ele>2048</ele>
      </trkpt>
      <trkpt lat="45.8712025" lon="7.7315357">
        <ele>2051</ele>
      </trkpt>
      <trkpt lat="45.8711834" lon="7.7314514">
        <ele>2053</ele>
      </trkpt>
      <trkpt lat="45.8710922" lon="7.7313572">
        <ele>2056</ele>
      </trkpt>
      <trkpt lat="45.8710620" lon="7.7312490">
        <ele>2058</ele>
      </trkpt>
      <trkpt lat="45.8710268" lon="7.7309625">
        <ele>2061</ele>
      </trkpt>
      <trkpt lat="45.8709856" lon="7.7308608">
        <ele>2064</ele>
      </trkpt>
      <trkpt lat="45.8709047" lon="7.7307576">
        <ele>2066</ele>
      </trkpt>
      <trkpt lat="45.8708104" lon="7.7304612">
        <ele>2069</ele>
      </trkpt>
      <trkpt lat="45.8706814" lon="7.7303863">
        <ele>2072</ele>
      </trkpt>
      <trkpt lat="45.8706377" lon="7.7303371">
        <ele>2074</ele>
      </trkpt>
      <trkpt lat="45.8706165" lon="7.7302838">
        <ele>2077</ele>
      </trkpt>
      <trkpt lat="45.8704428" lon="7.7302253">
        <ele>2080</ele>
      </trkpt>
      <trkpt lat="45.8701330" lon="7.7301643">
        <ele>2082</ele>
      </trkpt>
      <trkpt lat="45.8699353" lon="7.7301500">
        <ele>2085</ele>
      </trkpt>
    </trkseg>
  </trk>
</gpx>
