<?xml version="1.0" encoding="UTF-8"?>
<gpx version="1.1" creator="sentieri-vda" xmlns="http://www.topografix.com/GPX/1/1">
  <metadata>
    <name>Amponey - Bec de Nannaz</name>
    <desc>Catasto Sentieri VdA — 07_S10</desc>
    <author><name>Regione Autonoma Valle d'Aosta</name></author>
  </metadata>
  <trk>
    <name>Amponey - Bec de Nannaz</name>
    <src>Catasto Sentieri VdA (07_S10)</src>
    <trkseg>
      <trkpt lat="45.8247005" lon="7.7163479">
        <ele>1550</ele>
      </trkpt>
      <trkpt lat="45.8247638" lon="7.7160523">
        <ele>1561</ele>
      </trkpt>
      <trkpt lat="45.8248279" lon="7.7159228">
        <ele>1571</ele>
      </trkpt>
      <trkpt lat="45.8249132" lon="7.7158100">
        <ele>1582</ele>
      </trkpt>
      <trkpt lat="45.8250118" lon="7.7156146">
        <ele>1592</ele>
      </trkpt>
      <trkpt lat="45.8262763" lon="7.7142990">
        <ele>1603</ele>
      </trkpt>
      <trkpt lat="45.8258963" lon="7.7133090">
        <ele>1613</ele>
      </trkpt>
      <trkpt lat="45.8263463" lon="7.7132890">
        <ele>1624</ele>
      </trkpt>
      <trkpt lat="45.8261963" lon="7.7126000">
        <ele>1634</ele>
      </trkpt>
      <trkpt lat="45.8264763" lon="7.7114400">
        <ele>1645</ele>
      </trkpt>
      <trkpt lat="45.8269863" lon="7.7120600">
        <ele>1655</ele>
      </trkpt>
      <trkpt lat="45.8270662" lon="7.7097443">
        <ele>1666</ele>
      </trkpt>
      <trkpt lat="45.8270629" lon="7.7095595">
        <ele>1676</ele>
      </trkpt>
      <trkpt lat="45.8271592" lon="7.7096881">
        <ele>1687</ele>
      </trkpt>
      <trkpt lat="45.8272273" lon="7.7097035">
        <ele>1697</ele>
      </trkpt>
      <trkpt lat="45.8275010" lon="7.7100382">
        <ele>1708</ele>
      </trkpt>
      <trkpt lat="45.8276837" lon="7.7103440">
        <ele>1718</ele>
      </trkpt>
      <trkpt lat="45.8278244" lon="7.7105217">
        <ele>1729</ele>
      </trkpt>
      <trkpt lat="45.8279019" lon="7.7107043">
        <ele>1740</ele>
      </trkpt>
      <trkpt lat="45.8281189" lon="7.7105842">
        <ele>1750</ele>
      </trkpt>
      <trkpt lat="45.8282289" lon="7.7104657">
        <ele>1761</ele>
      </trkpt>
      <trkpt lat="45.8282774" lon="7.7103355">
        <ele>1771</ele>
      </trkpt>
      <trkpt lat="45.8282458" lon="7.7100388">
        <ele>1782</ele>
      </trkpt>
      <trkpt lat="45.8282173" lon="7.7098730">
        <ele>1792</ele>
      </trkpt>
      <trkpt lat="45.8281462" lon="7.7097604">
        <ele>1803</ele>
      </trkpt>
      <trkpt lat="45.8281066" lon="7.7096400">
        <ele>1813</ele>
      </trkpt>
      <trkpt lat="45.8280969" lon="7.7095213">
        <ele>1824</ele>
      </trkpt>
      <trkpt lat="45.8280975" lon="7.7094238">
        <ele>1834</ele>
      </trkpt>
      <trkpt lat="45.8280809" lon="7.7092838">
        <ele>1845</ele>
      </trkpt>
      <trkpt lat="45.8280834" lon="7.7092029">
        <ele>1855</ele>
      </trkpt>
      <trkpt lat="45.8280672" lon="7.7091009">
        <ele>1866</ele>
      </trkpt>
      <trkpt lat="45.8280579" lon="7.7090084">
        <ele>1876</ele>
      </trkpt>
      <trkpt lat="45.8280488" lon="7.7089444">
        <ele>1887</ele>
      </trkpt>
      <trkpt lat="45.8280295" lon="7.7088496">
        <ele>1897</ele>
      </trkpt>
      <trkpt lat="45.8280789" lon="7.7088081">
        <ele>1908</ele>
      </trkpt>
      <trkpt lat="45.8280947" lon="7.7087363">
        <ele>1919</ele>
      </trkpt>
      <trkpt lat="45.8281695" lon="7.7087275">
        <ele>1929</ele>
      </trkpt>
      <trkpt lat="45.8282125" lon="7.7086741">
        <ele>1940</ele>
      </trkpt>
      <trkpt lat="45.8282346" lon="7.7086379">
        <ele>1950</ele>
      </trkpt>
      <trkpt lat="45.8282642" lon="7.7086781">
        <ele>1961</ele>
      </trkpt>
      <trkpt lat="45.8282745" lon="7.7086453">
        <ele>1971</ele>
      </trkpt>
      <trkpt lat="45.8282354" lon="7.7084179">
        <ele>1982</ele>
      </trkpt>
      <trkpt lat="45.8282146" lon="7.7083458">
        <ele>1992</ele>
      </trkpt>
      <trkpt lat="45.8282271" lon="7.7082706">
        <ele>2003</ele>
      </trkpt>
      <trkpt lat="45.8282329" lon="7.7081967">
        <ele>2013</ele>
      </trkpt>
      <trkpt lat="45.8282098" lon="7.7081437">
        <ele>2024</ele>
      </trkpt>
      <trkpt lat="45.8282200" lon="7.7080828">
        <ele>2034</ele>
      </trkpt>
      <trkpt lat="45.8282529" lon="7.7080535">
        <ele>2045</ele>
      </trkpt>
      <trkpt lat="45.8282491" lon="7.7080131">
        <ele>2055</ele>
      </trkpt>
      <trkpt lat="45.8282211" lon="7.7078877">
        <ele>2066</ele>
      </trkpt>
      <trkpt lat="45.8281748" lon="7.7076901">
        <ele>2076</ele>
      </trkpt>
      <trkpt lat="45.8281858" lon="7.7075602">
        <ele>2087</ele>
      </trkpt>
      <trkpt lat="45.8281886" lon="7.7073651">
        <ele>2098</ele>
      </trkpt>
      <trkpt lat="45.8281481" lon="7.7071733">
        <ele>2108</ele>
      </trkpt>
      <trkpt lat="45.8281785" lon="7.7069181">
        <ele>2119</ele>
      </trkpt>
      <trkpt lat="45.8281824" lon="7.7068528">
        <ele>2129</ele>
      </trkpt>
      <trkpt lat="45.8281663" lon="7.7067400">
        <ele>2140</ele>
      </trkpt>
      <trkpt lat="45.8277563" lon="7.7058400">
        <ele>2150</ele>
      </trkpt>
      <trkpt lat="45.8276977" lon="7.7056494">
        <ele>2161</ele>
      </trkpt>
      <trkpt lat="45.8276712" lon="7.7054419">
        <ele>2171</ele>
      </trkpt>
      <trkpt lat="45.8276974" lon="7.7053318">
        <ele>2182</ele>
      </trkpt>
      <trkpt lat="45.8277284" lon="7.7052086">
        <ele>2192</ele>
      </trkpt>
      <trkpt lat="45.8277405" lon="7.7050989">
        <ele>2203</ele>
      </trkpt>
      <trkpt lat="45.8277392" lon="7.7050620">
        <ele>2213</ele>
      </trkpt>
      <trkpt lat="45.8277373" lon="7.7050340">
        <ele>2224</ele>
      </trkpt>
      <trkpt lat="45.8279571" lon="7.7049533">
        <ele>2234</ele>
      </trkpt>
      <trkpt lat="45.8282773" lon="7.7050872">
        <ele>2245</ele>
      </trkpt>
      <trkpt lat="45.8286369" lon="7.7051942">
        <ele>2255</ele>
      </trkpt>
      <trkpt lat="45.8288163" lon="7.7059300">
        <ele>2266</ele>
      </trkpt>
      <trkpt lat="45.8289863" lon="7.7062100">
        <ele>2277</ele>
      </trkpt>
      <trkpt lat="45.8294363" lon="7.7068100">
        <ele>2287</ele>
      </trkpt>
      <trkpt lat="45.8296963" lon="7.7069100">
        <ele>2298</ele>
      </trkpt>
      <trkpt lat="45.8298070" lon="7.7069888">
        <ele>2308</ele>
      </trkpt>
      <trkpt lat="45.8298170" lon="7.7069960">
        <ele>2319</ele>
      </trkpt>
      <trkpt lat="45.8299063" lon="7.7070900">
        <ele>2329</ele>
      </trkpt>
      <trkpt lat="45.8308063" lon="7.7068900">
        <ele>2340</ele>
      </trkpt>
      <trkpt lat="45.8323523" lon="7.7070800">
        <ele>2350</ele>
      </trkpt>
      <trkpt lat="45.8329433" lon="7.7070930">
        <ele>2361</ele>
      </trkpt>
      <trkpt lat="45.8332473" lon="7.7070320">
        <ele>2371</ele>
      </trkpt>
      <trkpt lat="45.8334463" lon="7.7067200">
        <ele>2382</ele>
      </trkpt>
      <trkpt lat="45.8340463" lon="7.7061900">
        <ele>2392</ele>
      </trkpt>
      <trkpt lat="45.8349263" lon="7.7047700">
        <ele>2403</ele>
      </trkpt>
      <trkpt lat="45.8350403" lon="7.7038010">
        <ele>2413</ele>
      </trkpt>
      <trkpt lat="45.8350576" lon="7.7037487">
        <ele>2424</ele>
      </trkpt>
      <trkpt lat="45.8357863" lon="7.7015500">
        <ele>2434</ele>
      </trkpt>
      <trkpt lat="45.8362363" lon="7.7006500">
        <ele>2445</ele>
      </trkpt>
      <trkpt lat="45.8363263" lon="7.7000900">
        <ele>2455</ele>
      </trkpt>
      <trkpt lat="45.8361963" lon="7.6984200">
        <ele>2466</ele>
      </trkpt>
      <trkpt lat="45.8358963" lon="7.6953900">
        <ele>2477</ele>
      </trkpt>
      <trkpt lat="45.8356163" lon="7.6947700">
        <ele>2487</ele>
      </trkpt>
      <trkpt lat="45.8356963" lon="7.6940200">
        <ele>2498</ele>
      </trkpt>
      <trkpt lat="45.8355263" lon="7.6919400">
        <ele>2508</ele>
      </trkpt>
      <trkpt lat="45.8361203" lon="7.6915930">
        <ele>2519</ele>
      </trkpt>
      <trkpt lat="45.8373485" lon="7.6914257">
        <ele>2529</ele>
      </trkpt>
      <trkpt lat="45.8373513" lon="7.6916242">
        <ele>2540</ele>
      </trkpt>
      <trkpt lat="45.8373720" lon="7.6916624">
        <ele>2550</ele>
      </trkpt>
      <trkpt lat="45.8375467" lon="7.6915907">
        <ele>2561</ele>
      </trkpt>
      <trkpt lat="45.8376546" lon="7.6915817">
        <ele>2571</ele>
      </trkpt>
      <trkpt lat="45.8378578" lon="7.6916381">
        <ele>2582</ele>
      </trkpt>
      <trkpt lat="45.8380510" lon="7.6916175">
        <ele>2592</ele>
      </trkpt>
      <trkpt lat="45.8380773" lon="7.6915557">
        <ele>2603</ele>
      </trkpt>
      <trkpt lat="45.8380617" lon="7.6913726">
        <ele>2613</ele>
      </trkpt>
      <trkpt lat="45.8379266" lon="7.6909734">
        <ele>2624</ele>
      </trkpt>
      <trkpt lat="45.8378748" lon="7.6907718">
        <ele>2634</ele>
      </trkpt>
      <trkpt lat="45.8378457" lon="7.6905890">
        <ele>2645</ele>
      </trkpt>
      <trkpt lat="45.8378293" lon="7.6903318">
        <ele>2656</ele>
      </trkpt>
      <trkpt lat="45.8378453" lon="7.6901576">
        <ele>2666</ele>
      </trkpt>
      <trkpt lat="45.8378669" lon="7.6900831">
        <ele>2677</ele>
      </trkpt>
      <trkpt lat="45.8380813" lon="7.6895469">
        <ele>2687</ele>
      </trkpt>
      <trkpt lat="45.8382685" lon="7.6889952">
        <ele>2698</ele>
      </trkpt>
      <trkpt lat="45.8382775" lon="7.6886087">
        <ele>2708</ele>
      </trkpt>
      <trkpt lat="45.8381600" lon="7.6881704">
        <ele>2719</ele>
      </trkpt>
      <trkpt lat="45.8380867" lon="7.6880530">
        <ele>2729</ele>
      </trkpt>
      <trkpt lat="45.8381331" lon="7.6879811">
        <ele>2740</ele>
      </trkpt>
      <trkpt lat="45.8381942" lon="7.6880151">
        <ele>2750</ele>
      </trkpt>
      <trkpt lat="45.8384959" lon="7.6884201">
        <ele>2761</ele>
      </trkpt>
      <trkpt lat="45.8385172" lon="7.6887093">
        <ele>2771</ele>
      </trkpt>
      <trkpt lat="45.8391963" lon="7.6878800">
        <ele>2782</ele>
      </trkpt>
      <trkpt lat="45.8385363" lon="7.6865500">
        <ele>2792</ele>
      </trkpt>
      <trkpt lat="45.8382563" lon="7.6854400">
        <ele>2803</ele>
      </trkpt>
      <trkpt lat="45.8384063" lon="7.6849200">
        <ele>2813</ele>
      </trkpt>
      <trkpt lat="45.8387263" lon="7.6844500">
        <ele>2824</ele>
      </trkpt>
      <trkpt lat="45.8400963" lon="7.6843200">
        <ele>2835</ele>
      </trkpt>
      <trkpt lat="45.8411663" lon="7.6833300">
        <ele>2845</ele>
      </trkpt>
      <trkpt lat="45.8418963" lon="7.6831200">
        <ele>2856</ele>
      </trkpt>
      <trkpt lat="45.8429763" lon="7.6844500">
        <ele>2866</ele>
      </trkpt>
      <trkpt lat="45.8433563" lon="7.6864400">
        <ele>2877</ele>
      </trkpt>
      <trkpt lat="45.8448853" lon="7.6873900">
        <ele>2887</ele>
      </trkpt>
      <trkpt lat="45.8449853" lon="7.6870000">
        <ele>2898</ele>
      </trkpt>
      <trkpt lat="45.8452853" lon="7.6873200">
        <ele>2908</ele>
      </trkpt>
      <trkpt lat="45.8454353" lon="7.6868300">
        <ele>2919</ele>
      </trkpt>
      <trkpt lat="45.8468153" lon="7.6866800">
        <ele>2929</ele>
      </trkpt>
      <trkpt lat="45.8468753" lon="7.6850310">
        <ele>2940</ele>
      </trkpt>
      <trkpt lat="45.8475653" lon="7.6853910">
        <ele>2950</ele>
      </trkpt>
      <trkpt lat="45.8477153" lon="7.6859310">
        <ele>2961</ele>
      </trkpt>
      <trkpt lat="45.8485953" lon="7.6852410">
        <ele>2971</ele>
      </trkpt>
      <trkpt lat="45.8486993" lon="7.6852730">
        <ele>2982</ele>
      </trkpt>
      <trkpt lat="45.8489293" lon="7.6853490">
        <ele>2992</ele>
      </trkpt>
      <trkpt lat="45.8493333" lon="7.6856940">
        <ele>3003</ele>
      </trkpt>
    </trkseg>
  </trk>
</gpx>
