<?xml version="1.0" encoding="UTF-8"?>
<gpx version="1.1" creator="sentieri-vda" xmlns="http://www.topografix.com/GPX/1/1">
  <metadata>
    <name>Aymavilles (St-Léger) - Strada regionale per Cogne</name>
    <desc>Catasto Sentieri VdA — 08_S6</desc>
    <author><name>Regione Autonoma Valle d'Aosta</name></author>
  </metadata>
  <trk>
    <name>Aymavilles (St-Léger) - Strada regionale per Cogne</name>
    <src>Catasto Sentieri VdA (08_S6)</src>
    <trkseg>
      <trkpt lat="45.6934750" lon="7.2364577">
        <ele>667</ele>
      </trkpt>
      <trkpt lat="45.6935935" lon="7.2364381">
        <ele>671</ele>
      </trkpt>
      <trkpt lat="45.6936620" lon="7.2364457">
        <ele>675</ele>
      </trkpt>
      <trkpt lat="45.6937198" lon="7.2364793">
        <ele>679</ele>
      </trkpt>
      <trkpt lat="45.6938142" lon="7.2365270">
        <ele>684</ele>
      </trkpt>
      <trkpt lat="45.6939710" lon="7.2365897">
        <ele>688</ele>
      </trkpt>
      <trkpt lat="45.6940642" lon="7.2365870">
        <ele>692</ele>
      </trkpt>
      <trkpt lat="45.6942342" lon="7.2365770">
        <ele>696</ele>
      </trkpt>
      <trkpt lat="45.6945542" lon="7.2366070">
        <ele>700</ele>
      </trkpt>
      <trkpt lat="45.6948042" lon="7.2367270">
        <ele>704</ele>
      </trkpt>
      <trkpt lat="45.6949042" lon="7.2366870">
        <ele>709</ele>
      </trkpt>
      <trkpt lat="45.6950442" lon="7.2366970">
        <ele>713</ele>
      </trkpt>
      <trkpt lat="45.6951742" lon="7.2366170">
        <ele>717</ele>
      </trkpt>
      <trkpt lat="45.6953742" lon="7.2364180">
        <ele>721</ele>
      </trkpt>
      <trkpt lat="45.6956142" lon="7.2362980">
        <ele>725</ele>
      </trkpt>
      <trkpt lat="45.6956942" lon="7.2362980">
        <ele>729</ele>
      </trkpt>
      <trkpt lat="45.6957942" lon="7.2362180">
        <ele>734</ele>
      </trkpt>
      <trkpt lat="45.6959842" lon="7.2359380">
        <ele>738</ele>
      </trkpt>
      <trkpt lat="45.6960142" lon="7.2359380">
        <ele>742</ele>
      </trkpt>
      <trkpt lat="45.6960242" lon="7.2359680">
        <ele>746</ele>
      </trkpt>
      <trkpt lat="45.6962242" lon="7.2361480">
        <ele>750</ele>
      </trkpt>
      <trkpt lat="45.6963042" lon="7.2361980">
        <ele>754</ele>
      </trkpt>
      <trkpt lat="45.6964442" lon="7.2362180">
        <ele>759</ele>
      </trkpt>
      <trkpt lat="45.6965242" lon="7.2362780">
        <ele>763</ele>
      </trkpt>
      <trkpt lat="45.6966042" lon="7.2362980">
        <ele>767</ele>
      </trkpt>
      <trkpt lat="45.6967242" lon="7.2363780">
        <ele>771</ele>
      </trkpt>
      <trkpt lat="45.6968243" lon="7.2365596">
        <ele>775</ele>
      </trkpt>
      <trkpt lat="45.6968685" lon="7.2365639">
        <ele>779</ele>
      </trkpt>
      <trkpt lat="45.6968848" lon="7.2365964">
        <ele>783</ele>
      </trkpt>
      <trkpt lat="45.6968766" lon="7.2366480">
        <ele>788</ele>
      </trkpt>
      <trkpt lat="45.6970049" lon="7.2367981">
        <ele>792</ele>
      </trkpt>
      <trkpt lat="45.6970959" lon="7.2368594">
        <ele>796</ele>
      </trkpt>
      <trkpt lat="45.6971501" lon="7.2368706">
        <ele>800</ele>
      </trkpt>
      <trkpt lat="45.6973300" lon="7.2368649">
        <ele>804</ele>
      </trkpt>
      <trkpt lat="45.6974473" lon="7.2368869">
        <ele>808</ele>
      </trkpt>
      <trkpt lat="45.6975111" lon="7.2369363">
        <ele>813</ele>
      </trkpt>
      <trkpt lat="45.6978613" lon="7.2368868">
        <ele>817</ele>
      </trkpt>
      <trkpt lat="45.6979283" lon="7.2368525">
        <ele>821</ele>
      </trkpt>
      <trkpt lat="45.6980620" lon="7.2370603">
        <ele>825</ele>
      </trkpt>
      <trkpt lat="45.6983893" lon="7.2372683">
        <ele>829</ele>
      </trkpt>
      <trkpt lat="45.6985534" lon="7.2374045">
        <ele>833</ele>
      </trkpt>
      <trkpt lat="45.6987089" lon="7.2375666">
        <ele>838</ele>
      </trkpt>
      <trkpt lat="45.6990365" lon="7.2378003">
        <ele>842</ele>
      </trkpt>
      <trkpt lat="45.6991633" lon="7.2378477">
        <ele>846</ele>
      </trkpt>
      <trkpt lat="45.6992910" lon="7.2379593">
        <ele>850</ele>
      </trkpt>
      <trkpt lat="45.6994105" lon="7.2381225">
        <ele>854</ele>
      </trkpt>
      <trkpt lat="45.6996408" lon="7.2386098">
        <ele>858</ele>
      </trkpt>
      <trkpt lat="45.6996957" lon="7.2391026">
        <ele>863</ele>
      </trkpt>
      <trkpt lat="45.6997607" lon="7.2394419">
        <ele>867</ele>
      </trkpt>
      <trkpt lat="45.6998033" lon="7.2396644">
        <ele>871</ele>
      </trkpt>
      <trkpt lat="45.6998960" lon="7.2397992">
        <ele>875</ele>
      </trkpt>
    </trkseg>
  </trk>
</gpx>
