<?xml version="1.0" encoding="UTF-8"?>
<gpx version="1.1" creator="sentieri-vda" xmlns="http://www.topografix.com/GPX/1/1">
  <metadata>
    <name>Ru  - Plan Faudery</name>
    <desc>Catasto Sentieri VdA — 10_S1</desc>
    <author><name>Regione Autonoma Valle d'Aosta</name></author>
  </metadata>
  <trk>
    <name>Ru  - Plan Faudery</name>
    <src>Catasto Sentieri VdA (10_S1)</src>
    <trkseg>
      <trkpt lat="45.8769263" lon="7.3855670">
        <ele>1695</ele>
      </trkpt>
      <trkpt lat="45.8766123" lon="7.3859390">
        <ele>1701</ele>
      </trkpt>
      <trkpt lat="45.8761663" lon="7.3861100">
        <ele>1708</ele>
      </trkpt>
      <trkpt lat="45.8760723" lon="7.3863330">
        <ele>1714</ele>
      </trkpt>
      <trkpt lat="45.8758373" lon="7.3865310">
        <ele>1721</ele>
      </trkpt>
      <trkpt lat="45.8758303" lon="7.3870790">
        <ele>1727</ele>
      </trkpt>
      <trkpt lat="45.8756403" lon="7.3874760">
        <ele>1734</ele>
      </trkpt>
      <trkpt lat="45.8754513" lon="7.3875490">
        <ele>1740</ele>
      </trkpt>
      <trkpt lat="45.8751353" lon="7.3882200">
        <ele>1747</ele>
      </trkpt>
      <trkpt lat="45.8747383" lon="7.3885700">
        <ele>1753</ele>
      </trkpt>
      <trkpt lat="45.8744663" lon="7.3884640">
        <ele>1760</ele>
      </trkpt>
      <trkpt lat="45.8743183" lon="7.3879640">
        <ele>1766</ele>
      </trkpt>
      <trkpt lat="45.8741553" lon="7.3878640">
        <ele>1773</ele>
      </trkpt>
      <trkpt lat="45.8738823" lon="7.3879860">
        <ele>1779</ele>
      </trkpt>
      <trkpt lat="45.8740103" lon="7.3881120">
        <ele>1786</ele>
      </trkpt>
      <trkpt lat="45.8738603" lon="7.3896300">
        <ele>1792</ele>
      </trkpt>
      <trkpt lat="45.8734383" lon="7.3898080">
        <ele>1799</ele>
      </trkpt>
      <trkpt lat="45.8734953" lon="7.3903750">
        <ele>1805</ele>
      </trkpt>
      <trkpt lat="45.8733783" lon="7.3908220">
        <ele>1811</ele>
      </trkpt>
      <trkpt lat="45.8729873" lon="7.3910440">
        <ele>1818</ele>
      </trkpt>
      <trkpt lat="45.8730673" lon="7.3912430">
        <ele>1824</ele>
      </trkpt>
      <trkpt lat="45.8722183" lon="7.3917600">
        <ele>1831</ele>
      </trkpt>
      <trkpt lat="45.8721743" lon="7.3919340">
        <ele>1837</ele>
      </trkpt>
      <trkpt lat="45.8724773" lon="7.3923850">
        <ele>1844</ele>
      </trkpt>
      <trkpt lat="45.8719913" lon="7.3924560">
        <ele>1850</ele>
      </trkpt>
      <trkpt lat="45.8715533" lon="7.3928010">
        <ele>1857</ele>
      </trkpt>
      <trkpt lat="45.8715463" lon="7.3930010">
        <ele>1863</ele>
      </trkpt>
      <trkpt lat="45.8713563" lon="7.3930490">
        <ele>1870</ele>
      </trkpt>
      <trkpt lat="45.8711193" lon="7.3935450">
        <ele>1876</ele>
      </trkpt>
      <trkpt lat="45.8711593" lon="7.3939930">
        <ele>1883</ele>
      </trkpt>
      <trkpt lat="45.8718883" lon="7.3949200">
        <ele>1889</ele>
      </trkpt>
      <trkpt lat="45.8723553" lon="7.3972400">
        <ele>1896</ele>
      </trkpt>
      <trkpt lat="45.8728113" lon="7.3986390">
        <ele>1902</ele>
      </trkpt>
      <trkpt lat="45.8729873" lon="7.3990140">
        <ele>1909</ele>
      </trkpt>
      <trkpt lat="45.8733023" lon="7.3990160">
        <ele>1915</ele>
      </trkpt>
      <trkpt lat="45.8735003" lon="7.3994660">
        <ele>1922</ele>
      </trkpt>
      <trkpt lat="45.8736183" lon="7.3998200">
        <ele>1928</ele>
      </trkpt>
      <trkpt lat="45.8739635" lon="7.4009882">
        <ele>1934</ele>
      </trkpt>
      <trkpt lat="45.8740527" lon="7.4012498">
        <ele>1941</ele>
      </trkpt>
      <trkpt lat="45.8742044" lon="7.4017995">
        <ele>1947</ele>
      </trkpt>
      <trkpt lat="45.8741073" lon="7.4018570">
        <ele>1954</ele>
      </trkpt>
      <trkpt lat="45.8736983" lon="7.4012770">
        <ele>1960</ele>
      </trkpt>
      <trkpt lat="45.8733368" lon="7.4011435">
        <ele>1967</ele>
      </trkpt>
      <trkpt lat="45.8725304" lon="7.4008457">
        <ele>1973</ele>
      </trkpt>
      <trkpt lat="45.8724800" lon="7.4009374">
        <ele>1980</ele>
      </trkpt>
      <trkpt lat="45.8724333" lon="7.4014605">
        <ele>1986</ele>
      </trkpt>
      <trkpt lat="45.8724340" lon="7.4015088">
        <ele>1993</ele>
      </trkpt>
      <trkpt lat="45.8724714" lon="7.4016108">
        <ele>1999</ele>
      </trkpt>
      <trkpt lat="45.8724772" lon="7.4017073">
        <ele>2006</ele>
      </trkpt>
      <trkpt lat="45.8724577" lon="7.4017594">
        <ele>2012</ele>
      </trkpt>
      <trkpt lat="45.8724332" lon="7.4017762">
        <ele>2019</ele>
      </trkpt>
      <trkpt lat="45.8723948" lon="7.4017676">
        <ele>2025</ele>
      </trkpt>
      <trkpt lat="45.8722809" lon="7.4016646">
        <ele>2032</ele>
      </trkpt>
      <trkpt lat="45.8722211" lon="7.4015697">
        <ele>2038</ele>
      </trkpt>
      <trkpt lat="45.8721857" lon="7.4014515">
        <ele>2044</ele>
      </trkpt>
      <trkpt lat="45.8721449" lon="7.4011112">
        <ele>2051</ele>
      </trkpt>
      <trkpt lat="45.8721126" lon="7.4010574">
        <ele>2057</ele>
      </trkpt>
      <trkpt lat="45.8720562" lon="7.4010461">
        <ele>2064</ele>
      </trkpt>
      <trkpt lat="45.8720244" lon="7.4011856">
        <ele>2070</ele>
      </trkpt>
      <trkpt lat="45.8719766" lon="7.4016250">
        <ele>2077</ele>
      </trkpt>
      <trkpt lat="45.8719535" lon="7.4017481">
        <ele>2083</ele>
      </trkpt>
      <trkpt lat="45.8719140" lon="7.4018136">
        <ele>2090</ele>
      </trkpt>
      <trkpt lat="45.8718685" lon="7.4017795">
        <ele>2096</ele>
      </trkpt>
      <trkpt lat="45.8718383" lon="7.4017159">
        <ele>2103</ele>
      </trkpt>
      <trkpt lat="45.8718240" lon="7.4013330">
        <ele>2109</ele>
      </trkpt>
      <trkpt lat="45.8717792" lon="7.4011894">
        <ele>2116</ele>
      </trkpt>
      <trkpt lat="45.8717307" lon="7.4012616">
        <ele>2122</ele>
      </trkpt>
      <trkpt lat="45.8716690" lon="7.4015147">
        <ele>2129</ele>
      </trkpt>
      <trkpt lat="45.8716358" lon="7.4017153">
        <ele>2135</ele>
      </trkpt>
      <trkpt lat="45.8716150" lon="7.4019961">
        <ele>2142</ele>
      </trkpt>
      <trkpt lat="45.8715548" lon="7.4020365">
        <ele>2148</ele>
      </trkpt>
      <trkpt lat="45.8715230" lon="7.4020117">
        <ele>2155</ele>
      </trkpt>
      <trkpt lat="45.8714051" lon="7.4016285">
        <ele>2161</ele>
      </trkpt>
      <trkpt lat="45.8713804" lon="7.4013071">
        <ele>2167</ele>
      </trkpt>
      <trkpt lat="45.8712771" lon="7.4018093">
        <ele>2174</ele>
      </trkpt>
      <trkpt lat="45.8711043" lon="7.4023200">
        <ele>2180</ele>
      </trkpt>
      <trkpt lat="45.8711355" lon="7.4024641">
        <ele>2187</ele>
      </trkpt>
      <trkpt lat="45.8712799" lon="7.4028142">
        <ele>2193</ele>
      </trkpt>
      <trkpt lat="45.8713535" lon="7.4029249">
        <ele>2200</ele>
      </trkpt>
      <trkpt lat="45.8713752" lon="7.4030273">
        <ele>2206</ele>
      </trkpt>
      <trkpt lat="45.8713629" lon="7.4031147">
        <ele>2213</ele>
      </trkpt>
      <trkpt lat="45.8712722" lon="7.4033846">
        <ele>2219</ele>
      </trkpt>
      <trkpt lat="45.8712229" lon="7.4034053">
        <ele>2226</ele>
      </trkpt>
      <trkpt lat="45.8711837" lon="7.4031745">
        <ele>2232</ele>
      </trkpt>
      <trkpt lat="45.8711098" lon="7.4030382">
        <ele>2239</ele>
      </trkpt>
      <trkpt lat="45.8708894" lon="7.4028866">
        <ele>2245</ele>
      </trkpt>
      <trkpt lat="45.8706683" lon="7.4026836">
        <ele>2252</ele>
      </trkpt>
      <trkpt lat="45.8706391" lon="7.4026844">
        <ele>2258</ele>
      </trkpt>
      <trkpt lat="45.8706038" lon="7.4025727">
        <ele>2265</ele>
      </trkpt>
      <trkpt lat="45.8705942" lon="7.4023725">
        <ele>2271</ele>
      </trkpt>
    </trkseg>
  </trk>
</gpx>
