<?xml version="1.0" encoding="UTF-8"?>
<gpx version="1.1" creator="sentieri-vda" xmlns="http://www.topografix.com/GPX/1/1">
  <metadata>
    <name>Lessert - Besache - Le Moulin</name>
    <desc>Catasto Sentieri VdA — 10_S26</desc>
    <author><name>Regione Autonoma Valle d'Aosta</name></author>
  </metadata>
  <trk>
    <name>Lessert - Besache - Le Moulin</name>
    <src>Catasto Sentieri VdA (10_S26)</src>
    <trkseg>
      <trkpt lat="45.8647754" lon="7.3994693">
        <ele>1547</ele>
      </trkpt>
      <trkpt lat="45.8647586" lon="7.3995581">
        <ele>1547</ele>
      </trkpt>
      <trkpt lat="45.8645085" lon="7.3996941">
        <ele>1548</ele>
      </trkpt>
      <trkpt lat="45.8643228" lon="7.3999313">
        <ele>1548</ele>
      </trkpt>
      <trkpt lat="45.8641530" lon="7.4000135">
        <ele>1549</ele>
      </trkpt>
      <trkpt lat="45.8640812" lon="7.4000285">
        <ele>1549</ele>
      </trkpt>
      <trkpt lat="45.8640189" lon="7.4000818">
        <ele>1549</ele>
      </trkpt>
      <trkpt lat="45.8639129" lon="7.4002265">
        <ele>1550</ele>
      </trkpt>
      <trkpt lat="45.8634683" lon="7.4006129">
        <ele>1550</ele>
      </trkpt>
      <trkpt lat="45.8634091" lon="7.4008851">
        <ele>1551</ele>
      </trkpt>
      <trkpt lat="45.8633937" lon="7.4010659">
        <ele>1551</ele>
      </trkpt>
      <trkpt lat="45.8626352" lon="7.4008944">
        <ele>1551</ele>
      </trkpt>
      <trkpt lat="45.8627085" lon="7.4009825">
        <ele>1552</ele>
      </trkpt>
      <trkpt lat="45.8627646" lon="7.4011355">
        <ele>1552</ele>
      </trkpt>
      <trkpt lat="45.8627657" lon="7.4012127">
        <ele>1553</ele>
      </trkpt>
      <trkpt lat="45.8626806" lon="7.4015630">
        <ele>1553</ele>
      </trkpt>
      <trkpt lat="45.8626728" lon="7.4016534">
        <ele>1553</ele>
      </trkpt>
      <trkpt lat="45.8627020" lon="7.4018071">
        <ele>1554</ele>
      </trkpt>
      <trkpt lat="45.8627966" lon="7.4021394">
        <ele>1554</ele>
      </trkpt>
      <trkpt lat="45.8628996" lon="7.4024198">
        <ele>1555</ele>
      </trkpt>
      <trkpt lat="45.8616483" lon="7.4020770">
        <ele>1555</ele>
      </trkpt>
      <trkpt lat="45.8600983" lon="7.4006170">
        <ele>1555</ele>
      </trkpt>
      <trkpt lat="45.8597047" lon="7.3997064">
        <ele>1556</ele>
      </trkpt>
      <trkpt lat="45.8595877" lon="7.3998675">
        <ele>1556</ele>
      </trkpt>
      <trkpt lat="45.8595759" lon="7.3999902">
        <ele>1556</ele>
      </trkpt>
      <trkpt lat="45.8595868" lon="7.4001252">
        <ele>1557</ele>
      </trkpt>
      <trkpt lat="45.8596304" lon="7.4003462">
        <ele>1557</ele>
      </trkpt>
      <trkpt lat="45.8597468" lon="7.4007840">
        <ele>1558</ele>
      </trkpt>
      <trkpt lat="45.8599057" lon="7.4012013">
        <ele>1558</ele>
      </trkpt>
      <trkpt lat="45.8602462" lon="7.4018969">
        <ele>1558</ele>
      </trkpt>
      <trkpt lat="45.8607424" lon="7.4026298">
        <ele>1559</ele>
      </trkpt>
      <trkpt lat="45.8609736" lon="7.4030708">
        <ele>1559</ele>
      </trkpt>
      <trkpt lat="45.8611157" lon="7.4032568">
        <ele>1560</ele>
      </trkpt>
      <trkpt lat="45.8614391" lon="7.4035373">
        <ele>1560</ele>
      </trkpt>
      <trkpt lat="45.8617571" lon="7.4039115">
        <ele>1560</ele>
      </trkpt>
      <trkpt lat="45.8621425" lon="7.4044415">
        <ele>1561</ele>
      </trkpt>
      <trkpt lat="45.8622278" lon="7.4045840">
        <ele>1561</ele>
      </trkpt>
      <trkpt lat="45.8624322" lon="7.4050419">
        <ele>1562</ele>
      </trkpt>
      <trkpt lat="45.8625771" lon="7.4052664">
        <ele>1562</ele>
      </trkpt>
      <trkpt lat="45.8629221" lon="7.4056398">
        <ele>1562</ele>
      </trkpt>
      <trkpt lat="45.8631167" lon="7.4058822">
        <ele>1563</ele>
      </trkpt>
      <trkpt lat="45.8633465" lon="7.4062235">
        <ele>1563</ele>
      </trkpt>
      <trkpt lat="45.8636803" lon="7.4066069">
        <ele>1564</ele>
      </trkpt>
      <trkpt lat="45.8637985" lon="7.4066872">
        <ele>1564</ele>
      </trkpt>
      <trkpt lat="45.8638952" lon="7.4066845">
        <ele>1564</ele>
      </trkpt>
      <trkpt lat="45.8639411" lon="7.4065898">
        <ele>1565</ele>
      </trkpt>
      <trkpt lat="45.8639675" lon="7.4063861">
        <ele>1565</ele>
      </trkpt>
      <trkpt lat="45.8640834" lon="7.4059866">
        <ele>1566</ele>
      </trkpt>
      <trkpt lat="45.8641165" lon="7.4059374">
        <ele>1566</ele>
      </trkpt>
      <trkpt lat="45.8641815" lon="7.4059194">
        <ele>1566</ele>
      </trkpt>
      <trkpt lat="45.8642992" lon="7.4059676">
        <ele>1567</ele>
      </trkpt>
      <trkpt lat="45.8643313" lon="7.4060118">
        <ele>1567</ele>
      </trkpt>
      <trkpt lat="45.8643341" lon="7.4062146">
        <ele>1568</ele>
      </trkpt>
      <trkpt lat="45.8643821" lon="7.4064290">
        <ele>1568</ele>
      </trkpt>
      <trkpt lat="45.8644196" lon="7.4066920">
        <ele>1568</ele>
      </trkpt>
      <trkpt lat="45.8644795" lon="7.4067966">
        <ele>1569</ele>
      </trkpt>
      <trkpt lat="45.8645706" lon="7.4068745">
        <ele>1569</ele>
      </trkpt>
      <trkpt lat="45.8649246" lon="7.4069288">
        <ele>1570</ele>
      </trkpt>
      <trkpt lat="45.8654727" lon="7.4076700">
        <ele>1570</ele>
      </trkpt>
      <trkpt lat="45.8657394" lon="7.4080747">
        <ele>1570</ele>
      </trkpt>
      <trkpt lat="45.8658675" lon="7.4082256">
        <ele>1571</ele>
      </trkpt>
      <trkpt lat="45.8659827" lon="7.4084220">
        <ele>1571</ele>
      </trkpt>
      <trkpt lat="45.8660135" lon="7.4085339">
        <ele>1571</ele>
      </trkpt>
      <trkpt lat="45.8660149" lon="7.4086305">
        <ele>1572</ele>
      </trkpt>
      <trkpt lat="45.8659488" lon="7.4088933">
        <ele>1572</ele>
      </trkpt>
      <trkpt lat="45.8661235" lon="7.4091503">
        <ele>1573</ele>
      </trkpt>
      <trkpt lat="45.8661183" lon="7.4098300">
        <ele>1573</ele>
      </trkpt>
      <trkpt lat="45.8666913" lon="7.4098010">
        <ele>1573</ele>
      </trkpt>
      <trkpt lat="45.8668213" lon="7.4099510">
        <ele>1574</ele>
      </trkpt>
      <trkpt lat="45.8669363" lon="7.4101520">
        <ele>1574</ele>
      </trkpt>
      <trkpt lat="45.8673283" lon="7.4104400">
        <ele>1575</ele>
      </trkpt>
      <trkpt lat="45.8677003" lon="7.4103820">
        <ele>1575</ele>
      </trkpt>
      <trkpt lat="45.8678083" lon="7.4097900">
        <ele>1575</ele>
      </trkpt>
      <trkpt lat="45.8679083" lon="7.4098100">
        <ele>1576</ele>
      </trkpt>
      <trkpt lat="45.8679083" lon="7.4103800">
        <ele>1576</ele>
      </trkpt>
      <trkpt lat="45.8681383" lon="7.4099200">
        <ele>1577</ele>
      </trkpt>
      <trkpt lat="45.8681383" lon="7.4104100">
        <ele>1577</ele>
      </trkpt>
      <trkpt lat="45.8682003" lon="7.4105850">
        <ele>1577</ele>
      </trkpt>
      <trkpt lat="45.8683883" lon="7.4104700">
        <ele>1578</ele>
      </trkpt>
      <trkpt lat="45.8684233" lon="7.4101380">
        <ele>1578</ele>
      </trkpt>
      <trkpt lat="45.8686094" lon="7.4098614">
        <ele>1579</ele>
      </trkpt>
      <trkpt lat="45.8690407" lon="7.4097238">
        <ele>1579</ele>
      </trkpt>
    </trkseg>
  </trk>
</gpx>
