<?xml version="1.0" encoding="UTF-8"?>
<gpx version="1.1" creator="sentieri-vda" xmlns="http://www.topografix.com/GPX/1/1">
  <metadata>
    <name>Chez-Chenoux  - Alpe Chardonney</name>
    <desc>Catasto Sentieri VdA — 10_S4</desc>
    <author><name>Regione Autonoma Valle d'Aosta</name></author>
  </metadata>
  <trk>
    <name>Chez-Chenoux  - Alpe Chardonney</name>
    <src>Catasto Sentieri VdA (10_S4)</src>
    <trkseg>
      <trkpt lat="45.8922023" lon="7.4115948">
        <ele>1702</ele>
      </trkpt>
      <trkpt lat="45.8923473" lon="7.4117280">
        <ele>1709</ele>
      </trkpt>
      <trkpt lat="45.8923663" lon="7.4118060">
        <ele>1715</ele>
      </trkpt>
      <trkpt lat="45.8923373" lon="7.4119680">
        <ele>1722</ele>
      </trkpt>
      <trkpt lat="45.8917163" lon="7.4123590">
        <ele>1728</ele>
      </trkpt>
      <trkpt lat="45.8914253" lon="7.4130290">
        <ele>1735</ele>
      </trkpt>
      <trkpt lat="45.8902703" lon="7.4133430">
        <ele>1741</ele>
      </trkpt>
      <trkpt lat="45.8898193" lon="7.4131530">
        <ele>1748</ele>
      </trkpt>
      <trkpt lat="45.8888373" lon="7.4131700">
        <ele>1754</ele>
      </trkpt>
      <trkpt lat="45.8883283" lon="7.4127190">
        <ele>1761</ele>
      </trkpt>
      <trkpt lat="45.8882273" lon="7.4130390">
        <ele>1767</ele>
      </trkpt>
      <trkpt lat="45.8878893" lon="7.4131060">
        <ele>1774</ele>
      </trkpt>
      <trkpt lat="45.8877503" lon="7.4133230">
        <ele>1780</ele>
      </trkpt>
      <trkpt lat="45.8871763" lon="7.4131900">
        <ele>1787</ele>
      </trkpt>
      <trkpt lat="45.8868263" lon="7.4135480">
        <ele>1794</ele>
      </trkpt>
      <trkpt lat="45.8866543" lon="7.4148700">
        <ele>1800</ele>
      </trkpt>
      <trkpt lat="45.8863423" lon="7.4144100">
        <ele>1807</ele>
      </trkpt>
      <trkpt lat="45.8853393" lon="7.4152170">
        <ele>1813</ele>
      </trkpt>
      <trkpt lat="45.8850003" lon="7.4152320">
        <ele>1820</ele>
      </trkpt>
      <trkpt lat="45.8840283" lon="7.4158010">
        <ele>1826</ele>
      </trkpt>
      <trkpt lat="45.8835573" lon="7.4160370">
        <ele>1833</ele>
      </trkpt>
      <trkpt lat="45.8832433" lon="7.4158350">
        <ele>1839</ele>
      </trkpt>
      <trkpt lat="45.8829383" lon="7.4160800">
        <ele>1846</ele>
      </trkpt>
      <trkpt lat="45.8826673" lon="7.4157670">
        <ele>1852</ele>
      </trkpt>
      <trkpt lat="45.8827173" lon="7.4153970">
        <ele>1859</ele>
      </trkpt>
      <trkpt lat="45.8825648" lon="7.4151426">
        <ele>1865</ele>
      </trkpt>
      <trkpt lat="45.8820352" lon="7.4147582">
        <ele>1872</ele>
      </trkpt>
      <trkpt lat="45.8817928" lon="7.4146362">
        <ele>1878</ele>
      </trkpt>
      <trkpt lat="45.8817401" lon="7.4145701">
        <ele>1885</ele>
      </trkpt>
      <trkpt lat="45.8816476" lon="7.4143891">
        <ele>1892</ele>
      </trkpt>
      <trkpt lat="45.8813981" lon="7.4140837">
        <ele>1898</ele>
      </trkpt>
      <trkpt lat="45.8813255" lon="7.4140406">
        <ele>1905</ele>
      </trkpt>
      <trkpt lat="45.8813173" lon="7.4137870">
        <ele>1911</ele>
      </trkpt>
      <trkpt lat="45.8807873" lon="7.4132770">
        <ele>1918</ele>
      </trkpt>
      <trkpt lat="45.8807373" lon="7.4127570">
        <ele>1924</ele>
      </trkpt>
      <trkpt lat="45.8805273" lon="7.4123970">
        <ele>1931</ele>
      </trkpt>
      <trkpt lat="45.8806583" lon="7.4122400">
        <ele>1937</ele>
      </trkpt>
      <trkpt lat="45.8805473" lon="7.4120970">
        <ele>1944</ele>
      </trkpt>
      <trkpt lat="45.8805673" lon="7.4117070">
        <ele>1950</ele>
      </trkpt>
      <trkpt lat="45.8806983" lon="7.4113100">
        <ele>1957</ele>
      </trkpt>
      <trkpt lat="45.8805983" lon="7.4105800">
        <ele>1963</ele>
      </trkpt>
      <trkpt lat="45.8803314" lon="7.4102599">
        <ele>1970</ele>
      </trkpt>
      <trkpt lat="45.8802873" lon="7.4102070">
        <ele>1977</ele>
      </trkpt>
      <trkpt lat="45.8802073" lon="7.4105070">
        <ele>1983</ele>
      </trkpt>
      <trkpt lat="45.8799089" lon="7.4101998">
        <ele>1990</ele>
      </trkpt>
      <trkpt lat="45.8794773" lon="7.4102270">
        <ele>1996</ele>
      </trkpt>
      <trkpt lat="45.8792773" lon="7.4099470">
        <ele>2003</ele>
      </trkpt>
      <trkpt lat="45.8780573" lon="7.4095170">
        <ele>2009</ele>
      </trkpt>
      <trkpt lat="45.8773673" lon="7.4097970">
        <ele>2016</ele>
      </trkpt>
      <trkpt lat="45.8772473" lon="7.4094970">
        <ele>2022</ele>
      </trkpt>
      <trkpt lat="45.8761273" lon="7.4100570">
        <ele>2029</ele>
      </trkpt>
      <trkpt lat="45.8751373" lon="7.4113470">
        <ele>2035</ele>
      </trkpt>
      <trkpt lat="45.8746273" lon="7.4117270">
        <ele>2042</ele>
      </trkpt>
      <trkpt lat="45.8745373" lon="7.4120970">
        <ele>2048</ele>
      </trkpt>
      <trkpt lat="45.8742573" lon="7.4121370">
        <ele>2055</ele>
      </trkpt>
      <trkpt lat="45.8743073" lon="7.4125270">
        <ele>2061</ele>
      </trkpt>
      <trkpt lat="45.8740673" lon="7.4125670">
        <ele>2068</ele>
      </trkpt>
      <trkpt lat="45.8741773" lon="7.4131670">
        <ele>2075</ele>
      </trkpt>
      <trkpt lat="45.8738773" lon="7.4128270">
        <ele>2081</ele>
      </trkpt>
      <trkpt lat="45.8739373" lon="7.4140470">
        <ele>2088</ele>
      </trkpt>
      <trkpt lat="45.8737273" lon="7.4142170">
        <ele>2094</ele>
      </trkpt>
      <trkpt lat="45.8733838" lon="7.4140314">
        <ele>2101</ele>
      </trkpt>
      <trkpt lat="45.8735523" lon="7.4153421">
        <ele>2107</ele>
      </trkpt>
      <trkpt lat="45.8737744" lon="7.4155150">
        <ele>2114</ele>
      </trkpt>
      <trkpt lat="45.8739116" lon="7.4155111">
        <ele>2120</ele>
      </trkpt>
      <trkpt lat="45.8740065" lon="7.4155406">
        <ele>2127</ele>
      </trkpt>
      <trkpt lat="45.8740781" lon="7.4158349">
        <ele>2133</ele>
      </trkpt>
      <trkpt lat="45.8741343" lon="7.4159976">
        <ele>2140</ele>
      </trkpt>
      <trkpt lat="45.8742732" lon="7.4162771">
        <ele>2146</ele>
      </trkpt>
      <trkpt lat="45.8744192" lon="7.4165790">
        <ele>2153</ele>
      </trkpt>
      <trkpt lat="45.8746284" lon="7.4169049">
        <ele>2160</ele>
      </trkpt>
      <trkpt lat="45.8748921" lon="7.4172549">
        <ele>2166</ele>
      </trkpt>
      <trkpt lat="45.8750288" lon="7.4173799">
        <ele>2173</ele>
      </trkpt>
      <trkpt lat="45.8751297" lon="7.4175188">
        <ele>2179</ele>
      </trkpt>
      <trkpt lat="45.8752640" lon="7.4176309">
        <ele>2186</ele>
      </trkpt>
      <trkpt lat="45.8753691" lon="7.4177471">
        <ele>2192</ele>
      </trkpt>
      <trkpt lat="45.8754844" lon="7.4179436">
        <ele>2199</ele>
      </trkpt>
      <trkpt lat="45.8755171" lon="7.4180361">
        <ele>2205</ele>
      </trkpt>
      <trkpt lat="45.8754089" lon="7.4183452">
        <ele>2212</ele>
      </trkpt>
      <trkpt lat="45.8753360" lon="7.4187693">
        <ele>2218</ele>
      </trkpt>
      <trkpt lat="45.8753280" lon="7.4188403">
        <ele>2225</ele>
      </trkpt>
      <trkpt lat="45.8753577" lon="7.4190360">
        <ele>2231</ele>
      </trkpt>
      <trkpt lat="45.8754241" lon="7.4192789">
        <ele>2238</ele>
      </trkpt>
      <trkpt lat="45.8755038" lon="7.4196761">
        <ele>2244</ele>
      </trkpt>
      <trkpt lat="45.8756777" lon="7.4202059">
        <ele>2251</ele>
      </trkpt>
      <trkpt lat="45.8759000" lon="7.4206635">
        <ele>2258</ele>
      </trkpt>
      <trkpt lat="45.8761031" lon="7.4211957">
        <ele>2264</ele>
      </trkpt>
      <trkpt lat="45.8761974" lon="7.4213445">
        <ele>2271</ele>
      </trkpt>
      <trkpt lat="45.8762476" lon="7.4213914">
        <ele>2277</ele>
      </trkpt>
      <trkpt lat="45.8765540" lon="7.4215824">
        <ele>2284</ele>
      </trkpt>
      <trkpt lat="45.8766867" lon="7.4215787">
        <ele>2290</ele>
      </trkpt>
      <trkpt lat="45.8768168" lon="7.4215492">
        <ele>2297</ele>
      </trkpt>
      <trkpt lat="45.8768778" lon="7.4215700">
        <ele>2303</ele>
      </trkpt>
      <trkpt lat="45.8770198" lon="7.4217464">
        <ele>2310</ele>
      </trkpt>
      <trkpt lat="45.8770868" lon="7.4218766">
        <ele>2316</ele>
      </trkpt>
      <trkpt lat="45.8772129" lon="7.4223723">
        <ele>2323</ele>
      </trkpt>
      <trkpt lat="45.8772480" lon="7.4229544">
        <ele>2329</ele>
      </trkpt>
      <trkpt lat="45.8773530" lon="7.4233896">
        <ele>2336</ele>
      </trkpt>
      <trkpt lat="45.8773553" lon="7.4235570">
        <ele>2343</ele>
      </trkpt>
      <trkpt lat="45.8774505" lon="7.4239377">
        <ele>2349</ele>
      </trkpt>
      <trkpt lat="45.8774648" lon="7.4243206">
        <ele>2356</ele>
      </trkpt>
      <trkpt lat="45.8775923" lon="7.4245941">
        <ele>2362</ele>
      </trkpt>
      <trkpt lat="45.8776516" lon="7.4248082">
        <ele>2369</ele>
      </trkpt>
      <trkpt lat="45.8776780" lon="7.4252553">
        <ele>2375</ele>
      </trkpt>
      <trkpt lat="45.8777369" lon="7.4254501">
        <ele>2382</ele>
      </trkpt>
      <trkpt lat="45.8779582" lon="7.4258304">
        <ele>2388</ele>
      </trkpt>
      <trkpt lat="45.8780919" lon="7.4262326">
        <ele>2395</ele>
      </trkpt>
      <trkpt lat="45.8781323" lon="7.4263828">
        <ele>2401</ele>
      </trkpt>
      <trkpt lat="45.8781361" lon="7.4266630">
        <ele>2408</ele>
      </trkpt>
      <trkpt lat="45.8780981" lon="7.4271666">
        <ele>2414</ele>
      </trkpt>
      <trkpt lat="45.8780952" lon="7.4276113">
        <ele>2421</ele>
      </trkpt>
      <trkpt lat="45.8779546" lon="7.4281855">
        <ele>2427</ele>
      </trkpt>
      <trkpt lat="45.8777453" lon="7.4285135">
        <ele>2434</ele>
      </trkpt>
      <trkpt lat="45.8777269" lon="7.4289715">
        <ele>2441</ele>
      </trkpt>
      <trkpt lat="45.8777001" lon="7.4291494">
        <ele>2447</ele>
      </trkpt>
      <trkpt lat="45.8776222" lon="7.4293739">
        <ele>2454</ele>
      </trkpt>
      <trkpt lat="45.8775996" lon="7.4295324">
        <ele>2460</ele>
      </trkpt>
      <trkpt lat="45.8775919" lon="7.4296260">
        <ele>2467</ele>
      </trkpt>
      <trkpt lat="45.8776213" lon="7.4299634">
        <ele>2473</ele>
      </trkpt>
      <trkpt lat="45.8776170" lon="7.4301440">
        <ele>2480</ele>
      </trkpt>
      <trkpt lat="45.8776099" lon="7.4302795">
        <ele>2486</ele>
      </trkpt>
      <trkpt lat="45.8775778" lon="7.4304060">
        <ele>2493</ele>
      </trkpt>
      <trkpt lat="45.8774960" lon="7.4305114">
        <ele>2499</ele>
      </trkpt>
      <trkpt lat="45.8772877" lon="7.4305752">
        <ele>2506</ele>
      </trkpt>
      <trkpt lat="45.8772314" lon="7.4307411">
        <ele>2512</ele>
      </trkpt>
      <trkpt lat="45.8772300" lon="7.4307971">
        <ele>2519</ele>
      </trkpt>
    </trkseg>
  </trk>
</gpx>
