<?xml version="1.0" encoding="UTF-8"?>
<gpx version="1.1" creator="sentieri-vda" xmlns="http://www.topografix.com/GPX/1/1">
  <metadata>
    <name>Lessert - Col de Crête Sèche</name>
    <desc>Catasto Sentieri VdA — 10_S2</desc>
    <author><name>Regione Autonoma Valle d'Aosta</name></author>
  </metadata>
  <trk>
    <name>Lessert - Col de Crête Sèche</name>
    <src>Catasto Sentieri VdA (10_S2)</src>
    <trkseg>
      <trkpt lat="45.8648213" lon="7.3992165">
        <ele>1618</ele>
      </trkpt>
      <trkpt lat="45.8648946" lon="7.3985681">
        <ele>1627</ele>
      </trkpt>
      <trkpt lat="45.8666983" lon="7.3996100">
        <ele>1635</ele>
      </trkpt>
      <trkpt lat="45.8679183" lon="7.4000400">
        <ele>1644</ele>
      </trkpt>
      <trkpt lat="45.8683390" lon="7.4001284">
        <ele>1653</ele>
      </trkpt>
      <trkpt lat="45.8689183" lon="7.4002500">
        <ele>1662</ele>
      </trkpt>
      <trkpt lat="45.8700629" lon="7.4009775">
        <ele>1670</ele>
      </trkpt>
      <trkpt lat="45.8704059" lon="7.4009773">
        <ele>1679</ele>
      </trkpt>
      <trkpt lat="45.8710183" lon="7.4009770">
        <ele>1688</ele>
      </trkpt>
      <trkpt lat="45.8713500" lon="7.4012795">
        <ele>1696</ele>
      </trkpt>
      <trkpt lat="45.8713804" lon="7.4013071">
        <ele>1705</ele>
      </trkpt>
      <trkpt lat="45.8714051" lon="7.4016285">
        <ele>1714</ele>
      </trkpt>
      <trkpt lat="45.8715230" lon="7.4020117">
        <ele>1722</ele>
      </trkpt>
      <trkpt lat="45.8715548" lon="7.4020365">
        <ele>1731</ele>
      </trkpt>
      <trkpt lat="45.8716150" lon="7.4019961">
        <ele>1740</ele>
      </trkpt>
      <trkpt lat="45.8716358" lon="7.4017153">
        <ele>1749</ele>
      </trkpt>
      <trkpt lat="45.8716690" lon="7.4015147">
        <ele>1757</ele>
      </trkpt>
      <trkpt lat="45.8717307" lon="7.4012616">
        <ele>1766</ele>
      </trkpt>
      <trkpt lat="45.8717792" lon="7.4011894">
        <ele>1775</ele>
      </trkpt>
      <trkpt lat="45.8718240" lon="7.4013330">
        <ele>1783</ele>
      </trkpt>
      <trkpt lat="45.8718383" lon="7.4017159">
        <ele>1792</ele>
      </trkpt>
      <trkpt lat="45.8718685" lon="7.4017795">
        <ele>1801</ele>
      </trkpt>
      <trkpt lat="45.8719140" lon="7.4018136">
        <ele>1810</ele>
      </trkpt>
      <trkpt lat="45.8719535" lon="7.4017481">
        <ele>1818</ele>
      </trkpt>
      <trkpt lat="45.8719766" lon="7.4016250">
        <ele>1827</ele>
      </trkpt>
      <trkpt lat="45.8720244" lon="7.4011856">
        <ele>1836</ele>
      </trkpt>
      <trkpt lat="45.8720562" lon="7.4010461">
        <ele>1844</ele>
      </trkpt>
      <trkpt lat="45.8721126" lon="7.4010574">
        <ele>1853</ele>
      </trkpt>
      <trkpt lat="45.8721449" lon="7.4011112">
        <ele>1862</ele>
      </trkpt>
      <trkpt lat="45.8721857" lon="7.4014515">
        <ele>1871</ele>
      </trkpt>
      <trkpt lat="45.8722211" lon="7.4015697">
        <ele>1879</ele>
      </trkpt>
      <trkpt lat="45.8722809" lon="7.4016646">
        <ele>1888</ele>
      </trkpt>
      <trkpt lat="45.8723948" lon="7.4017676">
        <ele>1897</ele>
      </trkpt>
      <trkpt lat="45.8724332" lon="7.4017762">
        <ele>1905</ele>
      </trkpt>
      <trkpt lat="45.8724577" lon="7.4017594">
        <ele>1914</ele>
      </trkpt>
      <trkpt lat="45.8724772" lon="7.4017073">
        <ele>1923</ele>
      </trkpt>
      <trkpt lat="45.8724714" lon="7.4016108">
        <ele>1931</ele>
      </trkpt>
      <trkpt lat="45.8724340" lon="7.4015088">
        <ele>1940</ele>
      </trkpt>
      <trkpt lat="45.8724333" lon="7.4014605">
        <ele>1949</ele>
      </trkpt>
      <trkpt lat="45.8724800" lon="7.4009374">
        <ele>1958</ele>
      </trkpt>
      <trkpt lat="45.8725304" lon="7.4008457">
        <ele>1966</ele>
      </trkpt>
      <trkpt lat="45.8733368" lon="7.4011435">
        <ele>1975</ele>
      </trkpt>
      <trkpt lat="45.8736983" lon="7.4012770">
        <ele>1984</ele>
      </trkpt>
      <trkpt lat="45.8741073" lon="7.4018570">
        <ele>1992</ele>
      </trkpt>
      <trkpt lat="45.8742044" lon="7.4017995">
        <ele>2001</ele>
      </trkpt>
      <trkpt lat="45.8742697" lon="7.4019684">
        <ele>2010</ele>
      </trkpt>
      <trkpt lat="45.8745054" lon="7.4024061">
        <ele>2019</ele>
      </trkpt>
      <trkpt lat="45.8745276" lon="7.4025505">
        <ele>2027</ele>
      </trkpt>
      <trkpt lat="45.8747273" lon="7.4032070">
        <ele>2036</ele>
      </trkpt>
      <trkpt lat="45.8748373" lon="7.4031870">
        <ele>2045</ele>
      </trkpt>
      <trkpt lat="45.8758073" lon="7.4043270">
        <ele>2053</ele>
      </trkpt>
      <trkpt lat="45.8757573" lon="7.4059370">
        <ele>2062</ele>
      </trkpt>
      <trkpt lat="45.8760173" lon="7.4061070">
        <ele>2071</ele>
      </trkpt>
      <trkpt lat="45.8763164" lon="7.4058516">
        <ele>2079</ele>
      </trkpt>
      <trkpt lat="45.8766155" lon="7.4055961">
        <ele>2088</ele>
      </trkpt>
      <trkpt lat="45.8766012" lon="7.4055417">
        <ele>2097</ele>
      </trkpt>
      <trkpt lat="45.8766495" lon="7.4054501">
        <ele>2106</ele>
      </trkpt>
      <trkpt lat="45.8767682" lon="7.4055724">
        <ele>2114</ele>
      </trkpt>
      <trkpt lat="45.8769585" lon="7.4058279">
        <ele>2123</ele>
      </trkpt>
      <trkpt lat="45.8770105" lon="7.4060035">
        <ele>2132</ele>
      </trkpt>
      <trkpt lat="45.8770513" lon="7.4063503">
        <ele>2140</ele>
      </trkpt>
      <trkpt lat="45.8770867" lon="7.4064717">
        <ele>2149</ele>
      </trkpt>
      <trkpt lat="45.8771306" lon="7.4065542">
        <ele>2158</ele>
      </trkpt>
      <trkpt lat="45.8772906" lon="7.4067268">
        <ele>2167</ele>
      </trkpt>
      <trkpt lat="45.8777484" lon="7.4071261">
        <ele>2175</ele>
      </trkpt>
      <trkpt lat="45.8783168" lon="7.4078701">
        <ele>2184</ele>
      </trkpt>
      <trkpt lat="45.8784333" lon="7.4079956">
        <ele>2193</ele>
      </trkpt>
      <trkpt lat="45.8788617" lon="7.4083796">
        <ele>2201</ele>
      </trkpt>
      <trkpt lat="45.8790169" lon="7.4085427">
        <ele>2210</ele>
      </trkpt>
      <trkpt lat="45.8793169" lon="7.4087532">
        <ele>2219</ele>
      </trkpt>
      <trkpt lat="45.8795477" lon="7.4090076">
        <ele>2228</ele>
      </trkpt>
      <trkpt lat="45.8796073" lon="7.4090896">
        <ele>2236</ele>
      </trkpt>
      <trkpt lat="45.8796379" lon="7.4091854">
        <ele>2245</ele>
      </trkpt>
      <trkpt lat="45.8796702" lon="7.4095679">
        <ele>2254</ele>
      </trkpt>
      <trkpt lat="45.8796635" lon="7.4097324">
        <ele>2262</ele>
      </trkpt>
      <trkpt lat="45.8796805" lon="7.4098221">
        <ele>2271</ele>
      </trkpt>
      <trkpt lat="45.8797126" lon="7.4098630">
        <ele>2280</ele>
      </trkpt>
      <trkpt lat="45.8797665" lon="7.4098583">
        <ele>2288</ele>
      </trkpt>
      <trkpt lat="45.8798156" lon="7.4098279">
        <ele>2297</ele>
      </trkpt>
      <trkpt lat="45.8799089" lon="7.4101998">
        <ele>2306</ele>
      </trkpt>
      <trkpt lat="45.8802073" lon="7.4105070">
        <ele>2315</ele>
      </trkpt>
      <trkpt lat="45.8802873" lon="7.4102070">
        <ele>2323</ele>
      </trkpt>
      <trkpt lat="45.8803314" lon="7.4102599">
        <ele>2332</ele>
      </trkpt>
      <trkpt lat="45.8805983" lon="7.4105800">
        <ele>2341</ele>
      </trkpt>
      <trkpt lat="45.8806983" lon="7.4113100">
        <ele>2349</ele>
      </trkpt>
      <trkpt lat="45.8805673" lon="7.4117070">
        <ele>2358</ele>
      </trkpt>
      <trkpt lat="45.8805473" lon="7.4120970">
        <ele>2367</ele>
      </trkpt>
      <trkpt lat="45.8806583" lon="7.4122400">
        <ele>2376</ele>
      </trkpt>
      <trkpt lat="45.8805273" lon="7.4123970">
        <ele>2384</ele>
      </trkpt>
      <trkpt lat="45.8807373" lon="7.4127570">
        <ele>2393</ele>
      </trkpt>
      <trkpt lat="45.8807873" lon="7.4132770">
        <ele>2402</ele>
      </trkpt>
      <trkpt lat="45.8813173" lon="7.4137870">
        <ele>2410</ele>
      </trkpt>
      <trkpt lat="45.8813255" lon="7.4140406">
        <ele>2419</ele>
      </trkpt>
      <trkpt lat="45.8816201" lon="7.4139876">
        <ele>2428</ele>
      </trkpt>
      <trkpt lat="45.8821609" lon="7.4128862">
        <ele>2437</ele>
      </trkpt>
      <trkpt lat="45.8822963" lon="7.4130380">
        <ele>2445</ele>
      </trkpt>
      <trkpt lat="45.8827273" lon="7.4131760">
        <ele>2454</ele>
      </trkpt>
      <trkpt lat="45.8823843" lon="7.4120350">
        <ele>2463</ele>
      </trkpt>
      <trkpt lat="45.8823533" lon="7.4113260">
        <ele>2471</ele>
      </trkpt>
      <trkpt lat="45.8828863" lon="7.4093310">
        <ele>2480</ele>
      </trkpt>
      <trkpt lat="45.8828883" lon="7.4087000">
        <ele>2489</ele>
      </trkpt>
      <trkpt lat="45.8829053" lon="7.4084630">
        <ele>2497</ele>
      </trkpt>
      <trkpt lat="45.8827063" lon="7.4074200">
        <ele>2506</ele>
      </trkpt>
      <trkpt lat="45.8818213" lon="7.4059870">
        <ele>2515</ele>
      </trkpt>
      <trkpt lat="45.8815663" lon="7.4048150">
        <ele>2524</ele>
      </trkpt>
      <trkpt lat="45.8813303" lon="7.4045890">
        <ele>2532</ele>
      </trkpt>
      <trkpt lat="45.8814593" lon="7.4038730">
        <ele>2541</ele>
      </trkpt>
      <trkpt lat="45.8812843" lon="7.4022260">
        <ele>2550</ele>
      </trkpt>
      <trkpt lat="45.8813583" lon="7.4016600">
        <ele>2558</ele>
      </trkpt>
      <trkpt lat="45.8816483" lon="7.4005900">
        <ele>2567</ele>
      </trkpt>
      <trkpt lat="45.8822873" lon="7.4000180">
        <ele>2576</ele>
      </trkpt>
      <trkpt lat="45.8823983" lon="7.3994200">
        <ele>2585</ele>
      </trkpt>
      <trkpt lat="45.8827983" lon="7.3988400">
        <ele>2593</ele>
      </trkpt>
      <trkpt lat="45.8832723" lon="7.3987460">
        <ele>2602</ele>
      </trkpt>
      <trkpt lat="45.8836903" lon="7.3982020">
        <ele>2611</ele>
      </trkpt>
      <trkpt lat="45.8839033" lon="7.3981400">
        <ele>2619</ele>
      </trkpt>
      <trkpt lat="45.8840603" lon="7.3979230">
        <ele>2628</ele>
      </trkpt>
      <trkpt lat="45.8851543" lon="7.3972170">
        <ele>2637</ele>
      </trkpt>
      <trkpt lat="45.8854453" lon="7.3965730">
        <ele>2645</ele>
      </trkpt>
      <trkpt lat="45.8856953" lon="7.3965350">
        <ele>2654</ele>
      </trkpt>
      <trkpt lat="45.8861623" lon="7.3957520">
        <ele>2663</ele>
      </trkpt>
      <trkpt lat="45.8866283" lon="7.3961800">
        <ele>2672</ele>
      </trkpt>
      <trkpt lat="45.8868683" lon="7.3962100">
        <ele>2680</ele>
      </trkpt>
      <trkpt lat="45.8875183" lon="7.3957500">
        <ele>2689</ele>
      </trkpt>
      <trkpt lat="45.8896383" lon="7.3951500">
        <ele>2698</ele>
      </trkpt>
      <trkpt lat="45.8906773" lon="7.3946050">
        <ele>2706</ele>
      </trkpt>
      <trkpt lat="45.8913773" lon="7.3938380">
        <ele>2715</ele>
      </trkpt>
      <trkpt lat="45.8917523" lon="7.3938210">
        <ele>2724</ele>
      </trkpt>
      <trkpt lat="45.8923963" lon="7.3929250">
        <ele>2733</ele>
      </trkpt>
      <trkpt lat="45.8928883" lon="7.3926800">
        <ele>2741</ele>
      </trkpt>
      <trkpt lat="45.8930263" lon="7.3922650">
        <ele>2750</ele>
      </trkpt>
      <trkpt lat="45.8931153" lon="7.3922610">
        <ele>2759</ele>
      </trkpt>
      <trkpt lat="45.8931563" lon="7.3925230">
        <ele>2767</ele>
      </trkpt>
      <trkpt lat="45.8932813" lon="7.3924910">
        <ele>2776</ele>
      </trkpt>
      <trkpt lat="45.8935063" lon="7.3921390">
        <ele>2785</ele>
      </trkpt>
      <trkpt lat="45.8938113" lon="7.3922040">
        <ele>2794</ele>
      </trkpt>
      <trkpt lat="45.8941753" lon="7.3916360">
        <ele>2802</ele>
      </trkpt>
      <trkpt lat="45.8945333" lon="7.3916460">
        <ele>2811</ele>
      </trkpt>
      <trkpt lat="45.8946363" lon="7.3914580">
        <ele>2820</ele>
      </trkpt>
      <trkpt lat="45.8962183" lon="7.3910450">
        <ele>2828</ele>
      </trkpt>
      <trkpt lat="45.8966763" lon="7.3916030">
        <ele>2837</ele>
      </trkpt>
      <trkpt lat="45.8968233" lon="7.3918340">
        <ele>2846</ele>
      </trkpt>
      <trkpt lat="45.8974683" lon="7.3919360">
        <ele>2854</ele>
      </trkpt>
      <trkpt lat="45.8981443" lon="7.3917750">
        <ele>2863</ele>
      </trkpt>
      <trkpt lat="45.8984523" lon="7.3920240">
        <ele>2872</ele>
      </trkpt>
      <trkpt lat="45.8985023" lon="7.3918380">
        <ele>2881</ele>
      </trkpt>
      <trkpt lat="45.8989883" lon="7.3920000">
        <ele>2889</ele>
      </trkpt>
      <trkpt lat="45.8993983" lon="7.3918000">
        <ele>2898</ele>
      </trkpt>
    </trkseg>
  </trk>
</gpx>
