<?xml version="1.0" encoding="UTF-8"?>
<gpx version="1.1" creator="sentieri-vda" xmlns="http://www.topografix.com/GPX/1/1">
  <metadata>
    <name>Panoramica: Ru - Berrié - Place Moulin</name>
    <desc>Catasto Sentieri VdA — 10_S5</desc>
    <author><name>Regione Autonoma Valle d'Aosta</name></author>
  </metadata>
  <trk>
    <name>Panoramica: Ru - Berrié - Place Moulin</name>
    <src>Catasto Sentieri VdA (10_S5)</src>
    <trkseg>
      <trkpt lat="45.8705942" lon="7.4023725">
        <ele>1694</ele>
      </trkpt>
      <trkpt lat="45.8706038" lon="7.4025727">
        <ele>1695</ele>
      </trkpt>
      <trkpt lat="45.8706391" lon="7.4026844">
        <ele>1696</ele>
      </trkpt>
      <trkpt lat="45.8706683" lon="7.4026836">
        <ele>1697</ele>
      </trkpt>
      <trkpt lat="45.8708894" lon="7.4028866">
        <ele>1698</ele>
      </trkpt>
      <trkpt lat="45.8711098" lon="7.4030382">
        <ele>1699</ele>
      </trkpt>
      <trkpt lat="45.8711837" lon="7.4031745">
        <ele>1700</ele>
      </trkpt>
      <trkpt lat="45.8712229" lon="7.4034053">
        <ele>1701</ele>
      </trkpt>
      <trkpt lat="45.8712722" lon="7.4033846">
        <ele>1702</ele>
      </trkpt>
      <trkpt lat="45.8713629" lon="7.4031147">
        <ele>1703</ele>
      </trkpt>
      <trkpt lat="45.8713752" lon="7.4030273">
        <ele>1705</ele>
      </trkpt>
      <trkpt lat="45.8713535" lon="7.4029249">
        <ele>1706</ele>
      </trkpt>
      <trkpt lat="45.8712799" lon="7.4028142">
        <ele>1707</ele>
      </trkpt>
      <trkpt lat="45.8711355" lon="7.4024641">
        <ele>1708</ele>
      </trkpt>
      <trkpt lat="45.8711043" lon="7.4023200">
        <ele>1709</ele>
      </trkpt>
      <trkpt lat="45.8712771" lon="7.4018093">
        <ele>1710</ele>
      </trkpt>
      <trkpt lat="45.8713804" lon="7.4013071">
        <ele>1711</ele>
      </trkpt>
      <trkpt lat="45.8714051" lon="7.4016285">
        <ele>1712</ele>
      </trkpt>
      <trkpt lat="45.8715230" lon="7.4020117">
        <ele>1713</ele>
      </trkpt>
      <trkpt lat="45.8715548" lon="7.4020365">
        <ele>1714</ele>
      </trkpt>
      <trkpt lat="45.8716150" lon="7.4019961">
        <ele>1715</ele>
      </trkpt>
      <trkpt lat="45.8716358" lon="7.4017153">
        <ele>1716</ele>
      </trkpt>
      <trkpt lat="45.8716690" lon="7.4015147">
        <ele>1717</ele>
      </trkpt>
      <trkpt lat="45.8717307" lon="7.4012616">
        <ele>1718</ele>
      </trkpt>
      <trkpt lat="45.8717792" lon="7.4011894">
        <ele>1719</ele>
      </trkpt>
      <trkpt lat="45.8718240" lon="7.4013330">
        <ele>1720</ele>
      </trkpt>
      <trkpt lat="45.8718383" lon="7.4017159">
        <ele>1721</ele>
      </trkpt>
      <trkpt lat="45.8718685" lon="7.4017795">
        <ele>1722</ele>
      </trkpt>
      <trkpt lat="45.8719140" lon="7.4018136">
        <ele>1723</ele>
      </trkpt>
      <trkpt lat="45.8719535" lon="7.4017481">
        <ele>1725</ele>
      </trkpt>
      <trkpt lat="45.8719766" lon="7.4016250">
        <ele>1726</ele>
      </trkpt>
      <trkpt lat="45.8720244" lon="7.4011856">
        <ele>1727</ele>
      </trkpt>
      <trkpt lat="45.8720562" lon="7.4010461">
        <ele>1728</ele>
      </trkpt>
      <trkpt lat="45.8721126" lon="7.4010574">
        <ele>1729</ele>
      </trkpt>
      <trkpt lat="45.8721449" lon="7.4011112">
        <ele>1730</ele>
      </trkpt>
      <trkpt lat="45.8721857" lon="7.4014515">
        <ele>1731</ele>
      </trkpt>
      <trkpt lat="45.8722211" lon="7.4015697">
        <ele>1732</ele>
      </trkpt>
      <trkpt lat="45.8722809" lon="7.4016646">
        <ele>1733</ele>
      </trkpt>
      <trkpt lat="45.8723948" lon="7.4017676">
        <ele>1734</ele>
      </trkpt>
      <trkpt lat="45.8724332" lon="7.4017762">
        <ele>1735</ele>
      </trkpt>
      <trkpt lat="45.8724577" lon="7.4017594">
        <ele>1736</ele>
      </trkpt>
      <trkpt lat="45.8724772" lon="7.4017073">
        <ele>1737</ele>
      </trkpt>
      <trkpt lat="45.8724714" lon="7.4016108">
        <ele>1738</ele>
      </trkpt>
      <trkpt lat="45.8724340" lon="7.4015088">
        <ele>1739</ele>
      </trkpt>
      <trkpt lat="45.8724333" lon="7.4014605">
        <ele>1740</ele>
      </trkpt>
      <trkpt lat="45.8724800" lon="7.4009374">
        <ele>1741</ele>
      </trkpt>
      <trkpt lat="45.8725304" lon="7.4008457">
        <ele>1742</ele>
      </trkpt>
      <trkpt lat="45.8733368" lon="7.4011435">
        <ele>1744</ele>
      </trkpt>
      <trkpt lat="45.8736983" lon="7.4012770">
        <ele>1745</ele>
      </trkpt>
      <trkpt lat="45.8741073" lon="7.4018570">
        <ele>1746</ele>
      </trkpt>
      <trkpt lat="45.8742044" lon="7.4017995">
        <ele>1747</ele>
      </trkpt>
      <trkpt lat="45.8742697" lon="7.4019684">
        <ele>1748</ele>
      </trkpt>
      <trkpt lat="45.8745054" lon="7.4024061">
        <ele>1749</ele>
      </trkpt>
      <trkpt lat="45.8745276" lon="7.4025505">
        <ele>1750</ele>
      </trkpt>
      <trkpt lat="45.8747273" lon="7.4032070">
        <ele>1751</ele>
      </trkpt>
      <trkpt lat="45.8748373" lon="7.4031870">
        <ele>1752</ele>
      </trkpt>
      <trkpt lat="45.8758073" lon="7.4043270">
        <ele>1753</ele>
      </trkpt>
      <trkpt lat="45.8757573" lon="7.4059370">
        <ele>1754</ele>
      </trkpt>
      <trkpt lat="45.8760173" lon="7.4061070">
        <ele>1755</ele>
      </trkpt>
      <trkpt lat="45.8763164" lon="7.4058516">
        <ele>1756</ele>
      </trkpt>
      <trkpt lat="45.8766155" lon="7.4055961">
        <ele>1757</ele>
      </trkpt>
      <trkpt lat="45.8766012" lon="7.4055417">
        <ele>1758</ele>
      </trkpt>
      <trkpt lat="45.8766495" lon="7.4054501">
        <ele>1759</ele>
      </trkpt>
      <trkpt lat="45.8767682" lon="7.4055724">
        <ele>1760</ele>
      </trkpt>
      <trkpt lat="45.8769585" lon="7.4058279">
        <ele>1761</ele>
      </trkpt>
      <trkpt lat="45.8770105" lon="7.4060035">
        <ele>1762</ele>
      </trkpt>
      <trkpt lat="45.8770513" lon="7.4063503">
        <ele>1764</ele>
      </trkpt>
      <trkpt lat="45.8770867" lon="7.4064717">
        <ele>1765</ele>
      </trkpt>
      <trkpt lat="45.8771306" lon="7.4065542">
        <ele>1766</ele>
      </trkpt>
      <trkpt lat="45.8772906" lon="7.4067268">
        <ele>1767</ele>
      </trkpt>
      <trkpt lat="45.8777484" lon="7.4071261">
        <ele>1768</ele>
      </trkpt>
      <trkpt lat="45.8783168" lon="7.4078701">
        <ele>1769</ele>
      </trkpt>
      <trkpt lat="45.8784333" lon="7.4079956">
        <ele>1770</ele>
      </trkpt>
      <trkpt lat="45.8788617" lon="7.4083796">
        <ele>1771</ele>
      </trkpt>
      <trkpt lat="45.8790169" lon="7.4085427">
        <ele>1772</ele>
      </trkpt>
      <trkpt lat="45.8793169" lon="7.4087532">
        <ele>1773</ele>
      </trkpt>
      <trkpt lat="45.8795477" lon="7.4090076">
        <ele>1774</ele>
      </trkpt>
      <trkpt lat="45.8796073" lon="7.4090896">
        <ele>1775</ele>
      </trkpt>
      <trkpt lat="45.8796379" lon="7.4091854">
        <ele>1776</ele>
      </trkpt>
      <trkpt lat="45.8796702" lon="7.4095679">
        <ele>1777</ele>
      </trkpt>
      <trkpt lat="45.8796635" lon="7.4097324">
        <ele>1778</ele>
      </trkpt>
      <trkpt lat="45.8796805" lon="7.4098221">
        <ele>1779</ele>
      </trkpt>
      <trkpt lat="45.8797126" lon="7.4098630">
        <ele>1780</ele>
      </trkpt>
      <trkpt lat="45.8797665" lon="7.4098583">
        <ele>1781</ele>
      </trkpt>
      <trkpt lat="45.8798156" lon="7.4098279">
        <ele>1782</ele>
      </trkpt>
      <trkpt lat="45.8799089" lon="7.4101998">
        <ele>1784</ele>
      </trkpt>
      <trkpt lat="45.8802073" lon="7.4105070">
        <ele>1785</ele>
      </trkpt>
      <trkpt lat="45.8802873" lon="7.4102070">
        <ele>1786</ele>
      </trkpt>
      <trkpt lat="45.8803314" lon="7.4102599">
        <ele>1787</ele>
      </trkpt>
      <trkpt lat="45.8805983" lon="7.4105800">
        <ele>1788</ele>
      </trkpt>
      <trkpt lat="45.8806983" lon="7.4113100">
        <ele>1789</ele>
      </trkpt>
      <trkpt lat="45.8805673" lon="7.4117070">
        <ele>1790</ele>
      </trkpt>
      <trkpt lat="45.8805473" lon="7.4120970">
        <ele>1791</ele>
      </trkpt>
      <trkpt lat="45.8806583" lon="7.4122400">
        <ele>1792</ele>
      </trkpt>
      <trkpt lat="45.8805273" lon="7.4123970">
        <ele>1793</ele>
      </trkpt>
      <trkpt lat="45.8807373" lon="7.4127570">
        <ele>1794</ele>
      </trkpt>
      <trkpt lat="45.8807873" lon="7.4132770">
        <ele>1795</ele>
      </trkpt>
      <trkpt lat="45.8813173" lon="7.4137870">
        <ele>1796</ele>
      </trkpt>
      <trkpt lat="45.8813255" lon="7.4140406">
        <ele>1797</ele>
      </trkpt>
      <trkpt lat="45.8813981" lon="7.4140837">
        <ele>1798</ele>
      </trkpt>
      <trkpt lat="45.8816476" lon="7.4143891">
        <ele>1799</ele>
      </trkpt>
      <trkpt lat="45.8817401" lon="7.4145701">
        <ele>1800</ele>
      </trkpt>
      <trkpt lat="45.8817928" lon="7.4146362">
        <ele>1801</ele>
      </trkpt>
      <trkpt lat="45.8820352" lon="7.4147582">
        <ele>1802</ele>
      </trkpt>
      <trkpt lat="45.8825648" lon="7.4151426">
        <ele>1804</ele>
      </trkpt>
      <trkpt lat="45.8827173" lon="7.4153970">
        <ele>1805</ele>
      </trkpt>
      <trkpt lat="45.8826673" lon="7.4157670">
        <ele>1806</ele>
      </trkpt>
      <trkpt lat="45.8829383" lon="7.4160800">
        <ele>1807</ele>
      </trkpt>
      <trkpt lat="45.8832473" lon="7.4170070">
        <ele>1808</ele>
      </trkpt>
      <trkpt lat="45.8838073" lon="7.4173270">
        <ele>1809</ele>
      </trkpt>
      <trkpt lat="45.8838273" lon="7.4176070">
        <ele>1810</ele>
      </trkpt>
      <trkpt lat="45.8835473" lon="7.4180570">
        <ele>1811</ele>
      </trkpt>
      <trkpt lat="45.8834873" lon="7.4184870">
        <ele>1812</ele>
      </trkpt>
      <trkpt lat="45.8838973" lon="7.4186370">
        <ele>1813</ele>
      </trkpt>
      <trkpt lat="45.8840473" lon="7.4193470">
        <ele>1814</ele>
      </trkpt>
      <trkpt lat="45.8842173" lon="7.4193270">
        <ele>1815</ele>
      </trkpt>
      <trkpt lat="45.8841473" lon="7.4206370">
        <ele>1816</ele>
      </trkpt>
      <trkpt lat="45.8849673" lon="7.4206570">
        <ele>1817</ele>
      </trkpt>
      <trkpt lat="45.8849673" lon="7.4207870">
        <ele>1818</ele>
      </trkpt>
      <trkpt lat="45.8853273" lon="7.4211270">
        <ele>1819</ele>
      </trkpt>
      <trkpt lat="45.8857173" lon="7.4209170">
        <ele>1820</ele>
      </trkpt>
      <trkpt lat="45.8862773" lon="7.4212570">
        <ele>1821</ele>
      </trkpt>
      <trkpt lat="45.8863373" lon="7.4232970">
        <ele>1823</ele>
      </trkpt>
      <trkpt lat="45.8862773" lon="7.4240270">
        <ele>1824</ele>
      </trkpt>
      <trkpt lat="45.8861673" lon="7.4239370">
        <ele>1825</ele>
      </trkpt>
      <trkpt lat="45.8862973" lon="7.4243870">
        <ele>1826</ele>
      </trkpt>
      <trkpt lat="45.8861273" lon="7.4247070">
        <ele>1827</ele>
      </trkpt>
      <trkpt lat="45.8861473" lon="7.4253570">
        <ele>1828</ele>
      </trkpt>
      <trkpt lat="45.8859573" lon="7.4261670">
        <ele>1829</ele>
      </trkpt>
      <trkpt lat="45.8861273" lon="7.4265570">
        <ele>1830</ele>
      </trkpt>
      <trkpt lat="45.8871373" lon="7.4278170">
        <ele>1831</ele>
      </trkpt>
      <trkpt lat="45.8873273" lon="7.4282470">
        <ele>1832</ele>
      </trkpt>
      <trkpt lat="45.8872873" lon="7.4284870">
        <ele>1833</ele>
      </trkpt>
      <trkpt lat="45.8876473" lon="7.4288070">
        <ele>1834</ele>
      </trkpt>
      <trkpt lat="45.8883173" lon="7.4302070">
        <ele>1835</ele>
      </trkpt>
      <trkpt lat="45.8903073" lon="7.4317670">
        <ele>1836</ele>
      </trkpt>
      <trkpt lat="45.8915783" lon="7.4323100">
        <ele>1837</ele>
      </trkpt>
      <trkpt lat="45.8912773" lon="7.4327170">
        <ele>1838</ele>
      </trkpt>
      <trkpt lat="45.8917273" lon="7.4330170">
        <ele>1839</ele>
      </trkpt>
      <trkpt lat="45.8917273" lon="7.4331870">
        <ele>1840</ele>
      </trkpt>
      <trkpt lat="45.8918773" lon="7.4336170">
        <ele>1841</ele>
      </trkpt>
      <trkpt lat="45.8915573" lon="7.4344570">
        <ele>1843</ele>
      </trkpt>
      <trkpt lat="45.8908473" lon="7.4358670">
        <ele>1844</ele>
      </trkpt>
      <trkpt lat="45.8897073" lon="7.4374770">
        <ele>1845</ele>
      </trkpt>
      <trkpt lat="45.8890983" lon="7.4385000">
        <ele>1846</ele>
      </trkpt>
      <trkpt lat="45.8886683" lon="7.4387000">
        <ele>1847</ele>
      </trkpt>
      <trkpt lat="45.8885073" lon="7.4394070">
        <ele>1848</ele>
      </trkpt>
      <trkpt lat="45.8884473" lon="7.4400070">
        <ele>1849</ele>
      </trkpt>
      <trkpt lat="45.8887873" lon="7.4418770">
        <ele>1850</ele>
      </trkpt>
      <trkpt lat="45.8894073" lon="7.4423870">
        <ele>1851</ele>
      </trkpt>
      <trkpt lat="45.8896273" lon="7.4429670">
        <ele>1852</ele>
      </trkpt>
      <trkpt lat="45.8899473" lon="7.4433170">
        <ele>1853</ele>
      </trkpt>
      <trkpt lat="45.8901573" lon="7.4442170">
        <ele>1854</ele>
      </trkpt>
      <trkpt lat="45.8907573" lon="7.4455470">
        <ele>1855</ele>
      </trkpt>
      <trkpt lat="45.8908673" lon="7.4469370">
        <ele>1856</ele>
      </trkpt>
      <trkpt lat="45.8915073" lon="7.4489770">
        <ele>1857</ele>
      </trkpt>
      <trkpt lat="45.8912973" lon="7.4493670">
        <ele>1858</ele>
      </trkpt>
      <trkpt lat="45.8913173" lon="7.4496470">
        <ele>1859</ele>
      </trkpt>
      <trkpt lat="45.8916573" lon="7.4501370">
        <ele>1860</ele>
      </trkpt>
      <trkpt lat="45.8926873" lon="7.4506070">
        <ele>1861</ele>
      </trkpt>
      <trkpt lat="45.8930573" lon="7.4503270">
        <ele>1863</ele>
      </trkpt>
      <trkpt lat="45.8931673" lon="7.4504570">
        <ele>1864</ele>
      </trkpt>
      <trkpt lat="45.8935273" lon="7.4500270">
        <ele>1865</ele>
      </trkpt>
      <trkpt lat="45.8938073" lon="7.4500970">
        <ele>1866</ele>
      </trkpt>
      <trkpt lat="45.8945573" lon="7.4505070">
        <ele>1867</ele>
      </trkpt>
      <trkpt lat="45.8945563" lon="7.4507770">
        <ele>1868</ele>
      </trkpt>
      <trkpt lat="45.8949863" lon="7.4510170">
        <ele>1869</ele>
      </trkpt>
      <trkpt lat="45.8952863" lon="7.4509970">
        <ele>1870</ele>
      </trkpt>
      <trkpt lat="45.8962063" lon="7.4503770">
        <ele>1871</ele>
      </trkpt>
      <trkpt lat="45.8964463" lon="7.4505470">
        <ele>1872</ele>
      </trkpt>
      <trkpt lat="45.8965363" lon="7.4508070">
        <ele>1873</ele>
      </trkpt>
      <trkpt lat="45.8968363" lon="7.4508070">
        <ele>1874</ele>
      </trkpt>
      <trkpt lat="45.8970063" lon="7.4511670">
        <ele>1875</ele>
      </trkpt>
      <trkpt lat="45.8971763" lon="7.4511470">
        <ele>1876</ele>
      </trkpt>
      <trkpt lat="45.8973663" lon="7.4514470">
        <ele>1877</ele>
      </trkpt>
      <trkpt lat="45.8972863" lon="7.4518570">
        <ele>1878</ele>
      </trkpt>
      <trkpt lat="45.8962763" lon="7.4523870">
        <ele>1879</ele>
      </trkpt>
      <trkpt lat="45.8958263" lon="7.4535470">
        <ele>1880</ele>
      </trkpt>
      <trkpt lat="45.8951163" lon="7.4536370">
        <ele>1882</ele>
      </trkpt>
      <trkpt lat="45.8947763" lon="7.4540670">
        <ele>1883</ele>
      </trkpt>
      <trkpt lat="45.8947763" lon="7.4551170">
        <ele>1884</ele>
      </trkpt>
      <trkpt lat="45.8948103" lon="7.4560965">
        <ele>1885</ele>
      </trkpt>
      <trkpt lat="45.8946241" lon="7.4561371">
        <ele>1886</ele>
      </trkpt>
      <trkpt lat="45.8943043" lon="7.4561170">
        <ele>1887</ele>
      </trkpt>
      <trkpt lat="45.8942662" lon="7.4561309">
        <ele>1888</ele>
      </trkpt>
      <trkpt lat="45.8941930" lon="7.4562038">
        <ele>1889</ele>
      </trkpt>
      <trkpt lat="45.8941622" lon="7.4562562">
        <ele>1890</ele>
      </trkpt>
      <trkpt lat="45.8941456" lon="7.4563598">
        <ele>1891</ele>
      </trkpt>
      <trkpt lat="45.8942003" lon="7.4567482">
        <ele>1892</ele>
      </trkpt>
      <trkpt lat="45.8941861" lon="7.4568614">
        <ele>1893</ele>
      </trkpt>
      <trkpt lat="45.8939287" lon="7.4571295">
        <ele>1894</ele>
      </trkpt>
      <trkpt lat="45.8936164" lon="7.4574927">
        <ele>1895</ele>
      </trkpt>
      <trkpt lat="45.8935364" lon="7.4577365">
        <ele>1896</ele>
      </trkpt>
      <trkpt lat="45.8933876" lon="7.4578792">
        <ele>1897</ele>
      </trkpt>
      <trkpt lat="45.8932516" lon="7.4579764">
        <ele>1898</ele>
      </trkpt>
      <trkpt lat="45.8924363" lon="7.4595160">
        <ele>1899</ele>
      </trkpt>
      <trkpt lat="45.8923063" lon="7.4599860">
        <ele>1900</ele>
      </trkpt>
      <trkpt lat="45.8922163" lon="7.4601560">
        <ele>1902</ele>
      </trkpt>
      <trkpt lat="45.8921763" lon="7.4602660">
        <ele>1903</ele>
      </trkpt>
      <trkpt lat="45.8916863" lon="7.4609260">
        <ele>1904</ele>
      </trkpt>
      <trkpt lat="45.8916863" lon="7.4611660">
        <ele>1905</ele>
      </trkpt>
      <trkpt lat="45.8915063" lon="7.4612260">
        <ele>1906</ele>
      </trkpt>
      <trkpt lat="45.8916863" lon="7.4618360">
        <ele>1907</ele>
      </trkpt>
      <trkpt lat="45.8913363" lon="7.4619860">
        <ele>1908</ele>
      </trkpt>
      <trkpt lat="45.8913163" lon="7.4621560">
        <ele>1909</ele>
      </trkpt>
      <trkpt lat="45.8917263" lon="7.4628860">
        <ele>1910</ele>
      </trkpt>
      <trkpt lat="45.8922363" lon="7.4635060">
        <ele>1911</ele>
      </trkpt>
      <trkpt lat="45.8937463" lon="7.4644460">
        <ele>1912</ele>
      </trkpt>
      <trkpt lat="45.8955863" lon="7.4664660">
        <ele>1913</ele>
      </trkpt>
      <trkpt lat="45.8956263" lon="7.4665960">
        <ele>1914</ele>
      </trkpt>
      <trkpt lat="45.8953563" lon="7.4667460">
        <ele>1915</ele>
      </trkpt>
      <trkpt lat="45.8950763" lon="7.4666760">
        <ele>1916</ele>
      </trkpt>
      <trkpt lat="45.8952463" lon="7.4671960">
        <ele>1917</ele>
      </trkpt>
      <trkpt lat="45.8951563" lon="7.4673860">
        <ele>1918</ele>
      </trkpt>
      <trkpt lat="45.8949463" lon="7.4673660">
        <ele>1919</ele>
      </trkpt>
      <trkpt lat="45.8948763" lon="7.4676060">
        <ele>1920</ele>
      </trkpt>
      <trkpt lat="45.8953563" lon="7.4691960">
        <ele>1922</ele>
      </trkpt>
      <trkpt lat="45.8961863" lon="7.4703260">
        <ele>1923</ele>
      </trkpt>
      <trkpt lat="45.8962563" lon="7.4718760">
        <ele>1924</ele>
      </trkpt>
      <trkpt lat="45.8959963" lon="7.4720260">
        <ele>1925</ele>
      </trkpt>
      <trkpt lat="45.8957563" lon="7.4724360">
        <ele>1926</ele>
      </trkpt>
      <trkpt lat="45.8959563" lon="7.4732460">
        <ele>1927</ele>
      </trkpt>
      <trkpt lat="45.8961251" lon="7.4734339">
        <ele>1928</ele>
      </trkpt>
      <trkpt lat="45.8962059" lon="7.4734155">
        <ele>1929</ele>
      </trkpt>
      <trkpt lat="45.8962720" lon="7.4734819">
        <ele>1930</ele>
      </trkpt>
      <trkpt lat="45.8963282" lon="7.4736737">
        <ele>1931</ele>
      </trkpt>
      <trkpt lat="45.8963723" lon="7.4737676">
        <ele>1932</ele>
      </trkpt>
      <trkpt lat="45.8965576" lon="7.4740802">
        <ele>1933</ele>
      </trkpt>
      <trkpt lat="45.8966539" lon="7.4742910">
        <ele>1934</ele>
      </trkpt>
      <trkpt lat="45.8968167" lon="7.4746838">
        <ele>1935</ele>
      </trkpt>
      <trkpt lat="45.8969264" lon="7.4751500">
        <ele>1936</ele>
      </trkpt>
      <trkpt lat="45.8970202" lon="7.4754307">
        <ele>1937</ele>
      </trkpt>
      <trkpt lat="45.8971687" lon="7.4757714">
        <ele>1938</ele>
      </trkpt>
      <trkpt lat="45.8974288" lon="7.4762959">
        <ele>1939</ele>
      </trkpt>
      <trkpt lat="45.8976444" lon="7.4766099">
        <ele>1940</ele>
      </trkpt>
      <trkpt lat="45.8977859" lon="7.4769514">
        <ele>1942</ele>
      </trkpt>
      <trkpt lat="45.8981019" lon="7.4787638">
        <ele>1943</ele>
      </trkpt>
      <trkpt lat="45.8981066" lon="7.4788959">
        <ele>1944</ele>
      </trkpt>
      <trkpt lat="45.8980932" lon="7.4790072">
        <ele>1945</ele>
      </trkpt>
      <trkpt lat="45.8979900" lon="7.4793042">
        <ele>1946</ele>
      </trkpt>
      <trkpt lat="45.8979807" lon="7.4795049">
        <ele>1947</ele>
      </trkpt>
      <trkpt lat="45.8980494" lon="7.4797461">
        <ele>1948</ele>
      </trkpt>
      <trkpt lat="45.8982112" lon="7.4800445">
        <ele>1949</ele>
      </trkpt>
      <trkpt lat="45.8984934" lon="7.4811115">
        <ele>1950</ele>
      </trkpt>
      <trkpt lat="45.8987374" lon="7.4817702">
        <ele>1951</ele>
      </trkpt>
      <trkpt lat="45.8987851" lon="7.4819992">
        <ele>1952</ele>
      </trkpt>
      <trkpt lat="45.8988183" lon="7.4822542">
        <ele>1953</ele>
      </trkpt>
      <trkpt lat="45.8988536" lon="7.4833492">
        <ele>1954</ele>
      </trkpt>
      <trkpt lat="45.8988443" lon="7.4837632">
        <ele>1955</ele>
      </trkpt>
      <trkpt lat="45.8988126" lon="7.4840711">
        <ele>1956</ele>
      </trkpt>
      <trkpt lat="45.8988200" lon="7.4841775">
        <ele>1957</ele>
      </trkpt>
      <trkpt lat="45.8988919" lon="7.4844357">
        <ele>1958</ele>
      </trkpt>
      <trkpt lat="45.8989086" lon="7.4845760">
        <ele>1959</ele>
      </trkpt>
      <trkpt lat="45.8989231" lon="7.4847718">
        <ele>1961</ele>
      </trkpt>
      <trkpt lat="45.8988621" lon="7.4851061">
        <ele>1962</ele>
      </trkpt>
      <trkpt lat="45.8988637" lon="7.4852255">
        <ele>1963</ele>
      </trkpt>
      <trkpt lat="45.8989156" lon="7.4854202">
        <ele>1964</ele>
      </trkpt>
      <trkpt lat="45.8989884" lon="7.4854949">
        <ele>1965</ele>
      </trkpt>
      <trkpt lat="45.8990488" lon="7.4856367">
        <ele>1966</ele>
      </trkpt>
      <trkpt lat="45.8991636" lon="7.4864884">
        <ele>1967</ele>
      </trkpt>
      <trkpt lat="45.8991177" lon="7.4867580">
        <ele>1968</ele>
      </trkpt>
      <trkpt lat="45.8990700" lon="7.4868998">
        <ele>1969</ele>
      </trkpt>
      <trkpt lat="45.8990666" lon="7.4869813">
        <ele>1970</ele>
      </trkpt>
      <trkpt lat="45.8990907" lon="7.4870979">
        <ele>1971</ele>
      </trkpt>
      <trkpt lat="45.8991709" lon="7.4873809">
        <ele>1972</ele>
      </trkpt>
      <trkpt lat="45.8992309" lon="7.4874961">
        <ele>1973</ele>
      </trkpt>
      <trkpt lat="45.8993123" lon="7.4878649">
        <ele>1974</ele>
      </trkpt>
      <trkpt lat="45.8994697" lon="7.4881958">
        <ele>1975</ele>
      </trkpt>
      <trkpt lat="45.8995397" lon="7.4883857">
        <ele>1976</ele>
      </trkpt>
      <trkpt lat="45.8995591" lon="7.4884899">
        <ele>1977</ele>
      </trkpt>
      <trkpt lat="45.8995469" lon="7.4885873">
        <ele>1978</ele>
      </trkpt>
      <trkpt lat="45.8995621" lon="7.4887158">
        <ele>1979</ele>
      </trkpt>
      <trkpt lat="45.8996352" lon="7.4887988">
        <ele>1981</ele>
      </trkpt>
      <trkpt lat="45.8997003" lon="7.4889594">
        <ele>1982</ele>
      </trkpt>
      <trkpt lat="45.8997362" lon="7.4890983">
        <ele>1983</ele>
      </trkpt>
      <trkpt lat="45.8997611" lon="7.4893005">
        <ele>1984</ele>
      </trkpt>
      <trkpt lat="45.8996826" lon="7.4897921">
        <ele>1985</ele>
      </trkpt>
      <trkpt lat="45.8996774" lon="7.4900730">
        <ele>1986</ele>
      </trkpt>
      <trkpt lat="45.8996988" lon="7.4903347">
        <ele>1987</ele>
      </trkpt>
      <trkpt lat="45.8998307" lon="7.4907795">
        <ele>1988</ele>
      </trkpt>
      <trkpt lat="45.8998548" lon="7.4909009">
        <ele>1989</ele>
      </trkpt>
      <trkpt lat="45.8999218" lon="7.4912309">
        <ele>1990</ele>
      </trkpt>
    </trkseg>
  </trk>
</gpx>
