<?xml version="1.0" encoding="UTF-8"?>
<gpx version="1.1" creator="sentieri-vda" xmlns="http://www.topografix.com/GPX/1/1">
  <metadata>
    <name>Bivacco Menabreaz</name>
    <desc>Catasto Sentieri VdA — 11_S2</desc>
    <author><name>Regione Autonoma Valle d'Aosta</name></author>
  </metadata>
  <trk>
    <name>Bivacco Menabreaz</name>
    <src>Catasto Sentieri VdA (11_S2)</src>
    <trkseg>
      <trkpt lat="45.6854580" lon="7.4101806">
        <ele>1042</ele>
      </trkpt>
      <trkpt lat="45.6856022" lon="7.4098730">
        <ele>1046</ele>
      </trkpt>
      <trkpt lat="45.6855821" lon="7.4097730">
        <ele>1051</ele>
      </trkpt>
      <trkpt lat="45.6857221" lon="7.4098830">
        <ele>1055</ele>
      </trkpt>
      <trkpt lat="45.6858622" lon="7.4098130">
        <ele>1059</ele>
      </trkpt>
      <trkpt lat="45.6860522" lon="7.4094830">
        <ele>1063</ele>
      </trkpt>
      <trkpt lat="45.6862622" lon="7.4094030">
        <ele>1068</ele>
      </trkpt>
      <trkpt lat="45.6863322" lon="7.4095630">
        <ele>1072</ele>
      </trkpt>
      <trkpt lat="45.6864622" lon="7.4095030">
        <ele>1076</ele>
      </trkpt>
      <trkpt lat="45.6867022" lon="7.4089640">
        <ele>1081</ele>
      </trkpt>
      <trkpt lat="45.6868322" lon="7.4086140">
        <ele>1085</ele>
      </trkpt>
      <trkpt lat="45.6871182" lon="7.4079900">
        <ele>1089</ele>
      </trkpt>
      <trkpt lat="45.6872022" lon="7.4079540">
        <ele>1093</ele>
      </trkpt>
      <trkpt lat="45.6873222" lon="7.4078340">
        <ele>1098</ele>
      </trkpt>
      <trkpt lat="45.6874322" lon="7.4075840">
        <ele>1102</ele>
      </trkpt>
      <trkpt lat="45.6874622" lon="7.4073440">
        <ele>1106</ele>
      </trkpt>
      <trkpt lat="45.6874522" lon="7.4072540">
        <ele>1111</ele>
      </trkpt>
      <trkpt lat="45.6874622" lon="7.4069440">
        <ele>1115</ele>
      </trkpt>
      <trkpt lat="45.6875322" lon="7.4067840">
        <ele>1119</ele>
      </trkpt>
      <trkpt lat="45.6875322" lon="7.4066940">
        <ele>1123</ele>
      </trkpt>
      <trkpt lat="45.6876122" lon="7.4064340">
        <ele>1128</ele>
      </trkpt>
      <trkpt lat="45.6876322" lon="7.4062840">
        <ele>1132</ele>
      </trkpt>
      <trkpt lat="45.6877322" lon="7.4060940">
        <ele>1136</ele>
      </trkpt>
      <trkpt lat="45.6877522" lon="7.4060240">
        <ele>1141</ele>
      </trkpt>
      <trkpt lat="45.6877422" lon="7.4059040">
        <ele>1145</ele>
      </trkpt>
      <trkpt lat="45.6877622" lon="7.4058140">
        <ele>1149</ele>
      </trkpt>
      <trkpt lat="45.6879522" lon="7.4056440">
        <ele>1154</ele>
      </trkpt>
      <trkpt lat="45.6879822" lon="7.4055840">
        <ele>1158</ele>
      </trkpt>
      <trkpt lat="45.6881122" lon="7.4054440">
        <ele>1162</ele>
      </trkpt>
      <trkpt lat="45.6882922" lon="7.4053440">
        <ele>1166</ele>
      </trkpt>
      <trkpt lat="45.6883422" lon="7.4052940">
        <ele>1171</ele>
      </trkpt>
      <trkpt lat="45.6883722" lon="7.4052240">
        <ele>1175</ele>
      </trkpt>
      <trkpt lat="45.6883522" lon="7.4051740">
        <ele>1179</ele>
      </trkpt>
      <trkpt lat="45.6884622" lon="7.4050840">
        <ele>1184</ele>
      </trkpt>
      <trkpt lat="45.6886622" lon="7.4050440">
        <ele>1188</ele>
      </trkpt>
      <trkpt lat="45.6887522" lon="7.4049540">
        <ele>1192</ele>
      </trkpt>
      <trkpt lat="45.6889822" lon="7.4049440">
        <ele>1196</ele>
      </trkpt>
      <trkpt lat="45.6889722" lon="7.4048940">
        <ele>1201</ele>
      </trkpt>
      <trkpt lat="45.6890222" lon="7.4048340">
        <ele>1205</ele>
      </trkpt>
      <trkpt lat="45.6891122" lon="7.4049140">
        <ele>1209</ele>
      </trkpt>
      <trkpt lat="45.6891322" lon="7.4048740">
        <ele>1214</ele>
      </trkpt>
      <trkpt lat="45.6891522" lon="7.4047240">
        <ele>1218</ele>
      </trkpt>
      <trkpt lat="45.6891422" lon="7.4046540">
        <ele>1222</ele>
      </trkpt>
      <trkpt lat="45.6892222" lon="7.4045840">
        <ele>1226</ele>
      </trkpt>
      <trkpt lat="45.6892222" lon="7.4045140">
        <ele>1231</ele>
      </trkpt>
      <trkpt lat="45.6891422" lon="7.4044040">
        <ele>1235</ele>
      </trkpt>
      <trkpt lat="45.6892222" lon="7.4042140">
        <ele>1239</ele>
      </trkpt>
      <trkpt lat="45.6894322" lon="7.4040340">
        <ele>1244</ele>
      </trkpt>
      <trkpt lat="45.6895522" lon="7.4040640">
        <ele>1248</ele>
      </trkpt>
      <trkpt lat="45.6899322" lon="7.4045240">
        <ele>1252</ele>
      </trkpt>
      <trkpt lat="45.6900822" lon="7.4047540">
        <ele>1256</ele>
      </trkpt>
      <trkpt lat="45.6901322" lon="7.4047740">
        <ele>1261</ele>
      </trkpt>
      <trkpt lat="45.6901422" lon="7.4048840">
        <ele>1265</ele>
      </trkpt>
      <trkpt lat="45.6902422" lon="7.4050340">
        <ele>1269</ele>
      </trkpt>
      <trkpt lat="45.6902522" lon="7.4051740">
        <ele>1274</ele>
      </trkpt>
      <trkpt lat="45.6902322" lon="7.4052640">
        <ele>1278</ele>
      </trkpt>
      <trkpt lat="45.6902822" lon="7.4053240">
        <ele>1282</ele>
      </trkpt>
      <trkpt lat="45.6904422" lon="7.4053540">
        <ele>1286</ele>
      </trkpt>
      <trkpt lat="45.6905422" lon="7.4052940">
        <ele>1291</ele>
      </trkpt>
      <trkpt lat="45.6906522" lon="7.4051740">
        <ele>1295</ele>
      </trkpt>
      <trkpt lat="45.6907722" lon="7.4053340">
        <ele>1299</ele>
      </trkpt>
      <trkpt lat="45.6910922" lon="7.4056740">
        <ele>1304</ele>
      </trkpt>
      <trkpt lat="45.6911522" lon="7.4057840">
        <ele>1308</ele>
      </trkpt>
      <trkpt lat="45.6913522" lon="7.4059940">
        <ele>1312</ele>
      </trkpt>
      <trkpt lat="45.6913722" lon="7.4060940">
        <ele>1316</ele>
      </trkpt>
      <trkpt lat="45.6914922" lon="7.4062640">
        <ele>1321</ele>
      </trkpt>
      <trkpt lat="45.6915222" lon="7.4063340">
        <ele>1325</ele>
      </trkpt>
      <trkpt lat="45.6916222" lon="7.4062940">
        <ele>1329</ele>
      </trkpt>
      <trkpt lat="45.6917922" lon="7.4064340">
        <ele>1334</ele>
      </trkpt>
      <trkpt lat="45.6918122" lon="7.4063440">
        <ele>1338</ele>
      </trkpt>
      <trkpt lat="45.6918022" lon="7.4062440">
        <ele>1342</ele>
      </trkpt>
      <trkpt lat="45.6918622" lon="7.4061840">
        <ele>1347</ele>
      </trkpt>
      <trkpt lat="45.6919622" lon="7.4062440">
        <ele>1351</ele>
      </trkpt>
      <trkpt lat="45.6921022" lon="7.4062640">
        <ele>1355</ele>
      </trkpt>
      <trkpt lat="45.6922022" lon="7.4063640">
        <ele>1359</ele>
      </trkpt>
      <trkpt lat="45.6922822" lon="7.4063840">
        <ele>1364</ele>
      </trkpt>
      <trkpt lat="45.6923122" lon="7.4061440">
        <ele>1368</ele>
      </trkpt>
      <trkpt lat="45.6922822" lon="7.4060740">
        <ele>1372</ele>
      </trkpt>
      <trkpt lat="45.6922822" lon="7.4060340">
        <ele>1377</ele>
      </trkpt>
      <trkpt lat="45.6924422" lon="7.4061440">
        <ele>1381</ele>
      </trkpt>
      <trkpt lat="45.6924922" lon="7.4060040">
        <ele>1385</ele>
      </trkpt>
      <trkpt lat="45.6925322" lon="7.4060540">
        <ele>1389</ele>
      </trkpt>
      <trkpt lat="45.6925722" lon="7.4059940">
        <ele>1394</ele>
      </trkpt>
      <trkpt lat="45.6925922" lon="7.4058440">
        <ele>1398</ele>
      </trkpt>
      <trkpt lat="45.6926222" lon="7.4058540">
        <ele>1402</ele>
      </trkpt>
      <trkpt lat="45.6926322" lon="7.4058340">
        <ele>1407</ele>
      </trkpt>
      <trkpt lat="45.6926722" lon="7.4058240">
        <ele>1411</ele>
      </trkpt>
      <trkpt lat="45.6926922" lon="7.4057440">
        <ele>1415</ele>
      </trkpt>
      <trkpt lat="45.6927422" lon="7.4058140">
        <ele>1419</ele>
      </trkpt>
      <trkpt lat="45.6927422" lon="7.4058540">
        <ele>1424</ele>
      </trkpt>
      <trkpt lat="45.6928422" lon="7.4060440">
        <ele>1428</ele>
      </trkpt>
      <trkpt lat="45.6928922" lon="7.4060640">
        <ele>1432</ele>
      </trkpt>
      <trkpt lat="45.6929322" lon="7.4060140">
        <ele>1437</ele>
      </trkpt>
      <trkpt lat="45.6929863" lon="7.4062039">
        <ele>1441</ele>
      </trkpt>
      <trkpt lat="45.6931522" lon="7.4062340">
        <ele>1445</ele>
      </trkpt>
      <trkpt lat="45.6934032" lon="7.4068168">
        <ele>1449</ele>
      </trkpt>
      <trkpt lat="45.6934222" lon="7.4066840">
        <ele>1454</ele>
      </trkpt>
      <trkpt lat="45.6934622" lon="7.4065740">
        <ele>1458</ele>
      </trkpt>
      <trkpt lat="45.6935822" lon="7.4067340">
        <ele>1462</ele>
      </trkpt>
      <trkpt lat="45.6934822" lon="7.4063940">
        <ele>1467</ele>
      </trkpt>
      <trkpt lat="45.6936322" lon="7.4063840">
        <ele>1471</ele>
      </trkpt>
      <trkpt lat="45.6937722" lon="7.4066140">
        <ele>1475</ele>
      </trkpt>
      <trkpt lat="45.6938222" lon="7.4064740">
        <ele>1479</ele>
      </trkpt>
      <trkpt lat="45.6938229" lon="7.4063574">
        <ele>1484</ele>
      </trkpt>
      <trkpt lat="45.6939022" lon="7.4063840">
        <ele>1488</ele>
      </trkpt>
      <trkpt lat="45.6939322" lon="7.4063440">
        <ele>1492</ele>
      </trkpt>
      <trkpt lat="45.6939722" lon="7.4065140">
        <ele>1497</ele>
      </trkpt>
      <trkpt lat="45.6939922" lon="7.4065340">
        <ele>1501</ele>
      </trkpt>
      <trkpt lat="45.6940022" lon="7.4065040">
        <ele>1505</ele>
      </trkpt>
      <trkpt lat="45.6940022" lon="7.4065440">
        <ele>1509</ele>
      </trkpt>
      <trkpt lat="45.6940175" lon="7.4065431">
        <ele>1514</ele>
      </trkpt>
      <trkpt lat="45.6940522" lon="7.4066440">
        <ele>1518</ele>
      </trkpt>
      <trkpt lat="45.6940922" lon="7.4066940">
        <ele>1522</ele>
      </trkpt>
      <trkpt lat="45.6941522" lon="7.4070040">
        <ele>1527</ele>
      </trkpt>
      <trkpt lat="45.6941822" lon="7.4072540">
        <ele>1531</ele>
      </trkpt>
      <trkpt lat="45.6941422" lon="7.4077040">
        <ele>1535</ele>
      </trkpt>
      <trkpt lat="45.6942422" lon="7.4076140">
        <ele>1540</ele>
      </trkpt>
      <trkpt lat="45.6942922" lon="7.4076340">
        <ele>1544</ele>
      </trkpt>
      <trkpt lat="45.6943122" lon="7.4077340">
        <ele>1548</ele>
      </trkpt>
      <trkpt lat="45.6944122" lon="7.4076440">
        <ele>1552</ele>
      </trkpt>
      <trkpt lat="45.6944922" lon="7.4075240">
        <ele>1557</ele>
      </trkpt>
      <trkpt lat="45.6945522" lon="7.4075340">
        <ele>1561</ele>
      </trkpt>
      <trkpt lat="45.6945922" lon="7.4074740">
        <ele>1565</ele>
      </trkpt>
      <trkpt lat="45.6947722" lon="7.4073240">
        <ele>1570</ele>
      </trkpt>
      <trkpt lat="45.6948522" lon="7.4073140">
        <ele>1574</ele>
      </trkpt>
      <trkpt lat="45.6950822" lon="7.4075540">
        <ele>1578</ele>
      </trkpt>
      <trkpt lat="45.6951722" lon="7.4079840">
        <ele>1582</ele>
      </trkpt>
      <trkpt lat="45.6953222" lon="7.4077740">
        <ele>1587</ele>
      </trkpt>
      <trkpt lat="45.6955122" lon="7.4078640">
        <ele>1591</ele>
      </trkpt>
      <trkpt lat="45.6954322" lon="7.4074640">
        <ele>1595</ele>
      </trkpt>
      <trkpt lat="45.6955222" lon="7.4075440">
        <ele>1600</ele>
      </trkpt>
      <trkpt lat="45.6955422" lon="7.4073640">
        <ele>1604</ele>
      </trkpt>
      <trkpt lat="45.6957022" lon="7.4074040">
        <ele>1608</ele>
      </trkpt>
      <trkpt lat="45.6956922" lon="7.4068840">
        <ele>1612</ele>
      </trkpt>
      <trkpt lat="45.6958522" lon="7.4066840">
        <ele>1617</ele>
      </trkpt>
      <trkpt lat="45.6959022" lon="7.4064640">
        <ele>1621</ele>
      </trkpt>
      <trkpt lat="45.6959922" lon="7.4069340">
        <ele>1625</ele>
      </trkpt>
      <trkpt lat="45.6961522" lon="7.4071940">
        <ele>1630</ele>
      </trkpt>
      <trkpt lat="45.6962122" lon="7.4070440">
        <ele>1634</ele>
      </trkpt>
      <trkpt lat="45.6963322" lon="7.4072440">
        <ele>1638</ele>
      </trkpt>
      <trkpt lat="45.6964422" lon="7.4070840">
        <ele>1642</ele>
      </trkpt>
      <trkpt lat="45.6965622" lon="7.4071340">
        <ele>1647</ele>
      </trkpt>
      <trkpt lat="45.6966522" lon="7.4076040">
        <ele>1651</ele>
      </trkpt>
      <trkpt lat="45.6967022" lon="7.4075040">
        <ele>1655</ele>
      </trkpt>
      <trkpt lat="45.6967522" lon="7.4076640">
        <ele>1660</ele>
      </trkpt>
      <trkpt lat="45.6968822" lon="7.4075540">
        <ele>1664</ele>
      </trkpt>
      <trkpt lat="45.6968822" lon="7.4079740">
        <ele>1668</ele>
      </trkpt>
      <trkpt lat="45.6970322" lon="7.4078840">
        <ele>1672</ele>
      </trkpt>
      <trkpt lat="45.6972422" lon="7.4074640">
        <ele>1677</ele>
      </trkpt>
      <trkpt lat="45.6973322" lon="7.4075340">
        <ele>1681</ele>
      </trkpt>
      <trkpt lat="45.6974322" lon="7.4072340">
        <ele>1685</ele>
      </trkpt>
      <trkpt lat="45.6975222" lon="7.4078940">
        <ele>1690</ele>
      </trkpt>
      <trkpt lat="45.6976122" lon="7.4079640">
        <ele>1694</ele>
      </trkpt>
      <trkpt lat="45.6976422" lon="7.4085840">
        <ele>1698</ele>
      </trkpt>
      <trkpt lat="45.6977622" lon="7.4086040">
        <ele>1702</ele>
      </trkpt>
      <trkpt lat="45.6978022" lon="7.4084440">
        <ele>1707</ele>
      </trkpt>
      <trkpt lat="45.6981522" lon="7.4084540">
        <ele>1711</ele>
      </trkpt>
      <trkpt lat="45.6980922" lon="7.4083240">
        <ele>1715</ele>
      </trkpt>
      <trkpt lat="45.6982222" lon="7.4080640">
        <ele>1720</ele>
      </trkpt>
      <trkpt lat="45.6981122" lon="7.4078640">
        <ele>1724</ele>
      </trkpt>
      <trkpt lat="45.6982522" lon="7.4075640">
        <ele>1728</ele>
      </trkpt>
      <trkpt lat="45.6984622" lon="7.4075340">
        <ele>1733</ele>
      </trkpt>
      <trkpt lat="45.6987522" lon="7.4080340">
        <ele>1737</ele>
      </trkpt>
      <trkpt lat="45.6986522" lon="7.4083140">
        <ele>1741</ele>
      </trkpt>
      <trkpt lat="45.6987422" lon="7.4086640">
        <ele>1745</ele>
      </trkpt>
      <trkpt lat="45.6990422" lon="7.4088740">
        <ele>1750</ele>
      </trkpt>
      <trkpt lat="45.6991322" lon="7.4093440">
        <ele>1754</ele>
      </trkpt>
      <trkpt lat="45.6992022" lon="7.4092240">
        <ele>1758</ele>
      </trkpt>
      <trkpt lat="45.6993022" lon="7.4092540">
        <ele>1763</ele>
      </trkpt>
      <trkpt lat="45.6994322" lon="7.4095440">
        <ele>1767</ele>
      </trkpt>
      <trkpt lat="45.6995722" lon="7.4092240">
        <ele>1771</ele>
      </trkpt>
      <trkpt lat="45.6997622" lon="7.4094340">
        <ele>1775</ele>
      </trkpt>
      <trkpt lat="45.6998622" lon="7.4093840">
        <ele>1780</ele>
      </trkpt>
      <trkpt lat="45.6999422" lon="7.4095540">
        <ele>1784</ele>
      </trkpt>
      <trkpt lat="45.7000322" lon="7.4093540">
        <ele>1788</ele>
      </trkpt>
      <trkpt lat="45.7001222" lon="7.4094740">
        <ele>1793</ele>
      </trkpt>
      <trkpt lat="45.7001922" lon="7.4090140">
        <ele>1797</ele>
      </trkpt>
      <trkpt lat="45.7003422" lon="7.4090740">
        <ele>1801</ele>
      </trkpt>
      <trkpt lat="45.7003322" lon="7.4090040">
        <ele>1805</ele>
      </trkpt>
      <trkpt lat="45.7004222" lon="7.4091240">
        <ele>1810</ele>
      </trkpt>
      <trkpt lat="45.7003422" lon="7.4087040">
        <ele>1814</ele>
      </trkpt>
      <trkpt lat="45.7004522" lon="7.4084540">
        <ele>1818</ele>
      </trkpt>
      <trkpt lat="45.7005822" lon="7.4085940">
        <ele>1823</ele>
      </trkpt>
      <trkpt lat="45.7006422" lon="7.4085040">
        <ele>1827</ele>
      </trkpt>
      <trkpt lat="45.7007822" lon="7.4085940">
        <ele>1831</ele>
      </trkpt>
      <trkpt lat="45.7008622" lon="7.4084740">
        <ele>1835</ele>
      </trkpt>
      <trkpt lat="45.7010222" lon="7.4084740">
        <ele>1840</ele>
      </trkpt>
      <trkpt lat="45.7011522" lon="7.4086240">
        <ele>1844</ele>
      </trkpt>
      <trkpt lat="45.7012322" lon="7.4084640">
        <ele>1848</ele>
      </trkpt>
      <trkpt lat="45.7013422" lon="7.4087340">
        <ele>1853</ele>
      </trkpt>
      <trkpt lat="45.7012122" lon="7.4090740">
        <ele>1857</ele>
      </trkpt>
      <trkpt lat="45.7012222" lon="7.4092040">
        <ele>1861</ele>
      </trkpt>
      <trkpt lat="45.7013122" lon="7.4092340">
        <ele>1865</ele>
      </trkpt>
      <trkpt lat="45.7012222" lon="7.4093540">
        <ele>1870</ele>
      </trkpt>
      <trkpt lat="45.7012322" lon="7.4095740">
        <ele>1874</ele>
      </trkpt>
      <trkpt lat="45.7015122" lon="7.4099140">
        <ele>1878</ele>
      </trkpt>
      <trkpt lat="45.7014922" lon="7.4097340">
        <ele>1883</ele>
      </trkpt>
      <trkpt lat="45.7015622" lon="7.4099340">
        <ele>1887</ele>
      </trkpt>
      <trkpt lat="45.7018922" lon="7.4095540">
        <ele>1891</ele>
      </trkpt>
      <trkpt lat="45.7017522" lon="7.4094140">
        <ele>1896</ele>
      </trkpt>
      <trkpt lat="45.7019522" lon="7.4088340">
        <ele>1900</ele>
      </trkpt>
      <trkpt lat="45.7020922" lon="7.4087640">
        <ele>1904</ele>
      </trkpt>
      <trkpt lat="45.7020822" lon="7.4084440">
        <ele>1908</ele>
      </trkpt>
      <trkpt lat="45.7024422" lon="7.4084340">
        <ele>1913</ele>
      </trkpt>
      <trkpt lat="45.7029522" lon="7.4081440">
        <ele>1917</ele>
      </trkpt>
      <trkpt lat="45.7029322" lon="7.4079340">
        <ele>1921</ele>
      </trkpt>
      <trkpt lat="45.7026222" lon="7.4076640">
        <ele>1926</ele>
      </trkpt>
      <trkpt lat="45.7024922" lon="7.4069140">
        <ele>1930</ele>
      </trkpt>
      <trkpt lat="45.7028822" lon="7.4066840">
        <ele>1934</ele>
      </trkpt>
      <trkpt lat="45.7029122" lon="7.4065640">
        <ele>1938</ele>
      </trkpt>
      <trkpt lat="45.7031522" lon="7.4067640">
        <ele>1943</ele>
      </trkpt>
      <trkpt lat="45.7037322" lon="7.4063640">
        <ele>1947</ele>
      </trkpt>
      <trkpt lat="45.7035722" lon="7.4059740">
        <ele>1951</ele>
      </trkpt>
      <trkpt lat="45.7038522" lon="7.4059840">
        <ele>1956</ele>
      </trkpt>
      <trkpt lat="45.7038922" lon="7.4054240">
        <ele>1960</ele>
      </trkpt>
      <trkpt lat="45.7039622" lon="7.4052640">
        <ele>1964</ele>
      </trkpt>
      <trkpt lat="45.7041122" lon="7.4053640">
        <ele>1968</ele>
      </trkpt>
      <trkpt lat="45.7042822" lon="7.4048440">
        <ele>1973</ele>
      </trkpt>
      <trkpt lat="45.7046422" lon="7.4048440">
        <ele>1977</ele>
      </trkpt>
      <trkpt lat="45.7047422" lon="7.4049640">
        <ele>1981</ele>
      </trkpt>
      <trkpt lat="45.7050722" lon="7.4049140">
        <ele>1986</ele>
      </trkpt>
      <trkpt lat="45.7055222" lon="7.4052540">
        <ele>1990</ele>
      </trkpt>
      <trkpt lat="45.7048122" lon="7.4059240">
        <ele>1994</ele>
      </trkpt>
      <trkpt lat="45.7048222" lon="7.4061340">
        <ele>1998</ele>
      </trkpt>
      <trkpt lat="45.7049322" lon="7.4061240">
        <ele>2003</ele>
      </trkpt>
      <trkpt lat="45.7049222" lon="7.4061740">
        <ele>2007</ele>
      </trkpt>
      <trkpt lat="45.7049922" lon="7.4063940">
        <ele>2011</ele>
      </trkpt>
      <trkpt lat="45.7054322" lon="7.4062940">
        <ele>2016</ele>
      </trkpt>
      <trkpt lat="45.7052822" lon="7.4066140">
        <ele>2020</ele>
      </trkpt>
      <trkpt lat="45.7053922" lon="7.4067240">
        <ele>2024</ele>
      </trkpt>
      <trkpt lat="45.7053922" lon="7.4069440">
        <ele>2028</ele>
      </trkpt>
      <trkpt lat="45.7055022" lon="7.4069340">
        <ele>2033</ele>
      </trkpt>
      <trkpt lat="45.7055122" lon="7.4070240">
        <ele>2037</ele>
      </trkpt>
      <trkpt lat="45.7056922" lon="7.4069940">
        <ele>2041</ele>
      </trkpt>
      <trkpt lat="45.7057422" lon="7.4073940">
        <ele>2046</ele>
      </trkpt>
      <trkpt lat="45.7063822" lon="7.4070940">
        <ele>2050</ele>
      </trkpt>
      <trkpt lat="45.7068422" lon="7.4073740">
        <ele>2054</ele>
      </trkpt>
      <trkpt lat="45.7068222" lon="7.4074640">
        <ele>2058</ele>
      </trkpt>
      <trkpt lat="45.7069091" lon="7.4076799">
        <ele>2063</ele>
      </trkpt>
      <trkpt lat="45.7068495" lon="7.4079257">
        <ele>2067</ele>
      </trkpt>
      <trkpt lat="45.7068378" lon="7.4080545">
        <ele>2071</ele>
      </trkpt>
      <trkpt lat="45.7068712" lon="7.4082779">
        <ele>2076</ele>
      </trkpt>
      <trkpt lat="45.7068438" lon="7.4084259">
        <ele>2080</ele>
      </trkpt>
      <trkpt lat="45.7068444" lon="7.4086025">
        <ele>2084</ele>
      </trkpt>
      <trkpt lat="45.7068726" lon="7.4086891">
        <ele>2089</ele>
      </trkpt>
      <trkpt lat="45.7069042" lon="7.4087201">
        <ele>2093</ele>
      </trkpt>
      <trkpt lat="45.7071254" lon="7.4085111">
        <ele>2097</ele>
      </trkpt>
      <trkpt lat="45.7072087" lon="7.4083262">
        <ele>2101</ele>
      </trkpt>
      <trkpt lat="45.7072812" lon="7.4082407">
        <ele>2106</ele>
      </trkpt>
      <trkpt lat="45.7073251" lon="7.4081571">
        <ele>2110</ele>
      </trkpt>
      <trkpt lat="45.7074034" lon="7.4079485">
        <ele>2114</ele>
      </trkpt>
      <trkpt lat="45.7075238" lon="7.4077790">
        <ele>2119</ele>
      </trkpt>
      <trkpt lat="45.7075448" lon="7.4076721">
        <ele>2123</ele>
      </trkpt>
      <trkpt lat="45.7075425" lon="7.4075977">
        <ele>2127</ele>
      </trkpt>
      <trkpt lat="45.7075642" lon="7.4075457">
        <ele>2131</ele>
      </trkpt>
      <trkpt lat="45.7076486" lon="7.4074662">
        <ele>2136</ele>
      </trkpt>
      <trkpt lat="45.7077120" lon="7.4074901">
        <ele>2140</ele>
      </trkpt>
      <trkpt lat="45.7077852" lon="7.4075779">
        <ele>2144</ele>
      </trkpt>
      <trkpt lat="45.7078548" lon="7.4077301">
        <ele>2149</ele>
      </trkpt>
      <trkpt lat="45.7078660" lon="7.4082051">
        <ele>2153</ele>
      </trkpt>
      <trkpt lat="45.7078420" lon="7.4083249">
        <ele>2157</ele>
      </trkpt>
      <trkpt lat="45.7078694" lon="7.4086877">
        <ele>2161</ele>
      </trkpt>
      <trkpt lat="45.7079147" lon="7.4087655">
        <ele>2166</ele>
      </trkpt>
      <trkpt lat="45.7079795" lon="7.4088419">
        <ele>2170</ele>
      </trkpt>
      <trkpt lat="45.7080650" lon="7.4083743">
        <ele>2174</ele>
      </trkpt>
      <trkpt lat="45.7082031" lon="7.4081826">
        <ele>2179</ele>
      </trkpt>
      <trkpt lat="45.7082408" lon="7.4079761">
        <ele>2183</ele>
      </trkpt>
      <trkpt lat="45.7083556" lon="7.4078187">
        <ele>2187</ele>
      </trkpt>
      <trkpt lat="45.7084456" lon="7.4078161">
        <ele>2191</ele>
      </trkpt>
      <trkpt lat="45.7084551" lon="7.4080092">
        <ele>2196</ele>
      </trkpt>
      <trkpt lat="45.7084842" lon="7.4080680">
        <ele>2200</ele>
      </trkpt>
      <trkpt lat="45.7086008" lon="7.4085405">
        <ele>2204</ele>
      </trkpt>
      <trkpt lat="45.7086306" lon="7.4087459">
        <ele>2209</ele>
      </trkpt>
      <trkpt lat="45.7087089" lon="7.4090679">
        <ele>2213</ele>
      </trkpt>
      <trkpt lat="45.7087795" lon="7.4091079">
        <ele>2217</ele>
      </trkpt>
      <trkpt lat="45.7088341" lon="7.4090517">
        <ele>2221</ele>
      </trkpt>
      <trkpt lat="45.7089219" lon="7.4086856">
        <ele>2226</ele>
      </trkpt>
      <trkpt lat="45.7090867" lon="7.4085209">
        <ele>2230</ele>
      </trkpt>
      <trkpt lat="45.7091871" lon="7.4083818">
        <ele>2234</ele>
      </trkpt>
      <trkpt lat="45.7092152" lon="7.4081411">
        <ele>2239</ele>
      </trkpt>
      <trkpt lat="45.7093104" lon="7.4078686">
        <ele>2243</ele>
      </trkpt>
      <trkpt lat="45.7093569" lon="7.4076553">
        <ele>2247</ele>
      </trkpt>
      <trkpt lat="45.7094541" lon="7.4076060">
        <ele>2251</ele>
      </trkpt>
      <trkpt lat="45.7097030" lon="7.4075645">
        <ele>2256</ele>
      </trkpt>
      <trkpt lat="45.7099144" lon="7.4074694">
        <ele>2260</ele>
      </trkpt>
      <trkpt lat="45.7101274" lon="7.4074022">
        <ele>2264</ele>
      </trkpt>
      <trkpt lat="45.7102062" lon="7.4072458">
        <ele>2269</ele>
      </trkpt>
      <trkpt lat="45.7102861" lon="7.4068388">
        <ele>2273</ele>
      </trkpt>
      <trkpt lat="45.7103910" lon="7.4066175">
        <ele>2277</ele>
      </trkpt>
      <trkpt lat="45.7104663" lon="7.4065318">
        <ele>2282</ele>
      </trkpt>
      <trkpt lat="45.7109005" lon="7.4063653">
        <ele>2286</ele>
      </trkpt>
      <trkpt lat="45.7111840" lon="7.4060425">
        <ele>2290</ele>
      </trkpt>
      <trkpt lat="45.7112603" lon="7.4059053">
        <ele>2294</ele>
      </trkpt>
      <trkpt lat="45.7113300" lon="7.4058206">
        <ele>2299</ele>
      </trkpt>
      <trkpt lat="45.7113661" lon="7.4058401">
        <ele>2303</ele>
      </trkpt>
      <trkpt lat="45.7113756" lon="7.4059442">
        <ele>2307</ele>
      </trkpt>
      <trkpt lat="45.7113408" lon="7.4059866">
        <ele>2312</ele>
      </trkpt>
      <trkpt lat="45.7113197" lon="7.4060900">
        <ele>2316</ele>
      </trkpt>
      <trkpt lat="45.7113433" lon="7.4061664">
        <ele>2320</ele>
      </trkpt>
      <trkpt lat="45.7114025" lon="7.4062161">
        <ele>2324</ele>
      </trkpt>
      <trkpt lat="45.7114651" lon="7.4061887">
        <ele>2329</ele>
      </trkpt>
      <trkpt lat="45.7115716" lon="7.4060828">
        <ele>2333</ele>
      </trkpt>
      <trkpt lat="45.7116697" lon="7.4060158">
        <ele>2337</ele>
      </trkpt>
      <trkpt lat="45.7118574" lon="7.4059205">
        <ele>2342</ele>
      </trkpt>
      <trkpt lat="45.7119224" lon="7.4058522">
        <ele>2346</ele>
      </trkpt>
      <trkpt lat="45.7120763" lon="7.4057601">
        <ele>2350</ele>
      </trkpt>
      <trkpt lat="45.7121235" lon="7.4056993">
        <ele>2354</ele>
      </trkpt>
      <trkpt lat="45.7121989" lon="7.4056477">
        <ele>2359</ele>
      </trkpt>
      <trkpt lat="45.7123297" lon="7.4055859">
        <ele>2363</ele>
      </trkpt>
      <trkpt lat="45.7125635" lon="7.4055664">
        <ele>2367</ele>
      </trkpt>
      <trkpt lat="45.7127157" lon="7.4055107">
        <ele>2372</ele>
      </trkpt>
      <trkpt lat="45.7129168" lon="7.4055724">
        <ele>2376</ele>
      </trkpt>
      <trkpt lat="45.7132156" lon="7.4056988">
        <ele>2380</ele>
      </trkpt>
      <trkpt lat="45.7134336" lon="7.4058404">
        <ele>2384</ele>
      </trkpt>
      <trkpt lat="45.7136031" lon="7.4058902">
        <ele>2389</ele>
      </trkpt>
      <trkpt lat="45.7136634" lon="7.4058628">
        <ele>2393</ele>
      </trkpt>
      <trkpt lat="45.7137826" lon="7.4058594">
        <ele>2397</ele>
      </trkpt>
      <trkpt lat="45.7140104" lon="7.4057373">
        <ele>2402</ele>
      </trkpt>
      <trkpt lat="45.7141141" lon="7.4057472">
        <ele>2406</ele>
      </trkpt>
      <trkpt lat="45.7141459" lon="7.4057720">
        <ele>2410</ele>
      </trkpt>
      <trkpt lat="45.7142152" lon="7.4058985">
        <ele>2414</ele>
      </trkpt>
      <trkpt lat="45.7142922" lon="7.4059316">
        <ele>2419</ele>
      </trkpt>
      <trkpt lat="45.7146958" lon="7.4058334">
        <ele>2423</ele>
      </trkpt>
      <trkpt lat="45.7152303" lon="7.4057572">
        <ele>2427</ele>
      </trkpt>
      <trkpt lat="45.7157059" lon="7.4056537">
        <ele>2432</ele>
      </trkpt>
      <trkpt lat="45.7159433" lon="7.4055731">
        <ele>2436</ele>
      </trkpt>
      <trkpt lat="45.7161823" lon="7.4054442">
        <ele>2440</ele>
      </trkpt>
      <trkpt lat="45.7162604" lon="7.4054002">
        <ele>2444</ele>
      </trkpt>
      <trkpt lat="45.7163962" lon="7.4051330">
        <ele>2449</ele>
      </trkpt>
      <trkpt lat="45.7164977" lon="7.4049887">
        <ele>2453</ele>
      </trkpt>
      <trkpt lat="45.7167435" lon="7.4048693">
        <ele>2457</ele>
      </trkpt>
      <trkpt lat="45.7171317" lon="7.4046270">
        <ele>2462</ele>
      </trkpt>
      <trkpt lat="45.7172615" lon="7.4045783">
        <ele>2466</ele>
      </trkpt>
      <trkpt lat="45.7174855" lon="7.4045077">
        <ele>2470</ele>
      </trkpt>
      <trkpt lat="45.7179832" lon="7.4040535">
        <ele>2475</ele>
      </trkpt>
      <trkpt lat="45.7183274" lon="7.4038863">
        <ele>2479</ele>
      </trkpt>
      <trkpt lat="45.7188763" lon="7.4035558">
        <ele>2483</ele>
      </trkpt>
      <trkpt lat="45.7189956" lon="7.4033982">
        <ele>2487</ele>
      </trkpt>
      <trkpt lat="45.7193028" lon="7.4031582">
        <ele>2492</ele>
      </trkpt>
      <trkpt lat="45.7193512" lon="7.4030829">
        <ele>2496</ele>
      </trkpt>
      <trkpt lat="45.7196499" lon="7.4022360">
        <ele>2500</ele>
      </trkpt>
      <trkpt lat="45.7196964" lon="7.4020194">
        <ele>2505</ele>
      </trkpt>
      <trkpt lat="45.7199205" lon="7.4013095">
        <ele>2509</ele>
      </trkpt>
      <trkpt lat="45.7199797" lon="7.4010444">
        <ele>2513</ele>
      </trkpt>
      <trkpt lat="45.7200847" lon="7.4008262">
        <ele>2517</ele>
      </trkpt>
      <trkpt lat="45.7203968" lon="7.4003001">
        <ele>2522</ele>
      </trkpt>
      <trkpt lat="45.7204665" lon="7.4001311">
        <ele>2526</ele>
      </trkpt>
      <trkpt lat="45.7205129" lon="7.3999113">
        <ele>2530</ele>
      </trkpt>
      <trkpt lat="45.7205333" lon="7.3994417">
        <ele>2535</ele>
      </trkpt>
      <trkpt lat="45.7209315" lon="7.3983092">
        <ele>2539</ele>
      </trkpt>
      <trkpt lat="45.7209901" lon="7.3979927">
        <ele>2543</ele>
      </trkpt>
      <trkpt lat="45.7210401" lon="7.3973873">
        <ele>2547</ele>
      </trkpt>
      <trkpt lat="45.7211341" lon="7.3970345">
        <ele>2552</ele>
      </trkpt>
      <trkpt lat="45.7213245" lon="7.3958464">
        <ele>2556</ele>
      </trkpt>
    </trkseg>
  </trk>
</gpx>
