<?xml version="1.0" encoding="UTF-8"?>
<gpx version="1.1" creator="sentieri-vda" xmlns="http://www.topografix.com/GPX/1/1">
  <metadata>
    <name>Strada per Estoul - Col de Palasinaz - Corno Boussolaz</name>
    <desc>Catasto Sentieri VdA — 12_S11</desc>
    <author><name>Regione Autonoma Valle d'Aosta</name></author>
  </metadata>
  <trk>
    <name>Strada per Estoul - Col de Palasinaz - Corno Boussolaz</name>
    <src>Catasto Sentieri VdA (12_S11)</src>
    <trkseg>
      <trkpt lat="45.7956762" lon="7.7372580">
        <ele>1884</ele>
      </trkpt>
      <trkpt lat="45.7957462" lon="7.7374480">
        <ele>1888</ele>
      </trkpt>
      <trkpt lat="45.7956362" lon="7.7379080">
        <ele>1892</ele>
      </trkpt>
      <trkpt lat="45.7955062" lon="7.7377980">
        <ele>1896</ele>
      </trkpt>
      <trkpt lat="45.7952362" lon="7.7383080">
        <ele>1899</ele>
      </trkpt>
      <trkpt lat="45.7951262" lon="7.7381980">
        <ele>1903</ele>
      </trkpt>
      <trkpt lat="45.7951162" lon="7.7386980">
        <ele>1907</ele>
      </trkpt>
      <trkpt lat="45.7952762" lon="7.7390880">
        <ele>1911</ele>
      </trkpt>
      <trkpt lat="45.7955362" lon="7.7398380">
        <ele>1915</ele>
      </trkpt>
      <trkpt lat="45.7955962" lon="7.7401480">
        <ele>1919</ele>
      </trkpt>
      <trkpt lat="45.7954962" lon="7.7405780">
        <ele>1922</ele>
      </trkpt>
      <trkpt lat="45.7955362" lon="7.7408680">
        <ele>1926</ele>
      </trkpt>
      <trkpt lat="45.7957662" lon="7.7411980">
        <ele>1930</ele>
      </trkpt>
      <trkpt lat="45.7959562" lon="7.7416580">
        <ele>1934</ele>
      </trkpt>
      <trkpt lat="45.7960262" lon="7.7420080">
        <ele>1938</ele>
      </trkpt>
      <trkpt lat="45.7961662" lon="7.7425480">
        <ele>1942</ele>
      </trkpt>
      <trkpt lat="45.7963962" lon="7.7432580">
        <ele>1946</ele>
      </trkpt>
      <trkpt lat="45.7964362" lon="7.7438580">
        <ele>1949</ele>
      </trkpt>
      <trkpt lat="45.7964662" lon="7.7438580">
        <ele>1953</ele>
      </trkpt>
      <trkpt lat="45.7965262" lon="7.7455880">
        <ele>1957</ele>
      </trkpt>
      <trkpt lat="45.7964862" lon="7.7464380">
        <ele>1961</ele>
      </trkpt>
      <trkpt lat="45.7963062" lon="7.7469180">
        <ele>1965</ele>
      </trkpt>
      <trkpt lat="45.7962262" lon="7.7475380">
        <ele>1969</ele>
      </trkpt>
      <trkpt lat="45.7961862" lon="7.7476580">
        <ele>1973</ele>
      </trkpt>
      <trkpt lat="45.7956262" lon="7.7487180">
        <ele>1976</ele>
      </trkpt>
      <trkpt lat="45.7955762" lon="7.7492680">
        <ele>1980</ele>
      </trkpt>
      <trkpt lat="45.7953062" lon="7.7500380">
        <ele>1984</ele>
      </trkpt>
      <trkpt lat="45.7951062" lon="7.7503880">
        <ele>1988</ele>
      </trkpt>
      <trkpt lat="45.7948862" lon="7.7510580">
        <ele>1992</ele>
      </trkpt>
      <trkpt lat="45.7947362" lon="7.7522280">
        <ele>1996</ele>
      </trkpt>
      <trkpt lat="45.7944962" lon="7.7536680">
        <ele>1999</ele>
      </trkpt>
      <trkpt lat="45.7943762" lon="7.7540780">
        <ele>2003</ele>
      </trkpt>
      <trkpt lat="45.7942562" lon="7.7541480">
        <ele>2007</ele>
      </trkpt>
      <trkpt lat="45.7941662" lon="7.7545780">
        <ele>2011</ele>
      </trkpt>
      <trkpt lat="45.7941462" lon="7.7545280">
        <ele>2015</ele>
      </trkpt>
      <trkpt lat="45.7940462" lon="7.7547180">
        <ele>2019</ele>
      </trkpt>
      <trkpt lat="45.7941562" lon="7.7555680">
        <ele>2023</ele>
      </trkpt>
      <trkpt lat="45.7941662" lon="7.7558080">
        <ele>2026</ele>
      </trkpt>
      <trkpt lat="45.7940862" lon="7.7558380">
        <ele>2030</ele>
      </trkpt>
      <trkpt lat="45.7940362" lon="7.7561680">
        <ele>2034</ele>
      </trkpt>
      <trkpt lat="45.7940662" lon="7.7567280">
        <ele>2038</ele>
      </trkpt>
      <trkpt lat="45.7939162" lon="7.7566380">
        <ele>2042</ele>
      </trkpt>
      <trkpt lat="45.7939262" lon="7.7568380">
        <ele>2046</ele>
      </trkpt>
      <trkpt lat="45.7937462" lon="7.7567380">
        <ele>2049</ele>
      </trkpt>
      <trkpt lat="45.7937662" lon="7.7568980">
        <ele>2053</ele>
      </trkpt>
      <trkpt lat="45.7936962" lon="7.7569080">
        <ele>2057</ele>
      </trkpt>
      <trkpt lat="45.7937062" lon="7.7570180">
        <ele>2061</ele>
      </trkpt>
      <trkpt lat="45.7936462" lon="7.7570580">
        <ele>2065</ele>
      </trkpt>
      <trkpt lat="45.7938362" lon="7.7574880">
        <ele>2069</ele>
      </trkpt>
      <trkpt lat="45.7937162" lon="7.7575280">
        <ele>2073</ele>
      </trkpt>
      <trkpt lat="45.7937592" lon="7.7576780">
        <ele>2076</ele>
      </trkpt>
      <trkpt lat="45.7946462" lon="7.7582480">
        <ele>2080</ele>
      </trkpt>
      <trkpt lat="45.7948262" lon="7.7584480">
        <ele>2084</ele>
      </trkpt>
      <trkpt lat="45.7947962" lon="7.7585080">
        <ele>2088</ele>
      </trkpt>
      <trkpt lat="45.7950362" lon="7.7587680">
        <ele>2092</ele>
      </trkpt>
      <trkpt lat="45.7953662" lon="7.7589980">
        <ele>2096</ele>
      </trkpt>
      <trkpt lat="45.7955162" lon="7.7593080">
        <ele>2099</ele>
      </trkpt>
      <trkpt lat="45.7951062" lon="7.7592480">
        <ele>2103</ele>
      </trkpt>
      <trkpt lat="45.7946162" lon="7.7593380">
        <ele>2107</ele>
      </trkpt>
      <trkpt lat="45.7939662" lon="7.7592280">
        <ele>2111</ele>
      </trkpt>
      <trkpt lat="45.7937462" lon="7.7592980">
        <ele>2115</ele>
      </trkpt>
      <trkpt lat="45.7935762" lon="7.7594380">
        <ele>2119</ele>
      </trkpt>
      <trkpt lat="45.7933462" lon="7.7594080">
        <ele>2123</ele>
      </trkpt>
      <trkpt lat="45.7930262" lon="7.7591980">
        <ele>2126</ele>
      </trkpt>
      <trkpt lat="45.7926262" lon="7.7590480">
        <ele>2130</ele>
      </trkpt>
      <trkpt lat="45.7922362" lon="7.7592180">
        <ele>2134</ele>
      </trkpt>
      <trkpt lat="45.7921762" lon="7.7591780">
        <ele>2138</ele>
      </trkpt>
      <trkpt lat="45.7921062" lon="7.7593980">
        <ele>2142</ele>
      </trkpt>
      <trkpt lat="45.7920462" lon="7.7593380">
        <ele>2146</ele>
      </trkpt>
      <trkpt lat="45.7920062" lon="7.7594480">
        <ele>2150</ele>
      </trkpt>
      <trkpt lat="45.7918562" lon="7.7592280">
        <ele>2153</ele>
      </trkpt>
      <trkpt lat="45.7915962" lon="7.7591980">
        <ele>2157</ele>
      </trkpt>
      <trkpt lat="45.7915362" lon="7.7592480">
        <ele>2161</ele>
      </trkpt>
      <trkpt lat="45.7915162" lon="7.7589980">
        <ele>2165</ele>
      </trkpt>
      <trkpt lat="45.7914362" lon="7.7589280">
        <ele>2169</ele>
      </trkpt>
      <trkpt lat="45.7915762" lon="7.7584280">
        <ele>2173</ele>
      </trkpt>
      <trkpt lat="45.7914462" lon="7.7583180">
        <ele>2176</ele>
      </trkpt>
      <trkpt lat="45.7911062" lon="7.7583380">
        <ele>2180</ele>
      </trkpt>
      <trkpt lat="45.7908662" lon="7.7581080">
        <ele>2184</ele>
      </trkpt>
      <trkpt lat="45.7907862" lon="7.7580680">
        <ele>2188</ele>
      </trkpt>
      <trkpt lat="45.7902562" lon="7.7586880">
        <ele>2192</ele>
      </trkpt>
      <trkpt lat="45.7898062" lon="7.7595680">
        <ele>2196</ele>
      </trkpt>
      <trkpt lat="45.7895862" lon="7.7596080">
        <ele>2200</ele>
      </trkpt>
      <trkpt lat="45.7891382" lon="7.7604200">
        <ele>2203</ele>
      </trkpt>
      <trkpt lat="45.7884762" lon="7.7609880">
        <ele>2207</ele>
      </trkpt>
      <trkpt lat="45.7880262" lon="7.7615380">
        <ele>2211</ele>
      </trkpt>
      <trkpt lat="45.7875062" lon="7.7618580">
        <ele>2215</ele>
      </trkpt>
      <trkpt lat="45.7871162" lon="7.7623780">
        <ele>2219</ele>
      </trkpt>
      <trkpt lat="45.7871662" lon="7.7636280">
        <ele>2223</ele>
      </trkpt>
      <trkpt lat="45.7872062" lon="7.7637980">
        <ele>2226</ele>
      </trkpt>
      <trkpt lat="45.7871721" lon="7.7653617">
        <ele>2230</ele>
      </trkpt>
      <trkpt lat="45.7871751" lon="7.7659360">
        <ele>2234</ele>
      </trkpt>
      <trkpt lat="45.7870366" lon="7.7664408">
        <ele>2238</ele>
      </trkpt>
      <trkpt lat="45.7869749" lon="7.7665676">
        <ele>2242</ele>
      </trkpt>
      <trkpt lat="45.7866404" lon="7.7668419">
        <ele>2246</ele>
      </trkpt>
      <trkpt lat="45.7866005" lon="7.7668943">
        <ele>2250</ele>
      </trkpt>
      <trkpt lat="45.7864798" lon="7.7669451">
        <ele>2253</ele>
      </trkpt>
      <trkpt lat="45.7860932" lon="7.7671919">
        <ele>2257</ele>
      </trkpt>
      <trkpt lat="45.7858388" lon="7.7675306">
        <ele>2261</ele>
      </trkpt>
      <trkpt lat="45.7857309" lon="7.7675268">
        <ele>2265</ele>
      </trkpt>
      <trkpt lat="45.7855262" lon="7.7678070">
        <ele>2269</ele>
      </trkpt>
      <trkpt lat="45.7853962" lon="7.7680870">
        <ele>2273</ele>
      </trkpt>
      <trkpt lat="45.7850962" lon="7.7684770">
        <ele>2276</ele>
      </trkpt>
      <trkpt lat="45.7847762" lon="7.7685170">
        <ele>2280</ele>
      </trkpt>
      <trkpt lat="45.7842569" lon="7.7687890">
        <ele>2284</ele>
      </trkpt>
      <trkpt lat="45.7839862" lon="7.7688170">
        <ele>2288</ele>
      </trkpt>
      <trkpt lat="45.7838862" lon="7.7689370">
        <ele>2292</ele>
      </trkpt>
      <trkpt lat="45.7834871" lon="7.7688443">
        <ele>2296</ele>
      </trkpt>
      <trkpt lat="45.7834304" lon="7.7688005">
        <ele>2300</ele>
      </trkpt>
      <trkpt lat="45.7833630" lon="7.7688149">
        <ele>2303</ele>
      </trkpt>
      <trkpt lat="45.7832514" lon="7.7688945">
        <ele>2307</ele>
      </trkpt>
      <trkpt lat="45.7831411" lon="7.7691060">
        <ele>2311</ele>
      </trkpt>
      <trkpt lat="45.7830333" lon="7.7695393">
        <ele>2315</ele>
      </trkpt>
      <trkpt lat="45.7830386" lon="7.7696131">
        <ele>2319</ele>
      </trkpt>
      <trkpt lat="45.7829362" lon="7.7697070">
        <ele>2323</ele>
      </trkpt>
      <trkpt lat="45.7828162" lon="7.7696870">
        <ele>2327</ele>
      </trkpt>
      <trkpt lat="45.7825962" lon="7.7698270">
        <ele>2330</ele>
      </trkpt>
      <trkpt lat="45.7824962" lon="7.7701470">
        <ele>2334</ele>
      </trkpt>
      <trkpt lat="45.7824962" lon="7.7709270">
        <ele>2338</ele>
      </trkpt>
      <trkpt lat="45.7826362" lon="7.7715070">
        <ele>2342</ele>
      </trkpt>
      <trkpt lat="45.7827948" lon="7.7717861">
        <ele>2346</ele>
      </trkpt>
      <trkpt lat="45.7828162" lon="7.7719070">
        <ele>2350</ele>
      </trkpt>
      <trkpt lat="45.7827962" lon="7.7719970">
        <ele>2353</ele>
      </trkpt>
      <trkpt lat="45.7826962" lon="7.7719370">
        <ele>2357</ele>
      </trkpt>
      <trkpt lat="45.7825962" lon="7.7725470">
        <ele>2361</ele>
      </trkpt>
      <trkpt lat="45.7824162" lon="7.7730670">
        <ele>2365</ele>
      </trkpt>
      <trkpt lat="45.7818287" lon="7.7739199">
        <ele>2369</ele>
      </trkpt>
      <trkpt lat="45.7816271" lon="7.7740681">
        <ele>2373</ele>
      </trkpt>
      <trkpt lat="45.7814129" lon="7.7741930">
        <ele>2377</ele>
      </trkpt>
      <trkpt lat="45.7812662" lon="7.7742370">
        <ele>2380</ele>
      </trkpt>
      <trkpt lat="45.7809612" lon="7.7743765">
        <ele>2384</ele>
      </trkpt>
      <trkpt lat="45.7809641" lon="7.7746530">
        <ele>2388</ele>
      </trkpt>
      <trkpt lat="45.7810706" lon="7.7749241">
        <ele>2392</ele>
      </trkpt>
      <trkpt lat="45.7810868" lon="7.7751810">
        <ele>2396</ele>
      </trkpt>
      <trkpt lat="45.7811201" lon="7.7753443">
        <ele>2400</ele>
      </trkpt>
      <trkpt lat="45.7811617" lon="7.7754495">
        <ele>2403</ele>
      </trkpt>
      <trkpt lat="45.7809762" lon="7.7755070">
        <ele>2407</ele>
      </trkpt>
      <trkpt lat="45.7808762" lon="7.7756170">
        <ele>2411</ele>
      </trkpt>
      <trkpt lat="45.7805762" lon="7.7755170">
        <ele>2415</ele>
      </trkpt>
      <trkpt lat="45.7804542" lon="7.7757769">
        <ele>2419</ele>
      </trkpt>
      <trkpt lat="45.7803466" lon="7.7758178">
        <ele>2423</ele>
      </trkpt>
      <trkpt lat="45.7801488" lon="7.7758415">
        <ele>2427</ele>
      </trkpt>
      <trkpt lat="45.7800677" lon="7.7758272">
        <ele>2430</ele>
      </trkpt>
      <trkpt lat="45.7798912" lon="7.7757313">
        <ele>2434</ele>
      </trkpt>
      <trkpt lat="45.7796317" lon="7.7756663">
        <ele>2438</ele>
      </trkpt>
      <trkpt lat="45.7794258" lon="7.7755614">
        <ele>2442</ele>
      </trkpt>
      <trkpt lat="45.7793039" lon="7.7755255">
        <ele>2446</ele>
      </trkpt>
      <trkpt lat="45.7790876" lon="7.7755013">
        <ele>2450</ele>
      </trkpt>
      <trkpt lat="45.7788482" lon="7.7754133">
        <ele>2454</ele>
      </trkpt>
      <trkpt lat="45.7784782" lon="7.7753217">
        <ele>2457</ele>
      </trkpt>
      <trkpt lat="45.7784420" lon="7.7753000">
        <ele>2461</ele>
      </trkpt>
      <trkpt lat="45.7783140" lon="7.7751163">
        <ele>2465</ele>
      </trkpt>
      <trkpt lat="45.7782322" lon="7.7750409">
        <ele>2469</ele>
      </trkpt>
      <trkpt lat="45.7777925" lon="7.7747515">
        <ele>2473</ele>
      </trkpt>
      <trkpt lat="45.7773398" lon="7.7744945">
        <ele>2477</ele>
      </trkpt>
      <trkpt lat="45.7770177" lon="7.7742571">
        <ele>2480</ele>
      </trkpt>
      <trkpt lat="45.7768753" lon="7.7739837">
        <ele>2484</ele>
      </trkpt>
      <trkpt lat="45.7767209" lon="7.7738553">
        <ele>2488</ele>
      </trkpt>
      <trkpt lat="45.7766474" lon="7.7737218">
        <ele>2492</ele>
      </trkpt>
      <trkpt lat="45.7764380" lon="7.7734949">
        <ele>2496</ele>
      </trkpt>
      <trkpt lat="45.7762619" lon="7.7732351">
        <ele>2500</ele>
      </trkpt>
      <trkpt lat="45.7759832" lon="7.7726302">
        <ele>2504</ele>
      </trkpt>
      <trkpt lat="45.7759056" lon="7.7725258">
        <ele>2507</ele>
      </trkpt>
      <trkpt lat="45.7758641" lon="7.7724399">
        <ele>2511</ele>
      </trkpt>
      <trkpt lat="45.7758077" lon="7.7722096">
        <ele>2515</ele>
      </trkpt>
      <trkpt lat="45.7757382" lon="7.7720246">
        <ele>2519</ele>
      </trkpt>
      <trkpt lat="45.7756061" lon="7.7712558">
        <ele>2523</ele>
      </trkpt>
      <trkpt lat="45.7756196" lon="7.7710401">
        <ele>2527</ele>
      </trkpt>
      <trkpt lat="45.7756038" lon="7.7708250">
        <ele>2530</ele>
      </trkpt>
      <trkpt lat="45.7755416" lon="7.7704823">
        <ele>2534</ele>
      </trkpt>
      <trkpt lat="45.7754812" lon="7.7703132">
        <ele>2538</ele>
      </trkpt>
      <trkpt lat="45.7754218" lon="7.7702276">
        <ele>2542</ele>
      </trkpt>
      <trkpt lat="45.7752217" lon="7.7700327">
        <ele>2546</ele>
      </trkpt>
      <trkpt lat="45.7750885" lon="7.7697784">
        <ele>2550</ele>
      </trkpt>
      <trkpt lat="45.7749514" lon="7.7695917">
        <ele>2554</ele>
      </trkpt>
      <trkpt lat="45.7748250" lon="7.7693404">
        <ele>2557</ele>
      </trkpt>
      <trkpt lat="45.7746405" lon="7.7691387">
        <ele>2561</ele>
      </trkpt>
      <trkpt lat="45.7745002" lon="7.7690582">
        <ele>2565</ele>
      </trkpt>
      <trkpt lat="45.7744054" lon="7.7690345">
        <ele>2569</ele>
      </trkpt>
      <trkpt lat="45.7743373" lon="7.7689749">
        <ele>2573</ele>
      </trkpt>
      <trkpt lat="45.7742594" lon="7.7688512">
        <ele>2577</ele>
      </trkpt>
      <trkpt lat="45.7742133" lon="7.7687429">
        <ele>2580</ele>
      </trkpt>
      <trkpt lat="45.7741230" lon="7.7682980">
        <ele>2584</ele>
      </trkpt>
      <trkpt lat="45.7740579" lon="7.7681033">
        <ele>2588</ele>
      </trkpt>
      <trkpt lat="45.7739252" lon="7.7679036">
        <ele>2592</ele>
      </trkpt>
      <trkpt lat="45.7738560" lon="7.7677508">
        <ele>2596</ele>
      </trkpt>
      <trkpt lat="45.7736643" lon="7.7675010">
        <ele>2600</ele>
      </trkpt>
      <trkpt lat="45.7735207" lon="7.7671151">
        <ele>2604</ele>
      </trkpt>
      <trkpt lat="45.7732511" lon="7.7667416">
        <ele>2607</ele>
      </trkpt>
      <trkpt lat="45.7730251" lon="7.7662289">
        <ele>2611</ele>
      </trkpt>
      <trkpt lat="45.7729245" lon="7.7660832">
        <ele>2615</ele>
      </trkpt>
      <trkpt lat="45.7728371" lon="7.7659051">
        <ele>2619</ele>
      </trkpt>
      <trkpt lat="45.7725827" lon="7.7654830">
        <ele>2623</ele>
      </trkpt>
      <trkpt lat="45.7724850" lon="7.7653952">
        <ele>2627</ele>
      </trkpt>
      <trkpt lat="45.7723307" lon="7.7652732">
        <ele>2631</ele>
      </trkpt>
      <trkpt lat="45.7718700" lon="7.7651161">
        <ele>2634</ele>
      </trkpt>
      <trkpt lat="45.7716980" lon="7.7650235">
        <ele>2638</ele>
      </trkpt>
      <trkpt lat="45.7715561" lon="7.7648080">
        <ele>2642</ele>
      </trkpt>
      <trkpt lat="45.7715506" lon="7.7647148">
        <ele>2646</ele>
      </trkpt>
      <trkpt lat="45.7715770" lon="7.7646564">
        <ele>2650</ele>
      </trkpt>
      <trkpt lat="45.7719127" lon="7.7644850">
        <ele>2654</ele>
      </trkpt>
      <trkpt lat="45.7720152" lon="7.7643991">
        <ele>2657</ele>
      </trkpt>
      <trkpt lat="45.7720676" lon="7.7642501">
        <ele>2661</ele>
      </trkpt>
      <trkpt lat="45.7720563" lon="7.7640317">
        <ele>2665</ele>
      </trkpt>
      <trkpt lat="45.7719951" lon="7.7637887">
        <ele>2669</ele>
      </trkpt>
      <trkpt lat="45.7719210" lon="7.7635909">
        <ele>2673</ele>
      </trkpt>
      <trkpt lat="45.7716223" lon="7.7630156">
        <ele>2677</ele>
      </trkpt>
      <trkpt lat="45.7715839" lon="7.7629752">
        <ele>2681</ele>
      </trkpt>
      <trkpt lat="45.7715513" lon="7.7629678">
        <ele>2684</ele>
      </trkpt>
      <trkpt lat="45.7715161" lon="7.7630015">
        <ele>2688</ele>
      </trkpt>
      <trkpt lat="45.7714503" lon="7.7631351">
        <ele>2692</ele>
      </trkpt>
      <trkpt lat="45.7712231" lon="7.7633524">
        <ele>2696</ele>
      </trkpt>
      <trkpt lat="45.7711614" lon="7.7634695">
        <ele>2700</ele>
      </trkpt>
      <trkpt lat="45.7710761" lon="7.7636996">
        <ele>2704</ele>
      </trkpt>
      <trkpt lat="45.7707963" lon="7.7640402">
        <ele>2707</ele>
      </trkpt>
      <trkpt lat="45.7703869" lon="7.7644640">
        <ele>2711</ele>
      </trkpt>
      <trkpt lat="45.7702683" lon="7.7645310">
        <ele>2715</ele>
      </trkpt>
      <trkpt lat="45.7698000" lon="7.7647117">
        <ele>2719</ele>
      </trkpt>
      <trkpt lat="45.7694276" lon="7.7648164">
        <ele>2723</ele>
      </trkpt>
      <trkpt lat="45.7692308" lon="7.7649268">
        <ele>2727</ele>
      </trkpt>
      <trkpt lat="45.7690066" lon="7.7650057">
        <ele>2731</ele>
      </trkpt>
      <trkpt lat="45.7689107" lon="7.7650786">
        <ele>2734</ele>
      </trkpt>
      <trkpt lat="45.7686903" lon="7.7653021">
        <ele>2738</ele>
      </trkpt>
      <trkpt lat="45.7685580" lon="7.7655493">
        <ele>2742</ele>
      </trkpt>
      <trkpt lat="45.7685104" lon="7.7657208">
        <ele>2746</ele>
      </trkpt>
      <trkpt lat="45.7684784" lon="7.7660977">
        <ele>2750</ele>
      </trkpt>
      <trkpt lat="45.7685177" lon="7.7664055">
        <ele>2754</ele>
      </trkpt>
      <trkpt lat="45.7686122" lon="7.7668214">
        <ele>2757</ele>
      </trkpt>
      <trkpt lat="45.7686124" lon="7.7670562">
        <ele>2761</ele>
      </trkpt>
      <trkpt lat="45.7686452" lon="7.7673768">
        <ele>2765</ele>
      </trkpt>
      <trkpt lat="45.7685743" lon="7.7675648">
        <ele>2769</ele>
      </trkpt>
      <trkpt lat="45.7684767" lon="7.7676195">
        <ele>2773</ele>
      </trkpt>
      <trkpt lat="45.7683866" lon="7.7675425">
        <ele>2777</ele>
      </trkpt>
      <trkpt lat="45.7683358" lon="7.7674432">
        <ele>2781</ele>
      </trkpt>
      <trkpt lat="45.7682725" lon="7.7674526">
        <ele>2784</ele>
      </trkpt>
      <trkpt lat="45.7682553" lon="7.7675555">
        <ele>2788</ele>
      </trkpt>
      <trkpt lat="45.7682866" lon="7.7677127">
        <ele>2792</ele>
      </trkpt>
      <trkpt lat="45.7682401" lon="7.7677877">
        <ele>2796</ele>
      </trkpt>
      <trkpt lat="45.7681725" lon="7.7677763">
        <ele>2800</ele>
      </trkpt>
      <trkpt lat="45.7680221" lon="7.7675963">
        <ele>2804</ele>
      </trkpt>
      <trkpt lat="45.7679185" lon="7.7675890">
        <ele>2808</ele>
      </trkpt>
      <trkpt lat="45.7678786" lon="7.7678535">
        <ele>2811</ele>
      </trkpt>
      <trkpt lat="45.7678061" lon="7.7680159">
        <ele>2815</ele>
      </trkpt>
      <trkpt lat="45.7677679" lon="7.7680263">
        <ele>2819</ele>
      </trkpt>
      <trkpt lat="45.7676663" lon="7.7679932">
        <ele>2823</ele>
      </trkpt>
      <trkpt lat="45.7675343" lon="7.7678547">
        <ele>2827</ele>
      </trkpt>
      <trkpt lat="45.7674753" lon="7.7678013">
        <ele>2831</ele>
      </trkpt>
      <trkpt lat="45.7673984" lon="7.7677676">
        <ele>2834</ele>
      </trkpt>
      <trkpt lat="45.7672407" lon="7.7677518">
        <ele>2838</ele>
      </trkpt>
      <trkpt lat="45.7671332" lon="7.7677960">
        <ele>2842</ele>
      </trkpt>
      <trkpt lat="45.7669794" lon="7.7679312">
        <ele>2846</ele>
      </trkpt>
      <trkpt lat="45.7668520" lon="7.7680111">
        <ele>2850</ele>
      </trkpt>
      <trkpt lat="45.7667904" lon="7.7681443">
        <ele>2854</ele>
      </trkpt>
      <trkpt lat="45.7667704" lon="7.7683730">
        <ele>2858</ele>
      </trkpt>
      <trkpt lat="45.7667362" lon="7.7685442">
        <ele>2861</ele>
      </trkpt>
      <trkpt lat="45.7667377" lon="7.7686792">
        <ele>2865</ele>
      </trkpt>
      <trkpt lat="45.7667994" lon="7.7689768">
        <ele>2869</ele>
      </trkpt>
      <trkpt lat="45.7666695" lon="7.7694523">
        <ele>2873</ele>
      </trkpt>
      <trkpt lat="45.7665813" lon="7.7696214">
        <ele>2877</ele>
      </trkpt>
      <trkpt lat="45.7665264" lon="7.7699570">
        <ele>2881</ele>
      </trkpt>
      <trkpt lat="45.7664874" lon="7.7700961">
        <ele>2884</ele>
      </trkpt>
      <trkpt lat="45.7664131" lon="7.7703003">
        <ele>2888</ele>
      </trkpt>
      <trkpt lat="45.7663733" lon="7.7703590">
        <ele>2892</ele>
      </trkpt>
      <trkpt lat="45.7663172" lon="7.7700770">
        <ele>2896</ele>
      </trkpt>
      <trkpt lat="45.7659572" lon="7.7701870">
        <ele>2900</ele>
      </trkpt>
      <trkpt lat="45.7657272" lon="7.7701170">
        <ele>2904</ele>
      </trkpt>
      <trkpt lat="45.7654429" lon="7.7701367">
        <ele>2908</ele>
      </trkpt>
      <trkpt lat="45.7649637" lon="7.7701161">
        <ele>2911</ele>
      </trkpt>
      <trkpt lat="45.7646086" lon="7.7701656">
        <ele>2915</ele>
      </trkpt>
      <trkpt lat="45.7642472" lon="7.7700870">
        <ele>2919</ele>
      </trkpt>
      <trkpt lat="45.7636872" lon="7.7700170">
        <ele>2923</ele>
      </trkpt>
      <trkpt lat="45.7625284" lon="7.7693697">
        <ele>2927</ele>
      </trkpt>
      <trkpt lat="45.7620414" lon="7.7701199">
        <ele>2931</ele>
      </trkpt>
      <trkpt lat="45.7618813" lon="7.7702938">
        <ele>2934</ele>
      </trkpt>
      <trkpt lat="45.7617430" lon="7.7704061">
        <ele>2938</ele>
      </trkpt>
      <trkpt lat="45.7610884" lon="7.7710474">
        <ele>2942</ele>
      </trkpt>
      <trkpt lat="45.7609464" lon="7.7712337">
        <ele>2946</ele>
      </trkpt>
      <trkpt lat="45.7609205" lon="7.7713339">
        <ele>2950</ele>
      </trkpt>
      <trkpt lat="45.7608748" lon="7.7716918">
        <ele>2954</ele>
      </trkpt>
      <trkpt lat="45.7608274" lon="7.7718921">
        <ele>2958</ele>
      </trkpt>
      <trkpt lat="45.7607882" lon="7.7720119">
        <ele>2961</ele>
      </trkpt>
      <trkpt lat="45.7607305" lon="7.7720871">
        <ele>2965</ele>
      </trkpt>
      <trkpt lat="45.7606544" lon="7.7721177">
        <ele>2969</ele>
      </trkpt>
      <trkpt lat="45.7603750" lon="7.7720821">
        <ele>2973</ele>
      </trkpt>
      <trkpt lat="45.7601627" lon="7.7720160">
        <ele>2977</ele>
      </trkpt>
      <trkpt lat="45.7600901" lon="7.7719597">
        <ele>2981</ele>
      </trkpt>
      <trkpt lat="45.7599908" lon="7.7719266">
        <ele>2985</ele>
      </trkpt>
      <trkpt lat="45.7595287" lon="7.7718531">
        <ele>2988</ele>
      </trkpt>
      <trkpt lat="45.7594053" lon="7.7723059">
        <ele>2992</ele>
      </trkpt>
      <trkpt lat="45.7593635" lon="7.7725993">
        <ele>2996</ele>
      </trkpt>
      <trkpt lat="45.7594024" lon="7.7728749">
        <ele>3000</ele>
      </trkpt>
      <trkpt lat="45.7594783" lon="7.7732333">
        <ele>3004</ele>
      </trkpt>
      <trkpt lat="45.7595280" lon="7.7736694">
        <ele>3008</ele>
      </trkpt>
      <trkpt lat="45.7595085" lon="7.7739527">
        <ele>3011</ele>
      </trkpt>
      <trkpt lat="45.7594440" lon="7.7742306">
        <ele>3015</ele>
      </trkpt>
      <trkpt lat="45.7593955" lon="7.7743249">
        <ele>3019</ele>
      </trkpt>
      <trkpt lat="45.7592934" lon="7.7744585">
        <ele>3023</ele>
      </trkpt>
    </trkseg>
  </trk>
</gpx>
