<?xml version="1.0" encoding="UTF-8"?>
<gpx version="1.1" creator="sentieri-vda" xmlns="http://www.topografix.com/GPX/1/1">
  <metadata>
    <name>Lo Pian - Arvueil (Issogne)</name>
    <desc>Catasto Sentieri VdA — 17_S1</desc>
    <author><name>Regione Autonoma Valle d'Aosta</name></author>
  </metadata>
  <trk>
    <name>Lo Pian - Arvueil (Issogne)</name>
    <src>Catasto Sentieri VdA (17_S1)</src>
    <trkseg>
      <trkpt lat="45.6521781" lon="7.6394900">
        <ele>551</ele>
      </trkpt>
      <trkpt lat="45.6526111" lon="7.6390280">
        <ele>556</ele>
      </trkpt>
      <trkpt lat="45.6531511" lon="7.6393280">
        <ele>561</ele>
      </trkpt>
      <trkpt lat="45.6531381" lon="7.6393500">
        <ele>566</ele>
      </trkpt>
      <trkpt lat="45.6535581" lon="7.6394300">
        <ele>571</ele>
      </trkpt>
      <trkpt lat="45.6542711" lon="7.6393380">
        <ele>576</ele>
      </trkpt>
      <trkpt lat="45.6543611" lon="7.6389580">
        <ele>581</ele>
      </trkpt>
      <trkpt lat="45.6546411" lon="7.6386680">
        <ele>586</ele>
      </trkpt>
      <trkpt lat="45.6549311" lon="7.6385880">
        <ele>591</ele>
      </trkpt>
      <trkpt lat="45.6548211" lon="7.6379680">
        <ele>596</ele>
      </trkpt>
      <trkpt lat="45.6548511" lon="7.6373180">
        <ele>601</ele>
      </trkpt>
      <trkpt lat="45.6549311" lon="7.6372780">
        <ele>606</ele>
      </trkpt>
      <trkpt lat="45.6548411" lon="7.6368380">
        <ele>611</ele>
      </trkpt>
      <trkpt lat="45.6549011" lon="7.6366480">
        <ele>615</ele>
      </trkpt>
      <trkpt lat="45.6554611" lon="7.6365380">
        <ele>620</ele>
      </trkpt>
      <trkpt lat="45.6557911" lon="7.6368080">
        <ele>625</ele>
      </trkpt>
      <trkpt lat="45.6559811" lon="7.6366880">
        <ele>630</ele>
      </trkpt>
      <trkpt lat="45.6565111" lon="7.6369480">
        <ele>635</ele>
      </trkpt>
      <trkpt lat="45.6567211" lon="7.6368180">
        <ele>640</ele>
      </trkpt>
      <trkpt lat="45.6571781" lon="7.6366400">
        <ele>645</ele>
      </trkpt>
      <trkpt lat="45.6575211" lon="7.6365580">
        <ele>650</ele>
      </trkpt>
      <trkpt lat="45.6577711" lon="7.6362580">
        <ele>655</ele>
      </trkpt>
      <trkpt lat="45.6577911" lon="7.6361480">
        <ele>660</ele>
      </trkpt>
      <trkpt lat="45.6578811" lon="7.6360580">
        <ele>665</ele>
      </trkpt>
      <trkpt lat="45.6579211" lon="7.6357380">
        <ele>670</ele>
      </trkpt>
      <trkpt lat="45.6580211" lon="7.6356080">
        <ele>675</ele>
      </trkpt>
      <trkpt lat="45.6581711" lon="7.6352480">
        <ele>680</ele>
      </trkpt>
      <trkpt lat="45.6583311" lon="7.6343680">
        <ele>685</ele>
      </trkpt>
      <trkpt lat="45.6583211" lon="7.6343180">
        <ele>690</ele>
      </trkpt>
      <trkpt lat="45.6585511" lon="7.6336080">
        <ele>695</ele>
      </trkpt>
      <trkpt lat="45.6585311" lon="7.6334180">
        <ele>700</ele>
      </trkpt>
      <trkpt lat="45.6585811" lon="7.6331880">
        <ele>705</ele>
      </trkpt>
      <trkpt lat="45.6585611" lon="7.6328880">
        <ele>710</ele>
      </trkpt>
      <trkpt lat="45.6585211" lon="7.6327180">
        <ele>715</ele>
      </trkpt>
      <trkpt lat="45.6585511" lon="7.6323980">
        <ele>720</ele>
      </trkpt>
      <trkpt lat="45.6584711" lon="7.6320080">
        <ele>725</ele>
      </trkpt>
      <trkpt lat="45.6584711" lon="7.6319480">
        <ele>730</ele>
      </trkpt>
      <trkpt lat="45.6587511" lon="7.6316780">
        <ele>735</ele>
      </trkpt>
      <trkpt lat="45.6590211" lon="7.6313380">
        <ele>740</ele>
      </trkpt>
      <trkpt lat="45.6591611" lon="7.6312080">
        <ele>744</ele>
      </trkpt>
      <trkpt lat="45.6592911" lon="7.6308880">
        <ele>749</ele>
      </trkpt>
      <trkpt lat="45.6593111" lon="7.6307180">
        <ele>754</ele>
      </trkpt>
      <trkpt lat="45.6593011" lon="7.6305880">
        <ele>759</ele>
      </trkpt>
      <trkpt lat="45.6593611" lon="7.6302480">
        <ele>764</ele>
      </trkpt>
      <trkpt lat="45.6594311" lon="7.6301280">
        <ele>769</ele>
      </trkpt>
      <trkpt lat="45.6594411" lon="7.6298780">
        <ele>774</ele>
      </trkpt>
      <trkpt lat="45.6593211" lon="7.6292180">
        <ele>779</ele>
      </trkpt>
      <trkpt lat="45.6593511" lon="7.6288280">
        <ele>784</ele>
      </trkpt>
      <trkpt lat="45.6592811" lon="7.6283880">
        <ele>789</ele>
      </trkpt>
      <trkpt lat="45.6592211" lon="7.6282680">
        <ele>794</ele>
      </trkpt>
      <trkpt lat="45.6591611" lon="7.6280780">
        <ele>799</ele>
      </trkpt>
      <trkpt lat="45.6592411" lon="7.6278680">
        <ele>804</ele>
      </trkpt>
      <trkpt lat="45.6593111" lon="7.6277580">
        <ele>809</ele>
      </trkpt>
      <trkpt lat="45.6593311" lon="7.6276380">
        <ele>814</ele>
      </trkpt>
      <trkpt lat="45.6593311" lon="7.6274580">
        <ele>819</ele>
      </trkpt>
      <trkpt lat="45.6593911" lon="7.6272680">
        <ele>824</ele>
      </trkpt>
      <trkpt lat="45.6594311" lon="7.6270280">
        <ele>829</ele>
      </trkpt>
      <trkpt lat="45.6594411" lon="7.6267180">
        <ele>834</ele>
      </trkpt>
      <trkpt lat="45.6594911" lon="7.6265180">
        <ele>839</ele>
      </trkpt>
      <trkpt lat="45.6594911" lon="7.6262980">
        <ele>844</ele>
      </trkpt>
      <trkpt lat="45.6595111" lon="7.6262180">
        <ele>849</ele>
      </trkpt>
      <trkpt lat="45.6596611" lon="7.6258180">
        <ele>854</ele>
      </trkpt>
      <trkpt lat="45.6599011" lon="7.6253780">
        <ele>859</ele>
      </trkpt>
      <trkpt lat="45.6599811" lon="7.6250480">
        <ele>864</ele>
      </trkpt>
      <trkpt lat="45.6599611" lon="7.6249680">
        <ele>869</ele>
      </trkpt>
      <trkpt lat="45.6599611" lon="7.6248380">
        <ele>873</ele>
      </trkpt>
      <trkpt lat="45.6599211" lon="7.6246880">
        <ele>878</ele>
      </trkpt>
      <trkpt lat="45.6602411" lon="7.6249180">
        <ele>883</ele>
      </trkpt>
      <trkpt lat="45.6611011" lon="7.6259880">
        <ele>888</ele>
      </trkpt>
      <trkpt lat="45.6613011" lon="7.6263080">
        <ele>893</ele>
      </trkpt>
      <trkpt lat="45.6613911" lon="7.6266980">
        <ele>898</ele>
      </trkpt>
      <trkpt lat="45.6616511" lon="7.6269780">
        <ele>903</ele>
      </trkpt>
      <trkpt lat="45.6624611" lon="7.6274180">
        <ele>908</ele>
      </trkpt>
      <trkpt lat="45.6629611" lon="7.6282880">
        <ele>913</ele>
      </trkpt>
      <trkpt lat="45.6632111" lon="7.6285280">
        <ele>918</ele>
      </trkpt>
      <trkpt lat="45.6639411" lon="7.6288380">
        <ele>923</ele>
      </trkpt>
      <trkpt lat="45.6659711" lon="7.6306880">
        <ele>928</ele>
      </trkpt>
      <trkpt lat="45.6667611" lon="7.6319880">
        <ele>933</ele>
      </trkpt>
      <trkpt lat="45.6670601" lon="7.6323480">
        <ele>938</ele>
      </trkpt>
      <trkpt lat="45.6672501" lon="7.6329580">
        <ele>943</ele>
      </trkpt>
      <trkpt lat="45.6672501" lon="7.6336480">
        <ele>948</ele>
      </trkpt>
      <trkpt lat="45.6676701" lon="7.6332880">
        <ele>953</ele>
      </trkpt>
      <trkpt lat="45.6676901" lon="7.6337580">
        <ele>958</ele>
      </trkpt>
      <trkpt lat="45.6679001" lon="7.6341380">
        <ele>963</ele>
      </trkpt>
      <trkpt lat="45.6682101" lon="7.6341880">
        <ele>968</ele>
      </trkpt>
      <trkpt lat="45.6686901" lon="7.6345180">
        <ele>973</ele>
      </trkpt>
      <trkpt lat="45.6698601" lon="7.6349780">
        <ele>978</ele>
      </trkpt>
      <trkpt lat="45.6703501" lon="7.6348680">
        <ele>983</ele>
      </trkpt>
      <trkpt lat="45.6705001" lon="7.6349580">
        <ele>988</ele>
      </trkpt>
      <trkpt lat="45.6707701" lon="7.6347080">
        <ele>993</ele>
      </trkpt>
      <trkpt lat="45.6708401" lon="7.6351980">
        <ele>998</ele>
      </trkpt>
      <trkpt lat="45.6708001" lon="7.6353980">
        <ele>1002</ele>
      </trkpt>
      <trkpt lat="45.6710001" lon="7.6353180">
        <ele>1007</ele>
      </trkpt>
      <trkpt lat="45.6709601" lon="7.6355580">
        <ele>1012</ele>
      </trkpt>
      <trkpt lat="45.6711301" lon="7.6354280">
        <ele>1017</ele>
      </trkpt>
      <trkpt lat="45.6711101" lon="7.6356380">
        <ele>1022</ele>
      </trkpt>
      <trkpt lat="45.6712301" lon="7.6355680">
        <ele>1027</ele>
      </trkpt>
      <trkpt lat="45.6712401" lon="7.6357680">
        <ele>1032</ele>
      </trkpt>
      <trkpt lat="45.6714601" lon="7.6355680">
        <ele>1037</ele>
      </trkpt>
      <trkpt lat="45.6716101" lon="7.6352280">
        <ele>1042</ele>
      </trkpt>
      <trkpt lat="45.6716801" lon="7.6355680">
        <ele>1047</ele>
      </trkpt>
      <trkpt lat="45.6716201" lon="7.6359380">
        <ele>1052</ele>
      </trkpt>
      <trkpt lat="45.6717001" lon="7.6358780">
        <ele>1057</ele>
      </trkpt>
      <trkpt lat="45.6716201" lon="7.6362280">
        <ele>1062</ele>
      </trkpt>
      <trkpt lat="45.6719801" lon="7.6361480">
        <ele>1067</ele>
      </trkpt>
      <trkpt lat="45.6720601" lon="7.6360080">
        <ele>1072</ele>
      </trkpt>
      <trkpt lat="45.6721601" lon="7.6362580">
        <ele>1077</ele>
      </trkpt>
      <trkpt lat="45.6720701" lon="7.6363980">
        <ele>1082</ele>
      </trkpt>
      <trkpt lat="45.6724201" lon="7.6364880">
        <ele>1087</ele>
      </trkpt>
      <trkpt lat="45.6726201" lon="7.6361980">
        <ele>1092</ele>
      </trkpt>
      <trkpt lat="45.6727301" lon="7.6367680">
        <ele>1097</ele>
      </trkpt>
      <trkpt lat="45.6729301" lon="7.6366680">
        <ele>1102</ele>
      </trkpt>
      <trkpt lat="45.6729801" lon="7.6362680">
        <ele>1107</ele>
      </trkpt>
      <trkpt lat="45.6731701" lon="7.6365680">
        <ele>1112</ele>
      </trkpt>
      <trkpt lat="45.6732201" lon="7.6368480">
        <ele>1117</ele>
      </trkpt>
      <trkpt lat="45.6733301" lon="7.6364880">
        <ele>1122</ele>
      </trkpt>
      <trkpt lat="45.6734401" lon="7.6367480">
        <ele>1127</ele>
      </trkpt>
      <trkpt lat="45.6735101" lon="7.6364380">
        <ele>1131</ele>
      </trkpt>
      <trkpt lat="45.6737001" lon="7.6368480">
        <ele>1136</ele>
      </trkpt>
      <trkpt lat="45.6737901" lon="7.6368380">
        <ele>1141</ele>
      </trkpt>
      <trkpt lat="45.6737901" lon="7.6372580">
        <ele>1146</ele>
      </trkpt>
      <trkpt lat="45.6738601" lon="7.6371680">
        <ele>1151</ele>
      </trkpt>
      <trkpt lat="45.6739101" lon="7.6374080">
        <ele>1156</ele>
      </trkpt>
      <trkpt lat="45.6736401" lon="7.6381380">
        <ele>1161</ele>
      </trkpt>
      <trkpt lat="45.6738401" lon="7.6380280">
        <ele>1166</ele>
      </trkpt>
      <trkpt lat="45.6735901" lon="7.6386180">
        <ele>1171</ele>
      </trkpt>
      <trkpt lat="45.6733001" lon="7.6387780">
        <ele>1176</ele>
      </trkpt>
      <trkpt lat="45.6726901" lon="7.6396180">
        <ele>1181</ele>
      </trkpt>
      <trkpt lat="45.6726201" lon="7.6399980">
        <ele>1186</ele>
      </trkpt>
      <trkpt lat="45.6728101" lon="7.6400180">
        <ele>1191</ele>
      </trkpt>
      <trkpt lat="45.6728101" lon="7.6403980">
        <ele>1196</ele>
      </trkpt>
      <trkpt lat="45.6726501" lon="7.6405180">
        <ele>1201</ele>
      </trkpt>
      <trkpt lat="45.6729401" lon="7.6409880">
        <ele>1206</ele>
      </trkpt>
      <trkpt lat="45.6728201" lon="7.6410080">
        <ele>1211</ele>
      </trkpt>
      <trkpt lat="45.6727901" lon="7.6411280">
        <ele>1216</ele>
      </trkpt>
      <trkpt lat="45.6728901" lon="7.6413780">
        <ele>1221</ele>
      </trkpt>
      <trkpt lat="45.6731801" lon="7.6410880">
        <ele>1226</ele>
      </trkpt>
      <trkpt lat="45.6732901" lon="7.6413980">
        <ele>1231</ele>
      </trkpt>
      <trkpt lat="45.6732601" lon="7.6417480">
        <ele>1236</ele>
      </trkpt>
      <trkpt lat="45.6734301" lon="7.6418180">
        <ele>1241</ele>
      </trkpt>
      <trkpt lat="45.6736101" lon="7.6426580">
        <ele>1246</ele>
      </trkpt>
      <trkpt lat="45.6738301" lon="7.6424680">
        <ele>1251</ele>
      </trkpt>
      <trkpt lat="45.6739601" lon="7.6430380">
        <ele>1256</ele>
      </trkpt>
      <trkpt lat="45.6740201" lon="7.6430680">
        <ele>1260</ele>
      </trkpt>
      <trkpt lat="45.6741701" lon="7.6428180">
        <ele>1265</ele>
      </trkpt>
      <trkpt lat="45.6743501" lon="7.6428480">
        <ele>1270</ele>
      </trkpt>
      <trkpt lat="45.6745301" lon="7.6429780">
        <ele>1275</ele>
      </trkpt>
      <trkpt lat="45.6747001" lon="7.6434980">
        <ele>1280</ele>
      </trkpt>
      <trkpt lat="45.6751001" lon="7.6440080">
        <ele>1285</ele>
      </trkpt>
      <trkpt lat="45.6751301" lon="7.6439480">
        <ele>1290</ele>
      </trkpt>
      <trkpt lat="45.6752001" lon="7.6440680">
        <ele>1295</ele>
      </trkpt>
      <trkpt lat="45.6760501" lon="7.6444380">
        <ele>1300</ele>
      </trkpt>
      <trkpt lat="45.6761501" lon="7.6444980">
        <ele>1305</ele>
      </trkpt>
      <trkpt lat="45.6762501" lon="7.6447380">
        <ele>1310</ele>
      </trkpt>
      <trkpt lat="45.6764181" lon="7.6448100">
        <ele>1315</ele>
      </trkpt>
      <trkpt lat="45.6770981" lon="7.6452500">
        <ele>1320</ele>
      </trkpt>
      <trkpt lat="45.6771764" lon="7.6452181">
        <ele>1325</ele>
      </trkpt>
      <trkpt lat="45.6771916" lon="7.6452953">
        <ele>1330</ele>
      </trkpt>
      <trkpt lat="45.6773322" lon="7.6456231">
        <ele>1335</ele>
      </trkpt>
      <trkpt lat="45.6774048" lon="7.6458563">
        <ele>1340</ele>
      </trkpt>
      <trkpt lat="45.6775101" lon="7.6458380">
        <ele>1345</ele>
      </trkpt>
      <trkpt lat="45.6775826" lon="7.6457896">
        <ele>1350</ele>
      </trkpt>
      <trkpt lat="45.6776012" lon="7.6456956">
        <ele>1355</ele>
      </trkpt>
      <trkpt lat="45.6776319" lon="7.6456587">
        <ele>1360</ele>
      </trkpt>
      <trkpt lat="45.6776772" lon="7.6456610">
        <ele>1365</ele>
      </trkpt>
      <trkpt lat="45.6777172" lon="7.6457145">
        <ele>1370</ele>
      </trkpt>
      <trkpt lat="45.6777212" lon="7.6459386">
        <ele>1375</ele>
      </trkpt>
      <trkpt lat="45.6776986" lon="7.6462900">
        <ele>1380</ele>
      </trkpt>
      <trkpt lat="45.6776402" lon="7.6467014">
        <ele>1385</ele>
      </trkpt>
      <trkpt lat="45.6775645" lon="7.6469645">
        <ele>1389</ele>
      </trkpt>
      <trkpt lat="45.6773824" lon="7.6473896">
        <ele>1394</ele>
      </trkpt>
      <trkpt lat="45.6772622" lon="7.6475897">
        <ele>1399</ele>
      </trkpt>
      <trkpt lat="45.6771146" lon="7.6477577">
        <ele>1404</ele>
      </trkpt>
      <trkpt lat="45.6770986" lon="7.6478412">
        <ele>1409</ele>
      </trkpt>
      <trkpt lat="45.6771230" lon="7.6478811">
        <ele>1414</ele>
      </trkpt>
      <trkpt lat="45.6771515" lon="7.6478925">
        <ele>1419</ele>
      </trkpt>
      <trkpt lat="45.6772708" lon="7.6478412">
        <ele>1424</ele>
      </trkpt>
      <trkpt lat="45.6777500" lon="7.6473576">
        <ele>1429</ele>
      </trkpt>
      <trkpt lat="45.6779467" lon="7.6470953">
        <ele>1434</ele>
      </trkpt>
      <trkpt lat="45.6779743" lon="7.6470768">
        <ele>1439</ele>
      </trkpt>
      <trkpt lat="45.6780166" lon="7.6470869">
        <ele>1444</ele>
      </trkpt>
      <trkpt lat="45.6780334" lon="7.6471471">
        <ele>1449</ele>
      </trkpt>
      <trkpt lat="45.6779961" lon="7.6472845">
        <ele>1454</ele>
      </trkpt>
      <trkpt lat="45.6777866" lon="7.6476620">
        <ele>1459</ele>
      </trkpt>
      <trkpt lat="45.6775206" lon="7.6482506">
        <ele>1464</ele>
      </trkpt>
      <trkpt lat="45.6779101" lon="7.6478580">
        <ele>1469</ele>
      </trkpt>
      <trkpt lat="45.6783301" lon="7.6478480">
        <ele>1474</ele>
      </trkpt>
      <trkpt lat="45.6784601" lon="7.6482380">
        <ele>1479</ele>
      </trkpt>
      <trkpt lat="45.6786301" lon="7.6483180">
        <ele>1484</ele>
      </trkpt>
      <trkpt lat="45.6785901" lon="7.6484580">
        <ele>1489</ele>
      </trkpt>
      <trkpt lat="45.6787601" lon="7.6485580">
        <ele>1494</ele>
      </trkpt>
      <trkpt lat="45.6785601" lon="7.6487080">
        <ele>1499</ele>
      </trkpt>
      <trkpt lat="45.6786601" lon="7.6489180">
        <ele>1504</ele>
      </trkpt>
      <trkpt lat="45.6791701" lon="7.6488880">
        <ele>1509</ele>
      </trkpt>
      <trkpt lat="45.6791201" lon="7.6494880">
        <ele>1514</ele>
      </trkpt>
      <trkpt lat="45.6795801" lon="7.6492380">
        <ele>1518</ele>
      </trkpt>
      <trkpt lat="45.6798701" lon="7.6489780">
        <ele>1523</ele>
      </trkpt>
      <trkpt lat="45.6799001" lon="7.6494180">
        <ele>1528</ele>
      </trkpt>
      <trkpt lat="45.6802901" lon="7.6489980">
        <ele>1533</ele>
      </trkpt>
      <trkpt lat="45.6803801" lon="7.6489880">
        <ele>1538</ele>
      </trkpt>
      <trkpt lat="45.6804201" lon="7.6496480">
        <ele>1543</ele>
      </trkpt>
      <trkpt lat="45.6803801" lon="7.6502180">
        <ele>1548</ele>
      </trkpt>
      <trkpt lat="45.6804201" lon="7.6501480">
        <ele>1553</ele>
      </trkpt>
      <trkpt lat="45.6804201" lon="7.6502080">
        <ele>1558</ele>
      </trkpt>
      <trkpt lat="45.6809001" lon="7.6495280">
        <ele>1563</ele>
      </trkpt>
      <trkpt lat="45.6809101" lon="7.6496980">
        <ele>1568</ele>
      </trkpt>
      <trkpt lat="45.6809801" lon="7.6495380">
        <ele>1573</ele>
      </trkpt>
      <trkpt lat="45.6810001" lon="7.6495880">
        <ele>1578</ele>
      </trkpt>
      <trkpt lat="45.6809801" lon="7.6499780">
        <ele>1583</ele>
      </trkpt>
      <trkpt lat="45.6808601" lon="7.6502580">
        <ele>1588</ele>
      </trkpt>
      <trkpt lat="45.6810560" lon="7.6502009">
        <ele>1593</ele>
      </trkpt>
      <trkpt lat="45.6811587" lon="7.6502191">
        <ele>1598</ele>
      </trkpt>
      <trkpt lat="45.6812083" lon="7.6502211">
        <ele>1603</ele>
      </trkpt>
      <trkpt lat="45.6812495" lon="7.6502843">
        <ele>1608</ele>
      </trkpt>
      <trkpt lat="45.6813721" lon="7.6507549">
        <ele>1613</ele>
      </trkpt>
      <trkpt lat="45.6814139" lon="7.6512482">
        <ele>1618</ele>
      </trkpt>
      <trkpt lat="45.6814520" lon="7.6514239">
        <ele>1623</ele>
      </trkpt>
      <trkpt lat="45.6815298" lon="7.6515320">
        <ele>1628</ele>
      </trkpt>
      <trkpt lat="45.6818486" lon="7.6518566">
        <ele>1633</ele>
      </trkpt>
      <trkpt lat="45.6819680" lon="7.6520575">
        <ele>1638</ele>
      </trkpt>
      <trkpt lat="45.6820151" lon="7.6522362">
        <ele>1643</ele>
      </trkpt>
      <trkpt lat="45.6820182" lon="7.6524973">
        <ele>1647</ele>
      </trkpt>
      <trkpt lat="45.6820513" lon="7.6526322">
        <ele>1652</ele>
      </trkpt>
      <trkpt lat="45.6823252" lon="7.6533419">
        <ele>1657</ele>
      </trkpt>
      <trkpt lat="45.6824701" lon="7.6538780">
        <ele>1662</ele>
      </trkpt>
      <trkpt lat="45.6826801" lon="7.6537880">
        <ele>1667</ele>
      </trkpt>
      <trkpt lat="45.6828301" lon="7.6534080">
        <ele>1672</ele>
      </trkpt>
      <trkpt lat="45.6829101" lon="7.6537380">
        <ele>1677</ele>
      </trkpt>
      <trkpt lat="45.6829601" lon="7.6537180">
        <ele>1682</ele>
      </trkpt>
      <trkpt lat="45.6831601" lon="7.6531580">
        <ele>1687</ele>
      </trkpt>
      <trkpt lat="45.6833301" lon="7.6532680">
        <ele>1692</ele>
      </trkpt>
      <trkpt lat="45.6843001" lon="7.6555280">
        <ele>1697</ele>
      </trkpt>
      <trkpt lat="45.6844606" lon="7.6557292">
        <ele>1702</ele>
      </trkpt>
      <trkpt lat="45.6846645" lon="7.6558447">
        <ele>1707</ele>
      </trkpt>
    </trkseg>
  </trk>
</gpx>
