<?xml version="1.0" encoding="UTF-8"?>
<gpx version="1.1" creator="sentieri-vda" xmlns="http://www.topografix.com/GPX/1/1">
  <metadata>
    <name>Veulla  - Rifugio Barbustel</name>
    <desc>Catasto Sentieri VdA — 17_S9</desc>
    <author><name>Regione Autonoma Valle d'Aosta</name></author>
  </metadata>
  <trk>
    <name>Veulla  - Rifugio Barbustel</name>
    <src>Catasto Sentieri VdA (17_S9)</src>
    <trkseg>
      <trkpt lat="45.6492492" lon="7.5895798">
        <ele>1286</ele>
      </trkpt>
      <trkpt lat="45.6497911" lon="7.5900090">
        <ele>1290</ele>
      </trkpt>
      <trkpt lat="45.6502911" lon="7.5898690">
        <ele>1294</ele>
      </trkpt>
      <trkpt lat="45.6514011" lon="7.5888590">
        <ele>1298</ele>
      </trkpt>
      <trkpt lat="45.6517511" lon="7.5887390">
        <ele>1301</ele>
      </trkpt>
      <trkpt lat="45.6521111" lon="7.5888690">
        <ele>1305</ele>
      </trkpt>
      <trkpt lat="45.6523711" lon="7.5891590">
        <ele>1309</ele>
      </trkpt>
      <trkpt lat="45.6533811" lon="7.5892890">
        <ele>1313</ele>
      </trkpt>
      <trkpt lat="45.6536111" lon="7.5894390">
        <ele>1317</ele>
      </trkpt>
      <trkpt lat="45.6536011" lon="7.5897390">
        <ele>1321</ele>
      </trkpt>
      <trkpt lat="45.6537811" lon="7.5895690">
        <ele>1325</ele>
      </trkpt>
      <trkpt lat="45.6539311" lon="7.5898890">
        <ele>1328</ele>
      </trkpt>
      <trkpt lat="45.6543411" lon="7.5898890">
        <ele>1332</ele>
      </trkpt>
      <trkpt lat="45.6544811" lon="7.5897690">
        <ele>1336</ele>
      </trkpt>
      <trkpt lat="45.6545611" lon="7.5907890">
        <ele>1340</ele>
      </trkpt>
      <trkpt lat="45.6545511" lon="7.5911790">
        <ele>1344</ele>
      </trkpt>
      <trkpt lat="45.6546181" lon="7.5913800">
        <ele>1348</ele>
      </trkpt>
      <trkpt lat="45.6558711" lon="7.5893590">
        <ele>1352</ele>
      </trkpt>
      <trkpt lat="45.6561811" lon="7.5884990">
        <ele>1355</ele>
      </trkpt>
      <trkpt lat="45.6565311" lon="7.5882690">
        <ele>1359</ele>
      </trkpt>
      <trkpt lat="45.6565411" lon="7.5871390">
        <ele>1363</ele>
      </trkpt>
      <trkpt lat="45.6563711" lon="7.5868290">
        <ele>1367</ele>
      </trkpt>
      <trkpt lat="45.6568711" lon="7.5865290">
        <ele>1371</ele>
      </trkpt>
      <trkpt lat="45.6572711" lon="7.5867790">
        <ele>1375</ele>
      </trkpt>
      <trkpt lat="45.6577311" lon="7.5858590">
        <ele>1379</ele>
      </trkpt>
      <trkpt lat="45.6580311" lon="7.5857990">
        <ele>1382</ele>
      </trkpt>
      <trkpt lat="45.6581211" lon="7.5856490">
        <ele>1386</ele>
      </trkpt>
      <trkpt lat="45.6587011" lon="7.5853490">
        <ele>1390</ele>
      </trkpt>
      <trkpt lat="45.6589711" lon="7.5853390">
        <ele>1394</ele>
      </trkpt>
      <trkpt lat="45.6593111" lon="7.5850990">
        <ele>1398</ele>
      </trkpt>
      <trkpt lat="45.6596911" lon="7.5846090">
        <ele>1402</ele>
      </trkpt>
      <trkpt lat="45.6600811" lon="7.5845490">
        <ele>1406</ele>
      </trkpt>
      <trkpt lat="45.6603711" lon="7.5841290">
        <ele>1409</ele>
      </trkpt>
      <trkpt lat="45.6604411" lon="7.5841090">
        <ele>1413</ele>
      </trkpt>
      <trkpt lat="45.6607911" lon="7.5845390">
        <ele>1417</ele>
      </trkpt>
      <trkpt lat="45.6612411" lon="7.5844690">
        <ele>1421</ele>
      </trkpt>
      <trkpt lat="45.6613511" lon="7.5839290">
        <ele>1425</ele>
      </trkpt>
      <trkpt lat="45.6611111" lon="7.5838390">
        <ele>1429</ele>
      </trkpt>
      <trkpt lat="45.6611711" lon="7.5836690">
        <ele>1433</ele>
      </trkpt>
      <trkpt lat="45.6610311" lon="7.5835190">
        <ele>1436</ele>
      </trkpt>
      <trkpt lat="45.6611311" lon="7.5831690">
        <ele>1440</ele>
      </trkpt>
      <trkpt lat="45.6610811" lon="7.5829990">
        <ele>1444</ele>
      </trkpt>
      <trkpt lat="45.6613411" lon="7.5829090">
        <ele>1448</ele>
      </trkpt>
      <trkpt lat="45.6615311" lon="7.5830790">
        <ele>1452</ele>
      </trkpt>
      <trkpt lat="45.6619011" lon="7.5830490">
        <ele>1456</ele>
      </trkpt>
      <trkpt lat="45.6619311" lon="7.5828890">
        <ele>1460</ele>
      </trkpt>
      <trkpt lat="45.6621511" lon="7.5828990">
        <ele>1463</ele>
      </trkpt>
      <trkpt lat="45.6621011" lon="7.5825390">
        <ele>1467</ele>
      </trkpt>
      <trkpt lat="45.6621911" lon="7.5822990">
        <ele>1471</ele>
      </trkpt>
      <trkpt lat="45.6624711" lon="7.5823590">
        <ele>1475</ele>
      </trkpt>
      <trkpt lat="45.6627711" lon="7.5821690">
        <ele>1479</ele>
      </trkpt>
      <trkpt lat="45.6628511" lon="7.5825190">
        <ele>1483</ele>
      </trkpt>
      <trkpt lat="45.6630911" lon="7.5825390">
        <ele>1487</ele>
      </trkpt>
      <trkpt lat="45.6631911" lon="7.5823390">
        <ele>1490</ele>
      </trkpt>
      <trkpt lat="45.6635811" lon="7.5820890">
        <ele>1494</ele>
      </trkpt>
      <trkpt lat="45.6639511" lon="7.5820690">
        <ele>1498</ele>
      </trkpt>
      <trkpt lat="45.6643711" lon="7.5818690">
        <ele>1502</ele>
      </trkpt>
      <trkpt lat="45.6645411" lon="7.5812190">
        <ele>1506</ele>
      </trkpt>
      <trkpt lat="45.6650711" lon="7.5808890">
        <ele>1510</ele>
      </trkpt>
      <trkpt lat="45.6651411" lon="7.5804290">
        <ele>1514</ele>
      </trkpt>
      <trkpt lat="45.6653411" lon="7.5800690">
        <ele>1517</ele>
      </trkpt>
      <trkpt lat="45.6654511" lon="7.5794290">
        <ele>1521</ele>
      </trkpt>
      <trkpt lat="45.6659211" lon="7.5796090">
        <ele>1525</ele>
      </trkpt>
      <trkpt lat="45.6667311" lon="7.5795590">
        <ele>1529</ele>
      </trkpt>
      <trkpt lat="45.6671211" lon="7.5796890">
        <ele>1533</ele>
      </trkpt>
      <trkpt lat="45.6671211" lon="7.5797290">
        <ele>1537</ele>
      </trkpt>
      <trkpt lat="45.6681211" lon="7.5806590">
        <ele>1541</ele>
      </trkpt>
      <trkpt lat="45.6687311" lon="7.5807090">
        <ele>1544</ele>
      </trkpt>
      <trkpt lat="45.6697211" lon="7.5817390">
        <ele>1548</ele>
      </trkpt>
      <trkpt lat="45.6700511" lon="7.5818290">
        <ele>1552</ele>
      </trkpt>
      <trkpt lat="45.6702511" lon="7.5821890">
        <ele>1556</ele>
      </trkpt>
      <trkpt lat="45.6705211" lon="7.5821490">
        <ele>1560</ele>
      </trkpt>
      <trkpt lat="45.6708211" lon="7.5819790">
        <ele>1564</ele>
      </trkpt>
      <trkpt lat="45.6710811" lon="7.5820190">
        <ele>1568</ele>
      </trkpt>
      <trkpt lat="45.6718511" lon="7.5830490">
        <ele>1571</ele>
      </trkpt>
      <trkpt lat="45.6724411" lon="7.5827890">
        <ele>1575</ele>
      </trkpt>
      <trkpt lat="45.6731211" lon="7.5833090">
        <ele>1579</ele>
      </trkpt>
      <trkpt lat="45.6734411" lon="7.5838190">
        <ele>1583</ele>
      </trkpt>
      <trkpt lat="45.6735511" lon="7.5838790">
        <ele>1587</ele>
      </trkpt>
      <trkpt lat="45.6739811" lon="7.5836390">
        <ele>1591</ele>
      </trkpt>
      <trkpt lat="45.6739011" lon="7.5839690">
        <ele>1595</ele>
      </trkpt>
      <trkpt lat="45.6740111" lon="7.5838990">
        <ele>1598</ele>
      </trkpt>
      <trkpt lat="45.6740311" lon="7.5841490">
        <ele>1602</ele>
      </trkpt>
      <trkpt lat="45.6742411" lon="7.5840890">
        <ele>1606</ele>
      </trkpt>
      <trkpt lat="45.6737611" lon="7.5852190">
        <ele>1610</ele>
      </trkpt>
      <trkpt lat="45.6736511" lon="7.5857490">
        <ele>1614</ele>
      </trkpt>
      <trkpt lat="45.6736411" lon="7.5859690">
        <ele>1618</ele>
      </trkpt>
      <trkpt lat="45.6735511" lon="7.5860990">
        <ele>1622</ele>
      </trkpt>
      <trkpt lat="45.6736011" lon="7.5862090">
        <ele>1625</ele>
      </trkpt>
      <trkpt lat="45.6735511" lon="7.5865090">
        <ele>1629</ele>
      </trkpt>
      <trkpt lat="45.6739511" lon="7.5866990">
        <ele>1633</ele>
      </trkpt>
      <trkpt lat="45.6739481" lon="7.5868300">
        <ele>1637</ele>
      </trkpt>
      <trkpt lat="45.6742611" lon="7.5867490">
        <ele>1641</ele>
      </trkpt>
      <trkpt lat="45.6744611" lon="7.5869290">
        <ele>1645</ele>
      </trkpt>
      <trkpt lat="45.6746111" lon="7.5869290">
        <ele>1649</ele>
      </trkpt>
      <trkpt lat="45.6746411" lon="7.5871090">
        <ele>1652</ele>
      </trkpt>
      <trkpt lat="45.6747511" lon="7.5870490">
        <ele>1656</ele>
      </trkpt>
      <trkpt lat="45.6748511" lon="7.5872090">
        <ele>1660</ele>
      </trkpt>
      <trkpt lat="45.6748211" lon="7.5874390">
        <ele>1664</ele>
      </trkpt>
      <trkpt lat="45.6750053" lon="7.5874848">
        <ele>1668</ele>
      </trkpt>
      <trkpt lat="45.6751416" lon="7.5875663">
        <ele>1672</ele>
      </trkpt>
      <trkpt lat="45.6751913" lon="7.5876352">
        <ele>1676</ele>
      </trkpt>
      <trkpt lat="45.6752253" lon="7.5877649">
        <ele>1679</ele>
      </trkpt>
      <trkpt lat="45.6752496" lon="7.5881033">
        <ele>1683</ele>
      </trkpt>
      <trkpt lat="45.6752893" lon="7.5882963">
        <ele>1687</ele>
      </trkpt>
      <trkpt lat="45.6753480" lon="7.5884364">
        <ele>1691</ele>
      </trkpt>
      <trkpt lat="45.6755041" lon="7.5886732">
        <ele>1695</ele>
      </trkpt>
      <trkpt lat="45.6755309" lon="7.5887444">
        <ele>1699</ele>
      </trkpt>
      <trkpt lat="45.6755299" lon="7.5887649">
        <ele>1703</ele>
      </trkpt>
      <trkpt lat="45.6755129" lon="7.5887714">
        <ele>1706</ele>
      </trkpt>
      <trkpt lat="45.6753810" lon="7.5887879">
        <ele>1710</ele>
      </trkpt>
      <trkpt lat="45.6752426" lon="7.5888878">
        <ele>1714</ele>
      </trkpt>
      <trkpt lat="45.6750571" lon="7.5889283">
        <ele>1718</ele>
      </trkpt>
      <trkpt lat="45.6750013" lon="7.5889612">
        <ele>1722</ele>
      </trkpt>
      <trkpt lat="45.6749880" lon="7.5890027">
        <ele>1726</ele>
      </trkpt>
      <trkpt lat="45.6749967" lon="7.5890494">
        <ele>1730</ele>
      </trkpt>
      <trkpt lat="45.6750732" lon="7.5891726">
        <ele>1733</ele>
      </trkpt>
      <trkpt lat="45.6750858" lon="7.5892281">
        <ele>1737</ele>
      </trkpt>
      <trkpt lat="45.6750614" lon="7.5892698">
        <ele>1741</ele>
      </trkpt>
      <trkpt lat="45.6749825" lon="7.5892863">
        <ele>1745</ele>
      </trkpt>
      <trkpt lat="45.6749562" lon="7.5893212">
        <ele>1749</ele>
      </trkpt>
      <trkpt lat="45.6749568" lon="7.5894636">
        <ele>1753</ele>
      </trkpt>
      <trkpt lat="45.6749852" lon="7.5895776">
        <ele>1756</ele>
      </trkpt>
      <trkpt lat="45.6750497" lon="7.5896305">
        <ele>1760</ele>
      </trkpt>
      <trkpt lat="45.6752713" lon="7.5896299">
        <ele>1764</ele>
      </trkpt>
      <trkpt lat="45.6754480" lon="7.5897171">
        <ele>1768</ele>
      </trkpt>
      <trkpt lat="45.6756482" lon="7.5896957">
        <ele>1772</ele>
      </trkpt>
      <trkpt lat="45.6757480" lon="7.5896375">
        <ele>1776</ele>
      </trkpt>
      <trkpt lat="45.6759592" lon="7.5894083">
        <ele>1780</ele>
      </trkpt>
      <trkpt lat="45.6760982" lon="7.5891864">
        <ele>1783</ele>
      </trkpt>
      <trkpt lat="45.6762277" lon="7.5891156">
        <ele>1787</ele>
      </trkpt>
      <trkpt lat="45.6763287" lon="7.5891101">
        <ele>1791</ele>
      </trkpt>
      <trkpt lat="45.6763900" lon="7.5891557">
        <ele>1795</ele>
      </trkpt>
      <trkpt lat="45.6764510" lon="7.5892519">
        <ele>1799</ele>
      </trkpt>
      <trkpt lat="45.6766025" lon="7.5896558">
        <ele>1803</ele>
      </trkpt>
      <trkpt lat="45.6766439" lon="7.5897263">
        <ele>1807</ele>
      </trkpt>
      <trkpt lat="45.6768447" lon="7.5898114">
        <ele>1810</ele>
      </trkpt>
      <trkpt lat="45.6769498" lon="7.5898854">
        <ele>1814</ele>
      </trkpt>
      <trkpt lat="45.6773860" lon="7.5903608">
        <ele>1818</ele>
      </trkpt>
      <trkpt lat="45.6777315" lon="7.5904725">
        <ele>1822</ele>
      </trkpt>
      <trkpt lat="45.6778384" lon="7.5905505">
        <ele>1826</ele>
      </trkpt>
      <trkpt lat="45.6779067" lon="7.5906589">
        <ele>1830</ele>
      </trkpt>
      <trkpt lat="45.6779546" lon="7.5908083">
        <ele>1834</ele>
      </trkpt>
      <trkpt lat="45.6779671" lon="7.5909233">
        <ele>1837</ele>
      </trkpt>
      <trkpt lat="45.6779634" lon="7.5912022">
        <ele>1841</ele>
      </trkpt>
      <trkpt lat="45.6780183" lon="7.5913966">
        <ele>1845</ele>
      </trkpt>
      <trkpt lat="45.6780226" lon="7.5915093">
        <ele>1849</ele>
      </trkpt>
      <trkpt lat="45.6779852" lon="7.5916261">
        <ele>1853</ele>
      </trkpt>
      <trkpt lat="45.6777142" lon="7.5921956">
        <ele>1857</ele>
      </trkpt>
      <trkpt lat="45.6776858" lon="7.5922950">
        <ele>1861</ele>
      </trkpt>
      <trkpt lat="45.6776828" lon="7.5923729">
        <ele>1864</ele>
      </trkpt>
      <trkpt lat="45.6777250" lon="7.5926688">
        <ele>1868</ele>
      </trkpt>
      <trkpt lat="45.6777701" lon="7.5928311">
        <ele>1872</ele>
      </trkpt>
      <trkpt lat="45.6778078" lon="7.5928665">
        <ele>1876</ele>
      </trkpt>
      <trkpt lat="45.6779587" lon="7.5928742">
        <ele>1880</ele>
      </trkpt>
      <trkpt lat="45.6780027" lon="7.5928905">
        <ele>1884</ele>
      </trkpt>
      <trkpt lat="45.6780363" lon="7.5929386">
        <ele>1888</ele>
      </trkpt>
      <trkpt lat="45.6781921" lon="7.5934320">
        <ele>1891</ele>
      </trkpt>
      <trkpt lat="45.6782747" lon="7.5935687">
        <ele>1895</ele>
      </trkpt>
      <trkpt lat="45.6784700" lon="7.5936968">
        <ele>1899</ele>
      </trkpt>
      <trkpt lat="45.6785895" lon="7.5937210">
        <ele>1903</ele>
      </trkpt>
      <trkpt lat="45.6787706" lon="7.5937218">
        <ele>1907</ele>
      </trkpt>
      <trkpt lat="45.6788197" lon="7.5937442">
        <ele>1911</ele>
      </trkpt>
      <trkpt lat="45.6788578" lon="7.5937880">
        <ele>1915</ele>
      </trkpt>
      <trkpt lat="45.6788979" lon="7.5938963">
        <ele>1918</ele>
      </trkpt>
      <trkpt lat="45.6789327" lon="7.5943660">
        <ele>1922</ele>
      </trkpt>
      <trkpt lat="45.6789730" lon="7.5944730">
        <ele>1926</ele>
      </trkpt>
      <trkpt lat="45.6790407" lon="7.5945692">
        <ele>1930</ele>
      </trkpt>
      <trkpt lat="45.6791138" lon="7.5946335">
        <ele>1934</ele>
      </trkpt>
      <trkpt lat="45.6792726" lon="7.5947161">
        <ele>1938</ele>
      </trkpt>
      <trkpt lat="45.6794441" lon="7.5948527">
        <ele>1942</ele>
      </trkpt>
      <trkpt lat="45.6796514" lon="7.5949135">
        <ele>1945</ele>
      </trkpt>
      <trkpt lat="45.6797370" lon="7.5950136">
        <ele>1949</ele>
      </trkpt>
      <trkpt lat="45.6798253" lon="7.5952554">
        <ele>1953</ele>
      </trkpt>
      <trkpt lat="45.6798512" lon="7.5956237">
        <ele>1957</ele>
      </trkpt>
      <trkpt lat="45.6799723" lon="7.5958382">
        <ele>1961</ele>
      </trkpt>
      <trkpt lat="45.6800176" lon="7.5959559">
        <ele>1965</ele>
      </trkpt>
      <trkpt lat="45.6800529" lon="7.5961300">
        <ele>1969</ele>
      </trkpt>
      <trkpt lat="45.6800811" lon="7.5964548">
        <ele>1972</ele>
      </trkpt>
      <trkpt lat="45.6803182" lon="7.5971767">
        <ele>1976</ele>
      </trkpt>
      <trkpt lat="45.6803805" lon="7.5972627">
        <ele>1980</ele>
      </trkpt>
      <trkpt lat="45.6806511" lon="7.5973422">
        <ele>1984</ele>
      </trkpt>
      <trkpt lat="45.6807242" lon="7.5974073">
        <ele>1988</ele>
      </trkpt>
      <trkpt lat="45.6807732" lon="7.5975590">
        <ele>1992</ele>
      </trkpt>
      <trkpt lat="45.6808088" lon="7.5981328">
        <ele>1996</ele>
      </trkpt>
      <trkpt lat="45.6808343" lon="7.5982468">
        <ele>1999</ele>
      </trkpt>
      <trkpt lat="45.6810414" lon="7.5985204">
        <ele>2003</ele>
      </trkpt>
      <trkpt lat="45.6812347" lon="7.5986722">
        <ele>2007</ele>
      </trkpt>
      <trkpt lat="45.6813124" lon="7.5987823">
        <ele>2011</ele>
      </trkpt>
      <trkpt lat="45.6813262" lon="7.5988727">
        <ele>2015</ele>
      </trkpt>
      <trkpt lat="45.6813157" lon="7.5989523">
        <ele>2019</ele>
      </trkpt>
      <trkpt lat="45.6811199" lon="7.5993324">
        <ele>2023</ele>
      </trkpt>
      <trkpt lat="45.6810898" lon="7.5994497">
        <ele>2026</ele>
      </trkpt>
      <trkpt lat="45.6810880" lon="7.5995786">
        <ele>2030</ele>
      </trkpt>
      <trkpt lat="45.6812993" lon="7.6008631">
        <ele>2034</ele>
      </trkpt>
      <trkpt lat="45.6815740" lon="7.6020665">
        <ele>2038</ele>
      </trkpt>
      <trkpt lat="45.6816783" lon="7.6028729">
        <ele>2042</ele>
      </trkpt>
      <trkpt lat="45.6817575" lon="7.6031495">
        <ele>2046</ele>
      </trkpt>
      <trkpt lat="45.6819313" lon="7.6036097">
        <ele>2050</ele>
      </trkpt>
      <trkpt lat="45.6819304" lon="7.6036805">
        <ele>2053</ele>
      </trkpt>
      <trkpt lat="45.6818958" lon="7.6037718">
        <ele>2057</ele>
      </trkpt>
      <trkpt lat="45.6816880" lon="7.6040893">
        <ele>2061</ele>
      </trkpt>
      <trkpt lat="45.6816692" lon="7.6042597">
        <ele>2065</ele>
      </trkpt>
      <trkpt lat="45.6816904" lon="7.6049063">
        <ele>2069</ele>
      </trkpt>
      <trkpt lat="45.6817536" lon="7.6055128">
        <ele>2073</ele>
      </trkpt>
      <trkpt lat="45.6817844" lon="7.6056993">
        <ele>2077</ele>
      </trkpt>
      <trkpt lat="45.6818885" lon="7.6060056">
        <ele>2080</ele>
      </trkpt>
      <trkpt lat="45.6819166" lon="7.6061715">
        <ele>2084</ele>
      </trkpt>
      <trkpt lat="45.6819428" lon="7.6063168">
        <ele>2088</ele>
      </trkpt>
      <trkpt lat="45.6820029" lon="7.6064840">
        <ele>2092</ele>
      </trkpt>
      <trkpt lat="45.6820540" lon="7.6065945">
        <ele>2096</ele>
      </trkpt>
      <trkpt lat="45.6821087" lon="7.6066558">
        <ele>2100</ele>
      </trkpt>
      <trkpt lat="45.6821571" lon="7.6066445">
        <ele>2104</ele>
      </trkpt>
      <trkpt lat="45.6824140" lon="7.6064311">
        <ele>2107</ele>
      </trkpt>
      <trkpt lat="45.6824794" lon="7.6063981">
        <ele>2111</ele>
      </trkpt>
      <trkpt lat="45.6825917" lon="7.6063970">
        <ele>2115</ele>
      </trkpt>
      <trkpt lat="45.6826314" lon="7.6064293">
        <ele>2119</ele>
      </trkpt>
      <trkpt lat="45.6826561" lon="7.6064833">
        <ele>2123</ele>
      </trkpt>
      <trkpt lat="45.6826766" lon="7.6066941">
        <ele>2127</ele>
      </trkpt>
      <trkpt lat="45.6826487" lon="7.6077030">
        <ele>2131</ele>
      </trkpt>
      <trkpt lat="45.6826597" lon="7.6079123">
        <ele>2134</ele>
      </trkpt>
      <trkpt lat="45.6827480" lon="7.6081948">
        <ele>2138</ele>
      </trkpt>
      <trkpt lat="45.6831743" lon="7.6091585">
        <ele>2142</ele>
      </trkpt>
      <trkpt lat="45.6832804" lon="7.6095154">
        <ele>2146</ele>
      </trkpt>
      <trkpt lat="45.6833022" lon="7.6096809">
        <ele>2150</ele>
      </trkpt>
      <trkpt lat="45.6833145" lon="7.6102227">
        <ele>2154</ele>
      </trkpt>
      <trkpt lat="45.6833929" lon="7.6109605">
        <ele>2158</ele>
      </trkpt>
      <trkpt lat="45.6833863" lon="7.6110853">
        <ele>2161</ele>
      </trkpt>
      <trkpt lat="45.6833397" lon="7.6112783">
        <ele>2165</ele>
      </trkpt>
      <trkpt lat="45.6833726" lon="7.6113124">
        <ele>2169</ele>
      </trkpt>
      <trkpt lat="45.6834721" lon="7.6113424">
        <ele>2173</ele>
      </trkpt>
      <trkpt lat="45.6835090" lon="7.6113879">
        <ele>2177</ele>
      </trkpt>
      <trkpt lat="45.6835244" lon="7.6114775">
        <ele>2181</ele>
      </trkpt>
      <trkpt lat="45.6835169" lon="7.6116576">
        <ele>2185</ele>
      </trkpt>
      <trkpt lat="45.6835439" lon="7.6117655">
        <ele>2188</ele>
      </trkpt>
      <trkpt lat="45.6835933" lon="7.6118011">
        <ele>2192</ele>
      </trkpt>
      <trkpt lat="45.6837441" lon="7.6118540">
        <ele>2196</ele>
      </trkpt>
      <trkpt lat="45.6837830" lon="7.6119747">
        <ele>2200</ele>
      </trkpt>
    </trkseg>
  </trk>
</gpx>
