<?xml version="1.0" encoding="UTF-8"?>
<gpx version="1.1" creator="sentieri-vda" xmlns="http://www.topografix.com/GPX/1/1">
  <metadata>
    <name>Outre l'Eve - Alpe Monpey</name>
    <desc>Catasto Sentieri VdA — 18_S52</desc>
    <author><name>Regione Autonoma Valle d'Aosta</name></author>
  </metadata>
  <trk>
    <name>Outre l'Eve - Alpe Monpey</name>
    <src>Catasto Sentieri VdA (18_S52)</src>
    <trkseg>
      <trkpt lat="45.6177286" lon="7.6386346">
        <ele>1200</ele>
      </trkpt>
      <trkpt lat="45.6178259" lon="7.6382267">
        <ele>1203</ele>
      </trkpt>
      <trkpt lat="45.6179119" lon="7.6380945">
        <ele>1207</ele>
      </trkpt>
      <trkpt lat="45.6180512" lon="7.6379773">
        <ele>1210</ele>
      </trkpt>
      <trkpt lat="45.6181469" lon="7.6378573">
        <ele>1214</ele>
      </trkpt>
      <trkpt lat="45.6182921" lon="7.6372085">
        <ele>1217</ele>
      </trkpt>
      <trkpt lat="45.6182231" lon="7.6372520">
        <ele>1220</ele>
      </trkpt>
      <trkpt lat="45.6180748" lon="7.6374824">
        <ele>1224</ele>
      </trkpt>
      <trkpt lat="45.6179618" lon="7.6375741">
        <ele>1227</ele>
      </trkpt>
      <trkpt lat="45.6177931" lon="7.6376886">
        <ele>1231</ele>
      </trkpt>
      <trkpt lat="45.6176822" lon="7.6377741">
        <ele>1234</ele>
      </trkpt>
      <trkpt lat="45.6175084" lon="7.6379991">
        <ele>1238</ele>
      </trkpt>
      <trkpt lat="45.6173893" lon="7.6381124">
        <ele>1241</ele>
      </trkpt>
      <trkpt lat="45.6173174" lon="7.6382277">
        <ele>1244</ele>
      </trkpt>
      <trkpt lat="45.6171767" lon="7.6384703">
        <ele>1248</ele>
      </trkpt>
      <trkpt lat="45.6168247" lon="7.6388394">
        <ele>1251</ele>
      </trkpt>
      <trkpt lat="45.6167656" lon="7.6389352">
        <ele>1255</ele>
      </trkpt>
      <trkpt lat="45.6166578" lon="7.6390999">
        <ele>1258</ele>
      </trkpt>
      <trkpt lat="45.6166188" lon="7.6391800">
        <ele>1261</ele>
      </trkpt>
      <trkpt lat="45.6165834" lon="7.6391703">
        <ele>1265</ele>
      </trkpt>
      <trkpt lat="45.6165585" lon="7.6391255">
        <ele>1268</ele>
      </trkpt>
      <trkpt lat="45.6165504" lon="7.6390658">
        <ele>1272</ele>
      </trkpt>
      <trkpt lat="45.6165676" lon="7.6388608">
        <ele>1275</ele>
      </trkpt>
      <trkpt lat="45.6165698" lon="7.6387652">
        <ele>1278</ele>
      </trkpt>
      <trkpt lat="45.6165602" lon="7.6387091">
        <ele>1282</ele>
      </trkpt>
      <trkpt lat="45.6165375" lon="7.6386146">
        <ele>1285</ele>
      </trkpt>
      <trkpt lat="45.6164066" lon="7.6384888">
        <ele>1289</ele>
      </trkpt>
      <trkpt lat="45.6163334" lon="7.6384610">
        <ele>1292</ele>
      </trkpt>
      <trkpt lat="45.6163145" lon="7.6384367">
        <ele>1295</ele>
      </trkpt>
      <trkpt lat="45.6162744" lon="7.6384788">
        <ele>1299</ele>
      </trkpt>
      <trkpt lat="45.6162517" lon="7.6384698">
        <ele>1302</ele>
      </trkpt>
      <trkpt lat="45.6162396" lon="7.6384098">
        <ele>1306</ele>
      </trkpt>
      <trkpt lat="45.6162803" lon="7.6383265">
        <ele>1309</ele>
      </trkpt>
      <trkpt lat="45.6162764" lon="7.6382865">
        <ele>1313</ele>
      </trkpt>
      <trkpt lat="45.6162578" lon="7.6382618">
        <ele>1316</ele>
      </trkpt>
      <trkpt lat="45.6161579" lon="7.6382267">
        <ele>1319</ele>
      </trkpt>
      <trkpt lat="45.6161388" lon="7.6381944">
        <ele>1323</ele>
      </trkpt>
      <trkpt lat="45.6160953" lon="7.6381772">
        <ele>1326</ele>
      </trkpt>
      <trkpt lat="45.6160307" lon="7.6381634">
        <ele>1330</ele>
      </trkpt>
      <trkpt lat="45.6159913" lon="7.6381808">
        <ele>1333</ele>
      </trkpt>
      <trkpt lat="45.6159165" lon="7.6381211">
        <ele>1336</ele>
      </trkpt>
      <trkpt lat="45.6158773" lon="7.6381425">
        <ele>1340</ele>
      </trkpt>
      <trkpt lat="45.6157015" lon="7.6380703">
        <ele>1343</ele>
      </trkpt>
      <trkpt lat="45.6156738" lon="7.6380589">
        <ele>1347</ele>
      </trkpt>
      <trkpt lat="45.6155042" lon="7.6380937">
        <ele>1350</ele>
      </trkpt>
      <trkpt lat="45.6152938" lon="7.6381386">
        <ele>1353</ele>
      </trkpt>
      <trkpt lat="45.6151984" lon="7.6381108">
        <ele>1357</ele>
      </trkpt>
      <trkpt lat="45.6151452" lon="7.6380606">
        <ele>1360</ele>
      </trkpt>
      <trkpt lat="45.6150671" lon="7.6379082">
        <ele>1364</ele>
      </trkpt>
      <trkpt lat="45.6150035" lon="7.6378570">
        <ele>1367</ele>
      </trkpt>
      <trkpt lat="45.6148858" lon="7.6377931">
        <ele>1371</ele>
      </trkpt>
      <trkpt lat="45.6146597" lon="7.6377210">
        <ele>1374</ele>
      </trkpt>
      <trkpt lat="45.6146143" lon="7.6376540">
        <ele>1377</ele>
      </trkpt>
      <trkpt lat="45.6145459" lon="7.6375944">
        <ele>1381</ele>
      </trkpt>
      <trkpt lat="45.6144671" lon="7.6374736">
        <ele>1384</ele>
      </trkpt>
      <trkpt lat="45.6144087" lon="7.6374614">
        <ele>1388</ele>
      </trkpt>
      <trkpt lat="45.6143642" lon="7.6373824">
        <ele>1391</ele>
      </trkpt>
      <trkpt lat="45.6142817" lon="7.6372976">
        <ele>1394</ele>
      </trkpt>
      <trkpt lat="45.6142324" lon="7.6372730">
        <ele>1398</ele>
      </trkpt>
      <trkpt lat="45.6141908" lon="7.6372773">
        <ele>1401</ele>
      </trkpt>
      <trkpt lat="45.6140716" lon="7.6371904">
        <ele>1405</ele>
      </trkpt>
      <trkpt lat="45.6138590" lon="7.6368973">
        <ele>1408</ele>
      </trkpt>
      <trkpt lat="45.6138319" lon="7.6368798">
        <ele>1411</ele>
      </trkpt>
      <trkpt lat="45.6136779" lon="7.6367824">
        <ele>1415</ele>
      </trkpt>
      <trkpt lat="45.6135093" lon="7.6367190">
        <ele>1418</ele>
      </trkpt>
      <trkpt lat="45.6134318" lon="7.6367208">
        <ele>1422</ele>
      </trkpt>
      <trkpt lat="45.6133710" lon="7.6366733">
        <ele>1425</ele>
      </trkpt>
      <trkpt lat="45.6133230" lon="7.6366253">
        <ele>1429</ele>
      </trkpt>
      <trkpt lat="45.6132186" lon="7.6365328">
        <ele>1432</ele>
      </trkpt>
      <trkpt lat="45.6130807" lon="7.6363337">
        <ele>1435</ele>
      </trkpt>
      <trkpt lat="45.6129679" lon="7.6362169">
        <ele>1439</ele>
      </trkpt>
      <trkpt lat="45.6128654" lon="7.6361084">
        <ele>1442</ele>
      </trkpt>
      <trkpt lat="45.6128169" lon="7.6360630">
        <ele>1446</ele>
      </trkpt>
      <trkpt lat="45.6127151" lon="7.6358639">
        <ele>1449</ele>
      </trkpt>
      <trkpt lat="45.6125721" lon="7.6356970">
        <ele>1452</ele>
      </trkpt>
      <trkpt lat="45.6120521" lon="7.6352470">
        <ele>1456</ele>
      </trkpt>
      <trkpt lat="45.6117180" lon="7.6346494">
        <ele>1459</ele>
      </trkpt>
      <trkpt lat="45.6116071" lon="7.6343700">
        <ele>1463</ele>
      </trkpt>
      <trkpt lat="45.6115900" lon="7.6342398">
        <ele>1466</ele>
      </trkpt>
      <trkpt lat="45.6115735" lon="7.6342205">
        <ele>1469</ele>
      </trkpt>
      <trkpt lat="45.6115375" lon="7.6340895">
        <ele>1473</ele>
      </trkpt>
      <trkpt lat="45.6115003" lon="7.6340352">
        <ele>1476</ele>
      </trkpt>
      <trkpt lat="45.6114884" lon="7.6339404">
        <ele>1480</ele>
      </trkpt>
      <trkpt lat="45.6114683" lon="7.6338796">
        <ele>1483</ele>
      </trkpt>
      <trkpt lat="45.6114354" lon="7.6338313">
        <ele>1486</ele>
      </trkpt>
      <trkpt lat="45.6113868" lon="7.6337190">
        <ele>1490</ele>
      </trkpt>
      <trkpt lat="45.6113734" lon="7.6336856">
        <ele>1493</ele>
      </trkpt>
      <trkpt lat="45.6113084" lon="7.6334664">
        <ele>1497</ele>
      </trkpt>
      <trkpt lat="45.6112567" lon="7.6332837">
        <ele>1500</ele>
      </trkpt>
      <trkpt lat="45.6111107" lon="7.6329499">
        <ele>1504</ele>
      </trkpt>
      <trkpt lat="45.6108948" lon="7.6324491">
        <ele>1507</ele>
      </trkpt>
      <trkpt lat="45.6107721" lon="7.6321370">
        <ele>1510</ele>
      </trkpt>
      <trkpt lat="45.6107021" lon="7.6318270">
        <ele>1514</ele>
      </trkpt>
      <trkpt lat="45.6106221" lon="7.6317570">
        <ele>1517</ele>
      </trkpt>
      <trkpt lat="45.6104721" lon="7.6311370">
        <ele>1521</ele>
      </trkpt>
      <trkpt lat="45.6102421" lon="7.6307570">
        <ele>1524</ele>
      </trkpt>
      <trkpt lat="45.6101521" lon="7.6302670">
        <ele>1527</ele>
      </trkpt>
      <trkpt lat="45.6099021" lon="7.6299170">
        <ele>1531</ele>
      </trkpt>
      <trkpt lat="45.6097121" lon="7.6298170">
        <ele>1534</ele>
      </trkpt>
      <trkpt lat="45.6095521" lon="7.6292970">
        <ele>1538</ele>
      </trkpt>
      <trkpt lat="45.6094232" lon="7.6287252">
        <ele>1541</ele>
      </trkpt>
      <trkpt lat="45.6095531" lon="7.6287920">
        <ele>1544</ele>
      </trkpt>
      <trkpt lat="45.6096971" lon="7.6287890">
        <ele>1548</ele>
      </trkpt>
      <trkpt lat="45.6099321" lon="7.6289370">
        <ele>1551</ele>
      </trkpt>
      <trkpt lat="45.6100321" lon="7.6289770">
        <ele>1555</ele>
      </trkpt>
      <trkpt lat="45.6101421" lon="7.6291970">
        <ele>1558</ele>
      </trkpt>
      <trkpt lat="45.6101421" lon="7.6292970">
        <ele>1562</ele>
      </trkpt>
      <trkpt lat="45.6102321" lon="7.6294470">
        <ele>1565</ele>
      </trkpt>
      <trkpt lat="45.6104221" lon="7.6295660">
        <ele>1568</ele>
      </trkpt>
      <trkpt lat="45.6104961" lon="7.6295480">
        <ele>1572</ele>
      </trkpt>
      <trkpt lat="45.6106821" lon="7.6291970">
        <ele>1575</ele>
      </trkpt>
      <trkpt lat="45.6107021" lon="7.6290670">
        <ele>1579</ele>
      </trkpt>
      <trkpt lat="45.6108721" lon="7.6288270">
        <ele>1582</ele>
      </trkpt>
      <trkpt lat="45.6108921" lon="7.6285670">
        <ele>1585</ele>
      </trkpt>
      <trkpt lat="45.6109621" lon="7.6285670">
        <ele>1589</ele>
      </trkpt>
      <trkpt lat="45.6110851" lon="7.6286860">
        <ele>1592</ele>
      </trkpt>
      <trkpt lat="45.6111031" lon="7.6286940">
        <ele>1596</ele>
      </trkpt>
      <trkpt lat="45.6111121" lon="7.6286770">
        <ele>1599</ele>
      </trkpt>
      <trkpt lat="45.6110421" lon="7.6283370">
        <ele>1602</ele>
      </trkpt>
      <trkpt lat="45.6110821" lon="7.6282470">
        <ele>1606</ele>
      </trkpt>
      <trkpt lat="45.6111921" lon="7.6280770">
        <ele>1609</ele>
      </trkpt>
      <trkpt lat="45.6112121" lon="7.6279670">
        <ele>1613</ele>
      </trkpt>
      <trkpt lat="45.6111921" lon="7.6278570">
        <ele>1616</ele>
      </trkpt>
      <trkpt lat="45.6110821" lon="7.6276870">
        <ele>1619</ele>
      </trkpt>
      <trkpt lat="45.6109821" lon="7.6275870">
        <ele>1623</ele>
      </trkpt>
      <trkpt lat="45.6108721" lon="7.6275570">
        <ele>1626</ele>
      </trkpt>
      <trkpt lat="45.6108721" lon="7.6274770">
        <ele>1630</ele>
      </trkpt>
      <trkpt lat="45.6107021" lon="7.6273270">
        <ele>1633</ele>
      </trkpt>
      <trkpt lat="45.6108321" lon="7.6268270">
        <ele>1637</ele>
      </trkpt>
      <trkpt lat="45.6105521" lon="7.6265070">
        <ele>1640</ele>
      </trkpt>
      <trkpt lat="45.6105321" lon="7.6262970">
        <ele>1643</ele>
      </trkpt>
      <trkpt lat="45.6108921" lon="7.6261470">
        <ele>1647</ele>
      </trkpt>
      <trkpt lat="45.6110621" lon="7.6263370">
        <ele>1650</ele>
      </trkpt>
      <trkpt lat="45.6111921" lon="7.6261270">
        <ele>1654</ele>
      </trkpt>
      <trkpt lat="45.6113211" lon="7.6260820">
        <ele>1657</ele>
      </trkpt>
    </trkseg>
  </trk>
</gpx>
