<?xml version="1.0" encoding="UTF-8"?>
<gpx version="1.1" creator="sentieri-vda" xmlns="http://www.topografix.com/GPX/1/1">
  <metadata>
    <name>Chardonney - Laris desot - Champlong</name>
    <desc>Catasto Sentieri VdA — 18_S37</desc>
    <author><name>Regione Autonoma Valle d'Aosta</name></author>
  </metadata>
  <trk>
    <name>Chardonney - Laris desot - Champlong</name>
    <src>Catasto Sentieri VdA (18_S37)</src>
    <trkseg>
      <trkpt lat="45.6171406" lon="7.5798361">
        <ele>1450</ele>
      </trkpt>
      <trkpt lat="45.6169204" lon="7.5800191">
        <ele>1452</ele>
      </trkpt>
      <trkpt lat="45.6168679" lon="7.5801407">
        <ele>1453</ele>
      </trkpt>
      <trkpt lat="45.6168337" lon="7.5802891">
        <ele>1455</ele>
      </trkpt>
      <trkpt lat="45.6169336" lon="7.5810810">
        <ele>1457</ele>
      </trkpt>
      <trkpt lat="45.6169309" lon="7.5812293">
        <ele>1458</ele>
      </trkpt>
      <trkpt lat="45.6168795" lon="7.5814398">
        <ele>1460</ele>
      </trkpt>
      <trkpt lat="45.6168719" lon="7.5815487">
        <ele>1462</ele>
      </trkpt>
      <trkpt lat="45.6169241" lon="7.5817642">
        <ele>1463</ele>
      </trkpt>
      <trkpt lat="45.6169109" lon="7.5817886">
        <ele>1465</ele>
      </trkpt>
      <trkpt lat="45.6168613" lon="7.5817862">
        <ele>1467</ele>
      </trkpt>
      <trkpt lat="45.6167915" lon="7.5815964">
        <ele>1468</ele>
      </trkpt>
      <trkpt lat="45.6167743" lon="7.5816605">
        <ele>1470</ele>
      </trkpt>
      <trkpt lat="45.6167765" lon="7.5818396">
        <ele>1472</ele>
      </trkpt>
      <trkpt lat="45.6167680" lon="7.5818775">
        <ele>1473</ele>
      </trkpt>
      <trkpt lat="45.6167456" lon="7.5818873">
        <ele>1475</ele>
      </trkpt>
      <trkpt lat="45.6167228" lon="7.5818634">
        <ele>1477</ele>
      </trkpt>
      <trkpt lat="45.6166946" lon="7.5817672">
        <ele>1478</ele>
      </trkpt>
      <trkpt lat="45.6166682" lon="7.5814564">
        <ele>1480</ele>
      </trkpt>
      <trkpt lat="45.6166699" lon="7.5812299">
        <ele>1482</ele>
      </trkpt>
      <trkpt lat="45.6166509" lon="7.5811438">
        <ele>1483</ele>
      </trkpt>
      <trkpt lat="45.6165862" lon="7.5810096">
        <ele>1485</ele>
      </trkpt>
      <trkpt lat="45.6165254" lon="7.5808223">
        <ele>1487</ele>
      </trkpt>
      <trkpt lat="45.6165056" lon="7.5806837">
        <ele>1489</ele>
      </trkpt>
      <trkpt lat="45.6164730" lon="7.5805896">
        <ele>1490</ele>
      </trkpt>
      <trkpt lat="45.6164573" lon="7.5804132">
        <ele>1492</ele>
      </trkpt>
      <trkpt lat="45.6164255" lon="7.5803896">
        <ele>1494</ele>
      </trkpt>
      <trkpt lat="45.6163850" lon="7.5803902">
        <ele>1495</ele>
      </trkpt>
      <trkpt lat="45.6162955" lon="7.5804345">
        <ele>1497</ele>
      </trkpt>
      <trkpt lat="45.6162371" lon="7.5804380">
        <ele>1499</ele>
      </trkpt>
      <trkpt lat="45.6161092" lon="7.5802881">
        <ele>1500</ele>
      </trkpt>
      <trkpt lat="45.6159876" lon="7.5802788">
        <ele>1502</ele>
      </trkpt>
      <trkpt lat="45.6158020" lon="7.5801977">
        <ele>1504</ele>
      </trkpt>
      <trkpt lat="45.6157119" lon="7.5801839">
        <ele>1505</ele>
      </trkpt>
      <trkpt lat="45.6154619" lon="7.5799886">
        <ele>1507</ele>
      </trkpt>
      <trkpt lat="45.6153598" lon="7.5797431">
        <ele>1509</ele>
      </trkpt>
      <trkpt lat="45.6153432" lon="7.5794902">
        <ele>1510</ele>
      </trkpt>
      <trkpt lat="45.6152956" lon="7.5792806">
        <ele>1512</ele>
      </trkpt>
      <trkpt lat="45.6151558" lon="7.5788998">
        <ele>1514</ele>
      </trkpt>
      <trkpt lat="45.6151331" lon="7.5788843">
        <ele>1515</ele>
      </trkpt>
      <trkpt lat="45.6150837" lon="7.5788856">
        <ele>1517</ele>
      </trkpt>
      <trkpt lat="45.6150704" lon="7.5789055">
        <ele>1519</ele>
      </trkpt>
      <trkpt lat="45.6150971" lon="7.5792399">
        <ele>1520</ele>
      </trkpt>
      <trkpt lat="45.6150711" lon="7.5793207">
        <ele>1522</ele>
      </trkpt>
      <trkpt lat="45.6150004" lon="7.5794279">
        <ele>1524</ele>
      </trkpt>
      <trkpt lat="45.6149533" lon="7.5796251">
        <ele>1525</ele>
      </trkpt>
      <trkpt lat="45.6149540" lon="7.5796804">
        <ele>1527</ele>
      </trkpt>
      <trkpt lat="45.6149820" lon="7.5797567">
        <ele>1529</ele>
      </trkpt>
      <trkpt lat="45.6150092" lon="7.5797752">
        <ele>1530</ele>
      </trkpt>
      <trkpt lat="45.6150324" lon="7.5798319">
        <ele>1532</ele>
      </trkpt>
      <trkpt lat="45.6150533" lon="7.5800655">
        <ele>1534</ele>
      </trkpt>
      <trkpt lat="45.6151522" lon="7.5804161">
        <ele>1535</ele>
      </trkpt>
      <trkpt lat="45.6151438" lon="7.5804636">
        <ele>1537</ele>
      </trkpt>
      <trkpt lat="45.6151261" lon="7.5804905">
        <ele>1539</ele>
      </trkpt>
      <trkpt lat="45.6150813" lon="7.5805048">
        <ele>1540</ele>
      </trkpt>
      <trkpt lat="45.6150316" lon="7.5804905">
        <ele>1542</ele>
      </trkpt>
      <trkpt lat="45.6149157" lon="7.5802168">
        <ele>1544</ele>
      </trkpt>
      <trkpt lat="45.6148248" lon="7.5801426">
        <ele>1545</ele>
      </trkpt>
      <trkpt lat="45.6147287" lon="7.5800204">
        <ele>1547</ele>
      </trkpt>
      <trkpt lat="45.6146914" lon="7.5799159">
        <ele>1549</ele>
      </trkpt>
      <trkpt lat="45.6146839" lon="7.5796692">
        <ele>1550</ele>
      </trkpt>
      <trkpt lat="45.6146342" lon="7.5796520">
        <ele>1552</ele>
      </trkpt>
      <trkpt lat="45.6146173" lon="7.5797478">
        <ele>1554</ele>
      </trkpt>
      <trkpt lat="45.6145433" lon="7.5799441">
        <ele>1556</ele>
      </trkpt>
      <trkpt lat="45.6145484" lon="7.5799973">
        <ele>1557</ele>
      </trkpt>
      <trkpt lat="45.6146225" lon="7.5801661">
        <ele>1559</ele>
      </trkpt>
      <trkpt lat="45.6146233" lon="7.5802270">
        <ele>1561</ele>
      </trkpt>
      <trkpt lat="45.6145428" lon="7.5803485">
        <ele>1562</ele>
      </trkpt>
      <trkpt lat="45.6144998" lon="7.5803836">
        <ele>1564</ele>
      </trkpt>
      <trkpt lat="45.6143055" lon="7.5804157">
        <ele>1566</ele>
      </trkpt>
      <trkpt lat="45.6142603" lon="7.5804612">
        <ele>1567</ele>
      </trkpt>
      <trkpt lat="45.6141983" lon="7.5805822">
        <ele>1569</ele>
      </trkpt>
      <trkpt lat="45.6141758" lon="7.5807583">
        <ele>1571</ele>
      </trkpt>
      <trkpt lat="45.6142038" lon="7.5809078">
        <ele>1572</ele>
      </trkpt>
      <trkpt lat="45.6142576" lon="7.5810505">
        <ele>1574</ele>
      </trkpt>
      <trkpt lat="45.6142748" lon="7.5811844">
        <ele>1576</ele>
      </trkpt>
      <trkpt lat="45.6143692" lon="7.5814443">
        <ele>1577</ele>
      </trkpt>
      <trkpt lat="45.6143750" lon="7.5815138">
        <ele>1579</ele>
      </trkpt>
      <trkpt lat="45.6143308" lon="7.5817563">
        <ele>1581</ele>
      </trkpt>
      <trkpt lat="45.6143295" lon="7.5818292">
        <ele>1582</ele>
      </trkpt>
      <trkpt lat="45.6144456" lon="7.5824341">
        <ele>1584</ele>
      </trkpt>
      <trkpt lat="45.6145610" lon="7.5829154">
        <ele>1586</ele>
      </trkpt>
      <trkpt lat="45.6147411" lon="7.5834307">
        <ele>1587</ele>
      </trkpt>
      <trkpt lat="45.6148246" lon="7.5835703">
        <ele>1589</ele>
      </trkpt>
      <trkpt lat="45.6149552" lon="7.5836654">
        <ele>1591</ele>
      </trkpt>
      <trkpt lat="45.6150016" lon="7.5837398">
        <ele>1592</ele>
      </trkpt>
      <trkpt lat="45.6150273" lon="7.5839038">
        <ele>1594</ele>
      </trkpt>
      <trkpt lat="45.6151257" lon="7.5842896">
        <ele>1596</ele>
      </trkpt>
      <trkpt lat="45.6153329" lon="7.5850059">
        <ele>1597</ele>
      </trkpt>
      <trkpt lat="45.6155238" lon="7.5857708">
        <ele>1599</ele>
      </trkpt>
      <trkpt lat="45.6155536" lon="7.5860259">
        <ele>1601</ele>
      </trkpt>
      <trkpt lat="45.6155276" lon="7.5863729">
        <ele>1602</ele>
      </trkpt>
      <trkpt lat="45.6156113" lon="7.5867790">
        <ele>1604</ele>
      </trkpt>
      <trkpt lat="45.6156554" lon="7.5868520">
        <ele>1606</ele>
      </trkpt>
      <trkpt lat="45.6157527" lon="7.5869001">
        <ele>1607</ele>
      </trkpt>
      <trkpt lat="45.6160154" lon="7.5873577">
        <ele>1609</ele>
      </trkpt>
      <trkpt lat="45.6161863" lon="7.5878633">
        <ele>1611</ele>
      </trkpt>
      <trkpt lat="45.6163441" lon="7.5882462">
        <ele>1612</ele>
      </trkpt>
      <trkpt lat="45.6163979" lon="7.5883325">
        <ele>1614</ele>
      </trkpt>
      <trkpt lat="45.6167301" lon="7.5891503">
        <ele>1616</ele>
      </trkpt>
      <trkpt lat="45.6169807" lon="7.5896186">
        <ele>1617</ele>
      </trkpt>
      <trkpt lat="45.6171507" lon="7.5899939">
        <ele>1619</ele>
      </trkpt>
      <trkpt lat="45.6172133" lon="7.5902082">
        <ele>1621</ele>
      </trkpt>
      <trkpt lat="45.6172477" lon="7.5904972">
        <ele>1623</ele>
      </trkpt>
      <trkpt lat="45.6172498" lon="7.5907374">
        <ele>1624</ele>
      </trkpt>
      <trkpt lat="45.6172376" lon="7.5908527">
        <ele>1626</ele>
      </trkpt>
      <trkpt lat="45.6171235" lon="7.5909765">
        <ele>1628</ele>
      </trkpt>
      <trkpt lat="45.6171161" lon="7.5912046">
        <ele>1629</ele>
      </trkpt>
      <trkpt lat="45.6171671" lon="7.5915088">
        <ele>1631</ele>
      </trkpt>
      <trkpt lat="45.6171744" lon="7.5917821">
        <ele>1633</ele>
      </trkpt>
      <trkpt lat="45.6171614" lon="7.5918719">
        <ele>1634</ele>
      </trkpt>
      <trkpt lat="45.6171410" lon="7.5919601">
        <ele>1636</ele>
      </trkpt>
      <trkpt lat="45.6170507" lon="7.5921357">
        <ele>1638</ele>
      </trkpt>
      <trkpt lat="45.6169061" lon="7.5925098">
        <ele>1639</ele>
      </trkpt>
      <trkpt lat="45.6167429" lon="7.5927948">
        <ele>1641</ele>
      </trkpt>
      <trkpt lat="45.6167216" lon="7.5928618">
        <ele>1643</ele>
      </trkpt>
      <trkpt lat="45.6167266" lon="7.5929161">
        <ele>1644</ele>
      </trkpt>
      <trkpt lat="45.6167623" lon="7.5929528">
        <ele>1646</ele>
      </trkpt>
      <trkpt lat="45.6169260" lon="7.5928606">
        <ele>1648</ele>
      </trkpt>
      <trkpt lat="45.6171094" lon="7.5928550">
        <ele>1649</ele>
      </trkpt>
      <trkpt lat="45.6171802" lon="7.5928280">
        <ele>1651</ele>
      </trkpt>
      <trkpt lat="45.6171995" lon="7.5928578">
        <ele>1653</ele>
      </trkpt>
      <trkpt lat="45.6171981" lon="7.5929219">
        <ele>1654</ele>
      </trkpt>
      <trkpt lat="45.6171828" lon="7.5929633">
        <ele>1656</ele>
      </trkpt>
      <trkpt lat="45.6169948" lon="7.5931562">
        <ele>1658</ele>
      </trkpt>
      <trkpt lat="45.6168451" lon="7.5933509">
        <ele>1659</ele>
      </trkpt>
      <trkpt lat="45.6168062" lon="7.5934330">
        <ele>1661</ele>
      </trkpt>
      <trkpt lat="45.6168037" lon="7.5935030">
        <ele>1663</ele>
      </trkpt>
      <trkpt lat="45.6168562" lon="7.5936254">
        <ele>1664</ele>
      </trkpt>
      <trkpt lat="45.6168961" lon="7.5936793">
        <ele>1666</ele>
      </trkpt>
      <trkpt lat="45.6169580" lon="7.5937206">
        <ele>1668</ele>
      </trkpt>
      <trkpt lat="45.6170166" lon="7.5937036">
        <ele>1669</ele>
      </trkpt>
      <trkpt lat="45.6170755" lon="7.5935958">
        <ele>1671</ele>
      </trkpt>
      <trkpt lat="45.6171149" lon="7.5935636">
        <ele>1673</ele>
      </trkpt>
      <trkpt lat="45.6173622" lon="7.5939034">
        <ele>1674</ele>
      </trkpt>
      <trkpt lat="45.6176211" lon="7.5941369">
        <ele>1676</ele>
      </trkpt>
      <trkpt lat="45.6176899" lon="7.5941773">
        <ele>1678</ele>
      </trkpt>
      <trkpt lat="45.6177128" lon="7.5942290">
        <ele>1679</ele>
      </trkpt>
      <trkpt lat="45.6176831" lon="7.5943063">
        <ele>1681</ele>
      </trkpt>
      <trkpt lat="45.6176261" lon="7.5943539">
        <ele>1683</ele>
      </trkpt>
      <trkpt lat="45.6175658" lon="7.5944502">
        <ele>1684</ele>
      </trkpt>
      <trkpt lat="45.6173860" lon="7.5948613">
        <ele>1686</ele>
      </trkpt>
      <trkpt lat="45.6173539" lon="7.5949403">
        <ele>1688</ele>
      </trkpt>
      <trkpt lat="45.6173270" lon="7.5951291">
        <ele>1690</ele>
      </trkpt>
      <trkpt lat="45.6173052" lon="7.5951750">
        <ele>1691</ele>
      </trkpt>
      <trkpt lat="45.6172368" lon="7.5952096">
        <ele>1693</ele>
      </trkpt>
      <trkpt lat="45.6170609" lon="7.5951513">
        <ele>1695</ele>
      </trkpt>
      <trkpt lat="45.6170278" lon="7.5951870">
        <ele>1696</ele>
      </trkpt>
      <trkpt lat="45.6170254" lon="7.5952567">
        <ele>1698</ele>
      </trkpt>
      <trkpt lat="45.6171936" lon="7.5955861">
        <ele>1700</ele>
      </trkpt>
      <trkpt lat="45.6172104" lon="7.5956600">
        <ele>1701</ele>
      </trkpt>
      <trkpt lat="45.6172136" lon="7.5958319">
        <ele>1703</ele>
      </trkpt>
      <trkpt lat="45.6171251" lon="7.5965335">
        <ele>1705</ele>
      </trkpt>
      <trkpt lat="45.6169946" lon="7.5968494">
        <ele>1706</ele>
      </trkpt>
      <trkpt lat="45.6169765" lon="7.5970499">
        <ele>1708</ele>
      </trkpt>
      <trkpt lat="45.6170827" lon="7.5976041">
        <ele>1710</ele>
      </trkpt>
      <trkpt lat="45.6171343" lon="7.5976648">
        <ele>1711</ele>
      </trkpt>
      <trkpt lat="45.6172621" lon="7.5977482">
        <ele>1713</ele>
      </trkpt>
      <trkpt lat="45.6169324" lon="7.5978925">
        <ele>1715</ele>
      </trkpt>
      <trkpt lat="45.6167901" lon="7.5977592">
        <ele>1716</ele>
      </trkpt>
      <trkpt lat="45.6167246" lon="7.5977587">
        <ele>1718</ele>
      </trkpt>
      <trkpt lat="45.6166973" lon="7.5978028">
        <ele>1720</ele>
      </trkpt>
      <trkpt lat="45.6166912" lon="7.5978924">
        <ele>1721</ele>
      </trkpt>
      <trkpt lat="45.6167638" lon="7.5982295">
        <ele>1723</ele>
      </trkpt>
      <trkpt lat="45.6168400" lon="7.5983883">
        <ele>1725</ele>
      </trkpt>
      <trkpt lat="45.6169102" lon="7.5984675">
        <ele>1726</ele>
      </trkpt>
      <trkpt lat="45.6172013" lon="7.5985804">
        <ele>1728</ele>
      </trkpt>
      <trkpt lat="45.6171730" lon="7.5986499">
        <ele>1730</ele>
      </trkpt>
      <trkpt lat="45.6171737" lon="7.5987178">
        <ele>1731</ele>
      </trkpt>
      <trkpt lat="45.6172293" lon="7.5987708">
        <ele>1733</ele>
      </trkpt>
      <trkpt lat="45.6172935" lon="7.5987555">
        <ele>1735</ele>
      </trkpt>
      <trkpt lat="45.6173880" lon="7.5986657">
        <ele>1736</ele>
      </trkpt>
      <trkpt lat="45.6174319" lon="7.5985676">
        <ele>1738</ele>
      </trkpt>
      <trkpt lat="45.6174548" lon="7.5982823">
        <ele>1740</ele>
      </trkpt>
      <trkpt lat="45.6174832" lon="7.5982534">
        <ele>1741</ele>
      </trkpt>
      <trkpt lat="45.6175488" lon="7.5982529">
        <ele>1743</ele>
      </trkpt>
      <trkpt lat="45.6175918" lon="7.5982798">
        <ele>1745</ele>
      </trkpt>
      <trkpt lat="45.6176411" lon="7.5984412">
        <ele>1746</ele>
      </trkpt>
      <trkpt lat="45.6176663" lon="7.5984674">
        <ele>1748</ele>
      </trkpt>
      <trkpt lat="45.6179079" lon="7.5986042">
        <ele>1750</ele>
      </trkpt>
      <trkpt lat="45.6179901" lon="7.5986211">
        <ele>1751</ele>
      </trkpt>
      <trkpt lat="45.6179932" lon="7.5986473">
        <ele>1753</ele>
      </trkpt>
      <trkpt lat="45.6179785" lon="7.5986621">
        <ele>1755</ele>
      </trkpt>
      <trkpt lat="45.6177503" lon="7.5986705">
        <ele>1756</ele>
      </trkpt>
      <trkpt lat="45.6177296" lon="7.5987022">
        <ele>1758</ele>
      </trkpt>
      <trkpt lat="45.6177316" lon="7.5987349">
        <ele>1760</ele>
      </trkpt>
      <trkpt lat="45.6177853" lon="7.5988152">
        <ele>1762</ele>
      </trkpt>
      <trkpt lat="45.6179578" lon="7.5988749">
        <ele>1763</ele>
      </trkpt>
      <trkpt lat="45.6188533" lon="7.5990438">
        <ele>1765</ele>
      </trkpt>
      <trkpt lat="45.6190711" lon="7.5991133">
        <ele>1767</ele>
      </trkpt>
      <trkpt lat="45.6191707" lon="7.5991555">
        <ele>1768</ele>
      </trkpt>
      <trkpt lat="45.6195721" lon="7.5994136">
        <ele>1770</ele>
      </trkpt>
      <trkpt lat="45.6195555" lon="7.5994412">
        <ele>1772</ele>
      </trkpt>
      <trkpt lat="45.6195358" lon="7.5994406">
        <ele>1773</ele>
      </trkpt>
      <trkpt lat="45.6194737" lon="7.5994036">
        <ele>1775</ele>
      </trkpt>
      <trkpt lat="45.6193638" lon="7.5993777">
        <ele>1777</ele>
      </trkpt>
      <trkpt lat="45.6190992" lon="7.5993538">
        <ele>1778</ele>
      </trkpt>
      <trkpt lat="45.6189797" lon="7.5993664">
        <ele>1780</ele>
      </trkpt>
      <trkpt lat="45.6189108" lon="7.5993821">
        <ele>1782</ele>
      </trkpt>
      <trkpt lat="45.6187470" lon="7.5994789">
        <ele>1783</ele>
      </trkpt>
      <trkpt lat="45.6187145" lon="7.5995311">
        <ele>1785</ele>
      </trkpt>
      <trkpt lat="45.6187144" lon="7.5995652">
        <ele>1787</ele>
      </trkpt>
      <trkpt lat="45.6187491" lon="7.5996028">
        <ele>1788</ele>
      </trkpt>
      <trkpt lat="45.6190621" lon="7.5996502">
        <ele>1790</ele>
      </trkpt>
      <trkpt lat="45.6192970" lon="7.5997814">
        <ele>1792</ele>
      </trkpt>
      <trkpt lat="45.6192969" lon="7.5998078">
        <ele>1793</ele>
      </trkpt>
      <trkpt lat="45.6192810" lon="7.5998103">
        <ele>1795</ele>
      </trkpt>
      <trkpt lat="45.6191732" lon="7.5997781">
        <ele>1797</ele>
      </trkpt>
      <trkpt lat="45.6191032" lon="7.5997810">
        <ele>1798</ele>
      </trkpt>
      <trkpt lat="45.6190589" lon="7.5998030">
        <ele>1800</ele>
      </trkpt>
      <trkpt lat="45.6190316" lon="7.5998500">
        <ele>1802</ele>
      </trkpt>
      <trkpt lat="45.6190309" lon="7.5999152">
        <ele>1803</ele>
      </trkpt>
      <trkpt lat="45.6190468" lon="7.5999589">
        <ele>1805</ele>
      </trkpt>
      <trkpt lat="45.6192050" lon="7.6000688">
        <ele>1807</ele>
      </trkpt>
      <trkpt lat="45.6192384" lon="7.6001279">
        <ele>1808</ele>
      </trkpt>
      <trkpt lat="45.6192365" lon="7.6001543">
        <ele>1810</ele>
      </trkpt>
      <trkpt lat="45.6192174" lon="7.6001613">
        <ele>1812</ele>
      </trkpt>
      <trkpt lat="45.6191075" lon="7.6001199">
        <ele>1813</ele>
      </trkpt>
      <trkpt lat="45.6190524" lon="7.6001598">
        <ele>1815</ele>
      </trkpt>
      <trkpt lat="45.6190238" lon="7.6002205">
        <ele>1817</ele>
      </trkpt>
      <trkpt lat="45.6189731" lon="7.6004949">
        <ele>1818</ele>
      </trkpt>
      <trkpt lat="45.6189386" lon="7.6009271">
        <ele>1820</ele>
      </trkpt>
      <trkpt lat="45.6189342" lon="7.6011743">
        <ele>1822</ele>
      </trkpt>
      <trkpt lat="45.6189736" lon="7.6016378">
        <ele>1823</ele>
      </trkpt>
      <trkpt lat="45.6189492" lon="7.6020648">
        <ele>1825</ele>
      </trkpt>
      <trkpt lat="45.6189240" lon="7.6022665">
        <ele>1827</ele>
      </trkpt>
      <trkpt lat="45.6189627" lon="7.6023878">
        <ele>1829</ele>
      </trkpt>
      <trkpt lat="45.6190730" lon="7.6025991">
        <ele>1830</ele>
      </trkpt>
      <trkpt lat="45.6191137" lon="7.6028005">
        <ele>1832</ele>
      </trkpt>
      <trkpt lat="45.6191592" lon="7.6031524">
        <ele>1834</ele>
      </trkpt>
      <trkpt lat="45.6192549" lon="7.6033075">
        <ele>1835</ele>
      </trkpt>
      <trkpt lat="45.6193154" lon="7.6034534">
        <ele>1837</ele>
      </trkpt>
      <trkpt lat="45.6194687" lon="7.6036135">
        <ele>1839</ele>
      </trkpt>
      <trkpt lat="45.6196083" lon="7.6036562">
        <ele>1840</ele>
      </trkpt>
      <trkpt lat="45.6196452" lon="7.6036913">
        <ele>1842</ele>
      </trkpt>
      <trkpt lat="45.6199775" lon="7.6042013">
        <ele>1844</ele>
      </trkpt>
      <trkpt lat="45.6199709" lon="7.6042397">
        <ele>1845</ele>
      </trkpt>
      <trkpt lat="45.6199323" lon="7.6042649">
        <ele>1847</ele>
      </trkpt>
      <trkpt lat="45.6197510" lon="7.6041174">
        <ele>1849</ele>
      </trkpt>
      <trkpt lat="45.6196599" lon="7.6040973">
        <ele>1850</ele>
      </trkpt>
      <trkpt lat="45.6196241" lon="7.6041383">
        <ele>1852</ele>
      </trkpt>
      <trkpt lat="45.6196039" lon="7.6042163">
        <ele>1854</ele>
      </trkpt>
      <trkpt lat="45.6196186" lon="7.6043038">
        <ele>1855</ele>
      </trkpt>
      <trkpt lat="45.6197298" lon="7.6045373">
        <ele>1857</ele>
      </trkpt>
      <trkpt lat="45.6198638" lon="7.6046991">
        <ele>1859</ele>
      </trkpt>
      <trkpt lat="45.6198619" lon="7.6048102">
        <ele>1860</ele>
      </trkpt>
      <trkpt lat="45.6198363" lon="7.6048626">
        <ele>1862</ele>
      </trkpt>
      <trkpt lat="45.6198417" lon="7.6049315">
        <ele>1864</ele>
      </trkpt>
      <trkpt lat="45.6198599" lon="7.6049634">
        <ele>1865</ele>
      </trkpt>
      <trkpt lat="45.6199388" lon="7.6049945">
        <ele>1867</ele>
      </trkpt>
      <trkpt lat="45.6201105" lon="7.6049583">
        <ele>1869</ele>
      </trkpt>
      <trkpt lat="45.6202111" lon="7.6049616">
        <ele>1870</ele>
      </trkpt>
      <trkpt lat="45.6202213" lon="7.6049730">
        <ele>1872</ele>
      </trkpt>
      <trkpt lat="45.6202163" lon="7.6050183">
        <ele>1874</ele>
      </trkpt>
      <trkpt lat="45.6200525" lon="7.6050789">
        <ele>1875</ele>
      </trkpt>
      <trkpt lat="45.6200406" lon="7.6051703">
        <ele>1877</ele>
      </trkpt>
      <trkpt lat="45.6200923" lon="7.6052110">
        <ele>1879</ele>
      </trkpt>
      <trkpt lat="45.6203706" lon="7.6052401">
        <ele>1880</ele>
      </trkpt>
      <trkpt lat="45.6204781" lon="7.6051596">
        <ele>1882</ele>
      </trkpt>
      <trkpt lat="45.6206493" lon="7.6050210">
        <ele>1884</ele>
      </trkpt>
      <trkpt lat="45.6207390" lon="7.6050291">
        <ele>1885</ele>
      </trkpt>
      <trkpt lat="45.6208552" lon="7.6050837">
        <ele>1887</ele>
      </trkpt>
      <trkpt lat="45.6210069" lon="7.6052534">
        <ele>1889</ele>
      </trkpt>
      <trkpt lat="45.6210449" lon="7.6052723">
        <ele>1890</ele>
      </trkpt>
      <trkpt lat="45.6210829" lon="7.6052755">
        <ele>1892</ele>
      </trkpt>
      <trkpt lat="45.6211325" lon="7.6052608">
        <ele>1894</ele>
      </trkpt>
      <trkpt lat="45.6213201" lon="7.6050562">
        <ele>1896</ele>
      </trkpt>
      <trkpt lat="45.6215256" lon="7.6047471">
        <ele>1897</ele>
      </trkpt>
      <trkpt lat="45.6215742" lon="7.6047009">
        <ele>1899</ele>
      </trkpt>
      <trkpt lat="45.6216107" lon="7.6046830">
        <ele>1901</ele>
      </trkpt>
      <trkpt lat="45.6217544" lon="7.6046577">
        <ele>1902</ele>
      </trkpt>
      <trkpt lat="45.6218832" lon="7.6046559">
        <ele>1904</ele>
      </trkpt>
      <trkpt lat="45.6220058" lon="7.6046867">
        <ele>1906</ele>
      </trkpt>
      <trkpt lat="45.6221270" lon="7.6047509">
        <ele>1907</ele>
      </trkpt>
      <trkpt lat="45.6221467" lon="7.6047824">
        <ele>1909</ele>
      </trkpt>
      <trkpt lat="45.6221689" lon="7.6048292">
        <ele>1911</ele>
      </trkpt>
      <trkpt lat="45.6221908" lon="7.6050115">
        <ele>1912</ele>
      </trkpt>
      <trkpt lat="45.6222527" lon="7.6052071">
        <ele>1914</ele>
      </trkpt>
      <trkpt lat="45.6223317" lon="7.6054357">
        <ele>1916</ele>
      </trkpt>
      <trkpt lat="45.6223451" lon="7.6055099">
        <ele>1917</ele>
      </trkpt>
      <trkpt lat="45.6223621" lon="7.6056877">
        <ele>1919</ele>
      </trkpt>
      <trkpt lat="45.6223817" lon="7.6058020">
        <ele>1921</ele>
      </trkpt>
      <trkpt lat="45.6224134" lon="7.6059246">
        <ele>1922</ele>
      </trkpt>
      <trkpt lat="45.6224604" lon="7.6064236">
        <ele>1924</ele>
      </trkpt>
      <trkpt lat="45.6224663" lon="7.6066492">
        <ele>1926</ele>
      </trkpt>
      <trkpt lat="45.6225309" lon="7.6068654">
        <ele>1927</ele>
      </trkpt>
      <trkpt lat="45.6225594" lon="7.6069903">
        <ele>1929</ele>
      </trkpt>
    </trkseg>
  </trk>
</gpx>
