<?xml version="1.0" encoding="UTF-8"?>
<gpx version="1.1" creator="sentieri-vda" xmlns="http://www.topografix.com/GPX/1/1">
  <metadata>
    <name>Strada Dondena - Col Terre Rousse</name>
    <desc>Catasto Sentieri VdA — 18_S21</desc>
    <author><name>Regione Autonoma Valle d'Aosta</name></author>
  </metadata>
  <trk>
    <name>Strada Dondena - Col Terre Rousse</name>
    <src>Catasto Sentieri VdA (18_S21)</src>
    <trkseg>
      <trkpt lat="45.6290667" lon="7.6066816">
        <ele>1778</ele>
      </trkpt>
      <trkpt lat="45.6291271" lon="7.6069680">
        <ele>1783</ele>
      </trkpt>
      <trkpt lat="45.6292351" lon="7.6069650">
        <ele>1787</ele>
      </trkpt>
      <trkpt lat="45.6292221" lon="7.6068080">
        <ele>1792</ele>
      </trkpt>
      <trkpt lat="45.6293021" lon="7.6068680">
        <ele>1796</ele>
      </trkpt>
      <trkpt lat="45.6293621" lon="7.6067580">
        <ele>1801</ele>
      </trkpt>
      <trkpt lat="45.6294121" lon="7.6068480">
        <ele>1805</ele>
      </trkpt>
      <trkpt lat="45.6294721" lon="7.6068880">
        <ele>1810</ele>
      </trkpt>
      <trkpt lat="45.6296921" lon="7.6069180">
        <ele>1815</ele>
      </trkpt>
      <trkpt lat="45.6297221" lon="7.6070280">
        <ele>1819</ele>
      </trkpt>
      <trkpt lat="45.6295621" lon="7.6073580">
        <ele>1824</ele>
      </trkpt>
      <trkpt lat="45.6294951" lon="7.6076260">
        <ele>1828</ele>
      </trkpt>
      <trkpt lat="45.6296021" lon="7.6075680">
        <ele>1833</ele>
      </trkpt>
      <trkpt lat="45.6297321" lon="7.6073980">
        <ele>1837</ele>
      </trkpt>
      <trkpt lat="45.6299521" lon="7.6072880">
        <ele>1842</ele>
      </trkpt>
      <trkpt lat="45.6303521" lon="7.6073080">
        <ele>1847</ele>
      </trkpt>
      <trkpt lat="45.6305021" lon="7.6073580">
        <ele>1851</ele>
      </trkpt>
      <trkpt lat="45.6305711" lon="7.6072400">
        <ele>1856</ele>
      </trkpt>
      <trkpt lat="45.6305221" lon="7.6070780">
        <ele>1860</ele>
      </trkpt>
      <trkpt lat="45.6305721" lon="7.6070280">
        <ele>1865</ele>
      </trkpt>
      <trkpt lat="45.6306221" lon="7.6070480">
        <ele>1869</ele>
      </trkpt>
      <trkpt lat="45.6306521" lon="7.6069680">
        <ele>1874</ele>
      </trkpt>
      <trkpt lat="45.6307721" lon="7.6069380">
        <ele>1879</ele>
      </trkpt>
      <trkpt lat="45.6308921" lon="7.6067780">
        <ele>1883</ele>
      </trkpt>
      <trkpt lat="45.6309721" lon="7.6069580">
        <ele>1888</ele>
      </trkpt>
      <trkpt lat="45.6310321" lon="7.6068280">
        <ele>1892</ele>
      </trkpt>
      <trkpt lat="45.6310821" lon="7.6069680">
        <ele>1897</ele>
      </trkpt>
      <trkpt lat="45.6312321" lon="7.6071180">
        <ele>1901</ele>
      </trkpt>
      <trkpt lat="45.6312891" lon="7.6071190">
        <ele>1906</ele>
      </trkpt>
      <trkpt lat="45.6313251" lon="7.6070670">
        <ele>1911</ele>
      </trkpt>
      <trkpt lat="45.6315321" lon="7.6069180">
        <ele>1915</ele>
      </trkpt>
      <trkpt lat="45.6316721" lon="7.6069080">
        <ele>1920</ele>
      </trkpt>
      <trkpt lat="45.6316921" lon="7.6067980">
        <ele>1924</ele>
      </trkpt>
      <trkpt lat="45.6317821" lon="7.6067580">
        <ele>1929</ele>
      </trkpt>
      <trkpt lat="45.6319621" lon="7.6068080">
        <ele>1933</ele>
      </trkpt>
      <trkpt lat="45.6320121" lon="7.6066980">
        <ele>1938</ele>
      </trkpt>
      <trkpt lat="45.6321121" lon="7.6066780">
        <ele>1943</ele>
      </trkpt>
      <trkpt lat="45.6321921" lon="7.6067380">
        <ele>1947</ele>
      </trkpt>
      <trkpt lat="45.6322921" lon="7.6067180">
        <ele>1952</ele>
      </trkpt>
      <trkpt lat="45.6323821" lon="7.6067880">
        <ele>1956</ele>
      </trkpt>
      <trkpt lat="45.6324521" lon="7.6067180">
        <ele>1961</ele>
      </trkpt>
      <trkpt lat="45.6325021" lon="7.6068280">
        <ele>1965</ele>
      </trkpt>
      <trkpt lat="45.6324621" lon="7.6069680">
        <ele>1970</ele>
      </trkpt>
      <trkpt lat="45.6326621" lon="7.6070580">
        <ele>1975</ele>
      </trkpt>
      <trkpt lat="45.6326921" lon="7.6072280">
        <ele>1979</ele>
      </trkpt>
      <trkpt lat="45.6327921" lon="7.6072080">
        <ele>1984</ele>
      </trkpt>
      <trkpt lat="45.6329521" lon="7.6073380">
        <ele>1988</ele>
      </trkpt>
      <trkpt lat="45.6330221" lon="7.6073380">
        <ele>1993</ele>
      </trkpt>
      <trkpt lat="45.6330521" lon="7.6072680">
        <ele>1997</ele>
      </trkpt>
      <trkpt lat="45.6331921" lon="7.6074180">
        <ele>2002</ele>
      </trkpt>
      <trkpt lat="45.6332321" lon="7.6073380">
        <ele>2007</ele>
      </trkpt>
      <trkpt lat="45.6333621" lon="7.6073680">
        <ele>2011</ele>
      </trkpt>
      <trkpt lat="45.6333821" lon="7.6072280">
        <ele>2016</ele>
      </trkpt>
      <trkpt lat="45.6335321" lon="7.6072480">
        <ele>2020</ele>
      </trkpt>
      <trkpt lat="45.6337621" lon="7.6073680">
        <ele>2025</ele>
      </trkpt>
      <trkpt lat="45.6338851" lon="7.6073630">
        <ele>2029</ele>
      </trkpt>
      <trkpt lat="45.6339571" lon="7.6074120">
        <ele>2034</ele>
      </trkpt>
    </trkseg>
  </trk>
</gpx>
