<?xml version="1.0" encoding="UTF-8"?>
<gpx version="1.1" creator="sentieri-vda" xmlns="http://www.topografix.com/GPX/1/1">
  <metadata>
    <name>Strada Dondena - Raty</name>
    <desc>Catasto Sentieri VdA — 18_S26</desc>
    <author><name>Regione Autonoma Valle d'Aosta</name></author>
  </metadata>
  <trk>
    <name>Strada Dondena - Raty</name>
    <src>Catasto Sentieri VdA (18_S26)</src>
    <trkseg>
      <trkpt lat="45.6258731" lon="7.5766200">
        <ele>1778</ele>
      </trkpt>
      <trkpt lat="45.6256321" lon="7.5769690">
        <ele>1781</ele>
      </trkpt>
      <trkpt lat="45.6256121" lon="7.5770990">
        <ele>1785</ele>
      </trkpt>
      <trkpt lat="45.6254421" lon="7.5776990">
        <ele>1788</ele>
      </trkpt>
      <trkpt lat="45.6254021" lon="7.5781290">
        <ele>1792</ele>
      </trkpt>
      <trkpt lat="45.6253321" lon="7.5782090">
        <ele>1795</ele>
      </trkpt>
      <trkpt lat="45.6252721" lon="7.5787090">
        <ele>1799</ele>
      </trkpt>
      <trkpt lat="45.6250321" lon="7.5791090">
        <ele>1802</ele>
      </trkpt>
      <trkpt lat="45.6248021" lon="7.5795390">
        <ele>1806</ele>
      </trkpt>
      <trkpt lat="45.6246521" lon="7.5796890">
        <ele>1809</ele>
      </trkpt>
      <trkpt lat="45.6245621" lon="7.5797390">
        <ele>1813</ele>
      </trkpt>
      <trkpt lat="45.6244721" lon="7.5799890">
        <ele>1816</ele>
      </trkpt>
      <trkpt lat="45.6243721" lon="7.5801880">
        <ele>1820</ele>
      </trkpt>
      <trkpt lat="45.6242821" lon="7.5809780">
        <ele>1823</ele>
      </trkpt>
      <trkpt lat="45.6243021" lon="7.5810880">
        <ele>1827</ele>
      </trkpt>
      <trkpt lat="45.6242621" lon="7.5812980">
        <ele>1830</ele>
      </trkpt>
      <trkpt lat="45.6240921" lon="7.5815780">
        <ele>1834</ele>
      </trkpt>
      <trkpt lat="45.6241121" lon="7.5820280">
        <ele>1837</ele>
      </trkpt>
      <trkpt lat="45.6240021" lon="7.5828280">
        <ele>1841</ele>
      </trkpt>
      <trkpt lat="45.6239221" lon="7.5832980">
        <ele>1844</ele>
      </trkpt>
      <trkpt lat="45.6238521" lon="7.5835080">
        <ele>1848</ele>
      </trkpt>
      <trkpt lat="45.6238921" lon="7.5841280">
        <ele>1851</ele>
      </trkpt>
      <trkpt lat="45.6238121" lon="7.5843480">
        <ele>1855</ele>
      </trkpt>
      <trkpt lat="45.6237021" lon="7.5839580">
        <ele>1858</ele>
      </trkpt>
      <trkpt lat="45.6235921" lon="7.5837880">
        <ele>1862</ele>
      </trkpt>
      <trkpt lat="45.6235321" lon="7.5840080">
        <ele>1865</ele>
      </trkpt>
      <trkpt lat="45.6235121" lon="7.5846280">
        <ele>1869</ele>
      </trkpt>
      <trkpt lat="45.6234421" lon="7.5844780">
        <ele>1872</ele>
      </trkpt>
      <trkpt lat="45.6233421" lon="7.5848580">
        <ele>1875</ele>
      </trkpt>
      <trkpt lat="45.6232321" lon="7.5846480">
        <ele>1879</ele>
      </trkpt>
      <trkpt lat="45.6231221" lon="7.5848380">
        <ele>1882</ele>
      </trkpt>
      <trkpt lat="45.6230621" lon="7.5846880">
        <ele>1886</ele>
      </trkpt>
      <trkpt lat="45.6230421" lon="7.5847780">
        <ele>1889</ele>
      </trkpt>
      <trkpt lat="45.6229721" lon="7.5848580">
        <ele>1893</ele>
      </trkpt>
      <trkpt lat="45.6229721" lon="7.5855080">
        <ele>1896</ele>
      </trkpt>
      <trkpt lat="45.6228421" lon="7.5856380">
        <ele>1900</ele>
      </trkpt>
      <trkpt lat="45.6228621" lon="7.5856980">
        <ele>1903</ele>
      </trkpt>
      <trkpt lat="45.6227621" lon="7.5856980">
        <ele>1907</ele>
      </trkpt>
      <trkpt lat="45.6226721" lon="7.5850080">
        <ele>1910</ele>
      </trkpt>
      <trkpt lat="45.6222221" lon="7.5839580">
        <ele>1914</ele>
      </trkpt>
      <trkpt lat="45.6221321" lon="7.5841980">
        <ele>1917</ele>
      </trkpt>
      <trkpt lat="45.6221321" lon="7.5845180">
        <ele>1921</ele>
      </trkpt>
      <trkpt lat="45.6218621" lon="7.5850780">
        <ele>1924</ele>
      </trkpt>
      <trkpt lat="45.6217505" lon="7.5855547">
        <ele>1928</ele>
      </trkpt>
      <trkpt lat="45.6217565" lon="7.5856784">
        <ele>1931</ele>
      </trkpt>
      <trkpt lat="45.6217010" lon="7.5862855">
        <ele>1935</ele>
      </trkpt>
      <trkpt lat="45.6216757" lon="7.5867884">
        <ele>1938</ele>
      </trkpt>
      <trkpt lat="45.6216913" lon="7.5869528">
        <ele>1942</ele>
      </trkpt>
      <trkpt lat="45.6218139" lon="7.5874106">
        <ele>1945</ele>
      </trkpt>
      <trkpt lat="45.6218571" lon="7.5876256">
        <ele>1949</ele>
      </trkpt>
      <trkpt lat="45.6218609" lon="7.5879350">
        <ele>1952</ele>
      </trkpt>
      <trkpt lat="45.6218177" lon="7.5880760">
        <ele>1956</ele>
      </trkpt>
      <trkpt lat="45.6216690" lon="7.5884284">
        <ele>1959</ele>
      </trkpt>
      <trkpt lat="45.6215348" lon="7.5888559">
        <ele>1963</ele>
      </trkpt>
      <trkpt lat="45.6213560" lon="7.5896841">
        <ele>1966</ele>
      </trkpt>
      <trkpt lat="45.6213255" lon="7.5897682">
        <ele>1969</ele>
      </trkpt>
      <trkpt lat="45.6213271" lon="7.5898957">
        <ele>1973</ele>
      </trkpt>
      <trkpt lat="45.6213831" lon="7.5900602">
        <ele>1976</ele>
      </trkpt>
      <trkpt lat="45.6215480" lon="7.5902874">
        <ele>1980</ele>
      </trkpt>
      <trkpt lat="45.6216609" lon="7.5903258">
        <ele>1983</ele>
      </trkpt>
      <trkpt lat="45.6218184" lon="7.5903191">
        <ele>1987</ele>
      </trkpt>
      <trkpt lat="45.6218773" lon="7.5903529">
        <ele>1990</ele>
      </trkpt>
      <trkpt lat="45.6219010" lon="7.5904513">
        <ele>1994</ele>
      </trkpt>
      <trkpt lat="45.6219167" lon="7.5909968">
        <ele>1997</ele>
      </trkpt>
      <trkpt lat="45.6219456" lon="7.5911476">
        <ele>2001</ele>
      </trkpt>
      <trkpt lat="45.6219687" lon="7.5911936">
        <ele>2004</ele>
      </trkpt>
      <trkpt lat="45.6220598" lon="7.5912823">
        <ele>2008</ele>
      </trkpt>
      <trkpt lat="45.6223456" lon="7.5914715">
        <ele>2011</ele>
      </trkpt>
      <trkpt lat="45.6224415" lon="7.5915818">
        <ele>2015</ele>
      </trkpt>
      <trkpt lat="45.6227631" lon="7.5917497">
        <ele>2018</ele>
      </trkpt>
      <trkpt lat="45.6230089" lon="7.5919760">
        <ele>2022</ele>
      </trkpt>
      <trkpt lat="45.6231730" lon="7.5921419">
        <ele>2025</ele>
      </trkpt>
      <trkpt lat="45.6234754" lon="7.5925853">
        <ele>2029</ele>
      </trkpt>
      <trkpt lat="45.6236760" lon="7.5927879">
        <ele>2032</ele>
      </trkpt>
      <trkpt lat="45.6238269" lon="7.5929821">
        <ele>2036</ele>
      </trkpt>
      <trkpt lat="45.6239362" lon="7.5930884">
        <ele>2039</ele>
      </trkpt>
      <trkpt lat="45.6240131" lon="7.5931218">
        <ele>2043</ele>
      </trkpt>
      <trkpt lat="45.6240671" lon="7.5931196">
        <ele>2046</ele>
      </trkpt>
      <trkpt lat="45.6242100" lon="7.5930307">
        <ele>2050</ele>
      </trkpt>
      <trkpt lat="45.6242728" lon="7.5930167">
        <ele>2053</ele>
      </trkpt>
      <trkpt lat="45.6243632" lon="7.5930501">
        <ele>2057</ele>
      </trkpt>
      <trkpt lat="45.6244133" lon="7.5930945">
        <ele>2060</ele>
      </trkpt>
      <trkpt lat="45.6244871" lon="7.5932426">
        <ele>2063</ele>
      </trkpt>
      <trkpt lat="45.6245255" lon="7.5934341">
        <ele>2067</ele>
      </trkpt>
      <trkpt lat="45.6246278" lon="7.5937025">
        <ele>2070</ele>
      </trkpt>
      <trkpt lat="45.6247477" lon="7.5939396">
        <ele>2074</ele>
      </trkpt>
      <trkpt lat="45.6249625" lon="7.5942040">
        <ele>2077</ele>
      </trkpt>
      <trkpt lat="45.6251550" lon="7.5944883">
        <ele>2081</ele>
      </trkpt>
      <trkpt lat="45.6252232" lon="7.5945443">
        <ele>2084</ele>
      </trkpt>
      <trkpt lat="45.6254991" lon="7.5946592">
        <ele>2088</ele>
      </trkpt>
      <trkpt lat="45.6256041" lon="7.5947737">
        <ele>2091</ele>
      </trkpt>
      <trkpt lat="45.6256684" lon="7.5948803">
        <ele>2095</ele>
      </trkpt>
      <trkpt lat="45.6257729" lon="7.5949639">
        <ele>2098</ele>
      </trkpt>
      <trkpt lat="45.6258642" lon="7.5950714">
        <ele>2102</ele>
      </trkpt>
      <trkpt lat="45.6260132" lon="7.5954774">
        <ele>2105</ele>
      </trkpt>
      <trkpt lat="45.6265145" lon="7.5963520">
        <ele>2109</ele>
      </trkpt>
      <trkpt lat="45.6266517" lon="7.5965310">
        <ele>2112</ele>
      </trkpt>
      <trkpt lat="45.6268016" lon="7.5966427">
        <ele>2116</ele>
      </trkpt>
      <trkpt lat="45.6268837" lon="7.5967281">
        <ele>2119</ele>
      </trkpt>
      <trkpt lat="45.6269159" lon="7.5967858">
        <ele>2123</ele>
      </trkpt>
      <trkpt lat="45.6271326" lon="7.5972049">
        <ele>2126</ele>
      </trkpt>
      <trkpt lat="45.6271747" lon="7.5973402">
        <ele>2130</ele>
      </trkpt>
      <trkpt lat="45.6271939" lon="7.5974379">
        <ele>2133</ele>
      </trkpt>
      <trkpt lat="45.6271622" lon="7.5977895">
        <ele>2137</ele>
      </trkpt>
      <trkpt lat="45.6273129" lon="7.5983333">
        <ele>2140</ele>
      </trkpt>
      <trkpt lat="45.6273730" lon="7.5984581">
        <ele>2144</ele>
      </trkpt>
      <trkpt lat="45.6274503" lon="7.5985255">
        <ele>2147</ele>
      </trkpt>
      <trkpt lat="45.6275811" lon="7.5985487">
        <ele>2151</ele>
      </trkpt>
      <trkpt lat="45.6279318" lon="7.5988896">
        <ele>2154</ele>
      </trkpt>
      <trkpt lat="45.6280786" lon="7.5991144">
        <ele>2157</ele>
      </trkpt>
      <trkpt lat="45.6282515" lon="7.5996365">
        <ele>2161</ele>
      </trkpt>
      <trkpt lat="45.6283721" lon="7.5999341">
        <ele>2164</ele>
      </trkpt>
      <trkpt lat="45.6284989" lon="7.6003595">
        <ele>2168</ele>
      </trkpt>
      <trkpt lat="45.6285908" lon="7.6005160">
        <ele>2171</ele>
      </trkpt>
      <trkpt lat="45.6287501" lon="7.6006644">
        <ele>2175</ele>
      </trkpt>
      <trkpt lat="45.6288235" lon="7.6007744">
        <ele>2178</ele>
      </trkpt>
      <trkpt lat="45.6289006" lon="7.6011970">
        <ele>2182</ele>
      </trkpt>
      <trkpt lat="45.6289931" lon="7.6014000">
        <ele>2185</ele>
      </trkpt>
      <trkpt lat="45.6290216" lon="7.6015211">
        <ele>2189</ele>
      </trkpt>
      <trkpt lat="45.6290285" lon="7.6017154">
        <ele>2192</ele>
      </trkpt>
      <trkpt lat="45.6290885" lon="7.6022070">
        <ele>2196</ele>
      </trkpt>
      <trkpt lat="45.6291174" lon="7.6027307">
        <ele>2199</ele>
      </trkpt>
      <trkpt lat="45.6291983" lon="7.6030871">
        <ele>2203</ele>
      </trkpt>
      <trkpt lat="45.6292325" lon="7.6033107">
        <ele>2206</ele>
      </trkpt>
      <trkpt lat="45.6292671" lon="7.6042985">
        <ele>2210</ele>
      </trkpt>
      <trkpt lat="45.6292168" lon="7.6049652">
        <ele>2213</ele>
      </trkpt>
      <trkpt lat="45.6292189" lon="7.6051408">
        <ele>2217</ele>
      </trkpt>
      <trkpt lat="45.6292977" lon="7.6053320">
        <ele>2220</ele>
      </trkpt>
      <trkpt lat="45.6294167" lon="7.6054878">
        <ele>2224</ele>
      </trkpt>
      <trkpt lat="45.6294867" lon="7.6056946">
        <ele>2227</ele>
      </trkpt>
      <trkpt lat="45.6294886" lon="7.6058513">
        <ele>2231</ele>
      </trkpt>
      <trkpt lat="45.6294028" lon="7.6061942">
        <ele>2234</ele>
      </trkpt>
      <trkpt lat="45.6293015" lon="7.6063767">
        <ele>2238</ele>
      </trkpt>
      <trkpt lat="45.6292126" lon="7.6064651">
        <ele>2241</ele>
      </trkpt>
      <trkpt lat="45.6291372" lon="7.6065580">
        <ele>2245</ele>
      </trkpt>
      <trkpt lat="45.6290667" lon="7.6066816">
        <ele>2248</ele>
      </trkpt>
    </trkseg>
  </trk>
</gpx>
