<?xml version="1.0" encoding="UTF-8"?>
<gpx version="1.1" creator="sentieri-vda" xmlns="http://www.topografix.com/GPX/1/1">
  <metadata>
    <name>Rifugio Arbolle -  Col Garin</name>
    <desc>Catasto Sentieri VdA — 19_S14</desc>
    <author><name>Regione Autonoma Valle d'Aosta</name></author>
  </metadata>
  <trk>
    <name>Rifugio Arbolle -  Col Garin</name>
    <src>Catasto Sentieri VdA (19_S14)</src>
    <trkseg>
      <trkpt lat="45.6679071" lon="7.3456400">
        <ele>2508</ele>
      </trkpt>
      <trkpt lat="45.6679921" lon="7.3462350">
        <ele>2511</ele>
      </trkpt>
      <trkpt lat="45.6679981" lon="7.3466150">
        <ele>2514</ele>
      </trkpt>
      <trkpt lat="45.6677831" lon="7.3465650">
        <ele>2517</ele>
      </trkpt>
      <trkpt lat="45.6675811" lon="7.3467910">
        <ele>2521</ele>
      </trkpt>
      <trkpt lat="45.6674031" lon="7.3468850">
        <ele>2524</ele>
      </trkpt>
      <trkpt lat="45.6671331" lon="7.3469050">
        <ele>2527</ele>
      </trkpt>
      <trkpt lat="45.6667731" lon="7.3471540">
        <ele>2530</ele>
      </trkpt>
      <trkpt lat="45.6666031" lon="7.3477440">
        <ele>2533</ele>
      </trkpt>
      <trkpt lat="45.6666131" lon="7.3481540">
        <ele>2536</ele>
      </trkpt>
      <trkpt lat="45.6664731" lon="7.3490240">
        <ele>2539</ele>
      </trkpt>
      <trkpt lat="45.6661691" lon="7.3492780">
        <ele>2543</ele>
      </trkpt>
      <trkpt lat="45.6659801" lon="7.3493920">
        <ele>2546</ele>
      </trkpt>
      <trkpt lat="45.6658431" lon="7.3494140">
        <ele>2549</ele>
      </trkpt>
      <trkpt lat="45.6657431" lon="7.3493940">
        <ele>2552</ele>
      </trkpt>
      <trkpt lat="45.6654831" lon="7.3494540">
        <ele>2555</ele>
      </trkpt>
      <trkpt lat="45.6652431" lon="7.3492840">
        <ele>2558</ele>
      </trkpt>
      <trkpt lat="45.6649231" lon="7.3494940">
        <ele>2561</ele>
      </trkpt>
      <trkpt lat="45.6647931" lon="7.3496040">
        <ele>2565</ele>
      </trkpt>
      <trkpt lat="45.6646931" lon="7.3499040">
        <ele>2568</ele>
      </trkpt>
      <trkpt lat="45.6645831" lon="7.3501040">
        <ele>2571</ele>
      </trkpt>
      <trkpt lat="45.6644931" lon="7.3504840">
        <ele>2574</ele>
      </trkpt>
      <trkpt lat="45.6644131" lon="7.3507040">
        <ele>2577</ele>
      </trkpt>
      <trkpt lat="45.6640631" lon="7.3511940">
        <ele>2580</ele>
      </trkpt>
      <trkpt lat="45.6640231" lon="7.3512340">
        <ele>2583</ele>
      </trkpt>
      <trkpt lat="45.6638531" lon="7.3513040">
        <ele>2587</ele>
      </trkpt>
      <trkpt lat="45.6636331" lon="7.3517040">
        <ele>2590</ele>
      </trkpt>
      <trkpt lat="45.6632331" lon="7.3526340">
        <ele>2593</ele>
      </trkpt>
      <trkpt lat="45.6631631" lon="7.3526940">
        <ele>2596</ele>
      </trkpt>
      <trkpt lat="45.6630211" lon="7.3529560">
        <ele>2599</ele>
      </trkpt>
      <trkpt lat="45.6630241" lon="7.3531190">
        <ele>2602</ele>
      </trkpt>
      <trkpt lat="45.6631011" lon="7.3532260">
        <ele>2605</ele>
      </trkpt>
      <trkpt lat="45.6631041" lon="7.3533890">
        <ele>2609</ele>
      </trkpt>
      <trkpt lat="45.6631431" lon="7.3535540">
        <ele>2612</ele>
      </trkpt>
      <trkpt lat="45.6631081" lon="7.3536600">
        <ele>2615</ele>
      </trkpt>
      <trkpt lat="45.6631091" lon="7.3537690">
        <ele>2618</ele>
      </trkpt>
      <trkpt lat="45.6630831" lon="7.3538940">
        <ele>2621</ele>
      </trkpt>
      <trkpt lat="45.6631231" lon="7.3541340">
        <ele>2624</ele>
      </trkpt>
      <trkpt lat="45.6631631" lon="7.3547940">
        <ele>2627</ele>
      </trkpt>
      <trkpt lat="45.6631431" lon="7.3549440">
        <ele>2631</ele>
      </trkpt>
      <trkpt lat="45.6628831" lon="7.3554640">
        <ele>2634</ele>
      </trkpt>
      <trkpt lat="45.6628031" lon="7.3554840">
        <ele>2637</ele>
      </trkpt>
      <trkpt lat="45.6627831" lon="7.3558940">
        <ele>2640</ele>
      </trkpt>
      <trkpt lat="45.6626731" lon="7.3560040">
        <ele>2643</ele>
      </trkpt>
      <trkpt lat="45.6625631" lon="7.3561540">
        <ele>2646</ele>
      </trkpt>
      <trkpt lat="45.6625431" lon="7.3561540">
        <ele>2649</ele>
      </trkpt>
      <trkpt lat="45.6623331" lon="7.3566440">
        <ele>2653</ele>
      </trkpt>
      <trkpt lat="45.6622231" lon="7.3567940">
        <ele>2656</ele>
      </trkpt>
      <trkpt lat="45.6622631" lon="7.3568540">
        <ele>2659</ele>
      </trkpt>
      <trkpt lat="45.6618331" lon="7.3575240">
        <ele>2662</ele>
      </trkpt>
      <trkpt lat="45.6614931" lon="7.3575240">
        <ele>2665</ele>
      </trkpt>
      <trkpt lat="45.6614231" lon="7.3575040">
        <ele>2668</ele>
      </trkpt>
      <trkpt lat="45.6613631" lon="7.3573940">
        <ele>2671</ele>
      </trkpt>
      <trkpt lat="45.6613031" lon="7.3574140">
        <ele>2674</ele>
      </trkpt>
      <trkpt lat="45.6612731" lon="7.3575040">
        <ele>2678</ele>
      </trkpt>
      <trkpt lat="45.6611731" lon="7.3575240">
        <ele>2681</ele>
      </trkpt>
      <trkpt lat="45.6610831" lon="7.3573940">
        <ele>2684</ele>
      </trkpt>
      <trkpt lat="45.6609131" lon="7.3576140">
        <ele>2687</ele>
      </trkpt>
      <trkpt lat="45.6608031" lon="7.3575840">
        <ele>2690</ele>
      </trkpt>
      <trkpt lat="45.6606531" lon="7.3576140">
        <ele>2693</ele>
      </trkpt>
      <trkpt lat="45.6605731" lon="7.3575640">
        <ele>2696</ele>
      </trkpt>
      <trkpt lat="45.6604831" lon="7.3575840">
        <ele>2700</ele>
      </trkpt>
      <trkpt lat="45.6603931" lon="7.3575240">
        <ele>2703</ele>
      </trkpt>
      <trkpt lat="45.6603731" lon="7.3576740">
        <ele>2706</ele>
      </trkpt>
      <trkpt lat="45.6603331" lon="7.3577140">
        <ele>2709</ele>
      </trkpt>
      <trkpt lat="45.6602431" lon="7.3577340">
        <ele>2712</ele>
      </trkpt>
      <trkpt lat="45.6601631" lon="7.3579740">
        <ele>2715</ele>
      </trkpt>
      <trkpt lat="45.6601231" lon="7.3581440">
        <ele>2718</ele>
      </trkpt>
      <trkpt lat="45.6600131" lon="7.3581840">
        <ele>2722</ele>
      </trkpt>
      <trkpt lat="45.6600131" lon="7.3582140">
        <ele>2725</ele>
      </trkpt>
      <trkpt lat="45.6599431" lon="7.3582540">
        <ele>2728</ele>
      </trkpt>
      <trkpt lat="45.6597731" lon="7.3582940">
        <ele>2731</ele>
      </trkpt>
      <trkpt lat="45.6596931" lon="7.3584440">
        <ele>2734</ele>
      </trkpt>
      <trkpt lat="45.6596231" lon="7.3584440">
        <ele>2737</ele>
      </trkpt>
      <trkpt lat="45.6595631" lon="7.3585140">
        <ele>2740</ele>
      </trkpt>
      <trkpt lat="45.6595431" lon="7.3585740">
        <ele>2744</ele>
      </trkpt>
      <trkpt lat="45.6594331" lon="7.3586640">
        <ele>2747</ele>
      </trkpt>
      <trkpt lat="45.6593931" lon="7.3587940">
        <ele>2750</ele>
      </trkpt>
      <trkpt lat="45.6592831" lon="7.3588340">
        <ele>2753</ele>
      </trkpt>
      <trkpt lat="45.6592131" lon="7.3589840">
        <ele>2756</ele>
      </trkpt>
      <trkpt lat="45.6589631" lon="7.3592440">
        <ele>2759</ele>
      </trkpt>
      <trkpt lat="45.6589331" lon="7.3592140">
        <ele>2762</ele>
      </trkpt>
      <trkpt lat="45.6588931" lon="7.3593040">
        <ele>2766</ele>
      </trkpt>
      <trkpt lat="45.6587231" lon="7.3593240">
        <ele>2769</ele>
      </trkpt>
      <trkpt lat="45.6586631" lon="7.3593940">
        <ele>2772</ele>
      </trkpt>
      <trkpt lat="45.6586331" lon="7.3593640">
        <ele>2775</ele>
      </trkpt>
      <trkpt lat="45.6586331" lon="7.3593440">
        <ele>2778</ele>
      </trkpt>
      <trkpt lat="45.6584631" lon="7.3593240">
        <ele>2781</ele>
      </trkpt>
      <trkpt lat="45.6582131" lon="7.3594940">
        <ele>2784</ele>
      </trkpt>
      <trkpt lat="45.6581231" lon="7.3594940">
        <ele>2788</ele>
      </trkpt>
      <trkpt lat="45.6581231" lon="7.3595240">
        <ele>2791</ele>
      </trkpt>
      <trkpt lat="45.6580831" lon="7.3595440">
        <ele>2794</ele>
      </trkpt>
      <trkpt lat="45.6580831" lon="7.3595840">
        <ele>2797</ele>
      </trkpt>
      <trkpt lat="45.6580331" lon="7.3596940">
        <ele>2800</ele>
      </trkpt>
      <trkpt lat="45.6579731" lon="7.3596740">
        <ele>2803</ele>
      </trkpt>
      <trkpt lat="45.6579031" lon="7.3597740">
        <ele>2806</ele>
      </trkpt>
      <trkpt lat="45.6579031" lon="7.3598240">
        <ele>2810</ele>
      </trkpt>
      <trkpt lat="45.6576731" lon="7.3600340">
        <ele>2813</ele>
      </trkpt>
      <trkpt lat="45.6576331" lon="7.3602740">
        <ele>2816</ele>
      </trkpt>
      <trkpt lat="45.6573001" lon="7.3605130">
        <ele>2819</ele>
      </trkpt>
    </trkseg>
  </trk>
</gpx>
