<?xml version="1.0" encoding="UTF-8"?>
<gpx version="1.1" creator="sentieri-vda" xmlns="http://www.topografix.com/GPX/1/1">
  <metadata>
    <name>Rifugio Arbolle -  Col d'Arbolle</name>
    <desc>Catasto Sentieri VdA — 19_S13</desc>
    <author><name>Regione Autonoma Valle d'Aosta</name></author>
  </metadata>
  <trk>
    <name>Rifugio Arbolle -  Col d'Arbolle</name>
    <src>Catasto Sentieri VdA (19_S13)</src>
    <trkseg>
      <trkpt lat="45.6679071" lon="7.3456400">
        <ele>2508</ele>
      </trkpt>
      <trkpt lat="45.6679921" lon="7.3462350">
        <ele>2512</ele>
      </trkpt>
      <trkpt lat="45.6679981" lon="7.3466150">
        <ele>2515</ele>
      </trkpt>
      <trkpt lat="45.6677831" lon="7.3465650">
        <ele>2519</ele>
      </trkpt>
      <trkpt lat="45.6675811" lon="7.3467910">
        <ele>2523</ele>
      </trkpt>
      <trkpt lat="45.6674031" lon="7.3468850">
        <ele>2527</ele>
      </trkpt>
      <trkpt lat="45.6671331" lon="7.3469050">
        <ele>2530</ele>
      </trkpt>
      <trkpt lat="45.6667731" lon="7.3471540">
        <ele>2534</ele>
      </trkpt>
      <trkpt lat="45.6666031" lon="7.3477440">
        <ele>2538</ele>
      </trkpt>
      <trkpt lat="45.6666131" lon="7.3481540">
        <ele>2541</ele>
      </trkpt>
      <trkpt lat="45.6664731" lon="7.3490240">
        <ele>2545</ele>
      </trkpt>
      <trkpt lat="45.6661691" lon="7.3492780">
        <ele>2549</ele>
      </trkpt>
      <trkpt lat="45.6659801" lon="7.3493920">
        <ele>2553</ele>
      </trkpt>
      <trkpt lat="45.6658431" lon="7.3494140">
        <ele>2556</ele>
      </trkpt>
      <trkpt lat="45.6657431" lon="7.3493940">
        <ele>2560</ele>
      </trkpt>
      <trkpt lat="45.6654831" lon="7.3494540">
        <ele>2564</ele>
      </trkpt>
      <trkpt lat="45.6652431" lon="7.3492840">
        <ele>2567</ele>
      </trkpt>
      <trkpt lat="45.6649231" lon="7.3494940">
        <ele>2571</ele>
      </trkpt>
      <trkpt lat="45.6647931" lon="7.3496040">
        <ele>2575</ele>
      </trkpt>
      <trkpt lat="45.6646931" lon="7.3499040">
        <ele>2579</ele>
      </trkpt>
      <trkpt lat="45.6645831" lon="7.3501040">
        <ele>2582</ele>
      </trkpt>
      <trkpt lat="45.6644931" lon="7.3504840">
        <ele>2586</ele>
      </trkpt>
      <trkpt lat="45.6644131" lon="7.3507040">
        <ele>2590</ele>
      </trkpt>
      <trkpt lat="45.6640631" lon="7.3511940">
        <ele>2594</ele>
      </trkpt>
      <trkpt lat="45.6640231" lon="7.3512340">
        <ele>2597</ele>
      </trkpt>
      <trkpt lat="45.6638531" lon="7.3513040">
        <ele>2601</ele>
      </trkpt>
      <trkpt lat="45.6636331" lon="7.3517040">
        <ele>2605</ele>
      </trkpt>
      <trkpt lat="45.6632331" lon="7.3526340">
        <ele>2608</ele>
      </trkpt>
      <trkpt lat="45.6631631" lon="7.3526940">
        <ele>2612</ele>
      </trkpt>
      <trkpt lat="45.6630211" lon="7.3529560">
        <ele>2616</ele>
      </trkpt>
      <trkpt lat="45.6630241" lon="7.3531190">
        <ele>2620</ele>
      </trkpt>
      <trkpt lat="45.6631011" lon="7.3532260">
        <ele>2623</ele>
      </trkpt>
      <trkpt lat="45.6631041" lon="7.3533890">
        <ele>2627</ele>
      </trkpt>
      <trkpt lat="45.6631431" lon="7.3535540">
        <ele>2631</ele>
      </trkpt>
      <trkpt lat="45.6631081" lon="7.3536600">
        <ele>2634</ele>
      </trkpt>
      <trkpt lat="45.6631431" lon="7.3538540">
        <ele>2638</ele>
      </trkpt>
      <trkpt lat="45.6632331" lon="7.3541740">
        <ele>2642</ele>
      </trkpt>
      <trkpt lat="45.6633131" lon="7.3543940">
        <ele>2646</ele>
      </trkpt>
      <trkpt lat="45.6633831" lon="7.3547340">
        <ele>2649</ele>
      </trkpt>
      <trkpt lat="45.6634031" lon="7.3547740">
        <ele>2653</ele>
      </trkpt>
      <trkpt lat="45.6634831" lon="7.3554640">
        <ele>2657</ele>
      </trkpt>
      <trkpt lat="45.6635131" lon="7.3555740">
        <ele>2660</ele>
      </trkpt>
      <trkpt lat="45.6635331" lon="7.3555940">
        <ele>2664</ele>
      </trkpt>
      <trkpt lat="45.6635331" lon="7.3558240">
        <ele>2668</ele>
      </trkpt>
      <trkpt lat="45.6635731" lon="7.3559340">
        <ele>2672</ele>
      </trkpt>
      <trkpt lat="45.6635931" lon="7.3563840">
        <ele>2675</ele>
      </trkpt>
      <trkpt lat="45.6635931" lon="7.3565840">
        <ele>2679</ele>
      </trkpt>
      <trkpt lat="45.6635531" lon="7.3568840">
        <ele>2683</ele>
      </trkpt>
      <trkpt lat="45.6635731" lon="7.3573940">
        <ele>2686</ele>
      </trkpt>
      <trkpt lat="45.6634431" lon="7.3577840">
        <ele>2690</ele>
      </trkpt>
      <trkpt lat="45.6634231" lon="7.3580140">
        <ele>2694</ele>
      </trkpt>
      <trkpt lat="45.6633131" lon="7.3584440">
        <ele>2698</ele>
      </trkpt>
      <trkpt lat="45.6633331" lon="7.3587440">
        <ele>2701</ele>
      </trkpt>
      <trkpt lat="45.6631831" lon="7.3597340">
        <ele>2705</ele>
      </trkpt>
      <trkpt lat="45.6632931" lon="7.3603540">
        <ele>2709</ele>
      </trkpt>
      <trkpt lat="45.6634031" lon="7.3606740">
        <ele>2713</ele>
      </trkpt>
      <trkpt lat="45.6634431" lon="7.3607440">
        <ele>2716</ele>
      </trkpt>
      <trkpt lat="45.6634431" lon="7.3607840">
        <ele>2720</ele>
      </trkpt>
      <trkpt lat="45.6636831" lon="7.3612340">
        <ele>2724</ele>
      </trkpt>
      <trkpt lat="45.6632931" lon="7.3616840">
        <ele>2727</ele>
      </trkpt>
      <trkpt lat="45.6632331" lon="7.3617740">
        <ele>2731</ele>
      </trkpt>
      <trkpt lat="45.6631431" lon="7.3618340">
        <ele>2735</ele>
      </trkpt>
      <trkpt lat="45.6630831" lon="7.3619840">
        <ele>2739</ele>
      </trkpt>
      <trkpt lat="45.6628631" lon="7.3620740">
        <ele>2742</ele>
      </trkpt>
      <trkpt lat="45.6627531" lon="7.3620940">
        <ele>2746</ele>
      </trkpt>
      <trkpt lat="45.6626731" lon="7.3622040">
        <ele>2750</ele>
      </trkpt>
      <trkpt lat="45.6625631" lon="7.3622440">
        <ele>2753</ele>
      </trkpt>
      <trkpt lat="45.6624131" lon="7.3626340">
        <ele>2757</ele>
      </trkpt>
      <trkpt lat="45.6625031" lon="7.3626940">
        <ele>2761</ele>
      </trkpt>
      <trkpt lat="45.6625831" lon="7.3628240">
        <ele>2765</ele>
      </trkpt>
      <trkpt lat="45.6626331" lon="7.3628640">
        <ele>2768</ele>
      </trkpt>
      <trkpt lat="45.6628431" lon="7.3635940">
        <ele>2772</ele>
      </trkpt>
      <trkpt lat="45.6629731" lon="7.3637640">
        <ele>2776</ele>
      </trkpt>
      <trkpt lat="45.6632331" lon="7.3644740">
        <ele>2779</ele>
      </trkpt>
      <trkpt lat="45.6633131" lon="7.3645440">
        <ele>2783</ele>
      </trkpt>
      <trkpt lat="45.6633631" lon="7.3645640">
        <ele>2787</ele>
      </trkpt>
      <trkpt lat="45.6633831" lon="7.3646240">
        <ele>2791</ele>
      </trkpt>
      <trkpt lat="45.6634231" lon="7.3646640">
        <ele>2794</ele>
      </trkpt>
      <trkpt lat="45.6637631" lon="7.3649440">
        <ele>2798</ele>
      </trkpt>
      <trkpt lat="45.6639131" lon="7.3652740">
        <ele>2802</ele>
      </trkpt>
      <trkpt lat="45.6640231" lon="7.3654440">
        <ele>2805</ele>
      </trkpt>
      <trkpt lat="45.6641731" lon="7.3655040">
        <ele>2809</ele>
      </trkpt>
      <trkpt lat="45.6642831" lon="7.3655240">
        <ele>2813</ele>
      </trkpt>
      <trkpt lat="45.6643031" lon="7.3656740">
        <ele>2817</ele>
      </trkpt>
      <trkpt lat="45.6642831" lon="7.3657440">
        <ele>2820</ele>
      </trkpt>
      <trkpt lat="45.6643031" lon="7.3657840">
        <ele>2824</ele>
      </trkpt>
      <trkpt lat="45.6643431" lon="7.3658040">
        <ele>2828</ele>
      </trkpt>
      <trkpt lat="45.6643631" lon="7.3659140">
        <ele>2832</ele>
      </trkpt>
      <trkpt lat="45.6643231" lon="7.3660440">
        <ele>2835</ele>
      </trkpt>
      <trkpt lat="45.6644131" lon="7.3661540">
        <ele>2839</ele>
      </trkpt>
      <trkpt lat="45.6644731" lon="7.3663440">
        <ele>2843</ele>
      </trkpt>
      <trkpt lat="45.6645631" lon="7.3664240">
        <ele>2846</ele>
      </trkpt>
      <trkpt lat="45.6646031" lon="7.3668340">
        <ele>2850</ele>
      </trkpt>
      <trkpt lat="45.6647731" lon="7.3671540">
        <ele>2854</ele>
      </trkpt>
      <trkpt lat="45.6647931" lon="7.3672640">
        <ele>2858</ele>
      </trkpt>
      <trkpt lat="45.6650331" lon="7.3675440">
        <ele>2861</ele>
      </trkpt>
      <trkpt lat="45.6652431" lon="7.3683340">
        <ele>2865</ele>
      </trkpt>
      <trkpt lat="45.6652931" lon="7.3689440">
        <ele>2869</ele>
      </trkpt>
      <trkpt lat="45.6658031" lon="7.3695640">
        <ele>2872</ele>
      </trkpt>
      <trkpt lat="45.6658931" lon="7.3699440">
        <ele>2876</ele>
      </trkpt>
      <trkpt lat="45.6661231" lon="7.3703740">
        <ele>2880</ele>
      </trkpt>
      <trkpt lat="45.6661431" lon="7.3705040">
        <ele>2884</ele>
      </trkpt>
      <trkpt lat="45.6662731" lon="7.3708440">
        <ele>2887</ele>
      </trkpt>
      <trkpt lat="45.6666231" lon="7.3711940">
        <ele>2891</ele>
      </trkpt>
      <trkpt lat="45.6666431" lon="7.3713840">
        <ele>2895</ele>
      </trkpt>
      <trkpt lat="45.6667231" lon="7.3717740">
        <ele>2898</ele>
      </trkpt>
      <trkpt lat="45.6668331" lon="7.3718340">
        <ele>2902</ele>
      </trkpt>
      <trkpt lat="45.6670231" lon="7.3721840">
        <ele>2906</ele>
      </trkpt>
      <trkpt lat="45.6671331" lon="7.3727540">
        <ele>2910</ele>
      </trkpt>
      <trkpt lat="45.6672831" lon="7.3728040">
        <ele>2913</ele>
      </trkpt>
      <trkpt lat="45.6674131" lon="7.3730340">
        <ele>2917</ele>
      </trkpt>
      <trkpt lat="45.6675631" lon="7.3732540">
        <ele>2921</ele>
      </trkpt>
      <trkpt lat="45.6677531" lon="7.3734840">
        <ele>2924</ele>
      </trkpt>
      <trkpt lat="45.6678831" lon="7.3735940">
        <ele>2928</ele>
      </trkpt>
      <trkpt lat="45.6679031" lon="7.3736840">
        <ele>2932</ele>
      </trkpt>
      <trkpt lat="45.6679731" lon="7.3737040">
        <ele>2936</ele>
      </trkpt>
      <trkpt lat="45.6682531" lon="7.3740040">
        <ele>2939</ele>
      </trkpt>
      <trkpt lat="45.6684431" lon="7.3742840">
        <ele>2943</ele>
      </trkpt>
      <trkpt lat="45.6685931" lon="7.3746040">
        <ele>2947</ele>
      </trkpt>
      <trkpt lat="45.6687231" lon="7.3747940">
        <ele>2950</ele>
      </trkpt>
      <trkpt lat="45.6691331" lon="7.3750340">
        <ele>2954</ele>
      </trkpt>
      <trkpt lat="45.6691531" lon="7.3751840">
        <ele>2958</ele>
      </trkpt>
      <trkpt lat="45.6691931" lon="7.3752740">
        <ele>2962</ele>
      </trkpt>
      <trkpt lat="45.6692131" lon="7.3754640">
        <ele>2965</ele>
      </trkpt>
      <trkpt lat="45.6693231" lon="7.3758040">
        <ele>2969</ele>
      </trkpt>
      <trkpt lat="45.6693831" lon="7.3759140">
        <ele>2973</ele>
      </trkpt>
      <trkpt lat="45.6694531" lon="7.3767240">
        <ele>2977</ele>
      </trkpt>
      <trkpt lat="45.6695831" lon="7.3769240">
        <ele>2980</ele>
      </trkpt>
      <trkpt lat="45.6695831" lon="7.3769040">
        <ele>2984</ele>
      </trkpt>
      <trkpt lat="45.6696431" lon="7.3771540">
        <ele>2988</ele>
      </trkpt>
      <trkpt lat="45.6696431" lon="7.3772840">
        <ele>2991</ele>
      </trkpt>
      <trkpt lat="45.6696031" lon="7.3773540">
        <ele>2995</ele>
      </trkpt>
      <trkpt lat="45.6697531" lon="7.3778840">
        <ele>2999</ele>
      </trkpt>
      <trkpt lat="45.6696931" lon="7.3780840">
        <ele>3003</ele>
      </trkpt>
      <trkpt lat="45.6697531" lon="7.3781240">
        <ele>3006</ele>
      </trkpt>
      <trkpt lat="45.6697931" lon="7.3782040">
        <ele>3010</ele>
      </trkpt>
      <trkpt lat="45.6698831" lon="7.3783140">
        <ele>3014</ele>
      </trkpt>
      <trkpt lat="45.6699031" lon="7.3785340">
        <ele>3017</ele>
      </trkpt>
      <trkpt lat="45.6699631" lon="7.3786340">
        <ele>3021</ele>
      </trkpt>
      <trkpt lat="45.6699931" lon="7.3787840">
        <ele>3025</ele>
      </trkpt>
      <trkpt lat="45.6699931" lon="7.3789140">
        <ele>3029</ele>
      </trkpt>
      <trkpt lat="45.6701131" lon="7.3792840">
        <ele>3032</ele>
      </trkpt>
      <trkpt lat="45.6701631" lon="7.3794940">
        <ele>3036</ele>
      </trkpt>
      <trkpt lat="45.6701871" lon="7.3797040">
        <ele>3040</ele>
      </trkpt>
      <trkpt lat="45.6702271" lon="7.3798120">
        <ele>3043</ele>
      </trkpt>
      <trkpt lat="45.6701921" lon="7.3800300">
        <ele>3047</ele>
      </trkpt>
      <trkpt lat="45.6700731" lon="7.3802040">
        <ele>3051</ele>
      </trkpt>
      <trkpt lat="45.6701131" lon="7.3804440">
        <ele>3055</ele>
      </trkpt>
      <trkpt lat="45.6700731" lon="7.3804640">
        <ele>3058</ele>
      </trkpt>
      <trkpt lat="45.6699431" lon="7.3806940">
        <ele>3062</ele>
      </trkpt>
      <trkpt lat="45.6698631" lon="7.3810440">
        <ele>3066</ele>
      </trkpt>
      <trkpt lat="45.6698831" lon="7.3810640">
        <ele>3069</ele>
      </trkpt>
      <trkpt lat="45.6699631" lon="7.3814440">
        <ele>3073</ele>
      </trkpt>
      <trkpt lat="45.6699931" lon="7.3817940">
        <ele>3077</ele>
      </trkpt>
      <trkpt lat="45.6700331" lon="7.3819240">
        <ele>3081</ele>
      </trkpt>
      <trkpt lat="45.6699431" lon="7.3822240">
        <ele>3084</ele>
      </trkpt>
      <trkpt lat="45.6698131" lon="7.3827540">
        <ele>3088</ele>
      </trkpt>
      <trkpt lat="45.6697131" lon="7.3829040">
        <ele>3092</ele>
      </trkpt>
      <trkpt lat="45.6697131" lon="7.3833340">
        <ele>3096</ele>
      </trkpt>
      <trkpt lat="45.6699231" lon="7.3841140">
        <ele>3099</ele>
      </trkpt>
      <trkpt lat="45.6699431" lon="7.3844540">
        <ele>3103</ele>
      </trkpt>
      <trkpt lat="45.6700331" lon="7.3847540">
        <ele>3107</ele>
      </trkpt>
      <trkpt lat="45.6700531" lon="7.3849640">
        <ele>3110</ele>
      </trkpt>
      <trkpt lat="45.6700131" lon="7.3849940">
        <ele>3114</ele>
      </trkpt>
      <trkpt lat="45.6699631" lon="7.3851140">
        <ele>3118</ele>
      </trkpt>
      <trkpt lat="45.6699631" lon="7.3855440">
        <ele>3122</ele>
      </trkpt>
      <trkpt lat="45.6699431" lon="7.3855940">
        <ele>3125</ele>
      </trkpt>
      <trkpt lat="45.6698431" lon="7.3856540">
        <ele>3129</ele>
      </trkpt>
      <trkpt lat="45.6697731" lon="7.3858240">
        <ele>3133</ele>
      </trkpt>
      <trkpt lat="45.6696031" lon="7.3859340">
        <ele>3136</ele>
      </trkpt>
      <trkpt lat="45.6693631" lon="7.3864240">
        <ele>3140</ele>
      </trkpt>
      <trkpt lat="45.6693431" lon="7.3870740">
        <ele>3144</ele>
      </trkpt>
      <trkpt lat="45.6694931" lon="7.3876040">
        <ele>3148</ele>
      </trkpt>
      <trkpt lat="45.6694731" lon="7.3877340">
        <ele>3151</ele>
      </trkpt>
      <trkpt lat="45.6694101" lon="7.3877657">
        <ele>3155</ele>
      </trkpt>
    </trkseg>
  </trk>
</gpx>
