<?xml version="1.0" encoding="UTF-8"?>
<gpx version="1.1" creator="sentieri-vda" xmlns="http://www.topografix.com/GPX/1/1">
  <metadata>
    <name>Comboé (Comboué) -  Becca di Nona</name>
    <desc>Catasto Sentieri VdA — 19_S10</desc>
    <author><name>Regione Autonoma Valle d'Aosta</name></author>
  </metadata>
  <trk>
    <name>Comboé (Comboué) -  Becca di Nona</name>
    <src>Catasto Sentieri VdA (19_S10)</src>
    <trkseg>
      <trkpt lat="45.6834326" lon="7.3419086">
        <ele>2118</ele>
      </trkpt>
      <trkpt lat="45.6833231" lon="7.3419950">
        <ele>2124</ele>
      </trkpt>
      <trkpt lat="45.6830831" lon="7.3420650">
        <ele>2131</ele>
      </trkpt>
      <trkpt lat="45.6830531" lon="7.3420950">
        <ele>2137</ele>
      </trkpt>
      <trkpt lat="45.6829331" lon="7.3420950">
        <ele>2144</ele>
      </trkpt>
      <trkpt lat="45.6826731" lon="7.3422250">
        <ele>2150</ele>
      </trkpt>
      <trkpt lat="45.6823631" lon="7.3425450">
        <ele>2157</ele>
      </trkpt>
      <trkpt lat="45.6822831" lon="7.3427450">
        <ele>2163</ele>
      </trkpt>
      <trkpt lat="45.6823731" lon="7.3430550">
        <ele>2170</ele>
      </trkpt>
      <trkpt lat="45.6822131" lon="7.3432050">
        <ele>2176</ele>
      </trkpt>
      <trkpt lat="45.6816131" lon="7.3433250">
        <ele>2183</ele>
      </trkpt>
      <trkpt lat="45.6812882" lon="7.3434852">
        <ele>2189</ele>
      </trkpt>
      <trkpt lat="45.6807910" lon="7.3435765">
        <ele>2196</ele>
      </trkpt>
      <trkpt lat="45.6803658" lon="7.3436968">
        <ele>2202</ele>
      </trkpt>
      <trkpt lat="45.6798740" lon="7.3439753">
        <ele>2209</ele>
      </trkpt>
      <trkpt lat="45.6794170" lon="7.3441605">
        <ele>2215</ele>
      </trkpt>
      <trkpt lat="45.6792690" lon="7.3442585">
        <ele>2222</ele>
      </trkpt>
      <trkpt lat="45.6789566" lon="7.3446800">
        <ele>2228</ele>
      </trkpt>
      <trkpt lat="45.6784140" lon="7.3448553">
        <ele>2235</ele>
      </trkpt>
      <trkpt lat="45.6780951" lon="7.3447710">
        <ele>2241</ele>
      </trkpt>
      <trkpt lat="45.6778132" lon="7.3449950">
        <ele>2248</ele>
      </trkpt>
      <trkpt lat="45.6774693" lon="7.3456607">
        <ele>2254</ele>
      </trkpt>
      <trkpt lat="45.6770932" lon="7.3462050">
        <ele>2261</ele>
      </trkpt>
      <trkpt lat="45.6768931" lon="7.3462950">
        <ele>2267</ele>
      </trkpt>
      <trkpt lat="45.6765831" lon="7.3465750">
        <ele>2274</ele>
      </trkpt>
      <trkpt lat="45.6750151" lon="7.3469300">
        <ele>2280</ele>
      </trkpt>
      <trkpt lat="45.6750141" lon="7.3469530">
        <ele>2287</ele>
      </trkpt>
      <trkpt lat="45.6748641" lon="7.3471750">
        <ele>2293</ele>
      </trkpt>
      <trkpt lat="45.6747931" lon="7.3475030">
        <ele>2300</ele>
      </trkpt>
      <trkpt lat="45.6747951" lon="7.3476660">
        <ele>2306</ele>
      </trkpt>
      <trkpt lat="45.6749331" lon="7.3482650">
        <ele>2313</ele>
      </trkpt>
      <trkpt lat="45.6750731" lon="7.3484250">
        <ele>2319</ele>
      </trkpt>
      <trkpt lat="45.6751031" lon="7.3485850">
        <ele>2326</ele>
      </trkpt>
      <trkpt lat="45.6752631" lon="7.3487250">
        <ele>2332</ele>
      </trkpt>
      <trkpt lat="45.6753931" lon="7.3487150">
        <ele>2339</ele>
      </trkpt>
      <trkpt lat="45.6760231" lon="7.3491650">
        <ele>2345</ele>
      </trkpt>
      <trkpt lat="45.6763231" lon="7.3491650">
        <ele>2352</ele>
      </trkpt>
      <trkpt lat="45.6766531" lon="7.3493150">
        <ele>2358</ele>
      </trkpt>
      <trkpt lat="45.6768531" lon="7.3495550">
        <ele>2365</ele>
      </trkpt>
      <trkpt lat="45.6768031" lon="7.3496450">
        <ele>2371</ele>
      </trkpt>
      <trkpt lat="45.6770031" lon="7.3499150">
        <ele>2378</ele>
      </trkpt>
      <trkpt lat="45.6769231" lon="7.3499250">
        <ele>2384</ele>
      </trkpt>
      <trkpt lat="45.6776931" lon="7.3504750">
        <ele>2391</ele>
      </trkpt>
      <trkpt lat="45.6780831" lon="7.3508850">
        <ele>2397</ele>
      </trkpt>
      <trkpt lat="45.6786031" lon="7.3507950">
        <ele>2404</ele>
      </trkpt>
      <trkpt lat="45.6791431" lon="7.3501850">
        <ele>2410</ele>
      </trkpt>
      <trkpt lat="45.6795431" lon="7.3499550">
        <ele>2417</ele>
      </trkpt>
      <trkpt lat="45.6800831" lon="7.3499650">
        <ele>2423</ele>
      </trkpt>
      <trkpt lat="45.6807131" lon="7.3497950">
        <ele>2430</ele>
      </trkpt>
      <trkpt lat="45.6808121" lon="7.3500450">
        <ele>2436</ele>
      </trkpt>
      <trkpt lat="45.6808431" lon="7.3506150">
        <ele>2443</ele>
      </trkpt>
      <trkpt lat="45.6808231" lon="7.3508150">
        <ele>2449</ele>
      </trkpt>
      <trkpt lat="45.6810031" lon="7.3511350">
        <ele>2456</ele>
      </trkpt>
      <trkpt lat="45.6812031" lon="7.3511850">
        <ele>2462</ele>
      </trkpt>
      <trkpt lat="45.6812131" lon="7.3514350">
        <ele>2469</ele>
      </trkpt>
      <trkpt lat="45.6813031" lon="7.3514850">
        <ele>2475</ele>
      </trkpt>
      <trkpt lat="45.6813431" lon="7.3515650">
        <ele>2482</ele>
      </trkpt>
      <trkpt lat="45.6814931" lon="7.3516850">
        <ele>2488</ele>
      </trkpt>
      <trkpt lat="45.6814531" lon="7.3523950">
        <ele>2495</ele>
      </trkpt>
      <trkpt lat="45.6815231" lon="7.3531450">
        <ele>2501</ele>
      </trkpt>
      <trkpt lat="45.6815731" lon="7.3533050">
        <ele>2508</ele>
      </trkpt>
      <trkpt lat="45.6816431" lon="7.3534550">
        <ele>2514</ele>
      </trkpt>
      <trkpt lat="45.6816831" lon="7.3537950">
        <ele>2521</ele>
      </trkpt>
      <trkpt lat="45.6814931" lon="7.3543250">
        <ele>2527</ele>
      </trkpt>
      <trkpt lat="45.6815331" lon="7.3546950">
        <ele>2534</ele>
      </trkpt>
      <trkpt lat="45.6814731" lon="7.3554050">
        <ele>2540</ele>
      </trkpt>
      <trkpt lat="45.6813131" lon="7.3567950">
        <ele>2547</ele>
      </trkpt>
      <trkpt lat="45.6811331" lon="7.3571950">
        <ele>2553</ele>
      </trkpt>
      <trkpt lat="45.6808831" lon="7.3576050">
        <ele>2560</ele>
      </trkpt>
      <trkpt lat="45.6808631" lon="7.3580450">
        <ele>2566</ele>
      </trkpt>
      <trkpt lat="45.6808231" lon="7.3582150">
        <ele>2573</ele>
      </trkpt>
      <trkpt lat="45.6809531" lon="7.3585750">
        <ele>2579</ele>
      </trkpt>
      <trkpt lat="45.6807931" lon="7.3586050">
        <ele>2586</ele>
      </trkpt>
      <trkpt lat="45.6806431" lon="7.3589450">
        <ele>2592</ele>
      </trkpt>
      <trkpt lat="45.6808131" lon="7.3590150">
        <ele>2599</ele>
      </trkpt>
      <trkpt lat="45.6807531" lon="7.3590450">
        <ele>2605</ele>
      </trkpt>
      <trkpt lat="45.6807331" lon="7.3591240">
        <ele>2612</ele>
      </trkpt>
      <trkpt lat="45.6809531" lon="7.3595340">
        <ele>2618</ele>
      </trkpt>
      <trkpt lat="45.6808831" lon="7.3595140">
        <ele>2625</ele>
      </trkpt>
      <trkpt lat="45.6807031" lon="7.3595140">
        <ele>2631</ele>
      </trkpt>
      <trkpt lat="45.6803731" lon="7.3604540">
        <ele>2637</ele>
      </trkpt>
      <trkpt lat="45.6804131" lon="7.3604640">
        <ele>2644</ele>
      </trkpt>
      <trkpt lat="45.6804331" lon="7.3603540">
        <ele>2650</ele>
      </trkpt>
      <trkpt lat="45.6807131" lon="7.3601340">
        <ele>2657</ele>
      </trkpt>
      <trkpt lat="45.6810431" lon="7.3601040">
        <ele>2663</ele>
      </trkpt>
      <trkpt lat="45.6808831" lon="7.3604640">
        <ele>2670</ele>
      </trkpt>
      <trkpt lat="45.6811731" lon="7.3604940">
        <ele>2676</ele>
      </trkpt>
      <trkpt lat="45.6809031" lon="7.3607840">
        <ele>2683</ele>
      </trkpt>
      <trkpt lat="45.6810531" lon="7.3609140">
        <ele>2689</ele>
      </trkpt>
      <trkpt lat="45.6811531" lon="7.3612340">
        <ele>2696</ele>
      </trkpt>
      <trkpt lat="45.6811681" lon="7.3615040">
        <ele>2702</ele>
      </trkpt>
      <trkpt lat="45.6812931" lon="7.3615540">
        <ele>2709</ele>
      </trkpt>
      <trkpt lat="45.6815831" lon="7.3619840">
        <ele>2715</ele>
      </trkpt>
      <trkpt lat="45.6816731" lon="7.3615840">
        <ele>2722</ele>
      </trkpt>
      <trkpt lat="45.6821631" lon="7.3612540">
        <ele>2728</ele>
      </trkpt>
      <trkpt lat="45.6822431" lon="7.3612640">
        <ele>2735</ele>
      </trkpt>
      <trkpt lat="45.6823831" lon="7.3615440">
        <ele>2741</ele>
      </trkpt>
      <trkpt lat="45.6828931" lon="7.3618640">
        <ele>2748</ele>
      </trkpt>
      <trkpt lat="45.6823931" lon="7.3621340">
        <ele>2754</ele>
      </trkpt>
      <trkpt lat="45.6826731" lon="7.3622140">
        <ele>2761</ele>
      </trkpt>
      <trkpt lat="45.6824431" lon="7.3624540">
        <ele>2767</ele>
      </trkpt>
      <trkpt lat="45.6827631" lon="7.3625440">
        <ele>2774</ele>
      </trkpt>
      <trkpt lat="45.6825931" lon="7.3627640">
        <ele>2780</ele>
      </trkpt>
      <trkpt lat="45.6827931" lon="7.3627640">
        <ele>2787</ele>
      </trkpt>
      <trkpt lat="45.6826731" lon="7.3630740">
        <ele>2793</ele>
      </trkpt>
      <trkpt lat="45.6829931" lon="7.3632040">
        <ele>2800</ele>
      </trkpt>
      <trkpt lat="45.6829231" lon="7.3633240">
        <ele>2806</ele>
      </trkpt>
      <trkpt lat="45.6830031" lon="7.3633740">
        <ele>2813</ele>
      </trkpt>
      <trkpt lat="45.6835431" lon="7.3634340">
        <ele>2819</ele>
      </trkpt>
      <trkpt lat="45.6833231" lon="7.3637140">
        <ele>2826</ele>
      </trkpt>
      <trkpt lat="45.6836131" lon="7.3637240">
        <ele>2832</ele>
      </trkpt>
      <trkpt lat="45.6836431" lon="7.3637740">
        <ele>2839</ele>
      </trkpt>
      <trkpt lat="45.6835531" lon="7.3639640">
        <ele>2845</ele>
      </trkpt>
      <trkpt lat="45.6838231" lon="7.3639240">
        <ele>2852</ele>
      </trkpt>
      <trkpt lat="45.6836631" lon="7.3642140">
        <ele>2858</ele>
      </trkpt>
      <trkpt lat="45.6840531" lon="7.3641640">
        <ele>2865</ele>
      </trkpt>
      <trkpt lat="45.6838831" lon="7.3644640">
        <ele>2871</ele>
      </trkpt>
      <trkpt lat="45.6842431" lon="7.3643740">
        <ele>2878</ele>
      </trkpt>
      <trkpt lat="45.6841331" lon="7.3646640">
        <ele>2884</ele>
      </trkpt>
      <trkpt lat="45.6844831" lon="7.3645540">
        <ele>2891</ele>
      </trkpt>
      <trkpt lat="45.6847531" lon="7.3642440">
        <ele>2897</ele>
      </trkpt>
      <trkpt lat="45.6850831" lon="7.3642540">
        <ele>2904</ele>
      </trkpt>
      <trkpt lat="45.6850331" lon="7.3644440">
        <ele>2910</ele>
      </trkpt>
      <trkpt lat="45.6848831" lon="7.3646140">
        <ele>2917</ele>
      </trkpt>
      <trkpt lat="45.6848731" lon="7.3647840">
        <ele>2923</ele>
      </trkpt>
      <trkpt lat="45.6851031" lon="7.3647440">
        <ele>2930</ele>
      </trkpt>
      <trkpt lat="45.6850531" lon="7.3649640">
        <ele>2936</ele>
      </trkpt>
      <trkpt lat="45.6851331" lon="7.3649340">
        <ele>2943</ele>
      </trkpt>
      <trkpt lat="45.6851131" lon="7.3650740">
        <ele>2949</ele>
      </trkpt>
      <trkpt lat="45.6852432" lon="7.3649840">
        <ele>2956</ele>
      </trkpt>
      <trkpt lat="45.6852332" lon="7.3651740">
        <ele>2962</ele>
      </trkpt>
      <trkpt lat="45.6854431" lon="7.3650040">
        <ele>2969</ele>
      </trkpt>
      <trkpt lat="45.6856232" lon="7.3650540">
        <ele>2975</ele>
      </trkpt>
      <trkpt lat="45.6858432" lon="7.3649440">
        <ele>2982</ele>
      </trkpt>
      <trkpt lat="45.6860532" lon="7.3650140">
        <ele>2988</ele>
      </trkpt>
      <trkpt lat="45.6859232" lon="7.3651740">
        <ele>2995</ele>
      </trkpt>
      <trkpt lat="45.6859231" lon="7.3652340">
        <ele>3001</ele>
      </trkpt>
      <trkpt lat="45.6860332" lon="7.3652540">
        <ele>3008</ele>
      </trkpt>
      <trkpt lat="45.6859232" lon="7.3654440">
        <ele>3014</ele>
      </trkpt>
      <trkpt lat="45.6860432" lon="7.3654340">
        <ele>3021</ele>
      </trkpt>
      <trkpt lat="45.6860132" lon="7.3655540">
        <ele>3027</ele>
      </trkpt>
      <trkpt lat="45.6860832" lon="7.3655240">
        <ele>3034</ele>
      </trkpt>
      <trkpt lat="45.6860132" lon="7.3657240">
        <ele>3040</ele>
      </trkpt>
      <trkpt lat="45.6861732" lon="7.3658040">
        <ele>3047</ele>
      </trkpt>
      <trkpt lat="45.6861532" lon="7.3659340">
        <ele>3053</ele>
      </trkpt>
      <trkpt lat="45.6862632" lon="7.3659240">
        <ele>3060</ele>
      </trkpt>
      <trkpt lat="45.6861932" lon="7.3662140">
        <ele>3066</ele>
      </trkpt>
      <trkpt lat="45.6860832" lon="7.3663640">
        <ele>3073</ele>
      </trkpt>
      <trkpt lat="45.6860932" lon="7.3665740">
        <ele>3079</ele>
      </trkpt>
      <trkpt lat="45.6861832" lon="7.3665240">
        <ele>3086</ele>
      </trkpt>
      <trkpt lat="45.6862832" lon="7.3666740">
        <ele>3092</ele>
      </trkpt>
      <trkpt lat="45.6865132" lon="7.3665740">
        <ele>3099</ele>
      </trkpt>
      <trkpt lat="45.6865392" lon="7.3667300">
        <ele>3105</ele>
      </trkpt>
      <trkpt lat="45.6867232" lon="7.3668240">
        <ele>3112</ele>
      </trkpt>
      <trkpt lat="45.6868432" lon="7.3667840">
        <ele>3118</ele>
      </trkpt>
      <trkpt lat="45.6870332" lon="7.3669340">
        <ele>3125</ele>
      </trkpt>
      <trkpt lat="45.6870332" lon="7.3668140">
        <ele>3131</ele>
      </trkpt>
      <trkpt lat="45.6871032" lon="7.3668140">
        <ele>3138</ele>
      </trkpt>
      <trkpt lat="45.6873812" lon="7.3669780">
        <ele>3144</ele>
      </trkpt>
    </trkseg>
  </trk>
</gpx>
