<?xml version="1.0" encoding="UTF-8"?>
<gpx version="1.1" creator="sentieri-vda" xmlns="http://www.topografix.com/GPX/1/1">
  <metadata>
    <name>Chamolé - Lac de Chamolé - Col  Replan</name>
    <desc>Catasto Sentieri VdA — 19_S6</desc>
    <author><name>Regione Autonoma Valle d'Aosta</name></author>
  </metadata>
  <trk>
    <name>Chamolé - Lac de Chamolé - Col  Replan</name>
    <src>Catasto Sentieri VdA (19_S6)</src>
    <trkseg>
      <trkpt lat="45.6829971" lon="7.3363150">
        <ele>2160</ele>
      </trkpt>
      <trkpt lat="45.6823751" lon="7.3355180">
        <ele>2164</ele>
      </trkpt>
      <trkpt lat="45.6820061" lon="7.3349860">
        <ele>2169</ele>
      </trkpt>
      <trkpt lat="45.6816771" lon="7.3346700">
        <ele>2173</ele>
      </trkpt>
      <trkpt lat="45.6812931" lon="7.3344910">
        <ele>2177</ele>
      </trkpt>
      <trkpt lat="45.6809631" lon="7.3344650">
        <ele>2181</ele>
      </trkpt>
      <trkpt lat="45.6805331" lon="7.3347750">
        <ele>2186</ele>
      </trkpt>
      <trkpt lat="45.6804531" lon="7.3348950">
        <ele>2190</ele>
      </trkpt>
      <trkpt lat="45.6801031" lon="7.3350850">
        <ele>2194</ele>
      </trkpt>
      <trkpt lat="45.6791531" lon="7.3352650">
        <ele>2198</ele>
      </trkpt>
      <trkpt lat="45.6786331" lon="7.3351750">
        <ele>2203</ele>
      </trkpt>
      <trkpt lat="45.6782731" lon="7.3350650">
        <ele>2207</ele>
      </trkpt>
      <trkpt lat="45.6779671" lon="7.3350240">
        <ele>2211</ele>
      </trkpt>
      <trkpt lat="45.6775431" lon="7.3347250">
        <ele>2215</ele>
      </trkpt>
      <trkpt lat="45.6772431" lon="7.3347550">
        <ele>2220</ele>
      </trkpt>
      <trkpt lat="45.6771031" lon="7.3346850">
        <ele>2224</ele>
      </trkpt>
      <trkpt lat="45.6768631" lon="7.3347050">
        <ele>2228</ele>
      </trkpt>
      <trkpt lat="45.6767531" lon="7.3346650">
        <ele>2232</ele>
      </trkpt>
      <trkpt lat="45.6766271" lon="7.3345740">
        <ele>2237</ele>
      </trkpt>
      <trkpt lat="45.6766431" lon="7.3344110">
        <ele>2241</ele>
      </trkpt>
      <trkpt lat="45.6773031" lon="7.3339750">
        <ele>2245</ele>
      </trkpt>
      <trkpt lat="45.6776031" lon="7.3334650">
        <ele>2249</ele>
      </trkpt>
      <trkpt lat="45.6778131" lon="7.3335950">
        <ele>2254</ele>
      </trkpt>
      <trkpt lat="45.6779931" lon="7.3334650">
        <ele>2258</ele>
      </trkpt>
      <trkpt lat="45.6781631" lon="7.3334550">
        <ele>2262</ele>
      </trkpt>
      <trkpt lat="45.6785731" lon="7.3332250">
        <ele>2267</ele>
      </trkpt>
      <trkpt lat="45.6789331" lon="7.3332550">
        <ele>2271</ele>
      </trkpt>
      <trkpt lat="45.6789831" lon="7.3331850">
        <ele>2275</ele>
      </trkpt>
      <trkpt lat="45.6791431" lon="7.3331450">
        <ele>2279</ele>
      </trkpt>
      <trkpt lat="45.6793431" lon="7.3326250">
        <ele>2284</ele>
      </trkpt>
      <trkpt lat="45.6796731" lon="7.3323050">
        <ele>2288</ele>
      </trkpt>
      <trkpt lat="45.6798731" lon="7.3317850">
        <ele>2292</ele>
      </trkpt>
      <trkpt lat="45.6803331" lon="7.3312550">
        <ele>2296</ele>
      </trkpt>
      <trkpt lat="45.6803931" lon="7.3311550">
        <ele>2301</ele>
      </trkpt>
      <trkpt lat="45.6804931" lon="7.3311250">
        <ele>2305</ele>
      </trkpt>
      <trkpt lat="45.6806531" lon="7.3309950">
        <ele>2309</ele>
      </trkpt>
      <trkpt lat="45.6808731" lon="7.3307450">
        <ele>2313</ele>
      </trkpt>
      <trkpt lat="45.6810231" lon="7.3306950">
        <ele>2318</ele>
      </trkpt>
      <trkpt lat="45.6811631" lon="7.3306950">
        <ele>2322</ele>
      </trkpt>
      <trkpt lat="45.6812831" lon="7.3306650">
        <ele>2326</ele>
      </trkpt>
      <trkpt lat="45.6816631" lon="7.3308150">
        <ele>2330</ele>
      </trkpt>
      <trkpt lat="45.6817931" lon="7.3307150">
        <ele>2335</ele>
      </trkpt>
      <trkpt lat="45.6818631" lon="7.3304950">
        <ele>2339</ele>
      </trkpt>
      <trkpt lat="45.6819931" lon="7.3304150">
        <ele>2343</ele>
      </trkpt>
      <trkpt lat="45.6821931" lon="7.3304750">
        <ele>2347</ele>
      </trkpt>
      <trkpt lat="45.6823531" lon="7.3301850">
        <ele>2352</ele>
      </trkpt>
      <trkpt lat="45.6823631" lon="7.3297550">
        <ele>2356</ele>
      </trkpt>
      <trkpt lat="45.6823031" lon="7.3294550">
        <ele>2360</ele>
      </trkpt>
      <trkpt lat="45.6824531" lon="7.3294450">
        <ele>2364</ele>
      </trkpt>
      <trkpt lat="45.6825831" lon="7.3295450">
        <ele>2369</ele>
      </trkpt>
      <trkpt lat="45.6826098" lon="7.3292466">
        <ele>2373</ele>
      </trkpt>
    </trkseg>
  </trk>
</gpx>
