<?xml version="1.0" encoding="UTF-8"?>
<gpx version="1.1" creator="sentieri-vda" xmlns="http://www.topografix.com/GPX/1/1">
  <metadata>
    <name>Promiod - Brengon (La Magdeleine)</name>
    <desc>Catasto Sentieri VdA — 20_S20</desc>
    <author><name>Regione Autonoma Valle d'Aosta</name></author>
  </metadata>
  <trk>
    <name>Promiod - Brengon (La Magdeleine)</name>
    <src>Catasto Sentieri VdA (20_S20)</src>
    <trkseg>
      <trkpt lat="45.7860726" lon="7.6091046">
        <ele>1485</ele>
      </trkpt>
      <trkpt lat="45.7861239" lon="7.6090926">
        <ele>1486</ele>
      </trkpt>
      <trkpt lat="45.7865256" lon="7.6087260">
        <ele>1487</ele>
      </trkpt>
      <trkpt lat="45.7866514" lon="7.6084372">
        <ele>1488</ele>
      </trkpt>
      <trkpt lat="45.7867525" lon="7.6081758">
        <ele>1490</ele>
      </trkpt>
      <trkpt lat="45.7868504" lon="7.6078841">
        <ele>1491</ele>
      </trkpt>
      <trkpt lat="45.7869510" lon="7.6076723">
        <ele>1492</ele>
      </trkpt>
      <trkpt lat="45.7869998" lon="7.6076132">
        <ele>1493</ele>
      </trkpt>
      <trkpt lat="45.7870721" lon="7.6075711">
        <ele>1494</ele>
      </trkpt>
      <trkpt lat="45.7871318" lon="7.6075658">
        <ele>1495</ele>
      </trkpt>
      <trkpt lat="45.7873372" lon="7.6076222">
        <ele>1497</ele>
      </trkpt>
      <trkpt lat="45.7874044" lon="7.6076152">
        <ele>1498</ele>
      </trkpt>
      <trkpt lat="45.7875263" lon="7.6075461">
        <ele>1499</ele>
      </trkpt>
      <trkpt lat="45.7876734" lon="7.6075369">
        <ele>1500</ele>
      </trkpt>
      <trkpt lat="45.7877557" lon="7.6075791">
        <ele>1501</ele>
      </trkpt>
      <trkpt lat="45.7878411" lon="7.6077109">
        <ele>1502</ele>
      </trkpt>
      <trkpt lat="45.7880597" lon="7.6077877">
        <ele>1503</ele>
      </trkpt>
      <trkpt lat="45.7882603" lon="7.6078213">
        <ele>1505</ele>
      </trkpt>
      <trkpt lat="45.7885959" lon="7.6080349">
        <ele>1506</ele>
      </trkpt>
      <trkpt lat="45.7886738" lon="7.6081423">
        <ele>1507</ele>
      </trkpt>
      <trkpt lat="45.7887715" lon="7.6082235">
        <ele>1508</ele>
      </trkpt>
      <trkpt lat="45.7889523" lon="7.6084731">
        <ele>1509</ele>
      </trkpt>
      <trkpt lat="45.7891715" lon="7.6087346">
        <ele>1510</ele>
      </trkpt>
      <trkpt lat="45.7893033" lon="7.6088375">
        <ele>1512</ele>
      </trkpt>
      <trkpt lat="45.7895858" lon="7.6089398">
        <ele>1513</ele>
      </trkpt>
      <trkpt lat="45.7896711" lon="7.6089248">
        <ele>1514</ele>
      </trkpt>
      <trkpt lat="45.7897905" lon="7.6089411">
        <ele>1515</ele>
      </trkpt>
      <trkpt lat="45.7899423" lon="7.6090210">
        <ele>1516</ele>
      </trkpt>
      <trkpt lat="45.7902226" lon="7.6093163">
        <ele>1517</ele>
      </trkpt>
      <trkpt lat="45.7904551" lon="7.6093749">
        <ele>1518</ele>
      </trkpt>
      <trkpt lat="45.7907675" lon="7.6095279">
        <ele>1520</ele>
      </trkpt>
      <trkpt lat="45.7908377" lon="7.6095680">
        <ele>1521</ele>
      </trkpt>
      <trkpt lat="45.7910180" lon="7.6097726">
        <ele>1522</ele>
      </trkpt>
      <trkpt lat="45.7912695" lon="7.6099143">
        <ele>1523</ele>
      </trkpt>
      <trkpt lat="45.7914390" lon="7.6099744">
        <ele>1524</ele>
      </trkpt>
      <trkpt lat="45.7918032" lon="7.6103224">
        <ele>1525</ele>
      </trkpt>
      <trkpt lat="45.7918945" lon="7.6104295">
        <ele>1527</ele>
      </trkpt>
      <trkpt lat="45.7919817" lon="7.6105721">
        <ele>1528</ele>
      </trkpt>
      <trkpt lat="45.7921712" lon="7.6109759">
        <ele>1529</ele>
      </trkpt>
      <trkpt lat="45.7922581" lon="7.6110895">
        <ele>1530</ele>
      </trkpt>
      <trkpt lat="45.7923528" lon="7.6112962">
        <ele>1531</ele>
      </trkpt>
      <trkpt lat="45.7924395" lon="7.6115771">
        <ele>1532</ele>
      </trkpt>
      <trkpt lat="45.7924767" lon="7.6118592">
        <ele>1533</ele>
      </trkpt>
      <trkpt lat="45.7925769" lon="7.6119790">
        <ele>1535</ele>
      </trkpt>
      <trkpt lat="45.7926599" lon="7.6121673">
        <ele>1536</ele>
      </trkpt>
      <trkpt lat="45.7927948" lon="7.6123860">
        <ele>1537</ele>
      </trkpt>
      <trkpt lat="45.7930212" lon="7.6127044">
        <ele>1538</ele>
      </trkpt>
      <trkpt lat="45.7931504" lon="7.6128446">
        <ele>1539</ele>
      </trkpt>
      <trkpt lat="45.7935727" lon="7.6130178">
        <ele>1540</ele>
      </trkpt>
      <trkpt lat="45.7937612" lon="7.6129499">
        <ele>1542</ele>
      </trkpt>
      <trkpt lat="45.7939378" lon="7.6126689">
        <ele>1543</ele>
      </trkpt>
      <trkpt lat="45.7940955" lon="7.6124978">
        <ele>1544</ele>
      </trkpt>
      <trkpt lat="45.7941580" lon="7.6124576">
        <ele>1545</ele>
      </trkpt>
      <trkpt lat="45.7942503" lon="7.6124585">
        <ele>1546</ele>
      </trkpt>
      <trkpt lat="45.7943750" lon="7.6125358">
        <ele>1547</ele>
      </trkpt>
      <trkpt lat="45.7945440" lon="7.6127407">
        <ele>1548</ele>
      </trkpt>
      <trkpt lat="45.7946357" lon="7.6128800">
        <ele>1550</ele>
      </trkpt>
      <trkpt lat="45.7947360" lon="7.6129869">
        <ele>1551</ele>
      </trkpt>
      <trkpt lat="45.7948048" lon="7.6130977">
        <ele>1552</ele>
      </trkpt>
      <trkpt lat="45.7948707" lon="7.6131476">
        <ele>1553</ele>
      </trkpt>
      <trkpt lat="45.7949924" lon="7.6131639">
        <ele>1554</ele>
      </trkpt>
      <trkpt lat="45.7952799" lon="7.6131181">
        <ele>1555</ele>
      </trkpt>
      <trkpt lat="45.7953927" lon="7.6131475">
        <ele>1557</ele>
      </trkpt>
      <trkpt lat="45.7954881" lon="7.6132191">
        <ele>1558</ele>
      </trkpt>
      <trkpt lat="45.7956572" lon="7.6132503">
        <ele>1559</ele>
      </trkpt>
      <trkpt lat="45.7957545" lon="7.6132929">
        <ele>1560</ele>
      </trkpt>
      <trkpt lat="45.7958317" lon="7.6133521">
        <ele>1561</ele>
      </trkpt>
      <trkpt lat="45.7959619" lon="7.6133232">
        <ele>1562</ele>
      </trkpt>
      <trkpt lat="45.7960523" lon="7.6133563">
        <ele>1563</ele>
      </trkpt>
      <trkpt lat="45.7962072" lon="7.6135101">
        <ele>1565</ele>
      </trkpt>
      <trkpt lat="45.7962865" lon="7.6135596">
        <ele>1566</ele>
      </trkpt>
      <trkpt lat="45.7963315" lon="7.6135585">
        <ele>1567</ele>
      </trkpt>
      <trkpt lat="45.7964310" lon="7.6136010">
        <ele>1568</ele>
      </trkpt>
      <trkpt lat="45.7965632" lon="7.6137361">
        <ele>1569</ele>
      </trkpt>
      <trkpt lat="45.7966344" lon="7.6138598">
        <ele>1570</ele>
      </trkpt>
      <trkpt lat="45.7966949" lon="7.6140255">
        <ele>1571</ele>
      </trkpt>
      <trkpt lat="45.7968355" lon="7.6143019">
        <ele>1573</ele>
      </trkpt>
      <trkpt lat="45.7969108" lon="7.6145670">
        <ele>1574</ele>
      </trkpt>
      <trkpt lat="45.7969861" lon="7.6150284">
        <ele>1575</ele>
      </trkpt>
      <trkpt lat="45.7971423" lon="7.6151017">
        <ele>1576</ele>
      </trkpt>
      <trkpt lat="45.7971767" lon="7.6151556">
        <ele>1577</ele>
      </trkpt>
      <trkpt lat="45.7972662" lon="7.6154879">
        <ele>1578</ele>
      </trkpt>
      <trkpt lat="45.7973017" lon="7.6161915">
        <ele>1580</ele>
      </trkpt>
      <trkpt lat="45.7973592" lon="7.6162930">
        <ele>1581</ele>
      </trkpt>
      <trkpt lat="45.7974022" lon="7.6163145">
        <ele>1582</ele>
      </trkpt>
      <trkpt lat="45.7976719" lon="7.6162853">
        <ele>1583</ele>
      </trkpt>
      <trkpt lat="45.7979311" lon="7.6163207">
        <ele>1584</ele>
      </trkpt>
      <trkpt lat="45.7980037" lon="7.6163703">
        <ele>1585</ele>
      </trkpt>
      <trkpt lat="45.7981701" lon="7.6163662">
        <ele>1586</ele>
      </trkpt>
      <trkpt lat="45.7983057" lon="7.6164143">
        <ele>1588</ele>
      </trkpt>
      <trkpt lat="45.7983821" lon="7.6164028">
        <ele>1589</ele>
      </trkpt>
      <trkpt lat="45.7987249" lon="7.6166517">
        <ele>1590</ele>
      </trkpt>
      <trkpt lat="45.7991037" lon="7.6167163">
        <ele>1591</ele>
      </trkpt>
      <trkpt lat="45.7994109" lon="7.6168148">
        <ele>1592</ele>
      </trkpt>
      <trkpt lat="45.7996439" lon="7.6171050">
        <ele>1593</ele>
      </trkpt>
      <trkpt lat="45.8001020" lon="7.6174025">
        <ele>1595</ele>
      </trkpt>
      <trkpt lat="45.8004261" lon="7.6177773">
        <ele>1596</ele>
      </trkpt>
      <trkpt lat="45.8005704" lon="7.6179893">
        <ele>1597</ele>
      </trkpt>
      <trkpt lat="45.8006535" lon="7.6181610">
        <ele>1598</ele>
      </trkpt>
      <trkpt lat="45.8007990" lon="7.6182828">
        <ele>1599</ele>
      </trkpt>
      <trkpt lat="45.8008679" lon="7.6184034">
        <ele>1600</ele>
      </trkpt>
      <trkpt lat="45.8009516" lon="7.6186265">
        <ele>1601</ele>
      </trkpt>
      <trkpt lat="45.8009767" lon="7.6186548">
        <ele>1603</ele>
      </trkpt>
      <trkpt lat="45.8012859" lon="7.6187276">
        <ele>1604</ele>
      </trkpt>
      <trkpt lat="45.8014260" lon="7.6187821">
        <ele>1605</ele>
      </trkpt>
      <trkpt lat="45.8015837" lon="7.6187975">
        <ele>1606</ele>
      </trkpt>
      <trkpt lat="45.8017643" lon="7.6188445">
        <ele>1607</ele>
      </trkpt>
      <trkpt lat="45.8021320" lon="7.6191056">
        <ele>1608</ele>
      </trkpt>
      <trkpt lat="45.8024124" lon="7.6192209">
        <ele>1610</ele>
      </trkpt>
      <trkpt lat="45.8025008" lon="7.6192799">
        <ele>1611</ele>
      </trkpt>
      <trkpt lat="45.8026373" lon="7.6194020">
        <ele>1612</ele>
      </trkpt>
      <trkpt lat="45.8027310" lon="7.6195187">
        <ele>1613</ele>
      </trkpt>
      <trkpt lat="45.8028332" lon="7.6195966">
        <ele>1614</ele>
      </trkpt>
      <trkpt lat="45.8032611" lon="7.6196311">
        <ele>1615</ele>
      </trkpt>
      <trkpt lat="45.8034928" lon="7.6196253">
        <ele>1616</ele>
      </trkpt>
      <trkpt lat="45.8036083" lon="7.6196836">
        <ele>1618</ele>
      </trkpt>
      <trkpt lat="45.8037453" lon="7.6198475">
        <ele>1619</ele>
      </trkpt>
      <trkpt lat="45.8039286" lon="7.6201229">
        <ele>1620</ele>
      </trkpt>
      <trkpt lat="45.8040780" lon="7.6203830">
        <ele>1621</ele>
      </trkpt>
      <trkpt lat="45.8044096" lon="7.6208285">
        <ele>1622</ele>
      </trkpt>
      <trkpt lat="45.8045370" lon="7.6211277">
        <ele>1623</ele>
      </trkpt>
      <trkpt lat="45.8046581" lon="7.6212760">
        <ele>1625</ele>
      </trkpt>
      <trkpt lat="45.8047440" lon="7.6213157">
        <ele>1626</ele>
      </trkpt>
      <trkpt lat="45.8050463" lon="7.6213758">
        <ele>1627</ele>
      </trkpt>
      <trkpt lat="45.8055887" lon="7.6213913">
        <ele>1628</ele>
      </trkpt>
      <trkpt lat="45.8058572" lon="7.6214459">
        <ele>1629</ele>
      </trkpt>
      <trkpt lat="45.8061136" lon="7.6214395">
        <ele>1630</ele>
      </trkpt>
      <trkpt lat="45.8065107" lon="7.6215263">
        <ele>1631</ele>
      </trkpt>
      <trkpt lat="45.8065741" lon="7.6215601">
        <ele>1633</ele>
      </trkpt>
      <trkpt lat="45.8068881" lon="7.6218515">
        <ele>1634</ele>
      </trkpt>
      <trkpt lat="45.8069818" lon="7.6219715">
        <ele>1635</ele>
      </trkpt>
      <trkpt lat="45.8071018" lon="7.6222152">
        <ele>1636</ele>
      </trkpt>
      <trkpt lat="45.8072150" lon="7.6222726">
        <ele>1637</ele>
      </trkpt>
      <trkpt lat="45.8073412" lon="7.6222940">
        <ele>1638</ele>
      </trkpt>
      <trkpt lat="45.8075168" lon="7.6223014">
        <ele>1640</ele>
      </trkpt>
      <trkpt lat="45.8076110" lon="7.6222729">
        <ele>1641</ele>
      </trkpt>
      <trkpt lat="45.8080444" lon="7.6216465">
        <ele>1642</ele>
      </trkpt>
      <trkpt lat="45.8082733" lon="7.6212209">
        <ele>1643</ele>
      </trkpt>
    </trkseg>
  </trk>
</gpx>
