<?xml version="1.0" encoding="UTF-8"?>
<gpx version="1.1" creator="sentieri-vda" xmlns="http://www.topografix.com/GPX/1/1">
  <metadata>
    <name>Lillaz - Col Pontonnet</name>
    <desc>Catasto Sentieri VdA — 21_S22</desc>
    <author><name>Regione Autonoma Valle d'Aosta</name></author>
  </metadata>
  <trk>
    <name>Lillaz - Col Pontonnet</name>
    <src>Catasto Sentieri VdA (21_S22)</src>
    <trkseg>
      <trkpt lat="45.5949911" lon="7.3929702">
        <ele>1651</ele>
      </trkpt>
      <trkpt lat="45.5949556" lon="7.3931165">
        <ele>1652</ele>
      </trkpt>
      <trkpt lat="45.5949486" lon="7.3931900">
        <ele>1654</ele>
      </trkpt>
      <trkpt lat="45.5949553" lon="7.3932628">
        <ele>1655</ele>
      </trkpt>
      <trkpt lat="45.5949965" lon="7.3933406">
        <ele>1657</ele>
      </trkpt>
      <trkpt lat="45.5950040" lon="7.3933999">
        <ele>1658</ele>
      </trkpt>
      <trkpt lat="45.5950739" lon="7.3935749">
        <ele>1660</ele>
      </trkpt>
      <trkpt lat="45.5950639" lon="7.3936319">
        <ele>1661</ele>
      </trkpt>
      <trkpt lat="45.5951220" lon="7.3938417">
        <ele>1662</ele>
      </trkpt>
      <trkpt lat="45.5950786" lon="7.3939340">
        <ele>1664</ele>
      </trkpt>
      <trkpt lat="45.5950141" lon="7.3939798">
        <ele>1665</ele>
      </trkpt>
      <trkpt lat="45.5951218" lon="7.3941643">
        <ele>1667</ele>
      </trkpt>
      <trkpt lat="45.5951365" lon="7.3942450">
        <ele>1668</ele>
      </trkpt>
      <trkpt lat="45.5952206" lon="7.3943023">
        <ele>1670</ele>
      </trkpt>
      <trkpt lat="45.5952333" lon="7.3943402">
        <ele>1671</ele>
      </trkpt>
      <trkpt lat="45.5953300" lon="7.3944317">
        <ele>1672</ele>
      </trkpt>
      <trkpt lat="45.5952992" lon="7.3944716">
        <ele>1674</ele>
      </trkpt>
      <trkpt lat="45.5953184" lon="7.3944917">
        <ele>1675</ele>
      </trkpt>
      <trkpt lat="45.5953010" lon="7.3944987">
        <ele>1677</ele>
      </trkpt>
      <trkpt lat="45.5952920" lon="7.3945546">
        <ele>1678</ele>
      </trkpt>
      <trkpt lat="45.5952014" lon="7.3945719">
        <ele>1680</ele>
      </trkpt>
      <trkpt lat="45.5951879" lon="7.3946005">
        <ele>1681</ele>
      </trkpt>
      <trkpt lat="45.5952039" lon="7.3946486">
        <ele>1682</ele>
      </trkpt>
      <trkpt lat="45.5952494" lon="7.3946142">
        <ele>1684</ele>
      </trkpt>
      <trkpt lat="45.5952756" lon="7.3947718">
        <ele>1685</ele>
      </trkpt>
      <trkpt lat="45.5952859" lon="7.3947700">
        <ele>1687</ele>
      </trkpt>
      <trkpt lat="45.5952811" lon="7.3947481">
        <ele>1688</ele>
      </trkpt>
      <trkpt lat="45.5953504" lon="7.3947000">
        <ele>1689</ele>
      </trkpt>
      <trkpt lat="45.5955297" lon="7.3948162">
        <ele>1691</ele>
      </trkpt>
      <trkpt lat="45.5956399" lon="7.3948195">
        <ele>1692</ele>
      </trkpt>
      <trkpt lat="45.5957387" lon="7.3947954">
        <ele>1694</ele>
      </trkpt>
      <trkpt lat="45.5958370" lon="7.3950895">
        <ele>1695</ele>
      </trkpt>
      <trkpt lat="45.5958383" lon="7.3951667">
        <ele>1697</ele>
      </trkpt>
      <trkpt lat="45.5958508" lon="7.3953764">
        <ele>1698</ele>
      </trkpt>
      <trkpt lat="45.5958661" lon="7.3954897">
        <ele>1699</ele>
      </trkpt>
      <trkpt lat="45.5958365" lon="7.3956024">
        <ele>1701</ele>
      </trkpt>
      <trkpt lat="45.5958850" lon="7.3956845">
        <ele>1702</ele>
      </trkpt>
      <trkpt lat="45.5959140" lon="7.3957867">
        <ele>1704</ele>
      </trkpt>
      <trkpt lat="45.5959453" lon="7.3959807">
        <ele>1705</ele>
      </trkpt>
      <trkpt lat="45.5959791" lon="7.3960792">
        <ele>1707</ele>
      </trkpt>
      <trkpt lat="45.5960148" lon="7.3961445">
        <ele>1708</ele>
      </trkpt>
      <trkpt lat="45.5960101" lon="7.3962499">
        <ele>1709</ele>
      </trkpt>
      <trkpt lat="45.5960332" lon="7.3963039">
        <ele>1711</ele>
      </trkpt>
      <trkpt lat="45.5961149" lon="7.3963120">
        <ele>1712</ele>
      </trkpt>
      <trkpt lat="45.5961511" lon="7.3963102">
        <ele>1714</ele>
      </trkpt>
      <trkpt lat="45.5961708" lon="7.3963195">
        <ele>1715</ele>
      </trkpt>
      <trkpt lat="45.5961949" lon="7.3963440">
        <ele>1717</ele>
      </trkpt>
      <trkpt lat="45.5962050" lon="7.3963964">
        <ele>1718</ele>
      </trkpt>
      <trkpt lat="45.5962240" lon="7.3964119">
        <ele>1719</ele>
      </trkpt>
      <trkpt lat="45.5962489" lon="7.3964156">
        <ele>1721</ele>
      </trkpt>
      <trkpt lat="45.5962979" lon="7.3963956">
        <ele>1722</ele>
      </trkpt>
      <trkpt lat="45.5963351" lon="7.3963785">
        <ele>1724</ele>
      </trkpt>
      <trkpt lat="45.5963527" lon="7.3963687">
        <ele>1725</ele>
      </trkpt>
      <trkpt lat="45.5963712" lon="7.3963685">
        <ele>1727</ele>
      </trkpt>
      <trkpt lat="45.5963862" lon="7.3963824">
        <ele>1728</ele>
      </trkpt>
      <trkpt lat="45.5963878" lon="7.3964045">
        <ele>1729</ele>
      </trkpt>
      <trkpt lat="45.5963711" lon="7.3965054">
        <ele>1731</ele>
      </trkpt>
      <trkpt lat="45.5963590" lon="7.3965501">
        <ele>1732</ele>
      </trkpt>
      <trkpt lat="45.5963599" lon="7.3965605">
        <ele>1734</ele>
      </trkpt>
      <trkpt lat="45.5963242" lon="7.3966123">
        <ele>1735</ele>
      </trkpt>
      <trkpt lat="45.5963220" lon="7.3966262">
        <ele>1737</ele>
      </trkpt>
      <trkpt lat="45.5963255" lon="7.3966536">
        <ele>1738</ele>
      </trkpt>
      <trkpt lat="45.5963420" lon="7.3966691">
        <ele>1739</ele>
      </trkpt>
      <trkpt lat="45.5963600" lon="7.3966686">
        <ele>1741</ele>
      </trkpt>
      <trkpt lat="45.5963730" lon="7.3966612">
        <ele>1742</ele>
      </trkpt>
      <trkpt lat="45.5963914" lon="7.3966375">
        <ele>1744</ele>
      </trkpt>
      <trkpt lat="45.5964129" lon="7.3966355">
        <ele>1745</ele>
      </trkpt>
      <trkpt lat="45.5964382" lon="7.3966414">
        <ele>1747</ele>
      </trkpt>
      <trkpt lat="45.5964733" lon="7.3966515">
        <ele>1748</ele>
      </trkpt>
      <trkpt lat="45.5964927" lon="7.3966798">
        <ele>1749</ele>
      </trkpt>
      <trkpt lat="45.5964882" lon="7.3967199">
        <ele>1751</ele>
      </trkpt>
      <trkpt lat="45.5964811" lon="7.3967903">
        <ele>1752</ele>
      </trkpt>
      <trkpt lat="45.5964904" lon="7.3968430">
        <ele>1754</ele>
      </trkpt>
      <trkpt lat="45.5965171" lon="7.3969209">
        <ele>1755</ele>
      </trkpt>
      <trkpt lat="45.5965443" lon="7.3969929">
        <ele>1756</ele>
      </trkpt>
      <trkpt lat="45.5965854" lon="7.3970770">
        <ele>1758</ele>
      </trkpt>
      <trkpt lat="45.5966069" lon="7.3971475">
        <ele>1759</ele>
      </trkpt>
      <trkpt lat="45.5966174" lon="7.3971845">
        <ele>1761</ele>
      </trkpt>
      <trkpt lat="45.5966314" lon="7.3972063">
        <ele>1762</ele>
      </trkpt>
      <trkpt lat="45.5966554" lon="7.3972251">
        <ele>1764</ele>
      </trkpt>
      <trkpt lat="45.5966693" lon="7.3972380">
        <ele>1765</ele>
      </trkpt>
      <trkpt lat="45.5966705" lon="7.3972389">
        <ele>1766</ele>
      </trkpt>
      <trkpt lat="45.5966797" lon="7.3972697">
        <ele>1768</ele>
      </trkpt>
      <trkpt lat="45.5966923" lon="7.3972791">
        <ele>1769</ele>
      </trkpt>
      <trkpt lat="45.5967060" lon="7.3972787">
        <ele>1771</ele>
      </trkpt>
      <trkpt lat="45.5967122" lon="7.3972786">
        <ele>1772</ele>
      </trkpt>
      <trkpt lat="45.5967155" lon="7.3972891">
        <ele>1774</ele>
      </trkpt>
      <trkpt lat="45.5967181" lon="7.3972982">
        <ele>1775</ele>
      </trkpt>
      <trkpt lat="45.5966949" lon="7.3973617">
        <ele>1776</ele>
      </trkpt>
      <trkpt lat="45.5966847" lon="7.3973686">
        <ele>1778</ele>
      </trkpt>
      <trkpt lat="45.5966742" lon="7.3973795">
        <ele>1779</ele>
      </trkpt>
      <trkpt lat="45.5966765" lon="7.3974061">
        <ele>1781</ele>
      </trkpt>
      <trkpt lat="45.5966921" lon="7.3974119">
        <ele>1782</ele>
      </trkpt>
      <trkpt lat="45.5967266" lon="7.3974224">
        <ele>1784</ele>
      </trkpt>
      <trkpt lat="45.5967560" lon="7.3974314">
        <ele>1785</ele>
      </trkpt>
      <trkpt lat="45.5967586" lon="7.3974384">
        <ele>1786</ele>
      </trkpt>
      <trkpt lat="45.5967794" lon="7.3975000">
        <ele>1788</ele>
      </trkpt>
      <trkpt lat="45.5967913" lon="7.3975494">
        <ele>1789</ele>
      </trkpt>
      <trkpt lat="45.5968090" lon="7.3975631">
        <ele>1791</ele>
      </trkpt>
      <trkpt lat="45.5968276" lon="7.3975563">
        <ele>1792</ele>
      </trkpt>
      <trkpt lat="45.5968467" lon="7.3975433">
        <ele>1794</ele>
      </trkpt>
      <trkpt lat="45.5968797" lon="7.3975415">
        <ele>1795</ele>
      </trkpt>
      <trkpt lat="45.5969079" lon="7.3975478">
        <ele>1796</ele>
      </trkpt>
      <trkpt lat="45.5969210" lon="7.3975475">
        <ele>1798</ele>
      </trkpt>
      <trkpt lat="45.5969379" lon="7.3975301">
        <ele>1799</ele>
      </trkpt>
      <trkpt lat="45.5969692" lon="7.3974963">
        <ele>1801</ele>
      </trkpt>
      <trkpt lat="45.5970039" lon="7.3974820">
        <ele>1802</ele>
      </trkpt>
      <trkpt lat="45.5970465" lon="7.3975004">
        <ele>1804</ele>
      </trkpt>
      <trkpt lat="45.5970647" lon="7.3975096">
        <ele>1805</ele>
      </trkpt>
      <trkpt lat="45.5970871" lon="7.3975481">
        <ele>1806</ele>
      </trkpt>
      <trkpt lat="45.5970932" lon="7.3975779">
        <ele>1808</ele>
      </trkpt>
      <trkpt lat="45.5971066" lon="7.3976148">
        <ele>1809</ele>
      </trkpt>
      <trkpt lat="45.5971382" lon="7.3976467">
        <ele>1811</ele>
      </trkpt>
      <trkpt lat="45.5971668" lon="7.3976823">
        <ele>1812</ele>
      </trkpt>
      <trkpt lat="45.5971917" lon="7.3977251">
        <ele>1814</ele>
      </trkpt>
      <trkpt lat="45.5972204" lon="7.3977758">
        <ele>1815</ele>
      </trkpt>
      <trkpt lat="45.5972370" lon="7.3978038">
        <ele>1816</ele>
      </trkpt>
      <trkpt lat="45.5972457" lon="7.3978194">
        <ele>1818</ele>
      </trkpt>
      <trkpt lat="45.5972836" lon="7.3980783">
        <ele>1819</ele>
      </trkpt>
      <trkpt lat="45.5973153" lon="7.3981918">
        <ele>1821</ele>
      </trkpt>
      <trkpt lat="45.5973507" lon="7.3983194">
        <ele>1822</ele>
      </trkpt>
      <trkpt lat="45.5973786" lon="7.3985693">
        <ele>1824</ele>
      </trkpt>
      <trkpt lat="45.5973693" lon="7.3987046">
        <ele>1825</ele>
      </trkpt>
      <trkpt lat="45.5973929" lon="7.3988098">
        <ele>1826</ele>
      </trkpt>
      <trkpt lat="45.5973747" lon="7.3988375">
        <ele>1828</ele>
      </trkpt>
      <trkpt lat="45.5973863" lon="7.3988656">
        <ele>1829</ele>
      </trkpt>
      <trkpt lat="45.5974133" lon="7.3988594">
        <ele>1831</ele>
      </trkpt>
      <trkpt lat="45.5974379" lon="7.3988978">
        <ele>1832</ele>
      </trkpt>
      <trkpt lat="45.5974029" lon="7.3990292">
        <ele>1833</ele>
      </trkpt>
      <trkpt lat="45.5973921" lon="7.3991032">
        <ele>1835</ele>
      </trkpt>
      <trkpt lat="45.5972383" lon="7.3992958">
        <ele>1836</ele>
      </trkpt>
      <trkpt lat="45.5972973" lon="7.3993199">
        <ele>1838</ele>
      </trkpt>
      <trkpt lat="45.5971598" lon="7.3994505">
        <ele>1839</ele>
      </trkpt>
      <trkpt lat="45.5971402" lon="7.3995133">
        <ele>1841</ele>
      </trkpt>
      <trkpt lat="45.5971438" lon="7.3995698">
        <ele>1842</ele>
      </trkpt>
      <trkpt lat="45.5971028" lon="7.3995994">
        <ele>1843</ele>
      </trkpt>
      <trkpt lat="45.5970167" lon="7.3995930">
        <ele>1845</ele>
      </trkpt>
      <trkpt lat="45.5970030" lon="7.3998655">
        <ele>1846</ele>
      </trkpt>
      <trkpt lat="45.5969233" lon="7.4001133">
        <ele>1848</ele>
      </trkpt>
      <trkpt lat="45.5968722" lon="7.4003359">
        <ele>1849</ele>
      </trkpt>
      <trkpt lat="45.5968283" lon="7.4004678">
        <ele>1851</ele>
      </trkpt>
      <trkpt lat="45.5968177" lon="7.4005859">
        <ele>1852</ele>
      </trkpt>
      <trkpt lat="45.5968098" lon="7.4006932">
        <ele>1853</ele>
      </trkpt>
      <trkpt lat="45.5968027" lon="7.4007595">
        <ele>1855</ele>
      </trkpt>
      <trkpt lat="45.5968103" lon="7.4008359">
        <ele>1856</ele>
      </trkpt>
      <trkpt lat="45.5967538" lon="7.4009348">
        <ele>1858</ele>
      </trkpt>
      <trkpt lat="45.5967121" lon="7.4010242">
        <ele>1859</ele>
      </trkpt>
      <trkpt lat="45.5966927" lon="7.4010887">
        <ele>1861</ele>
      </trkpt>
      <trkpt lat="45.5966752" lon="7.4011771">
        <ele>1862</ele>
      </trkpt>
      <trkpt lat="45.5966517" lon="7.4012764">
        <ele>1863</ele>
      </trkpt>
      <trkpt lat="45.5966338" lon="7.4013764">
        <ele>1865</ele>
      </trkpt>
      <trkpt lat="45.5966192" lon="7.4014392">
        <ele>1866</ele>
      </trkpt>
      <trkpt lat="45.5966085" lon="7.4014841">
        <ele>1868</ele>
      </trkpt>
      <trkpt lat="45.5965860" lon="7.4015691">
        <ele>1869</ele>
      </trkpt>
      <trkpt lat="45.5965706" lon="7.4016272">
        <ele>1871</ele>
      </trkpt>
      <trkpt lat="45.5965612" lon="7.4017145">
        <ele>1872</ele>
      </trkpt>
      <trkpt lat="45.5965516" lon="7.4017885">
        <ele>1873</ele>
      </trkpt>
      <trkpt lat="45.5965457" lon="7.4018461">
        <ele>1875</ele>
      </trkpt>
      <trkpt lat="45.5965535" lon="7.4019676">
        <ele>1876</ele>
      </trkpt>
      <trkpt lat="45.5965549" lon="7.4020452">
        <ele>1878</ele>
      </trkpt>
      <trkpt lat="45.5965656" lon="7.4021151">
        <ele>1879</ele>
      </trkpt>
      <trkpt lat="45.5966070" lon="7.4023129">
        <ele>1881</ele>
      </trkpt>
      <trkpt lat="45.5966410" lon="7.4025179">
        <ele>1882</ele>
      </trkpt>
      <trkpt lat="45.5966912" lon="7.4027154">
        <ele>1883</ele>
      </trkpt>
      <trkpt lat="45.5966986" lon="7.4028005">
        <ele>1885</ele>
      </trkpt>
      <trkpt lat="45.5966963" lon="7.4029018">
        <ele>1886</ele>
      </trkpt>
      <trkpt lat="45.5967026" lon="7.4029993">
        <ele>1888</ele>
      </trkpt>
      <trkpt lat="45.5967311" lon="7.4031636">
        <ele>1889</ele>
      </trkpt>
      <trkpt lat="45.5967485" lon="7.4032466">
        <ele>1891</ele>
      </trkpt>
      <trkpt lat="45.5967702" lon="7.4032886">
        <ele>1892</ele>
      </trkpt>
      <trkpt lat="45.5967910" lon="7.4033466">
        <ele>1893</ele>
      </trkpt>
      <trkpt lat="45.5968220" lon="7.4034239">
        <ele>1895</ele>
      </trkpt>
      <trkpt lat="45.5968648" lon="7.4035654">
        <ele>1896</ele>
      </trkpt>
      <trkpt lat="45.5968855" lon="7.4036524">
        <ele>1898</ele>
      </trkpt>
      <trkpt lat="45.5968920" lon="7.4037242">
        <ele>1899</ele>
      </trkpt>
      <trkpt lat="45.5968981" lon="7.4037835">
        <ele>1900</ele>
      </trkpt>
      <trkpt lat="45.5969113" lon="7.4038346">
        <ele>1902</ele>
      </trkpt>
      <trkpt lat="45.5969203" lon="7.4038553">
        <ele>1903</ele>
      </trkpt>
      <trkpt lat="45.5969294" lon="7.4038804">
        <ele>1905</ele>
      </trkpt>
      <trkpt lat="45.5969389" lon="7.4039138">
        <ele>1906</ele>
      </trkpt>
      <trkpt lat="45.5969413" lon="7.4039279">
        <ele>1908</ele>
      </trkpt>
      <trkpt lat="45.5969410" lon="7.4039537">
        <ele>1909</ele>
      </trkpt>
      <trkpt lat="45.5969342" lon="7.4039805">
        <ele>1910</ele>
      </trkpt>
      <trkpt lat="45.5969294" lon="7.4040164">
        <ele>1912</ele>
      </trkpt>
      <trkpt lat="45.5969284" lon="7.4040361">
        <ele>1913</ele>
      </trkpt>
      <trkpt lat="45.5969265" lon="7.4040755">
        <ele>1915</ele>
      </trkpt>
      <trkpt lat="45.5969277" lon="7.4041177">
        <ele>1916</ele>
      </trkpt>
      <trkpt lat="45.5969223" lon="7.4041760">
        <ele>1918</ele>
      </trkpt>
      <trkpt lat="45.5969264" lon="7.4042030">
        <ele>1919</ele>
      </trkpt>
      <trkpt lat="45.5969391" lon="7.4042828">
        <ele>1920</ele>
      </trkpt>
      <trkpt lat="45.5969404" lon="7.4043116">
        <ele>1922</ele>
      </trkpt>
      <trkpt lat="45.5969459" lon="7.4043639">
        <ele>1923</ele>
      </trkpt>
      <trkpt lat="45.5969487" lon="7.4043904">
        <ele>1925</ele>
      </trkpt>
      <trkpt lat="45.5969512" lon="7.4044598">
        <ele>1926</ele>
      </trkpt>
      <trkpt lat="45.5969534" lon="7.4045199">
        <ele>1928</ele>
      </trkpt>
      <trkpt lat="45.5969552" lon="7.4045707">
        <ele>1929</ele>
      </trkpt>
      <trkpt lat="45.5969496" lon="7.4046599">
        <ele>1930</ele>
      </trkpt>
      <trkpt lat="45.5969523" lon="7.4046980">
        <ele>1932</ele>
      </trkpt>
      <trkpt lat="45.5969539" lon="7.4047030">
        <ele>1933</ele>
      </trkpt>
      <trkpt lat="45.5969585" lon="7.4047173">
        <ele>1935</ele>
      </trkpt>
      <trkpt lat="45.5969598" lon="7.4047399">
        <ele>1936</ele>
      </trkpt>
      <trkpt lat="45.5969584" lon="7.4047751">
        <ele>1938</ele>
      </trkpt>
      <trkpt lat="45.5969536" lon="7.4048204">
        <ele>1939</ele>
      </trkpt>
      <trkpt lat="45.5969466" lon="7.4048875">
        <ele>1940</ele>
      </trkpt>
      <trkpt lat="45.5969475" lon="7.4049115">
        <ele>1942</ele>
      </trkpt>
      <trkpt lat="45.5969541" lon="7.4049361">
        <ele>1943</ele>
      </trkpt>
      <trkpt lat="45.5969676" lon="7.4049651">
        <ele>1945</ele>
      </trkpt>
      <trkpt lat="45.5969710" lon="7.4049818">
        <ele>1946</ele>
      </trkpt>
      <trkpt lat="45.5969743" lon="7.4051292">
        <ele>1948</ele>
      </trkpt>
      <trkpt lat="45.5969919" lon="7.4052308">
        <ele>1949</ele>
      </trkpt>
      <trkpt lat="45.5970463" lon="7.4054304">
        <ele>1950</ele>
      </trkpt>
      <trkpt lat="45.5970678" lon="7.4054866">
        <ele>1952</ele>
      </trkpt>
      <trkpt lat="45.5970894" lon="7.4055706">
        <ele>1953</ele>
      </trkpt>
      <trkpt lat="45.5971007" lon="7.4056353">
        <ele>1955</ele>
      </trkpt>
      <trkpt lat="45.5971303" lon="7.4058241">
        <ele>1956</ele>
      </trkpt>
      <trkpt lat="45.5971665" lon="7.4059189">
        <ele>1958</ele>
      </trkpt>
      <trkpt lat="45.5971701" lon="7.4060789">
        <ele>1959</ele>
      </trkpt>
      <trkpt lat="45.5971757" lon="7.4061263">
        <ele>1960</ele>
      </trkpt>
      <trkpt lat="45.5972054" lon="7.4061103">
        <ele>1962</ele>
      </trkpt>
      <trkpt lat="45.5972336" lon="7.4059198">
        <ele>1963</ele>
      </trkpt>
      <trkpt lat="45.5972451" lon="7.4058743">
        <ele>1965</ele>
      </trkpt>
      <trkpt lat="45.5972506" lon="7.4058262">
        <ele>1966</ele>
      </trkpt>
      <trkpt lat="45.5972475" lon="7.4057828">
        <ele>1967</ele>
      </trkpt>
      <trkpt lat="45.5972431" lon="7.4057341">
        <ele>1969</ele>
      </trkpt>
      <trkpt lat="45.5972389" lon="7.4057013">
        <ele>1970</ele>
      </trkpt>
      <trkpt lat="45.5972481" lon="7.4056851">
        <ele>1972</ele>
      </trkpt>
      <trkpt lat="45.5972593" lon="7.4056856">
        <ele>1973</ele>
      </trkpt>
      <trkpt lat="45.5972765" lon="7.4057127">
        <ele>1975</ele>
      </trkpt>
      <trkpt lat="45.5972978" lon="7.4057680">
        <ele>1976</ele>
      </trkpt>
      <trkpt lat="45.5973107" lon="7.4057996">
        <ele>1977</ele>
      </trkpt>
      <trkpt lat="45.5973640" lon="7.4058707">
        <ele>1979</ele>
      </trkpt>
      <trkpt lat="45.5973989" lon="7.4059150">
        <ele>1980</ele>
      </trkpt>
      <trkpt lat="45.5974169" lon="7.4059545">
        <ele>1982</ele>
      </trkpt>
      <trkpt lat="45.5974272" lon="7.4059817">
        <ele>1983</ele>
      </trkpt>
      <trkpt lat="45.5974348" lon="7.4059934">
        <ele>1985</ele>
      </trkpt>
      <trkpt lat="45.5974500" lon="7.4060157">
        <ele>1986</ele>
      </trkpt>
      <trkpt lat="45.5974558" lon="7.4060315">
        <ele>1987</ele>
      </trkpt>
      <trkpt lat="45.5974534" lon="7.4061248">
        <ele>1989</ele>
      </trkpt>
      <trkpt lat="45.5974406" lon="7.4061900">
        <ele>1990</ele>
      </trkpt>
      <trkpt lat="45.5974252" lon="7.4062473">
        <ele>1992</ele>
      </trkpt>
      <trkpt lat="45.5974271" lon="7.4062961">
        <ele>1993</ele>
      </trkpt>
      <trkpt lat="45.5974203" lon="7.4063504">
        <ele>1995</ele>
      </trkpt>
      <trkpt lat="45.5974147" lon="7.4063946">
        <ele>1996</ele>
      </trkpt>
      <trkpt lat="45.5974074" lon="7.4065386">
        <ele>1997</ele>
      </trkpt>
      <trkpt lat="45.5974056" lon="7.4066042">
        <ele>1999</ele>
      </trkpt>
      <trkpt lat="45.5973640" lon="7.4068766">
        <ele>2000</ele>
      </trkpt>
      <trkpt lat="45.5973585" lon="7.4069241">
        <ele>2002</ele>
      </trkpt>
      <trkpt lat="45.5973631" lon="7.4069826">
        <ele>2003</ele>
      </trkpt>
      <trkpt lat="45.5973762" lon="7.4070257">
        <ele>2005</ele>
      </trkpt>
      <trkpt lat="45.5974129" lon="7.4071099">
        <ele>2006</ele>
      </trkpt>
      <trkpt lat="45.5974913" lon="7.4071930">
        <ele>2007</ele>
      </trkpt>
      <trkpt lat="45.5975096" lon="7.4072093">
        <ele>2009</ele>
      </trkpt>
      <trkpt lat="45.5975257" lon="7.4072249">
        <ele>2010</ele>
      </trkpt>
      <trkpt lat="45.5975345" lon="7.4072473">
        <ele>2012</ele>
      </trkpt>
      <trkpt lat="45.5975104" lon="7.4074846">
        <ele>2013</ele>
      </trkpt>
      <trkpt lat="45.5975122" lon="7.4075267">
        <ele>2015</ele>
      </trkpt>
      <trkpt lat="45.5975290" lon="7.4075724">
        <ele>2016</ele>
      </trkpt>
      <trkpt lat="45.5975464" lon="7.4076357">
        <ele>2017</ele>
      </trkpt>
      <trkpt lat="45.5975540" lon="7.4076632">
        <ele>2019</ele>
      </trkpt>
      <trkpt lat="45.5975533" lon="7.4077032">
        <ele>2020</ele>
      </trkpt>
      <trkpt lat="45.5975457" lon="7.4077824">
        <ele>2022</ele>
      </trkpt>
      <trkpt lat="45.5975266" lon="7.4078860">
        <ele>2023</ele>
      </trkpt>
      <trkpt lat="45.5974861" lon="7.4079967">
        <ele>2025</ele>
      </trkpt>
      <trkpt lat="45.5974851" lon="7.4080241">
        <ele>2026</ele>
      </trkpt>
      <trkpt lat="45.5974725" lon="7.4081215">
        <ele>2027</ele>
      </trkpt>
      <trkpt lat="45.5974657" lon="7.4082123">
        <ele>2029</ele>
      </trkpt>
      <trkpt lat="45.5974817" lon="7.4083344">
        <ele>2030</ele>
      </trkpt>
      <trkpt lat="45.5975086" lon="7.4084313">
        <ele>2032</ele>
      </trkpt>
      <trkpt lat="45.5975244" lon="7.4085347">
        <ele>2033</ele>
      </trkpt>
      <trkpt lat="45.5975351" lon="7.4086029">
        <ele>2035</ele>
      </trkpt>
      <trkpt lat="45.5975387" lon="7.4086262">
        <ele>2036</ele>
      </trkpt>
      <trkpt lat="45.5975344" lon="7.4086734">
        <ele>2037</ele>
      </trkpt>
      <trkpt lat="45.5975219" lon="7.4087155">
        <ele>2039</ele>
      </trkpt>
      <trkpt lat="45.5974974" lon="7.4087429">
        <ele>2040</ele>
      </trkpt>
      <trkpt lat="45.5974612" lon="7.4087909">
        <ele>2042</ele>
      </trkpt>
      <trkpt lat="45.5974415" lon="7.4088510">
        <ele>2043</ele>
      </trkpt>
      <trkpt lat="45.5974391" lon="7.4088876">
        <ele>2044</ele>
      </trkpt>
      <trkpt lat="45.5974516" lon="7.4089698">
        <ele>2046</ele>
      </trkpt>
      <trkpt lat="45.5974648" lon="7.4090488">
        <ele>2047</ele>
      </trkpt>
      <trkpt lat="45.5974862" lon="7.4091033">
        <ele>2049</ele>
      </trkpt>
      <trkpt lat="45.5975465" lon="7.4091833">
        <ele>2050</ele>
      </trkpt>
      <trkpt lat="45.5975748" lon="7.4092455">
        <ele>2052</ele>
      </trkpt>
      <trkpt lat="45.5976190" lon="7.4093757">
        <ele>2053</ele>
      </trkpt>
      <trkpt lat="45.5976482" lon="7.4094539">
        <ele>2054</ele>
      </trkpt>
      <trkpt lat="45.5976861" lon="7.4095960">
        <ele>2056</ele>
      </trkpt>
      <trkpt lat="45.5977226" lon="7.4097557">
        <ele>2057</ele>
      </trkpt>
      <trkpt lat="45.5977489" lon="7.4098918">
        <ele>2059</ele>
      </trkpt>
      <trkpt lat="45.5977621" lon="7.4099891">
        <ele>2060</ele>
      </trkpt>
      <trkpt lat="45.5977702" lon="7.4100803">
        <ele>2062</ele>
      </trkpt>
      <trkpt lat="45.5977714" lon="7.4102590">
        <ele>2063</ele>
      </trkpt>
      <trkpt lat="45.5977665" lon="7.4104447">
        <ele>2064</ele>
      </trkpt>
      <trkpt lat="45.5977541" lon="7.4105410">
        <ele>2066</ele>
      </trkpt>
      <trkpt lat="45.5977478" lon="7.4106187">
        <ele>2067</ele>
      </trkpt>
      <trkpt lat="45.5977273" lon="7.4107136">
        <ele>2069</ele>
      </trkpt>
      <trkpt lat="45.5977160" lon="7.4107983">
        <ele>2070</ele>
      </trkpt>
      <trkpt lat="45.5977099" lon="7.4108979">
        <ele>2072</ele>
      </trkpt>
      <trkpt lat="45.5977105" lon="7.4109865">
        <ele>2073</ele>
      </trkpt>
      <trkpt lat="45.5977190" lon="7.4110584">
        <ele>2074</ele>
      </trkpt>
      <trkpt lat="45.5977267" lon="7.4111230">
        <ele>2076</ele>
      </trkpt>
      <trkpt lat="45.5977302" lon="7.4111502">
        <ele>2077</ele>
      </trkpt>
      <trkpt lat="45.5977908" lon="7.4110136">
        <ele>2079</ele>
      </trkpt>
      <trkpt lat="45.5978225" lon="7.4107049">
        <ele>2080</ele>
      </trkpt>
      <trkpt lat="45.5979028" lon="7.4103492">
        <ele>2082</ele>
      </trkpt>
      <trkpt lat="45.5979544" lon="7.4101585">
        <ele>2083</ele>
      </trkpt>
      <trkpt lat="45.5979697" lon="7.4099657">
        <ele>2084</ele>
      </trkpt>
      <trkpt lat="45.5979452" lon="7.4097772">
        <ele>2086</ele>
      </trkpt>
      <trkpt lat="45.5978994" lon="7.4095811">
        <ele>2087</ele>
      </trkpt>
      <trkpt lat="45.5978229" lon="7.4093528">
        <ele>2089</ele>
      </trkpt>
      <trkpt lat="45.5977338" lon="7.4091351">
        <ele>2090</ele>
      </trkpt>
      <trkpt lat="45.5977212" lon="7.4089918">
        <ele>2092</ele>
      </trkpt>
      <trkpt lat="45.5977901" lon="7.4087719">
        <ele>2093</ele>
      </trkpt>
      <trkpt lat="45.5978494" lon="7.4084359">
        <ele>2094</ele>
      </trkpt>
      <trkpt lat="45.5979448" lon="7.4091501">
        <ele>2096</ele>
      </trkpt>
      <trkpt lat="45.5979815" lon="7.4092003">
        <ele>2097</ele>
      </trkpt>
      <trkpt lat="45.5980269" lon="7.4092247">
        <ele>2099</ele>
      </trkpt>
      <trkpt lat="45.5980596" lon="7.4091874">
        <ele>2100</ele>
      </trkpt>
      <trkpt lat="45.5980817" lon="7.4091369">
        <ele>2102</ele>
      </trkpt>
      <trkpt lat="45.5981842" lon="7.4087366">
        <ele>2103</ele>
      </trkpt>
      <trkpt lat="45.5982447" lon="7.4087057">
        <ele>2104</ele>
      </trkpt>
      <trkpt lat="45.5982718" lon="7.4087177">
        <ele>2106</ele>
      </trkpt>
      <trkpt lat="45.5982998" lon="7.4088041">
        <ele>2107</ele>
      </trkpt>
      <trkpt lat="45.5983027" lon="7.4090189">
        <ele>2109</ele>
      </trkpt>
      <trkpt lat="45.5983738" lon="7.4092733">
        <ele>2110</ele>
      </trkpt>
      <trkpt lat="45.5985496" lon="7.4096146">
        <ele>2111</ele>
      </trkpt>
      <trkpt lat="45.5986246" lon="7.4098304">
        <ele>2113</ele>
      </trkpt>
      <trkpt lat="45.5986523" lon="7.4098809">
        <ele>2114</ele>
      </trkpt>
      <trkpt lat="45.5987027" lon="7.4099183">
        <ele>2116</ele>
      </trkpt>
      <trkpt lat="45.5987561" lon="7.4098836">
        <ele>2117</ele>
      </trkpt>
      <trkpt lat="45.5987730" lon="7.4098062">
        <ele>2119</ele>
      </trkpt>
      <trkpt lat="45.5987157" lon="7.4095642">
        <ele>2120</ele>
      </trkpt>
      <trkpt lat="45.5987144" lon="7.4094745">
        <ele>2121</ele>
      </trkpt>
      <trkpt lat="45.5987971" lon="7.4089465">
        <ele>2123</ele>
      </trkpt>
      <trkpt lat="45.5988232" lon="7.4088816">
        <ele>2124</ele>
      </trkpt>
      <trkpt lat="45.5988413" lon="7.4088939">
        <ele>2126</ele>
      </trkpt>
      <trkpt lat="45.5988714" lon="7.4091111">
        <ele>2127</ele>
      </trkpt>
      <trkpt lat="45.5988746" lon="7.4093418">
        <ele>2129</ele>
      </trkpt>
      <trkpt lat="45.5989132" lon="7.4095330">
        <ele>2130</ele>
      </trkpt>
      <trkpt lat="45.5989787" lon="7.4097107">
        <ele>2131</ele>
      </trkpt>
      <trkpt lat="45.5989793" lon="7.4097491">
        <ele>2133</ele>
      </trkpt>
      <trkpt lat="45.5989886" lon="7.4097745">
        <ele>2134</ele>
      </trkpt>
      <trkpt lat="45.5989549" lon="7.4099421">
        <ele>2136</ele>
      </trkpt>
      <trkpt lat="45.5989026" lon="7.4100590">
        <ele>2137</ele>
      </trkpt>
      <trkpt lat="45.5988685" lon="7.4102010">
        <ele>2139</ele>
      </trkpt>
      <trkpt lat="45.5988629" lon="7.4104448">
        <ele>2140</ele>
      </trkpt>
      <trkpt lat="45.5988949" lon="7.4108029">
        <ele>2141</ele>
      </trkpt>
      <trkpt lat="45.5988839" lon="7.4113032">
        <ele>2143</ele>
      </trkpt>
      <trkpt lat="45.5988441" lon="7.4116762">
        <ele>2144</ele>
      </trkpt>
      <trkpt lat="45.5988510" lon="7.4121761">
        <ele>2146</ele>
      </trkpt>
      <trkpt lat="45.5986959" lon="7.4129946">
        <ele>2147</ele>
      </trkpt>
      <trkpt lat="45.5986409" lon="7.4132462">
        <ele>2149</ele>
      </trkpt>
      <trkpt lat="45.5985192" lon="7.4135574">
        <ele>2150</ele>
      </trkpt>
      <trkpt lat="45.5984590" lon="7.4137642">
        <ele>2151</ele>
      </trkpt>
      <trkpt lat="45.5984561" lon="7.4142002">
        <ele>2153</ele>
      </trkpt>
      <trkpt lat="45.5984874" lon="7.4145071">
        <ele>2154</ele>
      </trkpt>
      <trkpt lat="45.5987627" lon="7.4155379">
        <ele>2156</ele>
      </trkpt>
      <trkpt lat="45.5989134" lon="7.4160209">
        <ele>2157</ele>
      </trkpt>
      <trkpt lat="45.5989598" lon="7.4161221">
        <ele>2159</ele>
      </trkpt>
      <trkpt lat="45.5990974" lon="7.4163106">
        <ele>2160</ele>
      </trkpt>
      <trkpt lat="45.5992929" lon="7.4164525">
        <ele>2161</ele>
      </trkpt>
      <trkpt lat="45.5993630" lon="7.4166365">
        <ele>2163</ele>
      </trkpt>
      <trkpt lat="45.5993489" lon="7.4169190">
        <ele>2164</ele>
      </trkpt>
      <trkpt lat="45.5993891" lon="7.4172256">
        <ele>2166</ele>
      </trkpt>
      <trkpt lat="45.5993490" lon="7.4175729">
        <ele>2167</ele>
      </trkpt>
      <trkpt lat="45.5992714" lon="7.4178187">
        <ele>2169</ele>
      </trkpt>
      <trkpt lat="45.5992190" lon="7.4179355">
        <ele>2170</ele>
      </trkpt>
      <trkpt lat="45.5991345" lon="7.4183354">
        <ele>2171</ele>
      </trkpt>
      <trkpt lat="45.5991017" lon="7.4185671">
        <ele>2173</ele>
      </trkpt>
      <trkpt lat="45.5990899" lon="7.4190162">
        <ele>2174</ele>
      </trkpt>
      <trkpt lat="45.5991175" lon="7.4197078">
        <ele>2176</ele>
      </trkpt>
      <trkpt lat="45.5991869" lon="7.4201675">
        <ele>2177</ele>
      </trkpt>
      <trkpt lat="45.5992340" lon="7.4203200">
        <ele>2178</ele>
      </trkpt>
      <trkpt lat="45.5992481" lon="7.4206914">
        <ele>2180</ele>
      </trkpt>
      <trkpt lat="45.5993139" lon="7.4208947">
        <ele>2181</ele>
      </trkpt>
      <trkpt lat="45.5993030" lon="7.4214079">
        <ele>2183</ele>
      </trkpt>
      <trkpt lat="45.5993429" lon="7.4216889">
        <ele>2184</ele>
      </trkpt>
      <trkpt lat="45.5993443" lon="7.4217914">
        <ele>2186</ele>
      </trkpt>
      <trkpt lat="45.5992711" lon="7.4223577">
        <ele>2187</ele>
      </trkpt>
      <trkpt lat="45.5992754" lon="7.4226653">
        <ele>2188</ele>
      </trkpt>
      <trkpt lat="45.5993241" lon="7.4229332">
        <ele>2190</ele>
      </trkpt>
      <trkpt lat="45.5993993" lon="7.4231618">
        <ele>2191</ele>
      </trkpt>
      <trkpt lat="45.5994136" lon="7.4235461">
        <ele>2193</ele>
      </trkpt>
      <trkpt lat="45.5993980" lon="7.4237260">
        <ele>2194</ele>
      </trkpt>
      <trkpt lat="45.5993561" lon="7.4239452">
        <ele>2196</ele>
      </trkpt>
      <trkpt lat="45.5993028" lon="7.4239980">
        <ele>2197</ele>
      </trkpt>
      <trkpt lat="45.5991500" lon="7.4240151">
        <ele>2198</ele>
      </trkpt>
      <trkpt lat="45.5990701" lon="7.4240942">
        <ele>2200</ele>
      </trkpt>
      <trkpt lat="45.5989923" lon="7.4243272">
        <ele>2201</ele>
      </trkpt>
      <trkpt lat="45.5989858" lon="7.4245069">
        <ele>2203</ele>
      </trkpt>
      <trkpt lat="45.5990260" lon="7.4248135">
        <ele>2204</ele>
      </trkpt>
      <trkpt lat="45.5990195" lon="7.4249932">
        <ele>2206</ele>
      </trkpt>
      <trkpt lat="45.5989262" lon="7.4254061">
        <ele>2207</ele>
      </trkpt>
      <trkpt lat="45.5988597" lon="7.4258054">
        <ele>2208</ele>
      </trkpt>
      <trkpt lat="45.5988165" lon="7.4259349">
        <ele>2210</ele>
      </trkpt>
      <trkpt lat="45.5987577" lon="7.4262442">
        <ele>2211</ele>
      </trkpt>
      <trkpt lat="45.5986628" lon="7.4265418">
        <ele>2213</ele>
      </trkpt>
      <trkpt lat="45.5986635" lon="7.4265931">
        <ele>2214</ele>
      </trkpt>
      <trkpt lat="45.5986960" lon="7.4266627">
        <ele>2216</ele>
      </trkpt>
      <trkpt lat="45.5987634" lon="7.4266544">
        <ele>2217</ele>
      </trkpt>
      <trkpt lat="45.5987898" lon="7.4266152">
        <ele>2218</ele>
      </trkpt>
      <trkpt lat="45.5990419" lon="7.4259670">
        <ele>2220</ele>
      </trkpt>
      <trkpt lat="45.5990686" lon="7.4259406">
        <ele>2221</ele>
      </trkpt>
      <trkpt lat="45.5990867" lon="7.4259497">
        <ele>2223</ele>
      </trkpt>
      <trkpt lat="45.5989571" lon="7.4263412">
        <ele>2224</ele>
      </trkpt>
      <trkpt lat="45.5988636" lon="7.4267413">
        <ele>2226</ele>
      </trkpt>
      <trkpt lat="45.5988376" lon="7.4268190">
        <ele>2227</ele>
      </trkpt>
      <trkpt lat="45.5987148" lon="7.4270532">
        <ele>2228</ele>
      </trkpt>
      <trkpt lat="45.5986893" lon="7.4271565">
        <ele>2230</ele>
      </trkpt>
      <trkpt lat="45.5986492" lon="7.4275166">
        <ele>2231</ele>
      </trkpt>
      <trkpt lat="45.5987083" lon="7.4278868">
        <ele>2233</ele>
      </trkpt>
      <trkpt lat="45.5986734" lon="7.4279647">
        <ele>2234</ele>
      </trkpt>
      <trkpt lat="45.5985132" lon="7.4280974">
        <ele>2236</ele>
      </trkpt>
      <trkpt lat="45.5983534" lon="7.4282557">
        <ele>2237</ele>
      </trkpt>
      <trkpt lat="45.5980930" lon="7.4283015">
        <ele>2238</ele>
      </trkpt>
      <trkpt lat="45.5980222" lon="7.4283932">
        <ele>2240</ele>
      </trkpt>
      <trkpt lat="45.5978829" lon="7.4287304">
        <ele>2241</ele>
      </trkpt>
      <trkpt lat="45.5977054" lon="7.4289149">
        <ele>2243</ele>
      </trkpt>
      <trkpt lat="45.5976974" lon="7.4289921">
        <ele>2244</ele>
      </trkpt>
      <trkpt lat="45.5977347" lon="7.4290808">
        <ele>2245</ele>
      </trkpt>
      <trkpt lat="45.5978068" lon="7.4290916">
        <ele>2247</ele>
      </trkpt>
      <trkpt lat="45.5978695" lon="7.4290642">
        <ele>2248</ele>
      </trkpt>
      <trkpt lat="45.5980319" lon="7.4290981">
        <ele>2250</ele>
      </trkpt>
      <trkpt lat="45.5982241" lon="7.4293235">
        <ele>2251</ele>
      </trkpt>
      <trkpt lat="45.5983594" lon="7.4293454">
        <ele>2253</ele>
      </trkpt>
      <trkpt lat="45.5984213" lon="7.4292668">
        <ele>2254</ele>
      </trkpt>
      <trkpt lat="45.5984573" lon="7.4292657">
        <ele>2255</ele>
      </trkpt>
      <trkpt lat="45.5983107" lon="7.4297314">
        <ele>2257</ele>
      </trkpt>
      <trkpt lat="45.5982493" lon="7.4298485">
        <ele>2258</ele>
      </trkpt>
      <trkpt lat="45.5982048" lon="7.4298882">
        <ele>2260</ele>
      </trkpt>
      <trkpt lat="45.5980517" lon="7.4298797">
        <ele>2261</ele>
      </trkpt>
      <trkpt lat="45.5976572" lon="7.4299933">
        <ele>2263</ele>
      </trkpt>
      <trkpt lat="45.5974145" lon="7.4300129">
        <ele>2264</ele>
      </trkpt>
      <trkpt lat="45.5973612" lon="7.4300656">
        <ele>2265</ele>
      </trkpt>
      <trkpt lat="45.5973668" lon="7.4301488">
        <ele>2267</ele>
      </trkpt>
      <trkpt lat="45.5973898" lon="7.4301802">
        <ele>2268</ele>
      </trkpt>
      <trkpt lat="45.5975258" lon="7.4302534">
        <ele>2270</ele>
      </trkpt>
      <trkpt lat="45.5977064" lon="7.4302996">
        <ele>2271</ele>
      </trkpt>
      <trkpt lat="45.5977793" lon="7.4303617">
        <ele>2273</ele>
      </trkpt>
      <trkpt lat="45.5979331" lon="7.4304215">
        <ele>2274</ele>
      </trkpt>
      <trkpt lat="45.5980968" lon="7.4305452">
        <ele>2275</ele>
      </trkpt>
      <trkpt lat="45.5981143" lon="7.4305062">
        <ele>2277</ele>
      </trkpt>
      <trkpt lat="45.5982141" lon="7.4305675">
        <ele>2278</ele>
      </trkpt>
      <trkpt lat="45.5982531" lon="7.4307844">
        <ele>2280</ele>
      </trkpt>
      <trkpt lat="45.5982963" lon="7.4313089">
        <ele>2281</ele>
      </trkpt>
      <trkpt lat="45.5983551" lon="7.4316534">
        <ele>2283</ele>
      </trkpt>
      <trkpt lat="45.5984115" lon="7.4318314">
        <ele>2284</ele>
      </trkpt>
      <trkpt lat="45.5984890" lon="7.4322267">
        <ele>2285</ele>
      </trkpt>
      <trkpt lat="45.5984932" lon="7.4325343">
        <ele>2287</ele>
      </trkpt>
      <trkpt lat="45.5984789" lon="7.4328039">
        <ele>2288</ele>
      </trkpt>
      <trkpt lat="45.5984446" lon="7.4329331">
        <ele>2290</ele>
      </trkpt>
      <trkpt lat="45.5983834" lon="7.4330630">
        <ele>2291</ele>
      </trkpt>
      <trkpt lat="45.5982364" lon="7.4335031">
        <ele>2293</ele>
      </trkpt>
      <trkpt lat="45.5982244" lon="7.4339393">
        <ele>2294</ele>
      </trkpt>
      <trkpt lat="45.5981750" lon="7.4342741">
        <ele>2295</ele>
      </trkpt>
      <trkpt lat="45.5981891" lon="7.4346455">
        <ele>2297</ele>
      </trkpt>
      <trkpt lat="45.5982184" lon="7.4348114">
        <ele>2298</ele>
      </trkpt>
      <trkpt lat="45.5982745" lon="7.4349637">
        <ele>2300</ele>
      </trkpt>
      <trkpt lat="45.5983136" lon="7.4351934">
        <ele>2301</ele>
      </trkpt>
      <trkpt lat="45.5983483" lon="7.4357566">
        <ele>2303</ele>
      </trkpt>
      <trkpt lat="45.5983863" lon="7.4358966">
        <ele>2304</ele>
      </trkpt>
      <trkpt lat="45.5984261" lon="7.4361775">
        <ele>2305</ele>
      </trkpt>
      <trkpt lat="45.5985110" lon="7.4364573">
        <ele>2307</ele>
      </trkpt>
      <trkpt lat="45.5985921" lon="7.4371217">
        <ele>2308</ele>
      </trkpt>
      <trkpt lat="45.5985936" lon="7.4372371">
        <ele>2310</ele>
      </trkpt>
      <trkpt lat="45.5985529" lon="7.4375459">
        <ele>2311</ele>
      </trkpt>
      <trkpt lat="45.5985100" lon="7.4377010">
        <ele>2313</ele>
      </trkpt>
      <trkpt lat="45.5984313" lon="7.4378699">
        <ele>2314</ele>
      </trkpt>
      <trkpt lat="45.5983799" lon="7.4380636">
        <ele>2315</ele>
      </trkpt>
      <trkpt lat="45.5983907" lon="7.4381915">
        <ele>2317</ele>
      </trkpt>
      <trkpt lat="45.5984270" lon="7.4382162">
        <ele>2318</ele>
      </trkpt>
      <trkpt lat="45.5984810" lon="7.4382147">
        <ele>2320</ele>
      </trkpt>
      <trkpt lat="45.5985337" lon="7.4381235">
        <ele>2321</ele>
      </trkpt>
      <trkpt lat="45.5985503" lon="7.4380204">
        <ele>2322</ele>
      </trkpt>
      <trkpt lat="45.5987707" lon="7.4376809">
        <ele>2324</ele>
      </trkpt>
      <trkpt lat="45.5988918" lon="7.4373186">
        <ele>2325</ele>
      </trkpt>
      <trkpt lat="45.5990021" lon="7.4368283">
        <ele>2327</ele>
      </trkpt>
      <trkpt lat="45.5990148" lon="7.4364433">
        <ele>2328</ele>
      </trkpt>
      <trkpt lat="45.5989600" lon="7.4357268">
        <ele>2330</ele>
      </trkpt>
      <trkpt lat="45.5989584" lon="7.4352844">
        <ele>2331</ele>
      </trkpt>
      <trkpt lat="45.5989808" lon="7.4352774">
        <ele>2332</ele>
      </trkpt>
      <trkpt lat="45.5991076" lon="7.4359919">
        <ele>2334</ele>
      </trkpt>
      <trkpt lat="45.5992223" lon="7.4364760">
        <ele>2335</ele>
      </trkpt>
      <trkpt lat="45.5992748" lon="7.4370258">
        <ele>2337</ele>
      </trkpt>
      <trkpt lat="45.5993042" lon="7.4372045">
        <ele>2338</ele>
      </trkpt>
      <trkpt lat="45.5993062" lon="7.4373455">
        <ele>2340</ele>
      </trkpt>
      <trkpt lat="45.5992061" lon="7.4379253">
        <ele>2341</ele>
      </trkpt>
      <trkpt lat="45.5991715" lon="7.4380288">
        <ele>2342</ele>
      </trkpt>
      <trkpt lat="45.5991219" lon="7.4383508">
        <ele>2344</ele>
      </trkpt>
      <trkpt lat="45.5991083" lon="7.4386717">
        <ele>2345</ele>
      </trkpt>
      <trkpt lat="45.5990661" lon="7.4388780">
        <ele>2347</ele>
      </trkpt>
      <trkpt lat="45.5990871" lon="7.4390954">
        <ele>2348</ele>
      </trkpt>
      <trkpt lat="45.5991435" lon="7.4392733">
        <ele>2350</ele>
      </trkpt>
      <trkpt lat="45.5990967" lon="7.4398003">
        <ele>2351</ele>
      </trkpt>
      <trkpt lat="45.5991277" lon="7.4400944">
        <ele>2352</ele>
      </trkpt>
      <trkpt lat="45.5991217" lon="7.4403125">
        <ele>2354</ele>
      </trkpt>
      <trkpt lat="45.5990781" lon="7.4404163">
        <ele>2355</ele>
      </trkpt>
      <trkpt lat="45.5989454" lon="7.4405867">
        <ele>2357</ele>
      </trkpt>
      <trkpt lat="45.5989281" lon="7.4406384">
        <ele>2358</ele>
      </trkpt>
      <trkpt lat="45.5989205" lon="7.4407412">
        <ele>2360</ele>
      </trkpt>
      <trkpt lat="45.5988694" lon="7.4409478">
        <ele>2361</ele>
      </trkpt>
      <trkpt lat="45.5986630" lon="7.4416587">
        <ele>2362</ele>
      </trkpt>
      <trkpt lat="45.5985949" lon="7.4419427">
        <ele>2364</ele>
      </trkpt>
      <trkpt lat="45.5985515" lon="7.4420592">
        <ele>2365</ele>
      </trkpt>
      <trkpt lat="45.5985368" lon="7.4423033">
        <ele>2367</ele>
      </trkpt>
      <trkpt lat="45.5984851" lon="7.4424714">
        <ele>2368</ele>
      </trkpt>
      <trkpt lat="45.5984609" lon="7.4426772">
        <ele>2370</ele>
      </trkpt>
      <trkpt lat="45.5983296" lon="7.4429501">
        <ele>2371</ele>
      </trkpt>
      <trkpt lat="45.5983125" lon="7.4430147">
        <ele>2372</ele>
      </trkpt>
      <trkpt lat="45.5982721" lon="7.4433492">
        <ele>2374</ele>
      </trkpt>
      <trkpt lat="45.5982380" lon="7.4434911">
        <ele>2375</ele>
      </trkpt>
      <trkpt lat="45.5982244" lon="7.4438121">
        <ele>2377</ele>
      </trkpt>
      <trkpt lat="45.5982085" lon="7.4439664">
        <ele>2378</ele>
      </trkpt>
      <trkpt lat="45.5981827" lon="7.4440568">
        <ele>2380</ele>
      </trkpt>
      <trkpt lat="45.5980933" lon="7.4440978">
        <ele>2381</ele>
      </trkpt>
      <trkpt lat="45.5979137" lon="7.4441284">
        <ele>2382</ele>
      </trkpt>
      <trkpt lat="45.5976543" lon="7.4442509">
        <ele>2384</ele>
      </trkpt>
      <trkpt lat="45.5975655" lon="7.4443431">
        <ele>2385</ele>
      </trkpt>
      <trkpt lat="45.5975578" lon="7.4444331">
        <ele>2387</ele>
      </trkpt>
      <trkpt lat="45.5976033" lon="7.4444703">
        <ele>2388</ele>
      </trkpt>
      <trkpt lat="45.5976663" lon="7.4444686">
        <ele>2389</ele>
      </trkpt>
      <trkpt lat="45.5978000" lon="7.4443751">
        <ele>2391</ele>
      </trkpt>
      <trkpt lat="45.5978900" lon="7.4443726">
        <ele>2392</ele>
      </trkpt>
      <trkpt lat="45.5980016" lon="7.4446388">
        <ele>2394</ele>
      </trkpt>
      <trkpt lat="45.5981029" lon="7.4448027">
        <ele>2395</ele>
      </trkpt>
      <trkpt lat="45.5981667" lon="7.4448650">
        <ele>2397</ele>
      </trkpt>
      <trkpt lat="45.5983211" lon="7.4449633">
        <ele>2398</ele>
      </trkpt>
      <trkpt lat="45.5983713" lon="7.4450196">
        <ele>2399</ele>
      </trkpt>
      <trkpt lat="45.5982773" lon="7.4450543">
        <ele>2401</ele>
      </trkpt>
      <trkpt lat="45.5980972" lon="7.4450465">
        <ele>2402</ele>
      </trkpt>
      <trkpt lat="45.5978888" lon="7.4449496">
        <ele>2404</ele>
      </trkpt>
      <trkpt lat="45.5978528" lon="7.4449506">
        <ele>2405</ele>
      </trkpt>
      <trkpt lat="45.5978355" lon="7.4450024">
        <ele>2407</ele>
      </trkpt>
      <trkpt lat="45.5978738" lon="7.4451680">
        <ele>2408</ele>
      </trkpt>
      <trkpt lat="45.5979288" lon="7.4452434">
        <ele>2409</ele>
      </trkpt>
      <trkpt lat="45.5979654" lon="7.4452809">
        <ele>2411</ele>
      </trkpt>
      <trkpt lat="45.5981645" lon="7.4453651">
        <ele>2412</ele>
      </trkpt>
      <trkpt lat="45.5982236" lon="7.4454084">
        <ele>2414</ele>
      </trkpt>
      <trkpt lat="45.5982194" lon="7.4454277">
        <ele>2415</ele>
      </trkpt>
      <trkpt lat="45.5980664" lon="7.4454320">
        <ele>2417</ele>
      </trkpt>
      <trkpt lat="45.5979408" lon="7.4454611">
        <ele>2418</ele>
      </trkpt>
      <trkpt lat="45.5979142" lon="7.4454874">
        <ele>2419</ele>
      </trkpt>
      <trkpt lat="45.5978970" lon="7.4455520">
        <ele>2421</ele>
      </trkpt>
      <trkpt lat="45.5979346" lon="7.4456664">
        <ele>2422</ele>
      </trkpt>
      <trkpt lat="45.5980251" lon="7.4457023">
        <ele>2424</ele>
      </trkpt>
      <trkpt lat="45.5981151" lon="7.4456999">
        <ele>2425</ele>
      </trkpt>
      <trkpt lat="45.5982326" lon="7.4457351">
        <ele>2427</ele>
      </trkpt>
      <trkpt lat="45.5983869" lon="7.4458334">
        <ele>2428</ele>
      </trkpt>
      <trkpt lat="45.5984142" lon="7.4458583">
        <ele>2429</ele>
      </trkpt>
      <trkpt lat="45.5984329" lon="7.4459091">
        <ele>2431</ele>
      </trkpt>
      <trkpt lat="45.5984248" lon="7.4459734">
        <ele>2432</ele>
      </trkpt>
      <trkpt lat="45.5983805" lon="7.4460259">
        <ele>2434</ele>
      </trkpt>
      <trkpt lat="45.5981840" lon="7.4461339">
        <ele>2435</ele>
      </trkpt>
      <trkpt lat="45.5981309" lon="7.4461995">
        <ele>2437</ele>
      </trkpt>
      <trkpt lat="45.5981413" lon="7.4463018">
        <ele>2438</ele>
      </trkpt>
      <trkpt lat="45.5981596" lon="7.4463269">
        <ele>2439</ele>
      </trkpt>
      <trkpt lat="45.5986216" lon="7.4465449">
        <ele>2441</ele>
      </trkpt>
      <trkpt lat="45.5987493" lon="7.4466696">
        <ele>2442</ele>
      </trkpt>
      <trkpt lat="45.5988504" lon="7.4468207">
        <ele>2444</ele>
      </trkpt>
      <trkpt lat="45.5989324" lon="7.4468954">
        <ele>2445</ele>
      </trkpt>
      <trkpt lat="45.5989869" lon="7.4469323">
        <ele>2447</ele>
      </trkpt>
      <trkpt lat="45.5990771" lon="7.4469427">
        <ele>2448</ele>
      </trkpt>
      <trkpt lat="45.5992720" lon="7.4467193">
        <ele>2449</ele>
      </trkpt>
      <trkpt lat="45.5993326" lon="7.4465381">
        <ele>2451</ele>
      </trkpt>
      <trkpt lat="45.5993315" lon="7.4464612">
        <ele>2452</ele>
      </trkpt>
      <trkpt lat="45.5992753" lon="7.4462961">
        <ele>2454</ele>
      </trkpt>
      <trkpt lat="45.5991005" lon="7.4460188">
        <ele>2455</ele>
      </trkpt>
      <trkpt lat="45.5990991" lon="7.4459163">
        <ele>2456</ele>
      </trkpt>
      <trkpt lat="45.5991159" lon="7.4458261">
        <ele>2458</ele>
      </trkpt>
      <trkpt lat="45.5991723" lon="7.4456771">
        <ele>2459</ele>
      </trkpt>
      <trkpt lat="45.5992127" lon="7.4456696">
        <ele>2461</ele>
      </trkpt>
      <trkpt lat="45.5992861" lon="7.4457701">
        <ele>2462</ele>
      </trkpt>
      <trkpt lat="45.5993588" lon="7.4458194">
        <ele>2464</ele>
      </trkpt>
      <trkpt lat="45.5996298" lon="7.4458888">
        <ele>2465</ele>
      </trkpt>
      <trkpt lat="45.5996663" lon="7.4459263">
        <ele>2466</ele>
      </trkpt>
      <trkpt lat="45.5998412" lon="7.4462164">
        <ele>2468</ele>
      </trkpt>
      <trkpt lat="45.5999060" lon="7.4463428">
        <ele>2469</ele>
      </trkpt>
      <trkpt lat="45.5999252" lon="7.4464320">
        <ele>2471</ele>
      </trkpt>
      <trkpt lat="45.5999593" lon="7.4469568">
        <ele>2472</ele>
      </trkpt>
      <trkpt lat="45.5998049" lon="7.4475124">
        <ele>2474</ele>
      </trkpt>
      <trkpt lat="45.5997803" lon="7.4476926">
        <ele>2475</ele>
      </trkpt>
      <trkpt lat="45.5997902" lon="7.4477564">
        <ele>2476</ele>
      </trkpt>
      <trkpt lat="45.5998177" lon="7.4477941">
        <ele>2478</ele>
      </trkpt>
      <trkpt lat="45.6000181" lon="7.4479681">
        <ele>2479</ele>
      </trkpt>
      <trkpt lat="45.6001191" lon="7.4481192">
        <ele>2481</ele>
      </trkpt>
      <trkpt lat="45.6001657" lon="7.4482333">
        <ele>2482</ele>
      </trkpt>
      <trkpt lat="45.6002228" lon="7.4484625">
        <ele>2484</ele>
      </trkpt>
      <trkpt lat="45.6002619" lon="7.4486922">
        <ele>2485</ele>
      </trkpt>
      <trkpt lat="45.6001462" lon="7.4494519">
        <ele>2486</ele>
      </trkpt>
      <trkpt lat="45.6001407" lon="7.4497085">
        <ele>2488</ele>
      </trkpt>
      <trkpt lat="45.6001617" lon="7.4499259">
        <ele>2489</ele>
      </trkpt>
      <trkpt lat="45.6002089" lon="7.4500913">
        <ele>2491</ele>
      </trkpt>
      <trkpt lat="45.6003752" lon="7.4504073">
        <ele>2492</ele>
      </trkpt>
      <trkpt lat="45.6004129" lon="7.4505345">
        <ele>2494</ele>
      </trkpt>
      <trkpt lat="45.6004045" lon="7.4505732">
        <ele>2495</ele>
      </trkpt>
      <trkpt lat="45.6003958" lon="7.4505991">
        <ele>2496</ele>
      </trkpt>
      <trkpt lat="45.6002887" lon="7.4506661">
        <ele>2498</ele>
      </trkpt>
      <trkpt lat="45.6002169" lon="7.4506809">
        <ele>2499</ele>
      </trkpt>
      <trkpt lat="45.5998188" lon="7.4505252">
        <ele>2501</ele>
      </trkpt>
      <trkpt lat="45.5995186" lon="7.4502898">
        <ele>2502</ele>
      </trkpt>
      <trkpt lat="45.5990232" lon="7.4502650">
        <ele>2504</ele>
      </trkpt>
      <trkpt lat="45.5989519" lon="7.4503183">
        <ele>2505</ele>
      </trkpt>
      <trkpt lat="45.5989436" lon="7.4503698">
        <ele>2506</ele>
      </trkpt>
      <trkpt lat="45.5989625" lon="7.4504334">
        <ele>2508</ele>
      </trkpt>
      <trkpt lat="45.5990170" lon="7.4504703">
        <ele>2509</ele>
      </trkpt>
      <trkpt lat="45.5991433" lon="7.4504925">
        <ele>2511</ele>
      </trkpt>
      <trkpt lat="45.5992893" lon="7.4506423">
        <ele>2512</ele>
      </trkpt>
      <trkpt lat="45.5994347" lon="7.4507409">
        <ele>2514</ele>
      </trkpt>
      <trkpt lat="45.5995077" lon="7.4508158">
        <ele>2515</ele>
      </trkpt>
      <trkpt lat="45.5997737" lon="7.4511804">
        <ele>2516</ele>
      </trkpt>
      <trkpt lat="45.5998486" lon="7.4513963">
        <ele>2518</ele>
      </trkpt>
      <trkpt lat="45.5998586" lon="7.4514729">
        <ele>2519</ele>
      </trkpt>
      <trkpt lat="45.5998903" lon="7.4518183">
        <ele>2521</ele>
      </trkpt>
      <trkpt lat="45.5998061" lon="7.4522437">
        <ele>2522</ele>
      </trkpt>
      <trkpt lat="45.5998083" lon="7.4524103">
        <ele>2523</ele>
      </trkpt>
      <trkpt lat="45.5997924" lon="7.4525646">
        <ele>2525</ele>
      </trkpt>
      <trkpt lat="45.5998307" lon="7.4527303">
        <ele>2526</ele>
      </trkpt>
      <trkpt lat="45.5998855" lon="7.4527929">
        <ele>2528</ele>
      </trkpt>
      <trkpt lat="45.6001125" lon="7.4529405">
        <ele>2529</ele>
      </trkpt>
      <trkpt lat="45.6002205" lon="7.4529375">
        <ele>2531</ele>
      </trkpt>
      <trkpt lat="45.6003366" lon="7.4528702">
        <ele>2532</ele>
      </trkpt>
      <trkpt lat="45.6004174" lon="7.4528552">
        <ele>2533</ele>
      </trkpt>
      <trkpt lat="45.6004541" lon="7.4529055">
        <ele>2535</ele>
      </trkpt>
      <trkpt lat="45.6004646" lon="7.4530206">
        <ele>2536</ele>
      </trkpt>
      <trkpt lat="45.6004306" lon="7.4531625">
        <ele>2538</ele>
      </trkpt>
      <trkpt lat="45.6004043" lon="7.4532146">
        <ele>2539</ele>
      </trkpt>
      <trkpt lat="45.6002624" lon="7.4533723">
        <ele>2541</ele>
      </trkpt>
      <trkpt lat="45.6001638" lon="7.4534007">
        <ele>2542</ele>
      </trkpt>
      <trkpt lat="45.6000015" lon="7.4533795">
        <ele>2543</ele>
      </trkpt>
      <trkpt lat="45.5998580" lon="7.4534219">
        <ele>2545</ele>
      </trkpt>
      <trkpt lat="45.5997156" lon="7.4535412">
        <ele>2546</ele>
      </trkpt>
      <trkpt lat="45.5996103" lon="7.4537364">
        <ele>2548</ele>
      </trkpt>
      <trkpt lat="45.5994532" lon="7.4540998">
        <ele>2549</ele>
      </trkpt>
      <trkpt lat="45.5994187" lon="7.4542161">
        <ele>2551</ele>
      </trkpt>
      <trkpt lat="45.5994065" lon="7.4546396">
        <ele>2552</ele>
      </trkpt>
      <trkpt lat="45.5994160" lon="7.4546778">
        <ele>2553</ele>
      </trkpt>
      <trkpt lat="45.5994797" lon="7.4547273">
        <ele>2555</ele>
      </trkpt>
      <trkpt lat="45.5995423" lon="7.4547000">
        <ele>2556</ele>
      </trkpt>
      <trkpt lat="45.5996122" lon="7.4545442">
        <ele>2558</ele>
      </trkpt>
      <trkpt lat="45.5996741" lon="7.4544655">
        <ele>2559</ele>
      </trkpt>
      <trkpt lat="45.5997274" lon="7.4544128">
        <ele>2561</ele>
      </trkpt>
      <trkpt lat="45.5998439" lon="7.4543711">
        <ele>2562</ele>
      </trkpt>
      <trkpt lat="45.5998709" lon="7.4543704">
        <ele>2563</ele>
      </trkpt>
      <trkpt lat="45.5999724" lon="7.4545599">
        <ele>2565</ele>
      </trkpt>
      <trkpt lat="45.6000090" lon="7.4545974">
        <ele>2566</ele>
      </trkpt>
      <trkpt lat="45.6000449" lon="7.4545964">
        <ele>2568</ele>
      </trkpt>
      <trkpt lat="45.6000802" lon="7.4545441">
        <ele>2569</ele>
      </trkpt>
      <trkpt lat="45.6001494" lon="7.4543371">
        <ele>2571</ele>
      </trkpt>
      <trkpt lat="45.6001943" lon="7.4543230">
        <ele>2572</ele>
      </trkpt>
      <trkpt lat="45.6003386" lon="7.4543447">
        <ele>2573</ele>
      </trkpt>
      <trkpt lat="45.6005109" lon="7.4544426">
        <ele>2575</ele>
      </trkpt>
      <trkpt lat="45.6005753" lon="7.4545434">
        <ele>2576</ele>
      </trkpt>
      <trkpt lat="45.6006220" lon="7.4546703">
        <ele>2578</ele>
      </trkpt>
      <trkpt lat="45.6007082" lon="7.4550526">
        <ele>2579</ele>
      </trkpt>
      <trkpt lat="45.6008193" lon="7.4552804">
        <ele>2581</ele>
      </trkpt>
      <trkpt lat="45.6007712" lon="7.4557176">
        <ele>2582</ele>
      </trkpt>
      <trkpt lat="45.6007992" lon="7.4557938">
        <ele>2583</ele>
      </trkpt>
      <trkpt lat="45.6009169" lon="7.4558419">
        <ele>2585</ele>
      </trkpt>
      <trkpt lat="45.6011143" lon="7.4557980">
        <ele>2586</ele>
      </trkpt>
      <trkpt lat="45.6011780" lon="7.4558475">
        <ele>2588</ele>
      </trkpt>
      <trkpt lat="45.6012882" lon="7.4560112">
        <ele>2589</ele>
      </trkpt>
      <trkpt lat="45.6015059" lon="7.4561334">
        <ele>2591</ele>
      </trkpt>
      <trkpt lat="45.6016246" lon="7.4562584">
        <ele>2592</ele>
      </trkpt>
      <trkpt lat="45.6017168" lon="7.4564226">
        <ele>2593</ele>
      </trkpt>
      <trkpt lat="45.6017735" lon="7.4566262">
        <ele>2595</ele>
      </trkpt>
      <trkpt lat="45.6017948" lon="7.4568692">
        <ele>2596</ele>
      </trkpt>
      <trkpt lat="45.6018630" lon="7.4572520">
        <ele>2598</ele>
      </trkpt>
      <trkpt lat="45.6019281" lon="7.4574041">
        <ele>2599</ele>
      </trkpt>
      <trkpt lat="45.6020661" lon="7.4576311">
        <ele>2600</ele>
      </trkpt>
      <trkpt lat="45.6021789" lon="7.4579871">
        <ele>2602</ele>
      </trkpt>
      <trkpt lat="45.6022089" lon="7.4582042">
        <ele>2603</ele>
      </trkpt>
      <trkpt lat="45.6021854" lon="7.4584613">
        <ele>2605</ele>
      </trkpt>
      <trkpt lat="45.6020635" lon="7.4587724">
        <ele>2606</ele>
      </trkpt>
      <trkpt lat="45.6019613" lon="7.4591984">
        <ele>2608</ele>
      </trkpt>
      <trkpt lat="45.6018479" lon="7.4594707">
        <ele>2609</ele>
      </trkpt>
      <trkpt lat="45.6017964" lon="7.4596517">
        <ele>2610</ele>
      </trkpt>
      <trkpt lat="45.6017986" lon="7.4598183">
        <ele>2612</ele>
      </trkpt>
      <trkpt lat="45.6018299" lon="7.4601380">
        <ele>2613</ele>
      </trkpt>
      <trkpt lat="45.6017969" lon="7.4603569">
        <ele>2615</ele>
      </trkpt>
      <trkpt lat="45.6017188" lon="7.4605770">
        <ele>2616</ele>
      </trkpt>
      <trkpt lat="45.6016846" lon="7.4607062">
        <ele>2618</ele>
      </trkpt>
      <trkpt lat="45.6016854" lon="7.4607703">
        <ele>2619</ele>
      </trkpt>
      <trkpt lat="45.6016955" lon="7.4608469">
        <ele>2620</ele>
      </trkpt>
      <trkpt lat="45.6017419" lon="7.4609482">
        <ele>2622</ele>
      </trkpt>
      <trkpt lat="45.6018149" lon="7.4610232">
        <ele>2623</ele>
      </trkpt>
      <trkpt lat="45.6019503" lon="7.4610579">
        <ele>2625</ele>
      </trkpt>
      <trkpt lat="45.6020048" lon="7.4610949">
        <ele>2626</ele>
      </trkpt>
      <trkpt lat="45.6021830" lon="7.4612888">
        <ele>2628</ele>
      </trkpt>
      <trkpt lat="45.6022552" lon="7.4616394">
        <ele>2629</ele>
      </trkpt>
      <trkpt lat="45.6022986" lon="7.4620197">
        <ele>2630</ele>
      </trkpt>
      <trkpt lat="45.6023886" lon="7.4620173">
        <ele>2632</ele>
      </trkpt>
      <trkpt lat="45.6025628" lon="7.4620894">
        <ele>2633</ele>
      </trkpt>
      <trkpt lat="45.6027635" lon="7.4621224">
        <ele>2635</ele>
      </trkpt>
      <trkpt lat="45.6029661" lon="7.4622964">
        <ele>2636</ele>
      </trkpt>
      <trkpt lat="45.6034108" lon="7.4627363">
        <ele>2638</ele>
      </trkpt>
      <trkpt lat="45.6035753" lon="7.4630844">
        <ele>2639</ele>
      </trkpt>
      <trkpt lat="45.6036618" lon="7.4633289">
        <ele>2640</ele>
      </trkpt>
      <trkpt lat="45.6037471" lon="7.4633137">
        <ele>2642</ele>
      </trkpt>
      <trkpt lat="45.6037799" lon="7.4630724">
        <ele>2643</ele>
      </trkpt>
      <trkpt lat="45.6038619" lon="7.4628137">
        <ele>2645</ele>
      </trkpt>
      <trkpt lat="45.6041041" lon="7.4624160">
        <ele>2646</ele>
      </trkpt>
      <trkpt lat="45.6042071" lon="7.4622112">
        <ele>2648</ele>
      </trkpt>
      <trkpt lat="45.6042394" lon="7.4619378">
        <ele>2649</ele>
      </trkpt>
      <trkpt lat="45.6043210" lon="7.4606469">
        <ele>2650</ele>
      </trkpt>
      <trkpt lat="45.6043622" lon="7.4603636">
        <ele>2652</ele>
      </trkpt>
      <trkpt lat="45.6043409" lon="7.4601206">
        <ele>2653</ele>
      </trkpt>
      <trkpt lat="45.6042833" lon="7.4598529">
        <ele>2655</ele>
      </trkpt>
      <trkpt lat="45.6042323" lon="7.4594055">
        <ele>2656</ele>
      </trkpt>
      <trkpt lat="45.6042304" lon="7.4592645">
        <ele>2658</ele>
      </trkpt>
      <trkpt lat="45.6043058" lon="7.4588521">
        <ele>2659</ele>
      </trkpt>
      <trkpt lat="45.6043124" lon="7.4586724">
        <ele>2660</ele>
      </trkpt>
      <trkpt lat="45.6042830" lon="7.4584936">
        <ele>2662</ele>
      </trkpt>
      <trkpt lat="45.6042264" lon="7.4583028">
        <ele>2663</ele>
      </trkpt>
      <trkpt lat="45.6042157" lon="7.4581749">
        <ele>2665</ele>
      </trkpt>
      <trkpt lat="45.6043307" lon="7.4573639">
        <ele>2666</ele>
      </trkpt>
      <trkpt lat="45.6043561" lon="7.4572478">
        <ele>2667</ele>
      </trkpt>
      <trkpt lat="45.6044861" lon="7.4568724">
        <ele>2669</ele>
      </trkpt>
      <trkpt lat="45.6045154" lon="7.4567113">
        <ele>2670</ele>
      </trkpt>
      <trkpt lat="45.6045376" lon="7.4566914">
        <ele>2672</ele>
      </trkpt>
      <trkpt lat="45.6046015" lon="7.4567538">
        <ele>2673</ele>
      </trkpt>
      <trkpt lat="45.6046486" lon="7.4569064">
        <ele>2675</ele>
      </trkpt>
      <trkpt lat="45.6047602" lon="7.4571726">
        <ele>2676</ele>
      </trkpt>
      <trkpt lat="45.6050348" lon="7.4575113">
        <ele>2677</ele>
      </trkpt>
      <trkpt lat="45.6051637" lon="7.4577258">
        <ele>2679</ele>
      </trkpt>
      <trkpt lat="45.6052587" lon="7.4580950">
        <ele>2680</ele>
      </trkpt>
      <trkpt lat="45.6054322" lon="7.4589494">
        <ele>2682</ele>
      </trkpt>
      <trkpt lat="45.6055814" lon="7.4593301">
        <ele>2683</ele>
      </trkpt>
      <trkpt lat="45.6055749" lon="7.4595226">
        <ele>2685</ele>
      </trkpt>
      <trkpt lat="45.6054675" lon="7.4602308">
        <ele>2686</ele>
      </trkpt>
      <trkpt lat="45.6053561" lon="7.4606442">
        <ele>2687</ele>
      </trkpt>
      <trkpt lat="45.6053488" lon="7.4607726">
        <ele>2689</ele>
      </trkpt>
      <trkpt lat="45.6053676" lon="7.4608362">
        <ele>2690</ele>
      </trkpt>
      <trkpt lat="45.6054308" lon="7.4608473">
        <ele>2692</ele>
      </trkpt>
      <trkpt lat="45.6054574" lon="7.4608210">
        <ele>2693</ele>
      </trkpt>
      <trkpt lat="45.6055180" lon="7.4606398">
        <ele>2695</ele>
      </trkpt>
      <trkpt lat="45.6057639" lon="7.4601842">
        <ele>2696</ele>
      </trkpt>
      <trkpt lat="45.6058334" lon="7.4600028">
        <ele>2697</ele>
      </trkpt>
      <trkpt lat="45.6058686" lon="7.4599377">
        <ele>2699</ele>
      </trkpt>
      <trkpt lat="45.6059134" lon="7.4599237">
        <ele>2700</ele>
      </trkpt>
      <trkpt lat="45.6059054" lon="7.4600008">
        <ele>2702</ele>
      </trkpt>
      <trkpt lat="45.6056113" lon="7.4608809">
        <ele>2703</ele>
      </trkpt>
      <trkpt lat="45.6055689" lon="7.4610744">
        <ele>2705</ele>
      </trkpt>
      <trkpt lat="45.6056099" lon="7.4614483">
        <ele>2706</ele>
      </trkpt>
      <trkpt lat="45.6057396" lon="7.4620539">
        <ele>2707</ele>
      </trkpt>
      <trkpt lat="45.6057324" lon="7.4621920">
        <ele>2709</ele>
      </trkpt>
      <trkpt lat="45.6056215" lon="7.4623072">
        <ele>2710</ele>
      </trkpt>
      <trkpt lat="45.6055730" lon="7.4625490">
        <ele>2712</ele>
      </trkpt>
      <trkpt lat="45.6055886" lon="7.4628723">
        <ele>2713</ele>
      </trkpt>
      <trkpt lat="45.6056556" lon="7.4631718">
        <ele>2715</ele>
      </trkpt>
      <trkpt lat="45.6056421" lon="7.4633357">
        <ele>2716</ele>
      </trkpt>
      <trkpt lat="45.6057184" lon="7.4634907">
        <ele>2717</ele>
      </trkpt>
      <trkpt lat="45.6057754" lon="7.4635436">
        <ele>2719</ele>
      </trkpt>
      <trkpt lat="45.6059035" lon="7.4635337">
        <ele>2720</ele>
      </trkpt>
      <trkpt lat="45.6060769" lon="7.4635418">
        <ele>2722</ele>
      </trkpt>
      <trkpt lat="45.6062291" lon="7.4638166">
        <ele>2723</ele>
      </trkpt>
      <trkpt lat="45.6063882" lon="7.4639341">
        <ele>2725</ele>
      </trkpt>
      <trkpt lat="45.6065135" lon="7.4642160">
        <ele>2726</ele>
      </trkpt>
      <trkpt lat="45.6066031" lon="7.4645213">
        <ele>2727</ele>
      </trkpt>
      <trkpt lat="45.6065942" lon="7.4646947">
        <ele>2729</ele>
      </trkpt>
      <trkpt lat="45.6066405" lon="7.4649627">
        <ele>2730</ele>
      </trkpt>
      <trkpt lat="45.6066383" lon="7.4651295">
        <ele>2732</ele>
      </trkpt>
      <trkpt lat="45.6064670" lon="7.4654483">
        <ele>2733</ele>
      </trkpt>
      <trkpt lat="45.6063354" lon="7.4655352">
        <ele>2734</ele>
      </trkpt>
      <trkpt lat="45.6061466" lon="7.4655500">
        <ele>2736</ele>
      </trkpt>
      <trkpt lat="45.6060235" lon="7.4657617">
        <ele>2737</ele>
      </trkpt>
      <trkpt lat="45.6059501" lon="7.4666678">
        <ele>2739</ele>
      </trkpt>
      <trkpt lat="45.6058677" lon="7.4672343">
        <ele>2740</ele>
      </trkpt>
      <trkpt lat="45.6059117" lon="7.4673228">
        <ele>2742</ele>
      </trkpt>
      <trkpt lat="45.6059885" lon="7.4671765">
        <ele>2743</ele>
      </trkpt>
      <trkpt lat="45.6060488" lon="7.4669793">
        <ele>2744</ele>
      </trkpt>
      <trkpt lat="45.6061294" lon="7.4669482">
        <ele>2746</ele>
      </trkpt>
      <trkpt lat="45.6061163" lon="7.4671442">
        <ele>2747</ele>
      </trkpt>
      <trkpt lat="45.6060655" lon="7.4673860">
        <ele>2749</ele>
      </trkpt>
      <trkpt lat="45.6060839" lon="7.4679209">
        <ele>2750</ele>
      </trkpt>
      <trkpt lat="45.6060100" lon="7.4682819">
        <ele>2752</ele>
      </trkpt>
      <trkpt lat="45.6059450" lon="7.4682997">
        <ele>2753</ele>
      </trkpt>
      <trkpt lat="45.6057063" lon="7.4681171">
        <ele>2754</ele>
      </trkpt>
      <trkpt lat="45.6055056" lon="7.4680873">
        <ele>2756</ele>
      </trkpt>
      <trkpt lat="45.6054160" lon="7.4681122">
        <ele>2757</ele>
      </trkpt>
      <trkpt lat="45.6052915" lon="7.4682278">
        <ele>2759</ele>
      </trkpt>
      <trkpt lat="45.6049183" lon="7.4684174">
        <ele>2760</ele>
      </trkpt>
      <trkpt lat="45.6047958" lon="7.4685137">
        <ele>2762</ele>
      </trkpt>
      <trkpt lat="45.6046684" lon="7.4685781">
        <ele>2763</ele>
      </trkpt>
      <trkpt lat="45.6045394" lon="7.4686938">
        <ele>2764</ele>
      </trkpt>
      <trkpt lat="45.6045919" lon="7.4687469">
        <ele>2766</ele>
      </trkpt>
      <trkpt lat="45.6047985" lon="7.4687188">
        <ele>2767</ele>
      </trkpt>
      <trkpt lat="45.6049303" lon="7.4688114">
        <ele>2769</ele>
      </trkpt>
      <trkpt lat="45.6050701" lon="7.4690032">
        <ele>2770</ele>
      </trkpt>
      <trkpt lat="45.6052030" lon="7.4690092">
        <ele>2772</ele>
      </trkpt>
      <trkpt lat="45.6053430" lon="7.4692137">
        <ele>2773</ele>
      </trkpt>
      <trkpt lat="45.6054326" lon="7.4695223">
        <ele>2774</ele>
      </trkpt>
      <trkpt lat="45.6055562" lon="7.4696760">
        <ele>2776</ele>
      </trkpt>
      <trkpt lat="45.6057795" lon="7.4698879">
        <ele>2777</ele>
      </trkpt>
      <trkpt lat="45.6059321" lon="7.4698517">
        <ele>2779</ele>
      </trkpt>
      <trkpt lat="45.6059647" lon="7.4699342">
        <ele>2780</ele>
      </trkpt>
      <trkpt lat="45.6057707" lon="7.4700677">
        <ele>2782</ele>
      </trkpt>
      <trkpt lat="45.6055981" lon="7.4701173">
        <ele>2783</ele>
      </trkpt>
      <trkpt lat="45.6054482" lon="7.4700155">
        <ele>2784</ele>
      </trkpt>
      <trkpt lat="45.6052953" lon="7.4700197">
        <ele>2786</ele>
      </trkpt>
      <trkpt lat="45.6051602" lon="7.4701837">
        <ele>2787</ele>
      </trkpt>
      <trkpt lat="45.6051469" lon="7.4703700">
        <ele>2789</ele>
      </trkpt>
      <trkpt lat="45.6047286" lon="7.4710578">
        <ele>2790</ele>
      </trkpt>
      <trkpt lat="45.6045118" lon="7.4713361">
        <ele>2792</ele>
      </trkpt>
      <trkpt lat="45.6044292" lon="7.4715500">
        <ele>2793</ele>
      </trkpt>
      <trkpt lat="45.6045712" lon="7.4717353">
        <ele>2794</ele>
      </trkpt>
      <trkpt lat="45.6048536" lon="7.4718206">
        <ele>2796</ele>
      </trkpt>
      <trkpt lat="45.6049533" lon="7.4718756">
        <ele>2797</ele>
      </trkpt>
      <trkpt lat="45.6050738" lon="7.4721352">
        <ele>2799</ele>
      </trkpt>
      <trkpt lat="45.6051674" lon="7.4724051">
        <ele>2800</ele>
      </trkpt>
      <trkpt lat="45.6054018" lon="7.4726007">
        <ele>2802</ele>
      </trkpt>
      <trkpt lat="45.6054705" lon="7.4730220">
        <ele>2803</ele>
      </trkpt>
      <trkpt lat="45.6055441" lon="7.4733118">
        <ele>2804</ele>
      </trkpt>
      <trkpt lat="45.6055403" lon="7.4735299">
        <ele>2806</ele>
      </trkpt>
      <trkpt lat="45.6055820" lon="7.4735146">
        <ele>2807</ele>
      </trkpt>
      <trkpt lat="45.6056941" lon="7.4736700">
        <ele>2809</ele>
      </trkpt>
      <trkpt lat="45.6056941" lon="7.4738000">
        <ele>2810</ele>
      </trkpt>
      <trkpt lat="45.6056441" lon="7.4739300">
        <ele>2811</ele>
      </trkpt>
      <trkpt lat="45.6056541" lon="7.4743000">
        <ele>2813</ele>
      </trkpt>
      <trkpt lat="45.6055941" lon="7.4743900">
        <ele>2814</ele>
      </trkpt>
      <trkpt lat="45.6057241" lon="7.4744500">
        <ele>2816</ele>
      </trkpt>
      <trkpt lat="45.6060041" lon="7.4747200">
        <ele>2817</ele>
      </trkpt>
      <trkpt lat="45.6062541" lon="7.4747500">
        <ele>2819</ele>
      </trkpt>
      <trkpt lat="45.6063341" lon="7.4748100">
        <ele>2820</ele>
      </trkpt>
      <trkpt lat="45.6064741" lon="7.4748000">
        <ele>2821</ele>
      </trkpt>
      <trkpt lat="45.6068141" lon="7.4750800">
        <ele>2823</ele>
      </trkpt>
      <trkpt lat="45.6068841" lon="7.4750300">
        <ele>2824</ele>
      </trkpt>
      <trkpt lat="45.6069541" lon="7.4751500">
        <ele>2826</ele>
      </trkpt>
      <trkpt lat="45.6071141" lon="7.4751200">
        <ele>2827</ele>
      </trkpt>
      <trkpt lat="45.6074041" lon="7.4753700">
        <ele>2829</ele>
      </trkpt>
      <trkpt lat="45.6076231" lon="7.4754400">
        <ele>2830</ele>
      </trkpt>
      <trkpt lat="45.6078831" lon="7.4756000">
        <ele>2831</ele>
      </trkpt>
      <trkpt lat="45.6081431" lon="7.4758700">
        <ele>2833</ele>
      </trkpt>
      <trkpt lat="45.6081631" lon="7.4760000">
        <ele>2834</ele>
      </trkpt>
      <trkpt lat="45.6084131" lon="7.4762700">
        <ele>2836</ele>
      </trkpt>
      <trkpt lat="45.6083731" lon="7.4765100">
        <ele>2837</ele>
      </trkpt>
      <trkpt lat="45.6085431" lon="7.4770200">
        <ele>2839</ele>
      </trkpt>
      <trkpt lat="45.6084131" lon="7.4776900">
        <ele>2840</ele>
      </trkpt>
      <trkpt lat="45.6084431" lon="7.4782300">
        <ele>2841</ele>
      </trkpt>
      <trkpt lat="45.6083731" lon="7.4795700">
        <ele>2843</ele>
      </trkpt>
      <trkpt lat="45.6083031" lon="7.4798700">
        <ele>2844</ele>
      </trkpt>
      <trkpt lat="45.6083431" lon="7.4801600">
        <ele>2846</ele>
      </trkpt>
      <trkpt lat="45.6083331" lon="7.4805500">
        <ele>2847</ele>
      </trkpt>
      <trkpt lat="45.6082631" lon="7.4809100">
        <ele>2849</ele>
      </trkpt>
      <trkpt lat="45.6081231" lon="7.4811800">
        <ele>2850</ele>
      </trkpt>
      <trkpt lat="45.6081131" lon="7.4813200">
        <ele>2851</ele>
      </trkpt>
      <trkpt lat="45.6079831" lon="7.4815400">
        <ele>2853</ele>
      </trkpt>
      <trkpt lat="45.6078431" lon="7.4821300">
        <ele>2854</ele>
      </trkpt>
      <trkpt lat="45.6077631" lon="7.4823000">
        <ele>2856</ele>
      </trkpt>
      <trkpt lat="45.6076331" lon="7.4824200">
        <ele>2857</ele>
      </trkpt>
      <trkpt lat="45.6074031" lon="7.4828300">
        <ele>2859</ele>
      </trkpt>
      <trkpt lat="45.6072831" lon="7.4832500">
        <ele>2860</ele>
      </trkpt>
      <trkpt lat="45.6072631" lon="7.4837500">
        <ele>2861</ele>
      </trkpt>
      <trkpt lat="45.6073531" lon="7.4840400">
        <ele>2863</ele>
      </trkpt>
      <trkpt lat="45.6075331" lon="7.4844100">
        <ele>2864</ele>
      </trkpt>
      <trkpt lat="45.6075231" lon="7.4845700">
        <ele>2866</ele>
      </trkpt>
      <trkpt lat="45.6075931" lon="7.4849900">
        <ele>2867</ele>
      </trkpt>
      <trkpt lat="45.6075431" lon="7.4851400">
        <ele>2869</ele>
      </trkpt>
      <trkpt lat="45.6074631" lon="7.4852300">
        <ele>2870</ele>
      </trkpt>
      <trkpt lat="45.6075031" lon="7.4853300">
        <ele>2871</ele>
      </trkpt>
      <trkpt lat="45.6073631" lon="7.4856100">
        <ele>2873</ele>
      </trkpt>
      <trkpt lat="45.6074331" lon="7.4861200">
        <ele>2874</ele>
      </trkpt>
      <trkpt lat="45.6076131" lon="7.4863200">
        <ele>2876</ele>
      </trkpt>
      <trkpt lat="45.6076831" lon="7.4865900">
        <ele>2877</ele>
      </trkpt>
      <trkpt lat="45.6076731" lon="7.4869700">
        <ele>2878</ele>
      </trkpt>
      <trkpt lat="45.6077631" lon="7.4872800">
        <ele>2880</ele>
      </trkpt>
      <trkpt lat="45.6077731" lon="7.4872600">
        <ele>2881</ele>
      </trkpt>
      <trkpt lat="45.6076831" lon="7.4875800">
        <ele>2883</ele>
      </trkpt>
      <trkpt lat="45.6078231" lon="7.4884900">
        <ele>2884</ele>
      </trkpt>
      <trkpt lat="45.6077531" lon="7.4889000">
        <ele>2886</ele>
      </trkpt>
      <trkpt lat="45.6076731" lon="7.4891200">
        <ele>2887</ele>
      </trkpt>
      <trkpt lat="45.6077431" lon="7.4893700">
        <ele>2888</ele>
      </trkpt>
      <trkpt lat="45.6076831" lon="7.4897400">
        <ele>2890</ele>
      </trkpt>
      <trkpt lat="45.6078031" lon="7.4902800">
        <ele>2891</ele>
      </trkpt>
      <trkpt lat="45.6079031" lon="7.4903300">
        <ele>2893</ele>
      </trkpt>
      <trkpt lat="45.6079531" lon="7.4904500">
        <ele>2894</ele>
      </trkpt>
      <trkpt lat="45.6079731" lon="7.4912900">
        <ele>2896</ele>
      </trkpt>
      <trkpt lat="45.6078931" lon="7.4915700">
        <ele>2897</ele>
      </trkpt>
      <trkpt lat="45.6078831" lon="7.4918100">
        <ele>2898</ele>
      </trkpt>
      <trkpt lat="45.6078431" lon="7.4920000">
        <ele>2900</ele>
      </trkpt>
      <trkpt lat="45.6077131" lon="7.4921100">
        <ele>2901</ele>
      </trkpt>
      <trkpt lat="45.6076031" lon="7.4923600">
        <ele>2903</ele>
      </trkpt>
      <trkpt lat="45.6076231" lon="7.4924700">
        <ele>2904</ele>
      </trkpt>
      <trkpt lat="45.6077431" lon="7.4925200">
        <ele>2906</ele>
      </trkpt>
      <trkpt lat="45.6077931" lon="7.4926300">
        <ele>2907</ele>
      </trkpt>
    </trkseg>
  </trk>
</gpx>
