<?xml version="1.0" encoding="UTF-8"?>
<gpx version="1.1" creator="sentieri-vda" xmlns="http://www.topografix.com/GPX/1/1">
  <metadata>
    <name>Gimillan - Arpisson - Col Tsasèche</name>
    <desc>Catasto Sentieri VdA — 21_S4</desc>
    <author><name>Regione Autonoma Valle d'Aosta</name></author>
  </metadata>
  <trk>
    <name>Gimillan - Arpisson - Col Tsasèche</name>
    <src>Catasto Sentieri VdA (21_S4)</src>
    <trkseg>
      <trkpt lat="45.6186221" lon="7.3581341">
        <ele>1814</ele>
      </trkpt>
      <trkpt lat="45.6191194" lon="7.3579780">
        <ele>1820</ele>
      </trkpt>
      <trkpt lat="45.6193210" lon="7.3578735">
        <ele>1826</ele>
      </trkpt>
      <trkpt lat="45.6194687" lon="7.3577930">
        <ele>1832</ele>
      </trkpt>
      <trkpt lat="45.6195671" lon="7.3577049">
        <ele>1837</ele>
      </trkpt>
      <trkpt lat="45.6197967" lon="7.3575742">
        <ele>1843</ele>
      </trkpt>
      <trkpt lat="45.6199592" lon="7.3575273">
        <ele>1849</ele>
      </trkpt>
      <trkpt lat="45.6201568" lon="7.3574959">
        <ele>1855</ele>
      </trkpt>
      <trkpt lat="45.6202498" lon="7.3574324">
        <ele>1861</ele>
      </trkpt>
      <trkpt lat="45.6203954" lon="7.3572728">
        <ele>1867</ele>
      </trkpt>
      <trkpt lat="45.6204954" lon="7.3572429">
        <ele>1872</ele>
      </trkpt>
      <trkpt lat="45.6205807" lon="7.3572086">
        <ele>1878</ele>
      </trkpt>
      <trkpt lat="45.6210856" lon="7.3570493">
        <ele>1884</ele>
      </trkpt>
      <trkpt lat="45.6211613" lon="7.3570098">
        <ele>1890</ele>
      </trkpt>
      <trkpt lat="45.6212277" lon="7.3569600">
        <ele>1896</ele>
      </trkpt>
      <trkpt lat="45.6214382" lon="7.3568799">
        <ele>1902</ele>
      </trkpt>
      <trkpt lat="45.6217100" lon="7.3567846">
        <ele>1908</ele>
      </trkpt>
      <trkpt lat="45.6220063" lon="7.3566195">
        <ele>1913</ele>
      </trkpt>
      <trkpt lat="45.6222743" lon="7.3566153">
        <ele>1919</ele>
      </trkpt>
      <trkpt lat="45.6226002" lon="7.3565585">
        <ele>1925</ele>
      </trkpt>
      <trkpt lat="45.6227738" lon="7.3565534">
        <ele>1931</ele>
      </trkpt>
      <trkpt lat="45.6229219" lon="7.3565564">
        <ele>1937</ele>
      </trkpt>
      <trkpt lat="45.6232384" lon="7.3567318">
        <ele>1943</ele>
      </trkpt>
      <trkpt lat="45.6231447" lon="7.3565185">
        <ele>1949</ele>
      </trkpt>
      <trkpt lat="45.6231134" lon="7.3564198">
        <ele>1954</ele>
      </trkpt>
      <trkpt lat="45.6231610" lon="7.3564055">
        <ele>1960</ele>
      </trkpt>
      <trkpt lat="45.6232660" lon="7.3564876">
        <ele>1966</ele>
      </trkpt>
      <trkpt lat="45.6233605" lon="7.3565162">
        <ele>1972</ele>
      </trkpt>
      <trkpt lat="45.6234333" lon="7.3565369">
        <ele>1978</ele>
      </trkpt>
      <trkpt lat="45.6234679" lon="7.3565445">
        <ele>1984</ele>
      </trkpt>
      <trkpt lat="45.6234901" lon="7.3564810">
        <ele>1989</ele>
      </trkpt>
      <trkpt lat="45.6235333" lon="7.3563628">
        <ele>1995</ele>
      </trkpt>
      <trkpt lat="45.6238241" lon="7.3555630">
        <ele>2001</ele>
      </trkpt>
      <trkpt lat="45.6239341" lon="7.3553230">
        <ele>2007</ele>
      </trkpt>
      <trkpt lat="45.6242841" lon="7.3549030">
        <ele>2013</ele>
      </trkpt>
      <trkpt lat="45.6244041" lon="7.3547230">
        <ele>2019</ele>
      </trkpt>
      <trkpt lat="45.6245141" lon="7.3545130">
        <ele>2025</ele>
      </trkpt>
      <trkpt lat="45.6245541" lon="7.3542740">
        <ele>2030</ele>
      </trkpt>
      <trkpt lat="45.6245441" lon="7.3541240">
        <ele>2036</ele>
      </trkpt>
      <trkpt lat="45.6246741" lon="7.3537540">
        <ele>2042</ele>
      </trkpt>
      <trkpt lat="45.6247941" lon="7.3535440">
        <ele>2048</ele>
      </trkpt>
      <trkpt lat="45.6247841" lon="7.3534040">
        <ele>2054</ele>
      </trkpt>
      <trkpt lat="45.6248041" lon="7.3532640">
        <ele>2060</ele>
      </trkpt>
      <trkpt lat="45.6248041" lon="7.3531240">
        <ele>2066</ele>
      </trkpt>
      <trkpt lat="45.6248441" lon="7.3530140">
        <ele>2071</ele>
      </trkpt>
      <trkpt lat="45.6250141" lon="7.3526840">
        <ele>2077</ele>
      </trkpt>
      <trkpt lat="45.6252041" lon="7.3523740">
        <ele>2083</ele>
      </trkpt>
      <trkpt lat="45.6252541" lon="7.3522540">
        <ele>2089</ele>
      </trkpt>
      <trkpt lat="45.6254941" lon="7.3518340">
        <ele>2095</ele>
      </trkpt>
      <trkpt lat="45.6255941" lon="7.3517740">
        <ele>2101</ele>
      </trkpt>
      <trkpt lat="45.6256841" lon="7.3517840">
        <ele>2106</ele>
      </trkpt>
      <trkpt lat="45.6258241" lon="7.3516340">
        <ele>2112</ele>
      </trkpt>
      <trkpt lat="45.6258941" lon="7.3515240">
        <ele>2118</ele>
      </trkpt>
      <trkpt lat="45.6259841" lon="7.3514440">
        <ele>2124</ele>
      </trkpt>
      <trkpt lat="45.6262541" lon="7.3513140">
        <ele>2130</ele>
      </trkpt>
      <trkpt lat="45.6263541" lon="7.3511640">
        <ele>2136</ele>
      </trkpt>
      <trkpt lat="45.6263741" lon="7.3512540">
        <ele>2142</ele>
      </trkpt>
      <trkpt lat="45.6265941" lon="7.3513740">
        <ele>2147</ele>
      </trkpt>
      <trkpt lat="45.6273441" lon="7.3514540">
        <ele>2153</ele>
      </trkpt>
      <trkpt lat="45.6281541" lon="7.3520040">
        <ele>2159</ele>
      </trkpt>
      <trkpt lat="45.6284841" lon="7.3518440">
        <ele>2165</ele>
      </trkpt>
      <trkpt lat="45.6285941" lon="7.3515440">
        <ele>2171</ele>
      </trkpt>
      <trkpt lat="45.6288741" lon="7.3512240">
        <ele>2177</ele>
      </trkpt>
      <trkpt lat="45.6291241" lon="7.3507940">
        <ele>2182</ele>
      </trkpt>
      <trkpt lat="45.6292341" lon="7.3506440">
        <ele>2188</ele>
      </trkpt>
      <trkpt lat="45.6295141" lon="7.3505140">
        <ele>2194</ele>
      </trkpt>
      <trkpt lat="45.6296241" lon="7.3503640">
        <ele>2200</ele>
      </trkpt>
      <trkpt lat="45.6295441" lon="7.3497540">
        <ele>2206</ele>
      </trkpt>
      <trkpt lat="45.6296441" lon="7.3494240">
        <ele>2212</ele>
      </trkpt>
      <trkpt lat="45.6296541" lon="7.3490840">
        <ele>2218</ele>
      </trkpt>
      <trkpt lat="45.6298341" lon="7.3485740">
        <ele>2223</ele>
      </trkpt>
      <trkpt lat="45.6300241" lon="7.3484140">
        <ele>2229</ele>
      </trkpt>
      <trkpt lat="45.6300041" lon="7.3478240">
        <ele>2235</ele>
      </trkpt>
      <trkpt lat="45.6301241" lon="7.3474940">
        <ele>2241</ele>
      </trkpt>
      <trkpt lat="45.6302041" lon="7.3474140">
        <ele>2247</ele>
      </trkpt>
      <trkpt lat="45.6304941" lon="7.3473740">
        <ele>2253</ele>
      </trkpt>
      <trkpt lat="45.6304541" lon="7.3479940">
        <ele>2259</ele>
      </trkpt>
      <trkpt lat="45.6305641" lon="7.3479640">
        <ele>2264</ele>
      </trkpt>
      <trkpt lat="45.6307241" lon="7.3485140">
        <ele>2270</ele>
      </trkpt>
      <trkpt lat="45.6309141" lon="7.3490040">
        <ele>2276</ele>
      </trkpt>
      <trkpt lat="45.6307741" lon="7.3493040">
        <ele>2282</ele>
      </trkpt>
      <trkpt lat="45.6307641" lon="7.3494740">
        <ele>2288</ele>
      </trkpt>
      <trkpt lat="45.6308241" lon="7.3503840">
        <ele>2294</ele>
      </trkpt>
      <trkpt lat="45.6310941" lon="7.3498540">
        <ele>2299</ele>
      </trkpt>
      <trkpt lat="45.6312541" lon="7.3497240">
        <ele>2305</ele>
      </trkpt>
      <trkpt lat="45.6315241" lon="7.3496740">
        <ele>2311</ele>
      </trkpt>
      <trkpt lat="45.6315741" lon="7.3496040">
        <ele>2317</ele>
      </trkpt>
      <trkpt lat="45.6317141" lon="7.3490540">
        <ele>2323</ele>
      </trkpt>
      <trkpt lat="45.6318441" lon="7.3487640">
        <ele>2329</ele>
      </trkpt>
      <trkpt lat="45.6320041" lon="7.3485640">
        <ele>2335</ele>
      </trkpt>
      <trkpt lat="45.6323641" lon="7.3487040">
        <ele>2340</ele>
      </trkpt>
      <trkpt lat="45.6327941" lon="7.3483640">
        <ele>2346</ele>
      </trkpt>
      <trkpt lat="45.6331341" lon="7.3485140">
        <ele>2352</ele>
      </trkpt>
      <trkpt lat="45.6335941" lon="7.3484740">
        <ele>2358</ele>
      </trkpt>
      <trkpt lat="45.6336941" lon="7.3484340">
        <ele>2364</ele>
      </trkpt>
      <trkpt lat="45.6338041" lon="7.3482940">
        <ele>2370</ele>
      </trkpt>
      <trkpt lat="45.6341641" lon="7.3476640">
        <ele>2375</ele>
      </trkpt>
      <trkpt lat="45.6342441" lon="7.3472740">
        <ele>2381</ele>
      </trkpt>
      <trkpt lat="45.6342141" lon="7.3468740">
        <ele>2387</ele>
      </trkpt>
      <trkpt lat="45.6344641" lon="7.3464840">
        <ele>2393</ele>
      </trkpt>
      <trkpt lat="45.6348541" lon="7.3464240">
        <ele>2399</ele>
      </trkpt>
      <trkpt lat="45.6353041" lon="7.3460740">
        <ele>2405</ele>
      </trkpt>
      <trkpt lat="45.6354241" lon="7.3452540">
        <ele>2411</ele>
      </trkpt>
      <trkpt lat="45.6355641" lon="7.3449140">
        <ele>2416</ele>
      </trkpt>
      <trkpt lat="45.6358041" lon="7.3445340">
        <ele>2422</ele>
      </trkpt>
      <trkpt lat="45.6361841" lon="7.3441840">
        <ele>2428</ele>
      </trkpt>
      <trkpt lat="45.6368641" lon="7.3440040">
        <ele>2434</ele>
      </trkpt>
      <trkpt lat="45.6370741" lon="7.3440740">
        <ele>2440</ele>
      </trkpt>
      <trkpt lat="45.6373041" lon="7.3439540">
        <ele>2446</ele>
      </trkpt>
      <trkpt lat="45.6376741" lon="7.3439340">
        <ele>2452</ele>
      </trkpt>
      <trkpt lat="45.6380341" lon="7.3440740">
        <ele>2457</ele>
      </trkpt>
      <trkpt lat="45.6385041" lon="7.3438840">
        <ele>2463</ele>
      </trkpt>
      <trkpt lat="45.6386841" lon="7.3439440">
        <ele>2469</ele>
      </trkpt>
      <trkpt lat="45.6388641" lon="7.3441540">
        <ele>2475</ele>
      </trkpt>
      <trkpt lat="45.6391041" lon="7.3450040">
        <ele>2481</ele>
      </trkpt>
      <trkpt lat="45.6394741" lon="7.3453140">
        <ele>2487</ele>
      </trkpt>
      <trkpt lat="45.6397041" lon="7.3455540">
        <ele>2492</ele>
      </trkpt>
      <trkpt lat="45.6402841" lon="7.3459140">
        <ele>2498</ele>
      </trkpt>
      <trkpt lat="45.6405241" lon="7.3458440">
        <ele>2504</ele>
      </trkpt>
      <trkpt lat="45.6407241" lon="7.3460440">
        <ele>2510</ele>
      </trkpt>
      <trkpt lat="45.6408341" lon="7.3459940">
        <ele>2516</ele>
      </trkpt>
      <trkpt lat="45.6411741" lon="7.3461640">
        <ele>2522</ele>
      </trkpt>
      <trkpt lat="45.6412241" lon="7.3457940">
        <ele>2528</ele>
      </trkpt>
      <trkpt lat="45.6413441" lon="7.3459540">
        <ele>2533</ele>
      </trkpt>
      <trkpt lat="45.6414441" lon="7.3459540">
        <ele>2539</ele>
      </trkpt>
      <trkpt lat="45.6416721" lon="7.3456810">
        <ele>2545</ele>
      </trkpt>
      <trkpt lat="45.6417441" lon="7.3457140">
        <ele>2551</ele>
      </trkpt>
      <trkpt lat="45.6420241" lon="7.3453540">
        <ele>2557</ele>
      </trkpt>
      <trkpt lat="45.6420741" lon="7.3455440">
        <ele>2563</ele>
      </trkpt>
      <trkpt lat="45.6421941" lon="7.3458140">
        <ele>2569</ele>
      </trkpt>
      <trkpt lat="45.6422241" lon="7.3460140">
        <ele>2574</ele>
      </trkpt>
      <trkpt lat="45.6425541" lon="7.3464140">
        <ele>2580</ele>
      </trkpt>
      <trkpt lat="45.6426541" lon="7.3464240">
        <ele>2586</ele>
      </trkpt>
      <trkpt lat="45.6426441" lon="7.3465540">
        <ele>2592</ele>
      </trkpt>
      <trkpt lat="45.6427641" lon="7.3466240">
        <ele>2598</ele>
      </trkpt>
      <trkpt lat="45.6429341" lon="7.3469240">
        <ele>2604</ele>
      </trkpt>
      <trkpt lat="45.6432241" lon="7.3469140">
        <ele>2609</ele>
      </trkpt>
      <trkpt lat="45.6434841" lon="7.3470540">
        <ele>2615</ele>
      </trkpt>
      <trkpt lat="45.6440371" lon="7.3469560">
        <ele>2621</ele>
      </trkpt>
      <trkpt lat="45.6441371" lon="7.3459760">
        <ele>2627</ele>
      </trkpt>
      <trkpt lat="45.6450401" lon="7.3451880">
        <ele>2633</ele>
      </trkpt>
      <trkpt lat="45.6451991" lon="7.3456180">
        <ele>2639</ele>
      </trkpt>
      <trkpt lat="45.6464241" lon="7.3460170">
        <ele>2645</ele>
      </trkpt>
      <trkpt lat="45.6467331" lon="7.3462790">
        <ele>2650</ele>
      </trkpt>
      <trkpt lat="45.6471171" lon="7.3465390">
        <ele>2656</ele>
      </trkpt>
      <trkpt lat="45.6471551" lon="7.3465380">
        <ele>2662</ele>
      </trkpt>
      <trkpt lat="45.6476571" lon="7.3469580">
        <ele>2668</ele>
      </trkpt>
      <trkpt lat="45.6479541" lon="7.3464600">
        <ele>2674</ele>
      </trkpt>
      <trkpt lat="45.6485391" lon="7.3447050">
        <ele>2680</ele>
      </trkpt>
      <trkpt lat="45.6489891" lon="7.3442570">
        <ele>2685</ele>
      </trkpt>
      <trkpt lat="45.6493291" lon="7.3440300">
        <ele>2691</ele>
      </trkpt>
      <trkpt lat="45.6497811" lon="7.3436360">
        <ele>2697</ele>
      </trkpt>
      <trkpt lat="45.6496651" lon="7.3435310">
        <ele>2703</ele>
      </trkpt>
      <trkpt lat="45.6497011" lon="7.3434210">
        <ele>2709</ele>
      </trkpt>
      <trkpt lat="45.6496581" lon="7.3430420">
        <ele>2715</ele>
      </trkpt>
      <trkpt lat="45.6495771" lon="7.3427190">
        <ele>2721</ele>
      </trkpt>
      <trkpt lat="45.6501341" lon="7.3417240">
        <ele>2726</ele>
      </trkpt>
      <trkpt lat="45.6501951" lon="7.3406900">
        <ele>2732</ele>
      </trkpt>
      <trkpt lat="45.6507921" lon="7.3398040">
        <ele>2738</ele>
      </trkpt>
      <trkpt lat="45.6507491" lon="7.3394790">
        <ele>2744</ele>
      </trkpt>
      <trkpt lat="45.6503681" lon="7.3394360">
        <ele>2750</ele>
      </trkpt>
      <trkpt lat="45.6504391" lon="7.3391080">
        <ele>2756</ele>
      </trkpt>
      <trkpt lat="45.6501711" lon="7.3390070">
        <ele>2762</ele>
      </trkpt>
      <trkpt lat="45.6498301" lon="7.3391260">
        <ele>2767</ele>
      </trkpt>
      <trkpt lat="45.6495971" lon="7.3388610">
        <ele>2773</ele>
      </trkpt>
      <trkpt lat="45.6497401" lon="7.3382050">
        <ele>2779</ele>
      </trkpt>
      <trkpt lat="45.6501161" lon="7.3378680">
        <ele>2785</ele>
      </trkpt>
      <trkpt lat="45.6507151" lon="7.3371440">
        <ele>2791</ele>
      </trkpt>
      <trkpt lat="45.6510071" lon="7.3362660">
        <ele>2797</ele>
      </trkpt>
      <trkpt lat="45.6516151" lon="7.3334780">
        <ele>2802</ele>
      </trkpt>
      <trkpt lat="45.6516121" lon="7.3333150">
        <ele>2808</ele>
      </trkpt>
      <trkpt lat="45.6516471" lon="7.3330970">
        <ele>2814</ele>
      </trkpt>
      <trkpt lat="45.6517371" lon="7.3328380">
        <ele>2820</ele>
      </trkpt>
    </trkseg>
  </trk>
</gpx>
