<?xml version="1.0" encoding="UTF-8"?>
<gpx version="1.1" creator="sentieri-vda" xmlns="http://www.topografix.com/GPX/1/1">
  <metadata>
    <name>Plan Checrouit - Col Checrouit</name>
    <desc>Catasto Sentieri VdA — 22_S42</desc>
    <author><name>Regione Autonoma Valle d'Aosta</name></author>
  </metadata>
  <trk>
    <name>Plan Checrouit - Col Checrouit</name>
    <src>Catasto Sentieri VdA (22_S42)</src>
    <trkseg>
      <trkpt lat="45.7910062" lon="6.9323590">
        <ele>1593</ele>
      </trkpt>
      <trkpt lat="45.7910341" lon="6.9325099">
        <ele>1595</ele>
      </trkpt>
      <trkpt lat="45.7910781" lon="6.9327346">
        <ele>1597</ele>
      </trkpt>
      <trkpt lat="45.7911075" lon="6.9329172">
        <ele>1600</ele>
      </trkpt>
      <trkpt lat="45.7911271" lon="6.9330797">
        <ele>1602</ele>
      </trkpt>
      <trkpt lat="45.7911444" lon="6.9333750">
        <ele>1604</ele>
      </trkpt>
      <trkpt lat="45.7911542" lon="6.9334422">
        <ele>1606</ele>
      </trkpt>
      <trkpt lat="45.7911702" lon="6.9335211">
        <ele>1609</ele>
      </trkpt>
      <trkpt lat="45.7911786" lon="6.9335888">
        <ele>1611</ele>
      </trkpt>
      <trkpt lat="45.7911746" lon="6.9337314">
        <ele>1613</ele>
      </trkpt>
      <trkpt lat="45.7912542" lon="6.9340197">
        <ele>1615</ele>
      </trkpt>
      <trkpt lat="45.7913112" lon="6.9342106">
        <ele>1617</ele>
      </trkpt>
      <trkpt lat="45.7913407" lon="6.9343510">
        <ele>1620</ele>
      </trkpt>
      <trkpt lat="45.7914028" lon="6.9347991">
        <ele>1622</ele>
      </trkpt>
      <trkpt lat="45.7915198" lon="6.9356503">
        <ele>1624</ele>
      </trkpt>
      <trkpt lat="45.7915641" lon="6.9359801">
        <ele>1626</ele>
      </trkpt>
      <trkpt lat="45.7916455" lon="6.9362355">
        <ele>1628</ele>
      </trkpt>
      <trkpt lat="45.7916901" lon="6.9363666">
        <ele>1631</ele>
      </trkpt>
      <trkpt lat="45.7917428" lon="6.9364340">
        <ele>1633</ele>
      </trkpt>
      <trkpt lat="45.7918242" lon="6.9365121">
        <ele>1635</ele>
      </trkpt>
      <trkpt lat="45.7919404" lon="6.9365668">
        <ele>1637</ele>
      </trkpt>
      <trkpt lat="45.7920275" lon="6.9366233">
        <ele>1640</ele>
      </trkpt>
      <trkpt lat="45.7921007" lon="6.9366873">
        <ele>1642</ele>
      </trkpt>
      <trkpt lat="45.7922587" lon="6.9368947">
        <ele>1644</ele>
      </trkpt>
      <trkpt lat="45.7923786" lon="6.9370911">
        <ele>1646</ele>
      </trkpt>
      <trkpt lat="45.7925674" lon="6.9372838">
        <ele>1648</ele>
      </trkpt>
      <trkpt lat="45.7926595" lon="6.9373962">
        <ele>1651</ele>
      </trkpt>
      <trkpt lat="45.7927614" lon="6.9375597">
        <ele>1653</ele>
      </trkpt>
      <trkpt lat="45.7928083" lon="6.9376609">
        <ele>1655</ele>
      </trkpt>
      <trkpt lat="45.7928383" lon="6.9378270">
        <ele>1657</ele>
      </trkpt>
      <trkpt lat="45.7928380" lon="6.9379217">
        <ele>1660</ele>
      </trkpt>
      <trkpt lat="45.7927996" lon="6.9381212">
        <ele>1662</ele>
      </trkpt>
      <trkpt lat="45.7927048" lon="6.9382810">
        <ele>1664</ele>
      </trkpt>
      <trkpt lat="45.7925275" lon="6.9384291">
        <ele>1666</ele>
      </trkpt>
      <trkpt lat="45.7924827" lon="6.9384436">
        <ele>1668</ele>
      </trkpt>
      <trkpt lat="45.7923105" lon="6.9386236">
        <ele>1671</ele>
      </trkpt>
      <trkpt lat="45.7922703" lon="6.9386444">
        <ele>1673</ele>
      </trkpt>
      <trkpt lat="45.7920452" lon="6.9386399">
        <ele>1675</ele>
      </trkpt>
      <trkpt lat="45.7919378" lon="6.9386696">
        <ele>1677</ele>
      </trkpt>
      <trkpt lat="45.7918755" lon="6.9387104">
        <ele>1680</ele>
      </trkpt>
      <trkpt lat="45.7918008" lon="6.9388097">
        <ele>1682</ele>
      </trkpt>
      <trkpt lat="45.7917980" lon="6.9389063">
        <ele>1684</ele>
      </trkpt>
      <trkpt lat="45.7918924" lon="6.9391473">
        <ele>1686</ele>
      </trkpt>
      <trkpt lat="45.7919705" lon="6.9392695">
        <ele>1688</ele>
      </trkpt>
      <trkpt lat="45.7920900" lon="6.9394698">
        <ele>1691</ele>
      </trkpt>
      <trkpt lat="45.7922531" lon="6.9398147">
        <ele>1693</ele>
      </trkpt>
      <trkpt lat="45.7923655" lon="6.9400957">
        <ele>1695</ele>
      </trkpt>
      <trkpt lat="45.7923951" lon="6.9403163">
        <ele>1697</ele>
      </trkpt>
      <trkpt lat="45.7923731" lon="6.9406242">
        <ele>1699</ele>
      </trkpt>
      <trkpt lat="45.7923363" lon="6.9408856">
        <ele>1702</ele>
      </trkpt>
      <trkpt lat="45.7923096" lon="6.9410032">
        <ele>1704</ele>
      </trkpt>
      <trkpt lat="45.7922953" lon="6.9410499">
        <ele>1706</ele>
      </trkpt>
      <trkpt lat="45.7922805" lon="6.9411019">
        <ele>1708</ele>
      </trkpt>
      <trkpt lat="45.7922469" lon="6.9411910">
        <ele>1711</ele>
      </trkpt>
      <trkpt lat="45.7921901" lon="6.9413513">
        <ele>1713</ele>
      </trkpt>
      <trkpt lat="45.7921366" lon="6.9415629">
        <ele>1715</ele>
      </trkpt>
      <trkpt lat="45.7921058" lon="6.9416902">
        <ele>1717</ele>
      </trkpt>
      <trkpt lat="45.7920901" lon="6.9417421">
        <ele>1719</ele>
      </trkpt>
      <trkpt lat="45.7920838" lon="6.9417540">
        <ele>1722</ele>
      </trkpt>
      <trkpt lat="45.7920739" lon="6.9417589">
        <ele>1724</ele>
      </trkpt>
      <trkpt lat="45.7920619" lon="6.9417585">
        <ele>1726</ele>
      </trkpt>
      <trkpt lat="45.7920441" lon="6.9417520">
        <ele>1728</ele>
      </trkpt>
      <trkpt lat="45.7920028" lon="6.9416978">
        <ele>1731</ele>
      </trkpt>
      <trkpt lat="45.7919647" lon="6.9416161">
        <ele>1733</ele>
      </trkpt>
      <trkpt lat="45.7919069" lon="6.9415311">
        <ele>1735</ele>
      </trkpt>
      <trkpt lat="45.7917694" lon="6.9414087">
        <ele>1737</ele>
      </trkpt>
      <trkpt lat="45.7916568" lon="6.9413612">
        <ele>1739</ele>
      </trkpt>
      <trkpt lat="45.7915524" lon="6.9413571">
        <ele>1742</ele>
      </trkpt>
      <trkpt lat="45.7914285" lon="6.9413845">
        <ele>1744</ele>
      </trkpt>
      <trkpt lat="45.7913413" lon="6.9413832">
        <ele>1746</ele>
      </trkpt>
      <trkpt lat="45.7913110" lon="6.9413745">
        <ele>1748</ele>
      </trkpt>
      <trkpt lat="45.7912859" lon="6.9413560">
        <ele>1750</ele>
      </trkpt>
      <trkpt lat="45.7912410" lon="6.9413194">
        <ele>1753</ele>
      </trkpt>
      <trkpt lat="45.7911381" lon="6.9411964">
        <ele>1755</ele>
      </trkpt>
      <trkpt lat="45.7910470" lon="6.9410333">
        <ele>1757</ele>
      </trkpt>
      <trkpt lat="45.7909260" lon="6.9407946">
        <ele>1759</ele>
      </trkpt>
      <trkpt lat="45.7908538" lon="6.9407016">
        <ele>1762</ele>
      </trkpt>
      <trkpt lat="45.7907437" lon="6.9405955">
        <ele>1764</ele>
      </trkpt>
      <trkpt lat="45.7907038" lon="6.9405699">
        <ele>1766</ele>
      </trkpt>
      <trkpt lat="45.7906563" lon="6.9405694">
        <ele>1768</ele>
      </trkpt>
      <trkpt lat="45.7906185" lon="6.9405891">
        <ele>1770</ele>
      </trkpt>
      <trkpt lat="45.7905901" lon="6.9406533">
        <ele>1773</ele>
      </trkpt>
      <trkpt lat="45.7905840" lon="6.9407503">
        <ele>1775</ele>
      </trkpt>
      <trkpt lat="45.7905950" lon="6.9408211">
        <ele>1777</ele>
      </trkpt>
      <trkpt lat="45.7906212" lon="6.9408946">
        <ele>1779</ele>
      </trkpt>
      <trkpt lat="45.7906513" lon="6.9409441">
        <ele>1782</ele>
      </trkpt>
      <trkpt lat="45.7905859" lon="6.9410667">
        <ele>1784</ele>
      </trkpt>
      <trkpt lat="45.7904207" lon="6.9412586">
        <ele>1786</ele>
      </trkpt>
      <trkpt lat="45.7900142" lon="6.9416360">
        <ele>1788</ele>
      </trkpt>
      <trkpt lat="45.7900042" lon="6.9417460">
        <ele>1790</ele>
      </trkpt>
      <trkpt lat="45.7898242" lon="6.9417660">
        <ele>1793</ele>
      </trkpt>
      <trkpt lat="45.7896842" lon="6.9419460">
        <ele>1795</ele>
      </trkpt>
      <trkpt lat="45.7896342" lon="6.9419560">
        <ele>1797</ele>
      </trkpt>
      <trkpt lat="45.7894842" lon="6.9421060">
        <ele>1799</ele>
      </trkpt>
      <trkpt lat="45.7893742" lon="6.9422660">
        <ele>1802</ele>
      </trkpt>
      <trkpt lat="45.7892142" lon="6.9424160">
        <ele>1804</ele>
      </trkpt>
      <trkpt lat="45.7890442" lon="6.9425060">
        <ele>1806</ele>
      </trkpt>
      <trkpt lat="45.7888042" lon="6.9426760">
        <ele>1808</ele>
      </trkpt>
      <trkpt lat="45.7886142" lon="6.9429660">
        <ele>1810</ele>
      </trkpt>
      <trkpt lat="45.7885242" lon="6.9432260">
        <ele>1813</ele>
      </trkpt>
      <trkpt lat="45.7884662" lon="6.9432600">
        <ele>1815</ele>
      </trkpt>
      <trkpt lat="45.7884312" lon="6.9433130">
        <ele>1817</ele>
      </trkpt>
      <trkpt lat="45.7884342" lon="6.9435960">
        <ele>1819</ele>
      </trkpt>
      <trkpt lat="45.7885442" lon="6.9438060">
        <ele>1821</ele>
      </trkpt>
      <trkpt lat="45.7886942" lon="6.9443060">
        <ele>1824</ele>
      </trkpt>
      <trkpt lat="45.7888206" lon="6.9444968">
        <ele>1826</ele>
      </trkpt>
      <trkpt lat="45.7888312" lon="6.9445864">
        <ele>1828</ele>
      </trkpt>
      <trkpt lat="45.7888637" lon="6.9446431">
        <ele>1830</ele>
      </trkpt>
      <trkpt lat="45.7890040" lon="6.9446830">
        <ele>1833</ele>
      </trkpt>
      <trkpt lat="45.7890573" lon="6.9447772">
        <ele>1835</ele>
      </trkpt>
      <trkpt lat="45.7890568" lon="6.9448676">
        <ele>1837</ele>
      </trkpt>
      <trkpt lat="45.7890192" lon="6.9450298">
        <ele>1839</ele>
      </trkpt>
      <trkpt lat="45.7890171" lon="6.9454159">
        <ele>1841</ele>
      </trkpt>
      <trkpt lat="45.7890472" lon="6.9455030">
        <ele>1844</ele>
      </trkpt>
      <trkpt lat="45.7891342" lon="6.9455360">
        <ele>1846</ele>
      </trkpt>
      <trkpt lat="45.7892642" lon="6.9455460">
        <ele>1848</ele>
      </trkpt>
      <trkpt lat="45.7895754" lon="6.9457597">
        <ele>1850</ele>
      </trkpt>
      <trkpt lat="45.7896575" lon="6.9458137">
        <ele>1853</ele>
      </trkpt>
      <trkpt lat="45.7897571" lon="6.9457769">
        <ele>1855</ele>
      </trkpt>
      <trkpt lat="45.7898261" lon="6.9457280">
        <ele>1857</ele>
      </trkpt>
      <trkpt lat="45.7898751" lon="6.9457043">
        <ele>1859</ele>
      </trkpt>
      <trkpt lat="45.7899226" lon="6.9456953">
        <ele>1861</ele>
      </trkpt>
      <trkpt lat="45.7899885" lon="6.9457562">
        <ele>1864</ele>
      </trkpt>
      <trkpt lat="45.7900565" lon="6.9458390">
        <ele>1866</ele>
      </trkpt>
      <trkpt lat="45.7900969" lon="6.9459081">
        <ele>1868</ele>
      </trkpt>
      <trkpt lat="45.7900866" lon="6.9459962">
        <ele>1870</ele>
      </trkpt>
      <trkpt lat="45.7900696" lon="6.9460432">
        <ele>1872</ele>
      </trkpt>
      <trkpt lat="45.7899144" lon="6.9460548">
        <ele>1875</ele>
      </trkpt>
      <trkpt lat="45.7896450" lon="6.9461894">
        <ele>1877</ele>
      </trkpt>
      <trkpt lat="45.7895245" lon="6.9462615">
        <ele>1879</ele>
      </trkpt>
      <trkpt lat="45.7894397" lon="6.9463594">
        <ele>1881</ele>
      </trkpt>
      <trkpt lat="45.7893981" lon="6.9464537">
        <ele>1884</ele>
      </trkpt>
      <trkpt lat="45.7893503" lon="6.9465812">
        <ele>1886</ele>
      </trkpt>
      <trkpt lat="45.7893313" lon="6.9467308">
        <ele>1888</ele>
      </trkpt>
      <trkpt lat="45.7893600" lon="6.9468187">
        <ele>1890</ele>
      </trkpt>
      <trkpt lat="45.7894034" lon="6.9468588">
        <ele>1892</ele>
      </trkpt>
      <trkpt lat="45.7894536" lon="6.9468327">
        <ele>1895</ele>
      </trkpt>
      <trkpt lat="45.7895007" lon="6.9467440">
        <ele>1897</ele>
      </trkpt>
      <trkpt lat="45.7895305" lon="6.9466694">
        <ele>1899</ele>
      </trkpt>
      <trkpt lat="45.7895737" lon="6.9465904">
        <ele>1901</ele>
      </trkpt>
      <trkpt lat="45.7896450" lon="6.9465814">
        <ele>1904</ele>
      </trkpt>
      <trkpt lat="45.7897107" lon="6.9465865">
        <ele>1906</ele>
      </trkpt>
      <trkpt lat="45.7898134" lon="6.9466017">
        <ele>1908</ele>
      </trkpt>
      <trkpt lat="45.7899300" lon="6.9466303">
        <ele>1910</ele>
      </trkpt>
      <trkpt lat="45.7899854" lon="6.9466650">
        <ele>1912</ele>
      </trkpt>
      <trkpt lat="45.7900198" lon="6.9467135">
        <ele>1915</ele>
      </trkpt>
      <trkpt lat="45.7900397" lon="6.9467713">
        <ele>1917</ele>
      </trkpt>
      <trkpt lat="45.7901475" lon="6.9472141">
        <ele>1919</ele>
      </trkpt>
      <trkpt lat="45.7902612" lon="6.9477156">
        <ele>1921</ele>
      </trkpt>
      <trkpt lat="45.7903392" lon="6.9480643">
        <ele>1924</ele>
      </trkpt>
      <trkpt lat="45.7903470" lon="6.9481967">
        <ele>1926</ele>
      </trkpt>
      <trkpt lat="45.7903578" lon="6.9483839">
        <ele>1928</ele>
      </trkpt>
      <trkpt lat="45.7903664" lon="6.9485630">
        <ele>1930</ele>
      </trkpt>
      <trkpt lat="45.7903812" lon="6.9489331">
        <ele>1932</ele>
      </trkpt>
      <trkpt lat="45.7904049" lon="6.9493500">
        <ele>1935</ele>
      </trkpt>
      <trkpt lat="45.7904289" lon="6.9496276">
        <ele>1937</ele>
      </trkpt>
      <trkpt lat="45.7904552" lon="6.9497388">
        <ele>1939</ele>
      </trkpt>
      <trkpt lat="45.7905246" lon="6.9498369">
        <ele>1941</ele>
      </trkpt>
      <trkpt lat="45.7905820" lon="6.9498657">
        <ele>1943</ele>
      </trkpt>
      <trkpt lat="45.7906649" lon="6.9499613">
        <ele>1946</ele>
      </trkpt>
      <trkpt lat="45.7907290" lon="6.9500233">
        <ele>1948</ele>
      </trkpt>
      <trkpt lat="45.7908005" lon="6.9501600">
        <ele>1950</ele>
      </trkpt>
      <trkpt lat="45.7908898" lon="6.9503534">
        <ele>1952</ele>
      </trkpt>
      <trkpt lat="45.7910411" lon="6.9509085">
        <ele>1955</ele>
      </trkpt>
      <trkpt lat="45.7910628" lon="6.9510807">
        <ele>1957</ele>
      </trkpt>
      <trkpt lat="45.7910765" lon="6.9512045">
        <ele>1959</ele>
      </trkpt>
    </trkseg>
  </trk>
</gpx>
