<?xml version="1.0" encoding="UTF-8"?>
<gpx version="1.1" creator="sentieri-vda" xmlns="http://www.topografix.com/GPX/1/1">
  <metadata>
    <name>Villair  - Col Sapin - Tête de la Tronche</name>
    <desc>Catasto Sentieri VdA — 22_S34</desc>
    <author><name>Regione Autonoma Valle d'Aosta</name></author>
  </metadata>
  <trk>
    <name>Villair  - Col Sapin - Tête de la Tronche</name>
    <src>Catasto Sentieri VdA (22_S34)</src>
    <trkseg>
      <trkpt lat="45.7993688" lon="6.9792735">
        <ele>1325</ele>
      </trkpt>
      <trkpt lat="45.7994945" lon="6.9795640">
        <ele>1328</ele>
      </trkpt>
      <trkpt lat="45.7995646" lon="6.9797929">
        <ele>1331</ele>
      </trkpt>
      <trkpt lat="45.7997315" lon="6.9799562">
        <ele>1334</ele>
      </trkpt>
      <trkpt lat="45.8000146" lon="6.9804169">
        <ele>1336</ele>
      </trkpt>
      <trkpt lat="45.8003344" lon="6.9809325">
        <ele>1339</ele>
      </trkpt>
      <trkpt lat="45.8005498" lon="6.9811307">
        <ele>1342</ele>
      </trkpt>
      <trkpt lat="45.8006383" lon="6.9812876">
        <ele>1345</ele>
      </trkpt>
      <trkpt lat="45.8007175" lon="6.9813635">
        <ele>1348</ele>
      </trkpt>
      <trkpt lat="45.8009722" lon="6.9816282">
        <ele>1351</ele>
      </trkpt>
      <trkpt lat="45.8010359" lon="6.9817000">
        <ele>1353</ele>
      </trkpt>
      <trkpt lat="45.8010694" lon="6.9817814">
        <ele>1356</ele>
      </trkpt>
      <trkpt lat="45.8010839" lon="6.9818655">
        <ele>1359</ele>
      </trkpt>
      <trkpt lat="45.8010924" lon="6.9819304">
        <ele>1362</ele>
      </trkpt>
      <trkpt lat="45.8010907" lon="6.9821152">
        <ele>1365</ele>
      </trkpt>
      <trkpt lat="45.8010977" lon="6.9822736">
        <ele>1368</ele>
      </trkpt>
      <trkpt lat="45.8011910" lon="6.9826787">
        <ele>1371</ele>
      </trkpt>
      <trkpt lat="45.8012139" lon="6.9828099">
        <ele>1373</ele>
      </trkpt>
      <trkpt lat="45.8012225" lon="6.9829502">
        <ele>1376</ele>
      </trkpt>
      <trkpt lat="45.8012022" lon="6.9830605">
        <ele>1379</ele>
      </trkpt>
      <trkpt lat="45.8011441" lon="6.9832350">
        <ele>1382</ele>
      </trkpt>
      <trkpt lat="45.8009680" lon="6.9836970">
        <ele>1385</ele>
      </trkpt>
      <trkpt lat="45.8009256" lon="6.9838401">
        <ele>1388</ele>
      </trkpt>
      <trkpt lat="45.8009191" lon="6.9839819">
        <ele>1390</ele>
      </trkpt>
      <trkpt lat="45.8009524" lon="6.9843410">
        <ele>1393</ele>
      </trkpt>
      <trkpt lat="45.8009727" lon="6.9844689">
        <ele>1396</ele>
      </trkpt>
      <trkpt lat="45.8010588" lon="6.9847618">
        <ele>1399</ele>
      </trkpt>
      <trkpt lat="45.8011111" lon="6.9851717">
        <ele>1402</ele>
      </trkpt>
      <trkpt lat="45.8012060" lon="6.9854514">
        <ele>1405</ele>
      </trkpt>
      <trkpt lat="45.8013169" lon="6.9856147">
        <ele>1407</ele>
      </trkpt>
      <trkpt lat="45.8013857" lon="6.9857134">
        <ele>1410</ele>
      </trkpt>
      <trkpt lat="45.8014325" lon="6.9857548">
        <ele>1413</ele>
      </trkpt>
      <trkpt lat="45.8014875" lon="6.9857663">
        <ele>1416</ele>
      </trkpt>
      <trkpt lat="45.8015515" lon="6.9857092">
        <ele>1419</ele>
      </trkpt>
      <trkpt lat="45.8015927" lon="6.9856594">
        <ele>1422</ele>
      </trkpt>
      <trkpt lat="45.8016169" lon="6.9855820">
        <ele>1425</ele>
      </trkpt>
      <trkpt lat="45.8016303" lon="6.9853241">
        <ele>1427</ele>
      </trkpt>
      <trkpt lat="45.8016663" lon="6.9852433">
        <ele>1430</ele>
      </trkpt>
      <trkpt lat="45.8017191" lon="6.9851770">
        <ele>1433</ele>
      </trkpt>
      <trkpt lat="45.8017641" lon="6.9851586">
        <ele>1436</ele>
      </trkpt>
      <trkpt lat="45.8018271" lon="6.9851563">
        <ele>1439</ele>
      </trkpt>
      <trkpt lat="45.8018644" lon="6.9851669">
        <ele>1442</ele>
      </trkpt>
      <trkpt lat="45.8019126" lon="6.9851569">
        <ele>1444</ele>
      </trkpt>
      <trkpt lat="45.8019763" lon="6.9851929">
        <ele>1447</ele>
      </trkpt>
      <trkpt lat="45.8020108" lon="6.9852637">
        <ele>1450</ele>
      </trkpt>
      <trkpt lat="45.8020404" lon="6.9853840">
        <ele>1453</ele>
      </trkpt>
      <trkpt lat="45.8020567" lon="6.9854133">
        <ele>1456</ele>
      </trkpt>
      <trkpt lat="45.8020787" lon="6.9854328">
        <ele>1459</ele>
      </trkpt>
      <trkpt lat="45.8021932" lon="6.9854550">
        <ele>1462</ele>
      </trkpt>
      <trkpt lat="45.8024132" lon="6.9861350">
        <ele>1464</ele>
      </trkpt>
      <trkpt lat="45.8024932" lon="6.9861650">
        <ele>1467</ele>
      </trkpt>
      <trkpt lat="45.8025532" lon="6.9866250">
        <ele>1470</ele>
      </trkpt>
      <trkpt lat="45.8027112" lon="6.9870050">
        <ele>1473</ele>
      </trkpt>
      <trkpt lat="45.8028532" lon="6.9865950">
        <ele>1476</ele>
      </trkpt>
      <trkpt lat="45.8028832" lon="6.9865650">
        <ele>1479</ele>
      </trkpt>
      <trkpt lat="45.8030672" lon="6.9867860">
        <ele>1481</ele>
      </trkpt>
      <trkpt lat="45.8030712" lon="6.9869920">
        <ele>1484</ele>
      </trkpt>
      <trkpt lat="45.8030332" lon="6.9872450">
        <ele>1487</ele>
      </trkpt>
      <trkpt lat="45.8031312" lon="6.9874410">
        <ele>1490</ele>
      </trkpt>
      <trkpt lat="45.8031353" lon="6.9876724">
        <ele>1493</ele>
      </trkpt>
      <trkpt lat="45.8031401" lon="6.9877807">
        <ele>1496</ele>
      </trkpt>
      <trkpt lat="45.8031691" lon="6.9878893">
        <ele>1498</ele>
      </trkpt>
      <trkpt lat="45.8032659" lon="6.9880975">
        <ele>1501</ele>
      </trkpt>
      <trkpt lat="45.8033528" lon="6.9882694">
        <ele>1504</ele>
      </trkpt>
      <trkpt lat="45.8034740" lon="6.9885096">
        <ele>1507</ele>
      </trkpt>
      <trkpt lat="45.8036223" lon="6.9887488">
        <ele>1510</ele>
      </trkpt>
      <trkpt lat="45.8038090" lon="6.9891281">
        <ele>1513</ele>
      </trkpt>
      <trkpt lat="45.8038659" lon="6.9892934">
        <ele>1516</ele>
      </trkpt>
      <trkpt lat="45.8039055" lon="6.9894978">
        <ele>1518</ele>
      </trkpt>
      <trkpt lat="45.8039984" lon="6.9896618">
        <ele>1521</ele>
      </trkpt>
      <trkpt lat="45.8041212" lon="6.9899920">
        <ele>1524</ele>
      </trkpt>
      <trkpt lat="45.8042595" lon="6.9901800">
        <ele>1527</ele>
      </trkpt>
      <trkpt lat="45.8042968" lon="6.9902559">
        <ele>1530</ele>
      </trkpt>
      <trkpt lat="45.8046270" lon="6.9911191">
        <ele>1533</ele>
      </trkpt>
      <trkpt lat="45.8049687" lon="6.9916087">
        <ele>1535</ele>
      </trkpt>
      <trkpt lat="45.8050447" lon="6.9918376">
        <ele>1538</ele>
      </trkpt>
      <trkpt lat="45.8051005" lon="6.9919386">
        <ele>1541</ele>
      </trkpt>
      <trkpt lat="45.8052833" lon="6.9920993">
        <ele>1544</ele>
      </trkpt>
      <trkpt lat="45.8053661" lon="6.9921993">
        <ele>1547</ele>
      </trkpt>
      <trkpt lat="45.8054730" lon="6.9922827">
        <ele>1550</ele>
      </trkpt>
      <trkpt lat="45.8055224" lon="6.9923573">
        <ele>1553</ele>
      </trkpt>
      <trkpt lat="45.8056254" lon="6.9926147">
        <ele>1555</ele>
      </trkpt>
      <trkpt lat="45.8056989" lon="6.9927021">
        <ele>1558</ele>
      </trkpt>
      <trkpt lat="45.8059400" lon="6.9931053">
        <ele>1561</ele>
      </trkpt>
      <trkpt lat="45.8062196" lon="6.9936486">
        <ele>1564</ele>
      </trkpt>
      <trkpt lat="45.8062657" lon="6.9937113">
        <ele>1567</ele>
      </trkpt>
      <trkpt lat="45.8064445" lon="6.9941553">
        <ele>1570</ele>
      </trkpt>
      <trkpt lat="45.8066658" lon="6.9944562">
        <ele>1572</ele>
      </trkpt>
      <trkpt lat="45.8070097" lon="6.9950745">
        <ele>1575</ele>
      </trkpt>
      <trkpt lat="45.8071428" lon="6.9954815">
        <ele>1578</ele>
      </trkpt>
      <trkpt lat="45.8072024" lon="6.9958011">
        <ele>1581</ele>
      </trkpt>
      <trkpt lat="45.8072240" lon="6.9960063">
        <ele>1584</ele>
      </trkpt>
      <trkpt lat="45.8073086" lon="6.9962092">
        <ele>1587</ele>
      </trkpt>
      <trkpt lat="45.8074188" lon="6.9963339">
        <ele>1590</ele>
      </trkpt>
      <trkpt lat="45.8075006" lon="6.9963825">
        <ele>1592</ele>
      </trkpt>
      <trkpt lat="45.8075855" lon="6.9963472">
        <ele>1595</ele>
      </trkpt>
      <trkpt lat="45.8077408" lon="6.9962194">
        <ele>1598</ele>
      </trkpt>
      <trkpt lat="45.8078130" lon="6.9962297">
        <ele>1601</ele>
      </trkpt>
      <trkpt lat="45.8078406" lon="6.9962673">
        <ele>1604</ele>
      </trkpt>
      <trkpt lat="45.8078616" lon="6.9964339">
        <ele>1607</ele>
      </trkpt>
      <trkpt lat="45.8078996" lon="6.9965483">
        <ele>1609</ele>
      </trkpt>
      <trkpt lat="45.8080278" lon="6.9966724">
        <ele>1612</ele>
      </trkpt>
      <trkpt lat="45.8080925" lon="6.9967731">
        <ele>1615</ele>
      </trkpt>
      <trkpt lat="45.8084600" lon="6.9971975">
        <ele>1618</ele>
      </trkpt>
      <trkpt lat="45.8087193" lon="6.9976129">
        <ele>1621</ele>
      </trkpt>
      <trkpt lat="45.8088506" lon="6.9979171">
        <ele>1624</ele>
      </trkpt>
      <trkpt lat="45.8088805" lon="6.9980833">
        <ele>1626</ele>
      </trkpt>
      <trkpt lat="45.8089275" lon="6.9981974">
        <ele>1629</ele>
      </trkpt>
      <trkpt lat="45.8090575" lon="6.9984244">
        <ele>1632</ele>
      </trkpt>
      <trkpt lat="45.8090607" lon="6.9986045">
        <ele>1635</ele>
      </trkpt>
      <trkpt lat="45.8091203" lon="6.9989241">
        <ele>1638</ele>
      </trkpt>
      <trkpt lat="45.8091486" lon="6.9990003">
        <ele>1641</ele>
      </trkpt>
      <trkpt lat="45.8093265" lon="6.9993929">
        <ele>1644</ele>
      </trkpt>
      <trkpt lat="45.8094565" lon="6.9996199">
        <ele>1646</ele>
      </trkpt>
      <trkpt lat="45.8097104" lon="7.0002415">
        <ele>1649</ele>
      </trkpt>
      <trkpt lat="45.8094732" lon="7.0002950">
        <ele>1652</ele>
      </trkpt>
      <trkpt lat="45.8094132" lon="7.0004350">
        <ele>1655</ele>
      </trkpt>
      <trkpt lat="45.8094132" lon="7.0006050">
        <ele>1658</ele>
      </trkpt>
      <trkpt lat="45.8093932" lon="7.0006950">
        <ele>1661</ele>
      </trkpt>
      <trkpt lat="45.8093332" lon="7.0007450">
        <ele>1663</ele>
      </trkpt>
      <trkpt lat="45.8092232" lon="7.0007550">
        <ele>1666</ele>
      </trkpt>
      <trkpt lat="45.8092232" lon="7.0008050">
        <ele>1669</ele>
      </trkpt>
      <trkpt lat="45.8092632" lon="7.0008650">
        <ele>1672</ele>
      </trkpt>
      <trkpt lat="45.8093232" lon="7.0010950">
        <ele>1675</ele>
      </trkpt>
      <trkpt lat="45.8095032" lon="7.0015150">
        <ele>1678</ele>
      </trkpt>
      <trkpt lat="45.8094532" lon="7.0017850">
        <ele>1681</ele>
      </trkpt>
      <trkpt lat="45.8094632" lon="7.0018750">
        <ele>1683</ele>
      </trkpt>
      <trkpt lat="45.8094532" lon="7.0019350">
        <ele>1686</ele>
      </trkpt>
      <trkpt lat="45.8094132" lon="7.0020150">
        <ele>1689</ele>
      </trkpt>
      <trkpt lat="45.8093532" lon="7.0020550">
        <ele>1692</ele>
      </trkpt>
      <trkpt lat="45.8092232" lon="7.0022750">
        <ele>1695</ele>
      </trkpt>
      <trkpt lat="45.8092732" lon="7.0022750">
        <ele>1698</ele>
      </trkpt>
      <trkpt lat="45.8092632" lon="7.0024450">
        <ele>1700</ele>
      </trkpt>
      <trkpt lat="45.8093032" lon="7.0025450">
        <ele>1703</ele>
      </trkpt>
      <trkpt lat="45.8092832" lon="7.0026350">
        <ele>1706</ele>
      </trkpt>
      <trkpt lat="45.8091032" lon="7.0026750">
        <ele>1709</ele>
      </trkpt>
      <trkpt lat="45.8088732" lon="7.0028750">
        <ele>1712</ele>
      </trkpt>
      <trkpt lat="45.8088032" lon="7.0030150">
        <ele>1715</ele>
      </trkpt>
      <trkpt lat="45.8087032" lon="7.0028450">
        <ele>1717</ele>
      </trkpt>
      <trkpt lat="45.8086532" lon="7.0028550">
        <ele>1720</ele>
      </trkpt>
      <trkpt lat="45.8085732" lon="7.0029150">
        <ele>1723</ele>
      </trkpt>
      <trkpt lat="45.8084332" lon="7.0029250">
        <ele>1726</ele>
      </trkpt>
      <trkpt lat="45.8083832" lon="7.0028650">
        <ele>1729</ele>
      </trkpt>
      <trkpt lat="45.8083232" lon="7.0028750">
        <ele>1732</ele>
      </trkpt>
      <trkpt lat="45.8082332" lon="7.0028450">
        <ele>1735</ele>
      </trkpt>
      <trkpt lat="45.8082232" lon="7.0027450">
        <ele>1737</ele>
      </trkpt>
      <trkpt lat="45.8081632" lon="7.0026750">
        <ele>1740</ele>
      </trkpt>
      <trkpt lat="45.8081032" lon="7.0026750">
        <ele>1743</ele>
      </trkpt>
      <trkpt lat="45.8080232" lon="7.0026250">
        <ele>1746</ele>
      </trkpt>
      <trkpt lat="45.8079432" lon="7.0025350">
        <ele>1749</ele>
      </trkpt>
      <trkpt lat="45.8078932" lon="7.0025350">
        <ele>1752</ele>
      </trkpt>
      <trkpt lat="45.8078132" lon="7.0023650">
        <ele>1754</ele>
      </trkpt>
      <trkpt lat="45.8077432" lon="7.0022750">
        <ele>1757</ele>
      </trkpt>
      <trkpt lat="45.8077132" lon="7.0023250">
        <ele>1760</ele>
      </trkpt>
      <trkpt lat="45.8076532" lon="7.0023550">
        <ele>1763</ele>
      </trkpt>
      <trkpt lat="45.8075892" lon="7.0023760">
        <ele>1766</ele>
      </trkpt>
      <trkpt lat="45.8075832" lon="7.0023450">
        <ele>1769</ele>
      </trkpt>
      <trkpt lat="45.8072832" lon="7.0027350">
        <ele>1772</ele>
      </trkpt>
      <trkpt lat="45.8070532" lon="7.0029350">
        <ele>1774</ele>
      </trkpt>
      <trkpt lat="45.8068232" lon="7.0028850">
        <ele>1777</ele>
      </trkpt>
      <trkpt lat="45.8067132" lon="7.0029750">
        <ele>1780</ele>
      </trkpt>
      <trkpt lat="45.8066832" lon="7.0030350">
        <ele>1783</ele>
      </trkpt>
      <trkpt lat="45.8067232" lon="7.0031450">
        <ele>1786</ele>
      </trkpt>
      <trkpt lat="45.8067732" lon="7.0032150">
        <ele>1789</ele>
      </trkpt>
      <trkpt lat="45.8068232" lon="7.0032550">
        <ele>1791</ele>
      </trkpt>
      <trkpt lat="45.8068732" lon="7.0032250">
        <ele>1794</ele>
      </trkpt>
      <trkpt lat="45.8069132" lon="7.0033050">
        <ele>1797</ele>
      </trkpt>
      <trkpt lat="45.8069132" lon="7.0033450">
        <ele>1800</ele>
      </trkpt>
      <trkpt lat="45.8069432" lon="7.0033750">
        <ele>1803</ele>
      </trkpt>
      <trkpt lat="45.8069232" lon="7.0034850">
        <ele>1806</ele>
      </trkpt>
      <trkpt lat="45.8069532" lon="7.0036050">
        <ele>1809</ele>
      </trkpt>
      <trkpt lat="45.8069232" lon="7.0037050">
        <ele>1811</ele>
      </trkpt>
      <trkpt lat="45.8069232" lon="7.0038950">
        <ele>1814</ele>
      </trkpt>
      <trkpt lat="45.8068932" lon="7.0039250">
        <ele>1817</ele>
      </trkpt>
      <trkpt lat="45.8068732" lon="7.0040050">
        <ele>1820</ele>
      </trkpt>
      <trkpt lat="45.8068132" lon="7.0041150">
        <ele>1823</ele>
      </trkpt>
      <trkpt lat="45.8066332" lon="7.0043250">
        <ele>1826</ele>
      </trkpt>
      <trkpt lat="45.8065822" lon="7.0044710">
        <ele>1828</ele>
      </trkpt>
      <trkpt lat="45.8064732" lon="7.0044850">
        <ele>1831</ele>
      </trkpt>
      <trkpt lat="45.8064032" lon="7.0045250">
        <ele>1834</ele>
      </trkpt>
      <trkpt lat="45.8064432" lon="7.0046050">
        <ele>1837</ele>
      </trkpt>
      <trkpt lat="45.8064832" lon="7.0046350">
        <ele>1840</ele>
      </trkpt>
      <trkpt lat="45.8065432" lon="7.0047750">
        <ele>1843</ele>
      </trkpt>
      <trkpt lat="45.8066832" lon="7.0047150">
        <ele>1845</ele>
      </trkpt>
      <trkpt lat="45.8067032" lon="7.0045950">
        <ele>1848</ele>
      </trkpt>
      <trkpt lat="45.8066932" lon="7.0045750">
        <ele>1851</ele>
      </trkpt>
      <trkpt lat="45.8067332" lon="7.0045150">
        <ele>1854</ele>
      </trkpt>
      <trkpt lat="45.8068232" lon="7.0046850">
        <ele>1857</ele>
      </trkpt>
      <trkpt lat="45.8068332" lon="7.0047550">
        <ele>1860</ele>
      </trkpt>
      <trkpt lat="45.8068132" lon="7.0048650">
        <ele>1863</ele>
      </trkpt>
      <trkpt lat="45.8068432" lon="7.0050550">
        <ele>1865</ele>
      </trkpt>
      <trkpt lat="45.8067532" lon="7.0052850">
        <ele>1868</ele>
      </trkpt>
      <trkpt lat="45.8067032" lon="7.0053650">
        <ele>1871</ele>
      </trkpt>
      <trkpt lat="45.8066032" lon="7.0054550">
        <ele>1874</ele>
      </trkpt>
      <trkpt lat="45.8065232" lon="7.0054350">
        <ele>1877</ele>
      </trkpt>
      <trkpt lat="45.8064932" lon="7.0054550">
        <ele>1880</ele>
      </trkpt>
      <trkpt lat="45.8063032" lon="7.0056050">
        <ele>1882</ele>
      </trkpt>
      <trkpt lat="45.8063032" lon="7.0056650">
        <ele>1885</ele>
      </trkpt>
      <trkpt lat="45.8065032" lon="7.0058350">
        <ele>1888</ele>
      </trkpt>
      <trkpt lat="45.8065832" lon="7.0059650">
        <ele>1891</ele>
      </trkpt>
      <trkpt lat="45.8066832" lon="7.0060050">
        <ele>1894</ele>
      </trkpt>
      <trkpt lat="45.8067632" lon="7.0059850">
        <ele>1897</ele>
      </trkpt>
      <trkpt lat="45.8069032" lon="7.0059050">
        <ele>1900</ele>
      </trkpt>
      <trkpt lat="45.8069332" lon="7.0059050">
        <ele>1902</ele>
      </trkpt>
      <trkpt lat="45.8069532" lon="7.0059350">
        <ele>1905</ele>
      </trkpt>
      <trkpt lat="45.8069132" lon="7.0060450">
        <ele>1908</ele>
      </trkpt>
      <trkpt lat="45.8068732" lon="7.0061050">
        <ele>1911</ele>
      </trkpt>
      <trkpt lat="45.8068632" lon="7.0061550">
        <ele>1914</ele>
      </trkpt>
      <trkpt lat="45.8067932" lon="7.0062250">
        <ele>1917</ele>
      </trkpt>
      <trkpt lat="45.8067632" lon="7.0063250">
        <ele>1919</ele>
      </trkpt>
      <trkpt lat="45.8065232" lon="7.0065850">
        <ele>1922</ele>
      </trkpt>
      <trkpt lat="45.8067032" lon="7.0065550">
        <ele>1925</ele>
      </trkpt>
      <trkpt lat="45.8068332" lon="7.0065750">
        <ele>1928</ele>
      </trkpt>
      <trkpt lat="45.8068532" lon="7.0065850">
        <ele>1931</ele>
      </trkpt>
      <trkpt lat="45.8068732" lon="7.0067150">
        <ele>1934</ele>
      </trkpt>
      <trkpt lat="45.8069132" lon="7.0068050">
        <ele>1937</ele>
      </trkpt>
      <trkpt lat="45.8069132" lon="7.0068950">
        <ele>1939</ele>
      </trkpt>
      <trkpt lat="45.8069532" lon="7.0068950">
        <ele>1942</ele>
      </trkpt>
      <trkpt lat="45.8069832" lon="7.0068550">
        <ele>1945</ele>
      </trkpt>
      <trkpt lat="45.8069932" lon="7.0067750">
        <ele>1948</ele>
      </trkpt>
      <trkpt lat="45.8070232" lon="7.0067850">
        <ele>1951</ele>
      </trkpt>
      <trkpt lat="45.8070432" lon="7.0068350">
        <ele>1954</ele>
      </trkpt>
      <trkpt lat="45.8070032" lon="7.0074050">
        <ele>1956</ele>
      </trkpt>
      <trkpt lat="45.8069632" lon="7.0074650">
        <ele>1959</ele>
      </trkpt>
      <trkpt lat="45.8069432" lon="7.0075350">
        <ele>1962</ele>
      </trkpt>
      <trkpt lat="45.8070432" lon="7.0076150">
        <ele>1965</ele>
      </trkpt>
      <trkpt lat="45.8071432" lon="7.0076250">
        <ele>1968</ele>
      </trkpt>
      <trkpt lat="45.8071532" lon="7.0077050">
        <ele>1971</ele>
      </trkpt>
      <trkpt lat="45.8071432" lon="7.0078450">
        <ele>1973</ele>
      </trkpt>
      <trkpt lat="45.8071832" lon="7.0079350">
        <ele>1976</ele>
      </trkpt>
      <trkpt lat="45.8071932" lon="7.0080250">
        <ele>1979</ele>
      </trkpt>
      <trkpt lat="45.8070632" lon="7.0081450">
        <ele>1982</ele>
      </trkpt>
      <trkpt lat="45.8069342" lon="7.0081140">
        <ele>1985</ele>
      </trkpt>
      <trkpt lat="45.8069023" lon="7.0081615">
        <ele>1988</ele>
      </trkpt>
      <trkpt lat="45.8070072" lon="7.0082140">
        <ele>1991</ele>
      </trkpt>
      <trkpt lat="45.8071532" lon="7.0083950">
        <ele>1993</ele>
      </trkpt>
      <trkpt lat="45.8073232" lon="7.0084550">
        <ele>1996</ele>
      </trkpt>
      <trkpt lat="45.8074732" lon="7.0084650">
        <ele>1999</ele>
      </trkpt>
      <trkpt lat="45.8076132" lon="7.0085150">
        <ele>2002</ele>
      </trkpt>
      <trkpt lat="45.8077632" lon="7.0085250">
        <ele>2005</ele>
      </trkpt>
      <trkpt lat="45.8079632" lon="7.0084750">
        <ele>2008</ele>
      </trkpt>
      <trkpt lat="45.8078832" lon="7.0082850">
        <ele>2010</ele>
      </trkpt>
      <trkpt lat="45.8079732" lon="7.0082750">
        <ele>2013</ele>
      </trkpt>
      <trkpt lat="45.8079832" lon="7.0083550">
        <ele>2016</ele>
      </trkpt>
      <trkpt lat="45.8080532" lon="7.0083850">
        <ele>2019</ele>
      </trkpt>
      <trkpt lat="45.8081732" lon="7.0086350">
        <ele>2022</ele>
      </trkpt>
      <trkpt lat="45.8082032" lon="7.0086250">
        <ele>2025</ele>
      </trkpt>
      <trkpt lat="45.8082132" lon="7.0084050">
        <ele>2028</ele>
      </trkpt>
      <trkpt lat="45.8083832" lon="7.0083950">
        <ele>2030</ele>
      </trkpt>
      <trkpt lat="45.8085032" lon="7.0086250">
        <ele>2033</ele>
      </trkpt>
      <trkpt lat="45.8085992" lon="7.0086720">
        <ele>2036</ele>
      </trkpt>
      <trkpt lat="45.8086712" lon="7.0086690">
        <ele>2039</ele>
      </trkpt>
      <trkpt lat="45.8087092" lon="7.0087710">
        <ele>2042</ele>
      </trkpt>
      <trkpt lat="45.8086732" lon="7.0090950">
        <ele>2045</ele>
      </trkpt>
      <trkpt lat="45.8087332" lon="7.0092650">
        <ele>2047</ele>
      </trkpt>
      <trkpt lat="45.8087032" lon="7.0093950">
        <ele>2050</ele>
      </trkpt>
      <trkpt lat="45.8087932" lon="7.0097550">
        <ele>2053</ele>
      </trkpt>
      <trkpt lat="45.8087432" lon="7.0099350">
        <ele>2056</ele>
      </trkpt>
      <trkpt lat="45.8087432" lon="7.0101350">
        <ele>2059</ele>
      </trkpt>
      <trkpt lat="45.8087832" lon="7.0102350">
        <ele>2062</ele>
      </trkpt>
      <trkpt lat="45.8087832" lon="7.0103950">
        <ele>2064</ele>
      </trkpt>
      <trkpt lat="45.8086532" lon="7.0107150">
        <ele>2067</ele>
      </trkpt>
      <trkpt lat="45.8087732" lon="7.0113650">
        <ele>2070</ele>
      </trkpt>
      <trkpt lat="45.8088532" lon="7.0115350">
        <ele>2073</ele>
      </trkpt>
      <trkpt lat="45.8089432" lon="7.0115050">
        <ele>2076</ele>
      </trkpt>
      <trkpt lat="45.8091132" lon="7.0115550">
        <ele>2079</ele>
      </trkpt>
      <trkpt lat="45.8091732" lon="7.0116050">
        <ele>2082</ele>
      </trkpt>
      <trkpt lat="45.8093732" lon="7.0116950">
        <ele>2084</ele>
      </trkpt>
      <trkpt lat="45.8095432" lon="7.0117050">
        <ele>2087</ele>
      </trkpt>
      <trkpt lat="45.8097932" lon="7.0117550">
        <ele>2090</ele>
      </trkpt>
      <trkpt lat="45.8099132" lon="7.0119450">
        <ele>2093</ele>
      </trkpt>
      <trkpt lat="45.8101132" lon="7.0120550">
        <ele>2096</ele>
      </trkpt>
      <trkpt lat="45.8102032" lon="7.0120750">
        <ele>2099</ele>
      </trkpt>
      <trkpt lat="45.8104032" lon="7.0120550">
        <ele>2101</ele>
      </trkpt>
      <trkpt lat="45.8105133" lon="7.0121650">
        <ele>2104</ele>
      </trkpt>
      <trkpt lat="45.8105432" lon="7.0123350">
        <ele>2107</ele>
      </trkpt>
      <trkpt lat="45.8107332" lon="7.0125450">
        <ele>2110</ele>
      </trkpt>
      <trkpt lat="45.8107533" lon="7.0126750">
        <ele>2113</ele>
      </trkpt>
      <trkpt lat="45.8109633" lon="7.0128250">
        <ele>2116</ele>
      </trkpt>
      <trkpt lat="45.8112433" lon="7.0128050">
        <ele>2119</ele>
      </trkpt>
      <trkpt lat="45.8113233" lon="7.0128450">
        <ele>2121</ele>
      </trkpt>
      <trkpt lat="45.8113833" lon="7.0129550">
        <ele>2124</ele>
      </trkpt>
      <trkpt lat="45.8113833" lon="7.0132950">
        <ele>2127</ele>
      </trkpt>
      <trkpt lat="45.8113333" lon="7.0134350">
        <ele>2130</ele>
      </trkpt>
      <trkpt lat="45.8113233" lon="7.0136850">
        <ele>2133</ele>
      </trkpt>
      <trkpt lat="45.8113633" lon="7.0137650">
        <ele>2136</ele>
      </trkpt>
      <trkpt lat="45.8113333" lon="7.0139950">
        <ele>2138</ele>
      </trkpt>
      <trkpt lat="45.8113833" lon="7.0141850">
        <ele>2141</ele>
      </trkpt>
      <trkpt lat="45.8112633" lon="7.0143850">
        <ele>2144</ele>
      </trkpt>
      <trkpt lat="45.8113533" lon="7.0145750">
        <ele>2147</ele>
      </trkpt>
      <trkpt lat="45.8112933" lon="7.0149650">
        <ele>2150</ele>
      </trkpt>
      <trkpt lat="45.8113633" lon="7.0155750">
        <ele>2153</ele>
      </trkpt>
      <trkpt lat="45.8114633" lon="7.0157650">
        <ele>2156</ele>
      </trkpt>
      <trkpt lat="45.8114733" lon="7.0159350">
        <ele>2158</ele>
      </trkpt>
      <trkpt lat="45.8116033" lon="7.0161250">
        <ele>2161</ele>
      </trkpt>
      <trkpt lat="45.8116633" lon="7.0162750">
        <ele>2164</ele>
      </trkpt>
      <trkpt lat="45.8117133" lon="7.0163150">
        <ele>2167</ele>
      </trkpt>
      <trkpt lat="45.8117433" lon="7.0164250">
        <ele>2170</ele>
      </trkpt>
      <trkpt lat="45.8118433" lon="7.0164950">
        <ele>2173</ele>
      </trkpt>
      <trkpt lat="45.8120233" lon="7.0165450">
        <ele>2175</ele>
      </trkpt>
      <trkpt lat="45.8122733" lon="7.0167750">
        <ele>2178</ele>
      </trkpt>
      <trkpt lat="45.8123133" lon="7.0168750">
        <ele>2181</ele>
      </trkpt>
      <trkpt lat="45.8123133" lon="7.0171250">
        <ele>2184</ele>
      </trkpt>
      <trkpt lat="45.8124733" lon="7.0175350">
        <ele>2187</ele>
      </trkpt>
      <trkpt lat="45.8124733" lon="7.0177450">
        <ele>2190</ele>
      </trkpt>
      <trkpt lat="45.8126033" lon="7.0179150">
        <ele>2192</ele>
      </trkpt>
      <trkpt lat="45.8126533" lon="7.0181250">
        <ele>2195</ele>
      </trkpt>
      <trkpt lat="45.8127533" lon="7.0181950">
        <ele>2198</ele>
      </trkpt>
      <trkpt lat="45.8127933" lon="7.0183150">
        <ele>2201</ele>
      </trkpt>
      <trkpt lat="45.8129033" lon="7.0183850">
        <ele>2204</ele>
      </trkpt>
      <trkpt lat="45.8129333" lon="7.0182350">
        <ele>2207</ele>
      </trkpt>
      <trkpt lat="45.8131033" lon="7.0182550">
        <ele>2210</ele>
      </trkpt>
      <trkpt lat="45.8131333" lon="7.0181950">
        <ele>2212</ele>
      </trkpt>
      <trkpt lat="45.8133533" lon="7.0180350">
        <ele>2215</ele>
      </trkpt>
      <trkpt lat="45.8135033" lon="7.0179950">
        <ele>2218</ele>
      </trkpt>
      <trkpt lat="45.8136833" lon="7.0179850">
        <ele>2221</ele>
      </trkpt>
      <trkpt lat="45.8137233" lon="7.0179350">
        <ele>2224</ele>
      </trkpt>
      <trkpt lat="45.8138833" lon="7.0181250">
        <ele>2227</ele>
      </trkpt>
      <trkpt lat="45.8139333" lon="7.0181250">
        <ele>2229</ele>
      </trkpt>
      <trkpt lat="45.8142133" lon="7.0179650">
        <ele>2232</ele>
      </trkpt>
      <trkpt lat="45.8142333" lon="7.0180050">
        <ele>2235</ele>
      </trkpt>
      <trkpt lat="45.8143433" lon="7.0180550">
        <ele>2238</ele>
      </trkpt>
      <trkpt lat="45.8144833" lon="7.0178850">
        <ele>2241</ele>
      </trkpt>
      <trkpt lat="45.8145033" lon="7.0179450">
        <ele>2244</ele>
      </trkpt>
      <trkpt lat="45.8146033" lon="7.0179850">
        <ele>2247</ele>
      </trkpt>
      <trkpt lat="45.8145833" lon="7.0181850">
        <ele>2249</ele>
      </trkpt>
      <trkpt lat="45.8146833" lon="7.0181150">
        <ele>2252</ele>
      </trkpt>
      <trkpt lat="45.8147933" lon="7.0180950">
        <ele>2255</ele>
      </trkpt>
      <trkpt lat="45.8148033" lon="7.0182950">
        <ele>2258</ele>
      </trkpt>
      <trkpt lat="45.8148433" lon="7.0182550">
        <ele>2261</ele>
      </trkpt>
      <trkpt lat="45.8148833" lon="7.0182650">
        <ele>2264</ele>
      </trkpt>
      <trkpt lat="45.8148833" lon="7.0183650">
        <ele>2266</ele>
      </trkpt>
      <trkpt lat="45.8149433" lon="7.0185150">
        <ele>2269</ele>
      </trkpt>
      <trkpt lat="45.8149233" lon="7.0185750">
        <ele>2272</ele>
      </trkpt>
      <trkpt lat="45.8148933" lon="7.0188850">
        <ele>2275</ele>
      </trkpt>
      <trkpt lat="45.8149633" lon="7.0190350">
        <ele>2278</ele>
      </trkpt>
      <trkpt lat="45.8149033" lon="7.0192550">
        <ele>2281</ele>
      </trkpt>
      <trkpt lat="45.8148333" lon="7.0192650">
        <ele>2283</ele>
      </trkpt>
      <trkpt lat="45.8148633" lon="7.0193350">
        <ele>2286</ele>
      </trkpt>
      <trkpt lat="45.8149233" lon="7.0193550">
        <ele>2289</ele>
      </trkpt>
      <trkpt lat="45.8149133" lon="7.0194050">
        <ele>2292</ele>
      </trkpt>
      <trkpt lat="45.8149433" lon="7.0194550">
        <ele>2295</ele>
      </trkpt>
      <trkpt lat="45.8150033" lon="7.0194850">
        <ele>2298</ele>
      </trkpt>
      <trkpt lat="45.8150433" lon="7.0194650">
        <ele>2301</ele>
      </trkpt>
      <trkpt lat="45.8151233" lon="7.0194850">
        <ele>2303</ele>
      </trkpt>
      <trkpt lat="45.8152333" lon="7.0192050">
        <ele>2306</ele>
      </trkpt>
      <trkpt lat="45.8153233" lon="7.0191350">
        <ele>2309</ele>
      </trkpt>
      <trkpt lat="45.8153433" lon="7.0192050">
        <ele>2312</ele>
      </trkpt>
      <trkpt lat="45.8153133" lon="7.0192150">
        <ele>2315</ele>
      </trkpt>
      <trkpt lat="45.8155533" lon="7.0191750">
        <ele>2318</ele>
      </trkpt>
      <trkpt lat="45.8155233" lon="7.0193450">
        <ele>2320</ele>
      </trkpt>
      <trkpt lat="45.8155833" lon="7.0192950">
        <ele>2323</ele>
      </trkpt>
      <trkpt lat="45.8156733" lon="7.0193950">
        <ele>2326</ele>
      </trkpt>
      <trkpt lat="45.8157233" lon="7.0195550">
        <ele>2329</ele>
      </trkpt>
      <trkpt lat="45.8157933" lon="7.0195350">
        <ele>2332</ele>
      </trkpt>
      <trkpt lat="45.8158033" lon="7.0196750">
        <ele>2335</ele>
      </trkpt>
      <trkpt lat="45.8158633" lon="7.0198150">
        <ele>2338</ele>
      </trkpt>
      <trkpt lat="45.8159433" lon="7.0198450">
        <ele>2340</ele>
      </trkpt>
      <trkpt lat="45.8159733" lon="7.0197250">
        <ele>2343</ele>
      </trkpt>
      <trkpt lat="45.8160033" lon="7.0197750">
        <ele>2346</ele>
      </trkpt>
      <trkpt lat="45.8161133" lon="7.0197650">
        <ele>2349</ele>
      </trkpt>
      <trkpt lat="45.8161033" lon="7.0196450">
        <ele>2352</ele>
      </trkpt>
      <trkpt lat="45.8162133" lon="7.0196650">
        <ele>2355</ele>
      </trkpt>
      <trkpt lat="45.8162333" lon="7.0196950">
        <ele>2357</ele>
      </trkpt>
      <trkpt lat="45.8162733" lon="7.0197050">
        <ele>2360</ele>
      </trkpt>
      <trkpt lat="45.8162933" lon="7.0196350">
        <ele>2363</ele>
      </trkpt>
      <trkpt lat="45.8164433" lon="7.0195450">
        <ele>2366</ele>
      </trkpt>
      <trkpt lat="45.8164733" lon="7.0195750">
        <ele>2369</ele>
      </trkpt>
      <trkpt lat="45.8166033" lon="7.0193750">
        <ele>2372</ele>
      </trkpt>
      <trkpt lat="45.8166433" lon="7.0193850">
        <ele>2375</ele>
      </trkpt>
      <trkpt lat="45.8166833" lon="7.0195150">
        <ele>2377</ele>
      </trkpt>
      <trkpt lat="45.8167133" lon="7.0195150">
        <ele>2380</ele>
      </trkpt>
      <trkpt lat="45.8167233" lon="7.0195550">
        <ele>2383</ele>
      </trkpt>
      <trkpt lat="45.8167733" lon="7.0195150">
        <ele>2386</ele>
      </trkpt>
      <trkpt lat="45.8169033" lon="7.0198850">
        <ele>2389</ele>
      </trkpt>
      <trkpt lat="45.8169933" lon="7.0200250">
        <ele>2392</ele>
      </trkpt>
      <trkpt lat="45.8171533" lon="7.0201350">
        <ele>2394</ele>
      </trkpt>
      <trkpt lat="45.8171533" lon="7.0201850">
        <ele>2397</ele>
      </trkpt>
      <trkpt lat="45.8172433" lon="7.0203050">
        <ele>2400</ele>
      </trkpt>
      <trkpt lat="45.8172833" lon="7.0202350">
        <ele>2403</ele>
      </trkpt>
      <trkpt lat="45.8173433" lon="7.0200450">
        <ele>2406</ele>
      </trkpt>
      <trkpt lat="45.8173233" lon="7.0197550">
        <ele>2409</ele>
      </trkpt>
      <trkpt lat="45.8174633" lon="7.0198550">
        <ele>2411</ele>
      </trkpt>
      <trkpt lat="45.8174933" lon="7.0198550">
        <ele>2414</ele>
      </trkpt>
      <trkpt lat="45.8175633" lon="7.0200650">
        <ele>2417</ele>
      </trkpt>
      <trkpt lat="45.8176433" lon="7.0200950">
        <ele>2420</ele>
      </trkpt>
      <trkpt lat="45.8177433" lon="7.0202150">
        <ele>2423</ele>
      </trkpt>
      <trkpt lat="45.8177833" lon="7.0202150">
        <ele>2426</ele>
      </trkpt>
      <trkpt lat="45.8178333" lon="7.0203650">
        <ele>2429</ele>
      </trkpt>
      <trkpt lat="45.8178633" lon="7.0203650">
        <ele>2431</ele>
      </trkpt>
      <trkpt lat="45.8179133" lon="7.0204450">
        <ele>2434</ele>
      </trkpt>
      <trkpt lat="45.8179433" lon="7.0204250">
        <ele>2437</ele>
      </trkpt>
      <trkpt lat="45.8179733" lon="7.0206150">
        <ele>2440</ele>
      </trkpt>
      <trkpt lat="45.8180233" lon="7.0206950">
        <ele>2443</ele>
      </trkpt>
      <trkpt lat="45.8180533" lon="7.0206050">
        <ele>2446</ele>
      </trkpt>
      <trkpt lat="45.8181233" lon="7.0206150">
        <ele>2448</ele>
      </trkpt>
      <trkpt lat="45.8182933" lon="7.0207650">
        <ele>2451</ele>
      </trkpt>
      <trkpt lat="45.8183133" lon="7.0208150">
        <ele>2454</ele>
      </trkpt>
      <trkpt lat="45.8184833" lon="7.0209350">
        <ele>2457</ele>
      </trkpt>
      <trkpt lat="45.8184933" lon="7.0209950">
        <ele>2460</ele>
      </trkpt>
      <trkpt lat="45.8185533" lon="7.0210250">
        <ele>2463</ele>
      </trkpt>
      <trkpt lat="45.8186833" lon="7.0212750">
        <ele>2466</ele>
      </trkpt>
      <trkpt lat="45.8186933" lon="7.0213750">
        <ele>2468</ele>
      </trkpt>
      <trkpt lat="45.8187933" lon="7.0214250">
        <ele>2471</ele>
      </trkpt>
      <trkpt lat="45.8188633" lon="7.0217950">
        <ele>2474</ele>
      </trkpt>
      <trkpt lat="45.8189233" lon="7.0217750">
        <ele>2477</ele>
      </trkpt>
      <trkpt lat="45.8189433" lon="7.0218250">
        <ele>2480</ele>
      </trkpt>
      <trkpt lat="45.8189833" lon="7.0218250">
        <ele>2483</ele>
      </trkpt>
      <trkpt lat="45.8190133" lon="7.0219650">
        <ele>2485</ele>
      </trkpt>
      <trkpt lat="45.8190733" lon="7.0220950">
        <ele>2488</ele>
      </trkpt>
      <trkpt lat="45.8192533" lon="7.0223150">
        <ele>2491</ele>
      </trkpt>
      <trkpt lat="45.8193433" lon="7.0224550">
        <ele>2494</ele>
      </trkpt>
      <trkpt lat="45.8194333" lon="7.0227350">
        <ele>2497</ele>
      </trkpt>
      <trkpt lat="45.8194333" lon="7.0228050">
        <ele>2500</ele>
      </trkpt>
      <trkpt lat="45.8193733" lon="7.0228150">
        <ele>2502</ele>
      </trkpt>
      <trkpt lat="45.8194933" lon="7.0229750">
        <ele>2505</ele>
      </trkpt>
      <trkpt lat="45.8195233" lon="7.0231250">
        <ele>2508</ele>
      </trkpt>
      <trkpt lat="45.8196433" lon="7.0233350">
        <ele>2511</ele>
      </trkpt>
      <trkpt lat="45.8197033" lon="7.0235950">
        <ele>2514</ele>
      </trkpt>
      <trkpt lat="45.8197703" lon="7.0237210">
        <ele>2517</ele>
      </trkpt>
      <trkpt lat="45.8199123" lon="7.0236130">
        <ele>2520</ele>
      </trkpt>
      <trkpt lat="45.8203833" lon="7.0227050">
        <ele>2522</ele>
      </trkpt>
      <trkpt lat="45.8205133" lon="7.0227150">
        <ele>2525</ele>
      </trkpt>
      <trkpt lat="45.8209133" lon="7.0223950">
        <ele>2528</ele>
      </trkpt>
      <trkpt lat="45.8210033" lon="7.0225350">
        <ele>2531</ele>
      </trkpt>
      <trkpt lat="45.8214823" lon="7.0222850">
        <ele>2534</ele>
      </trkpt>
      <trkpt lat="45.8217823" lon="7.0217550">
        <ele>2537</ele>
      </trkpt>
      <trkpt lat="45.8218935" lon="7.0206595">
        <ele>2539</ele>
      </trkpt>
      <trkpt lat="45.8223223" lon="7.0206450">
        <ele>2542</ele>
      </trkpt>
      <trkpt lat="45.8227423" lon="7.0207350">
        <ele>2545</ele>
      </trkpt>
      <trkpt lat="45.8235033" lon="7.0201130">
        <ele>2548</ele>
      </trkpt>
    </trkseg>
  </trk>
</gpx>
