<?xml version="1.0" encoding="UTF-8"?>
<gpx version="1.1" creator="sentieri-vda" xmlns="http://www.topografix.com/GPX/1/1">
  <metadata>
    <name>Plan Ponquet  - Mont-Chetif</name>
    <desc>Catasto Sentieri VdA — 22_S45</desc>
    <author><name>Regione Autonoma Valle d'Aosta</name></author>
  </metadata>
  <trk>
    <name>Plan Ponquet  - Mont-Chetif</name>
    <src>Catasto Sentieri VdA (22_S45)</src>
    <trkseg>
      <trkpt lat="45.8000632" lon="6.9514810">
        <ele>1512</ele>
      </trkpt>
      <trkpt lat="45.8000242" lon="6.9513860">
        <ele>1515</ele>
      </trkpt>
      <trkpt lat="45.8000642" lon="6.9512960">
        <ele>1519</ele>
      </trkpt>
      <trkpt lat="45.8000242" lon="6.9512560">
        <ele>1522</ele>
      </trkpt>
      <trkpt lat="45.8000042" lon="6.9511460">
        <ele>1526</ele>
      </trkpt>
      <trkpt lat="45.8000242" lon="6.9509560">
        <ele>1529</ele>
      </trkpt>
      <trkpt lat="45.7999542" lon="6.9507460">
        <ele>1532</ele>
      </trkpt>
      <trkpt lat="45.7999342" lon="6.9504860">
        <ele>1536</ele>
      </trkpt>
      <trkpt lat="45.7998742" lon="6.9503960">
        <ele>1539</ele>
      </trkpt>
      <trkpt lat="45.7998542" lon="6.9500360">
        <ele>1542</ele>
      </trkpt>
      <trkpt lat="45.7998742" lon="6.9499860">
        <ele>1546</ele>
      </trkpt>
      <trkpt lat="45.7998192" lon="6.9498940">
        <ele>1549</ele>
      </trkpt>
      <trkpt lat="45.7997842" lon="6.9494060">
        <ele>1553</ele>
      </trkpt>
      <trkpt lat="45.7997042" lon="6.9491760">
        <ele>1556</ele>
      </trkpt>
      <trkpt lat="45.7996542" lon="6.9491360">
        <ele>1559</ele>
      </trkpt>
      <trkpt lat="45.7996142" lon="6.9488960">
        <ele>1563</ele>
      </trkpt>
      <trkpt lat="45.7995942" lon="6.9488960">
        <ele>1566</ele>
      </trkpt>
      <trkpt lat="45.7996142" lon="6.9487260">
        <ele>1570</ele>
      </trkpt>
      <trkpt lat="45.7995542" lon="6.9484860">
        <ele>1573</ele>
      </trkpt>
      <trkpt lat="45.7995742" lon="6.9484860">
        <ele>1576</ele>
      </trkpt>
      <trkpt lat="45.7995742" lon="6.9483760">
        <ele>1580</ele>
      </trkpt>
      <trkpt lat="45.7996342" lon="6.9483160">
        <ele>1583</ele>
      </trkpt>
      <trkpt lat="45.7995942" lon="6.9483160">
        <ele>1586</ele>
      </trkpt>
      <trkpt lat="45.7995942" lon="6.9482260">
        <ele>1590</ele>
      </trkpt>
      <trkpt lat="45.7995342" lon="6.9481860">
        <ele>1593</ele>
      </trkpt>
      <trkpt lat="45.7995742" lon="6.9480360">
        <ele>1597</ele>
      </trkpt>
      <trkpt lat="45.7995342" lon="6.9479960">
        <ele>1600</ele>
      </trkpt>
      <trkpt lat="45.7994642" lon="6.9479960">
        <ele>1603</ele>
      </trkpt>
      <trkpt lat="45.7994242" lon="6.9480360">
        <ele>1607</ele>
      </trkpt>
      <trkpt lat="45.7993842" lon="6.9479960">
        <ele>1610</ele>
      </trkpt>
      <trkpt lat="45.7993542" lon="6.9480560">
        <ele>1614</ele>
      </trkpt>
      <trkpt lat="45.7993142" lon="6.9480360">
        <ele>1617</ele>
      </trkpt>
      <trkpt lat="45.7993142" lon="6.9477160">
        <ele>1620</ele>
      </trkpt>
      <trkpt lat="45.7992942" lon="6.9477160">
        <ele>1624</ele>
      </trkpt>
      <trkpt lat="45.7992742" lon="6.9475460">
        <ele>1627</ele>
      </trkpt>
      <trkpt lat="45.7992942" lon="6.9474360">
        <ele>1630</ele>
      </trkpt>
      <trkpt lat="45.7992542" lon="6.9473760">
        <ele>1634</ele>
      </trkpt>
      <trkpt lat="45.7992542" lon="6.9473060">
        <ele>1637</ele>
      </trkpt>
      <trkpt lat="45.7991642" lon="6.9472860">
        <ele>1641</ele>
      </trkpt>
      <trkpt lat="45.7990742" lon="6.9473760">
        <ele>1644</ele>
      </trkpt>
      <trkpt lat="45.7990342" lon="6.9472460">
        <ele>1647</ele>
      </trkpt>
      <trkpt lat="45.7990120" lon="6.9470933">
        <ele>1651</ele>
      </trkpt>
      <trkpt lat="45.7989742" lon="6.9470460">
        <ele>1654</ele>
      </trkpt>
      <trkpt lat="45.7989742" lon="6.9469660">
        <ele>1657</ele>
      </trkpt>
      <trkpt lat="45.7988842" lon="6.9468160">
        <ele>1661</ele>
      </trkpt>
      <trkpt lat="45.7987742" lon="6.9464960">
        <ele>1664</ele>
      </trkpt>
      <trkpt lat="45.7987342" lon="6.9461960">
        <ele>1668</ele>
      </trkpt>
      <trkpt lat="45.7987542" lon="6.9461660">
        <ele>1671</ele>
      </trkpt>
      <trkpt lat="45.7987342" lon="6.9461260">
        <ele>1674</ele>
      </trkpt>
      <trkpt lat="45.7987342" lon="6.9456360">
        <ele>1678</ele>
      </trkpt>
      <trkpt lat="45.7988042" lon="6.9458260">
        <ele>1681</ele>
      </trkpt>
      <trkpt lat="45.7988642" lon="6.9458660">
        <ele>1685</ele>
      </trkpt>
      <trkpt lat="45.7988842" lon="6.9456560">
        <ele>1688</ele>
      </trkpt>
      <trkpt lat="45.7990142" lon="6.9450960">
        <ele>1691</ele>
      </trkpt>
      <trkpt lat="45.7990342" lon="6.9449460">
        <ele>1695</ele>
      </trkpt>
      <trkpt lat="45.7989942" lon="6.9446660">
        <ele>1698</ele>
      </trkpt>
      <trkpt lat="45.7990142" lon="6.9446060">
        <ele>1701</ele>
      </trkpt>
      <trkpt lat="45.7989742" lon="6.9444760">
        <ele>1705</ele>
      </trkpt>
      <trkpt lat="45.7989242" lon="6.9444560">
        <ele>1708</ele>
      </trkpt>
      <trkpt lat="45.7988042" lon="6.9443060">
        <ele>1712</ele>
      </trkpt>
      <trkpt lat="45.7988042" lon="6.9442360">
        <ele>1715</ele>
      </trkpt>
      <trkpt lat="45.7987742" lon="6.9441760">
        <ele>1718</ele>
      </trkpt>
      <trkpt lat="45.7988042" lon="6.9441360">
        <ele>1722</ele>
      </trkpt>
      <trkpt lat="45.7987342" lon="6.9441060">
        <ele>1725</ele>
      </trkpt>
      <trkpt lat="45.7986242" lon="6.9439860">
        <ele>1729</ele>
      </trkpt>
      <trkpt lat="45.7985042" lon="6.9439560">
        <ele>1732</ele>
      </trkpt>
      <trkpt lat="45.7984542" lon="6.9438960">
        <ele>1735</ele>
      </trkpt>
      <trkpt lat="45.7982842" lon="6.9438560">
        <ele>1739</ele>
      </trkpt>
      <trkpt lat="45.7982442" lon="6.9437860">
        <ele>1742</ele>
      </trkpt>
      <trkpt lat="45.7982242" lon="6.9438360">
        <ele>1745</ele>
      </trkpt>
      <trkpt lat="45.7981142" lon="6.9438560">
        <ele>1749</ele>
      </trkpt>
      <trkpt lat="45.7981342" lon="6.9437860">
        <ele>1752</ele>
      </trkpt>
      <trkpt lat="45.7980942" lon="6.9438060">
        <ele>1756</ele>
      </trkpt>
      <trkpt lat="45.7980942" lon="6.9437460">
        <ele>1759</ele>
      </trkpt>
      <trkpt lat="45.7980042" lon="6.9438360">
        <ele>1762</ele>
      </trkpt>
      <trkpt lat="45.7979242" lon="6.9438560">
        <ele>1766</ele>
      </trkpt>
      <trkpt lat="45.7978942" lon="6.9438360">
        <ele>1769</ele>
      </trkpt>
      <trkpt lat="45.7979442" lon="6.9437260">
        <ele>1773</ele>
      </trkpt>
      <trkpt lat="45.7979072" lon="6.9436850">
        <ele>1776</ele>
      </trkpt>
      <trkpt lat="45.7979742" lon="6.9434760">
        <ele>1779</ele>
      </trkpt>
      <trkpt lat="45.7979965" lon="6.9434537">
        <ele>1783</ele>
      </trkpt>
      <trkpt lat="45.7980242" lon="6.9433360">
        <ele>1786</ele>
      </trkpt>
      <trkpt lat="45.7979942" lon="6.9433060">
        <ele>1789</ele>
      </trkpt>
      <trkpt lat="45.7981142" lon="6.9430460">
        <ele>1793</ele>
      </trkpt>
      <trkpt lat="45.7981042" lon="6.9429160">
        <ele>1796</ele>
      </trkpt>
      <trkpt lat="45.7981442" lon="6.9426960">
        <ele>1800</ele>
      </trkpt>
      <trkpt lat="45.7982642" lon="6.9425860">
        <ele>1803</ele>
      </trkpt>
      <trkpt lat="45.7982742" lon="6.9424360">
        <ele>1806</ele>
      </trkpt>
      <trkpt lat="45.7982342" lon="6.9424160">
        <ele>1810</ele>
      </trkpt>
      <trkpt lat="45.7982342" lon="6.9422760">
        <ele>1813</ele>
      </trkpt>
      <trkpt lat="45.7982742" lon="6.9421460">
        <ele>1817</ele>
      </trkpt>
      <trkpt lat="45.7982442" lon="6.9421160">
        <ele>1820</ele>
      </trkpt>
      <trkpt lat="45.7982742" lon="6.9419960">
        <ele>1823</ele>
      </trkpt>
      <trkpt lat="45.7983242" lon="6.9419260">
        <ele>1827</ele>
      </trkpt>
      <trkpt lat="45.7985142" lon="6.9415160">
        <ele>1830</ele>
      </trkpt>
      <trkpt lat="45.7985342" lon="6.9412560">
        <ele>1833</ele>
      </trkpt>
      <trkpt lat="45.7984942" lon="6.9412260">
        <ele>1837</ele>
      </trkpt>
      <trkpt lat="45.7984742" lon="6.9411260">
        <ele>1840</ele>
      </trkpt>
      <trkpt lat="45.7986642" lon="6.9409260">
        <ele>1844</ele>
      </trkpt>
      <trkpt lat="45.7986842" lon="6.9407760">
        <ele>1847</ele>
      </trkpt>
      <trkpt lat="45.7988142" lon="6.9404960">
        <ele>1850</ele>
      </trkpt>
      <trkpt lat="45.7988142" lon="6.9402260">
        <ele>1854</ele>
      </trkpt>
      <trkpt lat="45.7987842" lon="6.9401060">
        <ele>1857</ele>
      </trkpt>
      <trkpt lat="45.7986442" lon="6.9396860">
        <ele>1860</ele>
      </trkpt>
      <trkpt lat="45.7985544" lon="6.9394951">
        <ele>1864</ele>
      </trkpt>
      <trkpt lat="45.7985207" lon="6.9393661">
        <ele>1867</ele>
      </trkpt>
      <trkpt lat="45.7986259" lon="6.9393293">
        <ele>1871</ele>
      </trkpt>
      <trkpt lat="45.7987113" lon="6.9393391">
        <ele>1874</ele>
      </trkpt>
      <trkpt lat="45.7987763" lon="6.9394461">
        <ele>1877</ele>
      </trkpt>
      <trkpt lat="45.7988253" lon="6.9396221">
        <ele>1881</ele>
      </trkpt>
      <trkpt lat="45.7991123" lon="6.9400761">
        <ele>1884</ele>
      </trkpt>
      <trkpt lat="45.7992073" lon="6.9401951">
        <ele>1888</ele>
      </trkpt>
      <trkpt lat="45.7994013" lon="6.9403641">
        <ele>1891</ele>
      </trkpt>
      <trkpt lat="45.7995273" lon="6.9405941">
        <ele>1894</ele>
      </trkpt>
      <trkpt lat="45.7997602" lon="6.9409421">
        <ele>1898</ele>
      </trkpt>
      <trkpt lat="45.7999202" lon="6.9411081">
        <ele>1901</ele>
      </trkpt>
      <trkpt lat="45.8001912" lon="6.9412801">
        <ele>1904</ele>
      </trkpt>
      <trkpt lat="45.8004012" lon="6.9414741">
        <ele>1908</ele>
      </trkpt>
      <trkpt lat="45.8006049" lon="6.9416264">
        <ele>1911</ele>
      </trkpt>
      <trkpt lat="45.8006523" lon="6.9417131">
        <ele>1915</ele>
      </trkpt>
      <trkpt lat="45.8006709" lon="6.9417942">
        <ele>1918</ele>
      </trkpt>
      <trkpt lat="45.8007076" lon="6.9418462">
        <ele>1921</ele>
      </trkpt>
      <trkpt lat="45.8008628" lon="6.9419692">
        <ele>1925</ele>
      </trkpt>
      <trkpt lat="45.8010296" lon="6.9422332">
        <ele>1928</ele>
      </trkpt>
      <trkpt lat="45.8011507" lon="6.9424604">
        <ele>1932</ele>
      </trkpt>
      <trkpt lat="45.8014819" lon="6.9428600">
        <ele>1935</ele>
      </trkpt>
      <trkpt lat="45.8016378" lon="6.9430215">
        <ele>1938</ele>
      </trkpt>
      <trkpt lat="45.8017953" lon="6.9432731">
        <ele>1942</ele>
      </trkpt>
      <trkpt lat="45.8018597" lon="6.9433480">
        <ele>1945</ele>
      </trkpt>
      <trkpt lat="45.8019141" lon="6.9433717">
        <ele>1948</ele>
      </trkpt>
      <trkpt lat="45.8020421" lon="6.9434828">
        <ele>1952</ele>
      </trkpt>
      <trkpt lat="45.8021706" lon="6.9436196">
        <ele>1955</ele>
      </trkpt>
      <trkpt lat="45.8023369" lon="6.9438580">
        <ele>1959</ele>
      </trkpt>
      <trkpt lat="45.8025230" lon="6.9441986">
        <ele>1962</ele>
      </trkpt>
      <trkpt lat="45.8026427" lon="6.9443486">
        <ele>1965</ele>
      </trkpt>
      <trkpt lat="45.8029170" lon="6.9445830">
        <ele>1969</ele>
      </trkpt>
      <trkpt lat="45.8030715" lon="6.9446674">
        <ele>1972</ele>
      </trkpt>
      <trkpt lat="45.8034002" lon="6.9449256">
        <ele>1976</ele>
      </trkpt>
      <trkpt lat="45.8035003" lon="6.9449863">
        <ele>1979</ele>
      </trkpt>
      <trkpt lat="45.8038176" lon="6.9451161">
        <ele>1982</ele>
      </trkpt>
      <trkpt lat="45.8042086" lon="6.9453334">
        <ele>1986</ele>
      </trkpt>
      <trkpt lat="45.8044364" lon="6.9454923">
        <ele>1989</ele>
      </trkpt>
      <trkpt lat="45.8045098" lon="6.9455668">
        <ele>1992</ele>
      </trkpt>
      <trkpt lat="45.8046689" lon="6.9459084">
        <ele>1996</ele>
      </trkpt>
      <trkpt lat="45.8047151" lon="6.9459711">
        <ele>1999</ele>
      </trkpt>
      <trkpt lat="45.8048092" lon="6.9461993">
        <ele>2003</ele>
      </trkpt>
      <trkpt lat="45.8050315" lon="6.9465514">
        <ele>2006</ele>
      </trkpt>
      <trkpt lat="45.8052379" lon="6.9470200">
        <ele>2009</ele>
      </trkpt>
      <trkpt lat="45.8053510" lon="6.9472990">
        <ele>2013</ele>
      </trkpt>
      <trkpt lat="45.8054188" lon="6.9475668">
        <ele>2016</ele>
      </trkpt>
      <trkpt lat="45.8055415" lon="6.9478840">
        <ele>2020</ele>
      </trkpt>
      <trkpt lat="45.8055802" lon="6.9480370">
        <ele>2023</ele>
      </trkpt>
      <trkpt lat="45.8056409" lon="6.9484080">
        <ele>2026</ele>
      </trkpt>
      <trkpt lat="45.8057446" lon="6.9484807">
        <ele>2030</ele>
      </trkpt>
      <trkpt lat="45.8057197" lon="6.9477837">
        <ele>2033</ele>
      </trkpt>
      <trkpt lat="45.8057367" lon="6.9474783">
        <ele>2036</ele>
      </trkpt>
      <trkpt lat="45.8057316" lon="6.9469448">
        <ele>2040</ele>
      </trkpt>
      <trkpt lat="45.8057005" lon="6.9464673">
        <ele>2043</ele>
      </trkpt>
      <trkpt lat="45.8056944" lon="6.9461281">
        <ele>2047</ele>
      </trkpt>
      <trkpt lat="45.8057200" lon="6.9452975">
        <ele>2050</ele>
      </trkpt>
      <trkpt lat="45.8056770" lon="6.9449098">
        <ele>2053</ele>
      </trkpt>
      <trkpt lat="45.8056343" lon="6.9447843">
        <ele>2057</ele>
      </trkpt>
      <trkpt lat="45.8055026" lon="6.9442229">
        <ele>2060</ele>
      </trkpt>
      <trkpt lat="45.8053562" lon="6.9433359">
        <ele>2063</ele>
      </trkpt>
      <trkpt lat="45.8052840" lon="6.9430791">
        <ele>2067</ele>
      </trkpt>
      <trkpt lat="45.8051798" lon="6.9427894">
        <ele>2070</ele>
      </trkpt>
      <trkpt lat="45.8049592" lon="6.9422815">
        <ele>2074</ele>
      </trkpt>
      <trkpt lat="45.8048945" lon="6.9419381">
        <ele>2077</ele>
      </trkpt>
      <trkpt lat="45.8047212" lon="6.9413147">
        <ele>2080</ele>
      </trkpt>
      <trkpt lat="45.8046817" lon="6.9411211">
        <ele>2084</ele>
      </trkpt>
      <trkpt lat="45.8040510" lon="6.9398349">
        <ele>2087</ele>
      </trkpt>
      <trkpt lat="45.8039101" lon="6.9395083">
        <ele>2091</ele>
      </trkpt>
      <trkpt lat="45.8038382" lon="6.9392665">
        <ele>2094</ele>
      </trkpt>
      <trkpt lat="45.8037033" lon="6.9390201">
        <ele>2097</ele>
      </trkpt>
      <trkpt lat="45.8033143" lon="6.9381654">
        <ele>2101</ele>
      </trkpt>
      <trkpt lat="45.8032856" lon="6.9380691">
        <ele>2104</ele>
      </trkpt>
      <trkpt lat="45.8033160" lon="6.9380065">
        <ele>2107</ele>
      </trkpt>
      <trkpt lat="45.8035076" lon="6.9381510">
        <ele>2111</ele>
      </trkpt>
      <trkpt lat="45.8039562" lon="6.9383195">
        <ele>2114</ele>
      </trkpt>
      <trkpt lat="45.8045389" lon="6.9384435">
        <ele>2118</ele>
      </trkpt>
      <trkpt lat="45.8051956" lon="6.9386743">
        <ele>2121</ele>
      </trkpt>
      <trkpt lat="45.8053809" lon="6.9387141">
        <ele>2124</ele>
      </trkpt>
      <trkpt lat="45.8053686" lon="6.9385348">
        <ele>2128</ele>
      </trkpt>
      <trkpt lat="45.8053118" lon="6.9383764">
        <ele>2131</ele>
      </trkpt>
      <trkpt lat="45.8052283" lon="6.9382383">
        <ele>2135</ele>
      </trkpt>
      <trkpt lat="45.8049427" lon="6.9378732">
        <ele>2138</ele>
      </trkpt>
      <trkpt lat="45.8047592" lon="6.9376838">
        <ele>2141</ele>
      </trkpt>
      <trkpt lat="45.8046407" lon="6.9376025">
        <ele>2145</ele>
      </trkpt>
      <trkpt lat="45.8043461" lon="6.9374831">
        <ele>2148</ele>
      </trkpt>
      <trkpt lat="45.8042323" lon="6.9374145">
        <ele>2151</ele>
      </trkpt>
      <trkpt lat="45.8039579" lon="6.9371704">
        <ele>2155</ele>
      </trkpt>
      <trkpt lat="45.8036797" lon="6.9369672">
        <ele>2158</ele>
      </trkpt>
      <trkpt lat="45.8035096" lon="6.9367679">
        <ele>2162</ele>
      </trkpt>
      <trkpt lat="45.8033755" lon="6.9365694">
        <ele>2165</ele>
      </trkpt>
      <trkpt lat="45.8032261" lon="6.9362697">
        <ele>2168</ele>
      </trkpt>
      <trkpt lat="45.8030948" lon="6.9359770">
        <ele>2172</ele>
      </trkpt>
      <trkpt lat="45.8030789" lon="6.9358472">
        <ele>2175</ele>
      </trkpt>
      <trkpt lat="45.8031187" lon="6.9358076">
        <ele>2179</ele>
      </trkpt>
      <trkpt lat="45.8031726" lon="6.9357983">
        <ele>2182</ele>
      </trkpt>
      <trkpt lat="45.8032181" lon="6.9358272">
        <ele>2185</ele>
      </trkpt>
      <trkpt lat="45.8036771" lon="6.9363234">
        <ele>2189</ele>
      </trkpt>
      <trkpt lat="45.8037363" lon="6.9363602">
        <ele>2192</ele>
      </trkpt>
      <trkpt lat="45.8037993" lon="6.9363647">
        <ele>2195</ele>
      </trkpt>
      <trkpt lat="45.8038026" lon="6.9362967">
        <ele>2199</ele>
      </trkpt>
      <trkpt lat="45.8037183" lon="6.9361132">
        <ele>2202</ele>
      </trkpt>
      <trkpt lat="45.8035980" lon="6.9359294">
        <ele>2206</ele>
      </trkpt>
      <trkpt lat="45.8032530" lon="6.9352670">
        <ele>2209</ele>
      </trkpt>
      <trkpt lat="45.8031745" lon="6.9351560">
        <ele>2212</ele>
      </trkpt>
      <trkpt lat="45.8030878" lon="6.9350893">
        <ele>2216</ele>
      </trkpt>
      <trkpt lat="45.8026700" lon="6.9348855">
        <ele>2219</ele>
      </trkpt>
      <trkpt lat="45.8023367" lon="6.9346192">
        <ele>2223</ele>
      </trkpt>
      <trkpt lat="45.8022359" lon="6.9345196">
        <ele>2226</ele>
      </trkpt>
      <trkpt lat="45.8020634" lon="6.9341889">
        <ele>2229</ele>
      </trkpt>
      <trkpt lat="45.8020132" lon="6.9341482">
        <ele>2233</ele>
      </trkpt>
      <trkpt lat="45.8019001" lon="6.9341174">
        <ele>2236</ele>
      </trkpt>
      <trkpt lat="45.8017584" lon="6.9339975">
        <ele>2239</ele>
      </trkpt>
      <trkpt lat="45.8016524" lon="6.9338579">
        <ele>2243</ele>
      </trkpt>
      <trkpt lat="45.8013650" lon="6.9333972">
        <ele>2246</ele>
      </trkpt>
      <trkpt lat="45.8013236" lon="6.9333621">
        <ele>2250</ele>
      </trkpt>
      <trkpt lat="45.8012738" lon="6.9332538">
        <ele>2253</ele>
      </trkpt>
      <trkpt lat="45.8011388" lon="6.9328208">
        <ele>2256</ele>
      </trkpt>
      <trkpt lat="45.8011040" lon="6.9327711">
        <ele>2260</ele>
      </trkpt>
      <trkpt lat="45.8009732" lon="6.9326775">
        <ele>2263</ele>
      </trkpt>
      <trkpt lat="45.8007640" lon="6.9324198">
        <ele>2266</ele>
      </trkpt>
      <trkpt lat="45.8005956" lon="6.9322530">
        <ele>2270</ele>
      </trkpt>
      <trkpt lat="45.8005721" lon="6.9322018">
        <ele>2273</ele>
      </trkpt>
      <trkpt lat="45.8005675" lon="6.9321410">
        <ele>2277</ele>
      </trkpt>
      <trkpt lat="45.8005897" lon="6.9321100">
        <ele>2280</ele>
      </trkpt>
      <trkpt lat="45.8006423" lon="6.9321229">
        <ele>2283</ele>
      </trkpt>
      <trkpt lat="45.8008764" lon="6.9322830">
        <ele>2287</ele>
      </trkpt>
      <trkpt lat="45.8009104" lon="6.9322789">
        <ele>2290</ele>
      </trkpt>
      <trkpt lat="45.8012360" lon="6.9324855">
        <ele>2294</ele>
      </trkpt>
      <trkpt lat="45.8014759" lon="6.9325603">
        <ele>2297</ele>
      </trkpt>
      <trkpt lat="45.8017054" lon="6.9325594">
        <ele>2300</ele>
      </trkpt>
      <trkpt lat="45.8019462" lon="6.9326848">
        <ele>2304</ele>
      </trkpt>
      <trkpt lat="45.8020495" lon="6.9326766">
        <ele>2307</ele>
      </trkpt>
      <trkpt lat="45.8021969" lon="6.9325218">
        <ele>2310</ele>
      </trkpt>
      <trkpt lat="45.8022657" lon="6.9325299">
        <ele>2314</ele>
      </trkpt>
      <trkpt lat="45.8026467" lon="6.9328467">
        <ele>2317</ele>
      </trkpt>
      <trkpt lat="45.8028712" lon="6.9330689">
        <ele>2321</ele>
      </trkpt>
      <trkpt lat="45.8030934" lon="6.9331604">
        <ele>2324</ele>
      </trkpt>
    </trkseg>
  </trk>
</gpx>
