<?xml version="1.0" encoding="UTF-8"?>
<gpx version="1.1" creator="sentieri-vda" xmlns="http://www.topografix.com/GPX/1/1">
  <metadata>
    <name>Area pic-nic Plan Veny - Lac du Breuillat</name>
    <desc>Catasto Sentieri VdA — 22_S59</desc>
    <author><name>Regione Autonoma Valle d'Aosta</name></author>
  </metadata>
  <trk>
    <name>Area pic-nic Plan Veny - Lac du Breuillat</name>
    <src>Catasto Sentieri VdA (22_S59)</src>
    <trkseg>
      <trkpt lat="45.7866252" lon="6.8719970">
        <ele>1569</ele>
      </trkpt>
      <trkpt lat="45.7866152" lon="6.8722170">
        <ele>1571</ele>
      </trkpt>
      <trkpt lat="45.7867052" lon="6.8725070">
        <ele>1573</ele>
      </trkpt>
      <trkpt lat="45.7866852" lon="6.8726570">
        <ele>1576</ele>
      </trkpt>
      <trkpt lat="45.7867152" lon="6.8727370">
        <ele>1578</ele>
      </trkpt>
      <trkpt lat="45.7866952" lon="6.8728370">
        <ele>1580</ele>
      </trkpt>
      <trkpt lat="45.7867052" lon="6.8729670">
        <ele>1582</ele>
      </trkpt>
      <trkpt lat="45.7867352" lon="6.8730370">
        <ele>1585</ele>
      </trkpt>
      <trkpt lat="45.7867052" lon="6.8731270">
        <ele>1587</ele>
      </trkpt>
      <trkpt lat="45.7866652" lon="6.8734870">
        <ele>1589</ele>
      </trkpt>
      <trkpt lat="45.7865652" lon="6.8736970">
        <ele>1591</ele>
      </trkpt>
      <trkpt lat="45.7865352" lon="6.8737270">
        <ele>1594</ele>
      </trkpt>
      <trkpt lat="45.7863452" lon="6.8743570">
        <ele>1596</ele>
      </trkpt>
      <trkpt lat="45.7863852" lon="6.8748370">
        <ele>1598</ele>
      </trkpt>
      <trkpt lat="45.7866852" lon="6.8750670">
        <ele>1600</ele>
      </trkpt>
      <trkpt lat="45.7877552" lon="6.8763370">
        <ele>1603</ele>
      </trkpt>
      <trkpt lat="45.7879052" lon="6.8765970">
        <ele>1605</ele>
      </trkpt>
      <trkpt lat="45.7881152" lon="6.8767870">
        <ele>1607</ele>
      </trkpt>
      <trkpt lat="45.7883052" lon="6.8770170">
        <ele>1609</ele>
      </trkpt>
      <trkpt lat="45.7884452" lon="6.8774470">
        <ele>1612</ele>
      </trkpt>
      <trkpt lat="45.7885952" lon="6.8777470">
        <ele>1614</ele>
      </trkpt>
      <trkpt lat="45.7886852" lon="6.8780670">
        <ele>1616</ele>
      </trkpt>
      <trkpt lat="45.7888452" lon="6.8784470">
        <ele>1618</ele>
      </trkpt>
      <trkpt lat="45.7889952" lon="6.8790370">
        <ele>1620</ele>
      </trkpt>
      <trkpt lat="45.7890752" lon="6.8796170">
        <ele>1623</ele>
      </trkpt>
      <trkpt lat="45.7890652" lon="6.8799170">
        <ele>1625</ele>
      </trkpt>
      <trkpt lat="45.7891152" lon="6.8801770">
        <ele>1627</ele>
      </trkpt>
      <trkpt lat="45.7891352" lon="6.8804270">
        <ele>1629</ele>
      </trkpt>
      <trkpt lat="45.7891752" lon="6.8805670">
        <ele>1632</ele>
      </trkpt>
      <trkpt lat="45.7892052" lon="6.8808470">
        <ele>1634</ele>
      </trkpt>
      <trkpt lat="45.7891352" lon="6.8809070">
        <ele>1636</ele>
      </trkpt>
      <trkpt lat="45.7891052" lon="6.8811170">
        <ele>1638</ele>
      </trkpt>
      <trkpt lat="45.7891152" lon="6.8817570">
        <ele>1641</ele>
      </trkpt>
      <trkpt lat="45.7891452" lon="6.8820570">
        <ele>1643</ele>
      </trkpt>
      <trkpt lat="45.7891152" lon="6.8824270">
        <ele>1645</ele>
      </trkpt>
      <trkpt lat="45.7891352" lon="6.8824970">
        <ele>1647</ele>
      </trkpt>
      <trkpt lat="45.7891152" lon="6.8825570">
        <ele>1650</ele>
      </trkpt>
      <trkpt lat="45.7891252" lon="6.8827670">
        <ele>1652</ele>
      </trkpt>
      <trkpt lat="45.7891552" lon="6.8828970">
        <ele>1654</ele>
      </trkpt>
      <trkpt lat="45.7891452" lon="6.8830070">
        <ele>1656</ele>
      </trkpt>
      <trkpt lat="45.7891852" lon="6.8832070">
        <ele>1659</ele>
      </trkpt>
      <trkpt lat="45.7892152" lon="6.8832470">
        <ele>1661</ele>
      </trkpt>
      <trkpt lat="45.7891952" lon="6.8833970">
        <ele>1663</ele>
      </trkpt>
      <trkpt lat="45.7892152" lon="6.8839670">
        <ele>1665</ele>
      </trkpt>
      <trkpt lat="45.7892052" lon="6.8840970">
        <ele>1667</ele>
      </trkpt>
      <trkpt lat="45.7892152" lon="6.8842470">
        <ele>1670</ele>
      </trkpt>
      <trkpt lat="45.7892552" lon="6.8843270">
        <ele>1672</ele>
      </trkpt>
      <trkpt lat="45.7892752" lon="6.8844370">
        <ele>1674</ele>
      </trkpt>
      <trkpt lat="45.7892152" lon="6.8846470">
        <ele>1676</ele>
      </trkpt>
      <trkpt lat="45.7892052" lon="6.8849770">
        <ele>1679</ele>
      </trkpt>
      <trkpt lat="45.7892352" lon="6.8850870">
        <ele>1681</ele>
      </trkpt>
      <trkpt lat="45.7892352" lon="6.8852270">
        <ele>1683</ele>
      </trkpt>
      <trkpt lat="45.7893752" lon="6.8858970">
        <ele>1685</ele>
      </trkpt>
      <trkpt lat="45.7894052" lon="6.8862670">
        <ele>1688</ele>
      </trkpt>
      <trkpt lat="45.7894952" lon="6.8863770">
        <ele>1690</ele>
      </trkpt>
      <trkpt lat="45.7894852" lon="6.8865970">
        <ele>1692</ele>
      </trkpt>
      <trkpt lat="45.7894952" lon="6.8867270">
        <ele>1694</ele>
      </trkpt>
      <trkpt lat="45.7894652" lon="6.8868270">
        <ele>1697</ele>
      </trkpt>
      <trkpt lat="45.7894652" lon="6.8869270">
        <ele>1699</ele>
      </trkpt>
      <trkpt lat="45.7895352" lon="6.8871570">
        <ele>1701</ele>
      </trkpt>
      <trkpt lat="45.7895852" lon="6.8871970">
        <ele>1703</ele>
      </trkpt>
      <trkpt lat="45.7896052" lon="6.8872870">
        <ele>1706</ele>
      </trkpt>
      <trkpt lat="45.7895952" lon="6.8874570">
        <ele>1708</ele>
      </trkpt>
      <trkpt lat="45.7896052" lon="6.8875270">
        <ele>1710</ele>
      </trkpt>
      <trkpt lat="45.7896752" lon="6.8875670">
        <ele>1712</ele>
      </trkpt>
      <trkpt lat="45.7897052" lon="6.8876370">
        <ele>1714</ele>
      </trkpt>
      <trkpt lat="45.7896952" lon="6.8877470">
        <ele>1717</ele>
      </trkpt>
      <trkpt lat="45.7897352" lon="6.8879770">
        <ele>1719</ele>
      </trkpt>
      <trkpt lat="45.7897952" lon="6.8880370">
        <ele>1721</ele>
      </trkpt>
      <trkpt lat="45.7898152" lon="6.8880970">
        <ele>1723</ele>
      </trkpt>
      <trkpt lat="45.7898652" lon="6.8881170">
        <ele>1726</ele>
      </trkpt>
      <trkpt lat="45.7899852" lon="6.8882470">
        <ele>1728</ele>
      </trkpt>
      <trkpt lat="45.7901652" lon="6.8886770">
        <ele>1730</ele>
      </trkpt>
      <trkpt lat="45.7902252" lon="6.8889570">
        <ele>1732</ele>
      </trkpt>
      <trkpt lat="45.7903952" lon="6.8894070">
        <ele>1735</ele>
      </trkpt>
      <trkpt lat="45.7904552" lon="6.8896170">
        <ele>1737</ele>
      </trkpt>
      <trkpt lat="45.7903852" lon="6.8897970">
        <ele>1739</ele>
      </trkpt>
      <trkpt lat="45.7903352" lon="6.8898370">
        <ele>1741</ele>
      </trkpt>
      <trkpt lat="45.7903352" lon="6.8899170">
        <ele>1744</ele>
      </trkpt>
      <trkpt lat="45.7903852" lon="6.8901070">
        <ele>1746</ele>
      </trkpt>
      <trkpt lat="45.7903952" lon="6.8903170">
        <ele>1748</ele>
      </trkpt>
      <trkpt lat="45.7904752" lon="6.8903570">
        <ele>1750</ele>
      </trkpt>
      <trkpt lat="45.7905052" lon="6.8904970">
        <ele>1753</ele>
      </trkpt>
      <trkpt lat="45.7905152" lon="6.8908570">
        <ele>1755</ele>
      </trkpt>
      <trkpt lat="45.7905352" lon="6.8909970">
        <ele>1757</ele>
      </trkpt>
      <trkpt lat="45.7905652" lon="6.8910070">
        <ele>1759</ele>
      </trkpt>
      <trkpt lat="45.7905952" lon="6.8910470">
        <ele>1761</ele>
      </trkpt>
      <trkpt lat="45.7905752" lon="6.8913170">
        <ele>1764</ele>
      </trkpt>
      <trkpt lat="45.7906352" lon="6.8914470">
        <ele>1766</ele>
      </trkpt>
      <trkpt lat="45.7905952" lon="6.8917670">
        <ele>1768</ele>
      </trkpt>
      <trkpt lat="45.7906052" lon="6.8919970">
        <ele>1770</ele>
      </trkpt>
      <trkpt lat="45.7907052" lon="6.8924570">
        <ele>1773</ele>
      </trkpt>
      <trkpt lat="45.7907252" lon="6.8926670">
        <ele>1775</ele>
      </trkpt>
      <trkpt lat="45.7908152" lon="6.8928870">
        <ele>1777</ele>
      </trkpt>
      <trkpt lat="45.7908652" lon="6.8929370">
        <ele>1779</ele>
      </trkpt>
      <trkpt lat="45.7908452" lon="6.8930570">
        <ele>1782</ele>
      </trkpt>
      <trkpt lat="45.7907952" lon="6.8931470">
        <ele>1784</ele>
      </trkpt>
      <trkpt lat="45.7907752" lon="6.8933170">
        <ele>1786</ele>
      </trkpt>
      <trkpt lat="45.7908252" lon="6.8936470">
        <ele>1788</ele>
      </trkpt>
      <trkpt lat="45.7907852" lon="6.8937870">
        <ele>1791</ele>
      </trkpt>
      <trkpt lat="45.7907752" lon="6.8940670">
        <ele>1793</ele>
      </trkpt>
      <trkpt lat="45.7908152" lon="6.8941370">
        <ele>1795</ele>
      </trkpt>
      <trkpt lat="45.7908352" lon="6.8942670">
        <ele>1797</ele>
      </trkpt>
      <trkpt lat="45.7907852" lon="6.8944370">
        <ele>1800</ele>
      </trkpt>
      <trkpt lat="45.7907842" lon="6.8945930">
        <ele>1802</ele>
      </trkpt>
      <trkpt lat="45.7908252" lon="6.8947670">
        <ele>1804</ele>
      </trkpt>
      <trkpt lat="45.7907852" lon="6.8950570">
        <ele>1806</ele>
      </trkpt>
      <trkpt lat="45.7908452" lon="6.8952370">
        <ele>1809</ele>
      </trkpt>
      <trkpt lat="45.7908552" lon="6.8953970">
        <ele>1811</ele>
      </trkpt>
      <trkpt lat="45.7908252" lon="6.8959270">
        <ele>1813</ele>
      </trkpt>
      <trkpt lat="45.7907952" lon="6.8960270">
        <ele>1815</ele>
      </trkpt>
      <trkpt lat="45.7907642" lon="6.8963170">
        <ele>1817</ele>
      </trkpt>
      <trkpt lat="45.7907642" lon="6.8965770">
        <ele>1820</ele>
      </trkpt>
      <trkpt lat="45.7908142" lon="6.8966670">
        <ele>1822</ele>
      </trkpt>
      <trkpt lat="45.7909342" lon="6.8970470">
        <ele>1824</ele>
      </trkpt>
      <trkpt lat="45.7911142" lon="6.8974470">
        <ele>1826</ele>
      </trkpt>
      <trkpt lat="45.7912342" lon="6.8976270">
        <ele>1829</ele>
      </trkpt>
      <trkpt lat="45.7912542" lon="6.8976270">
        <ele>1831</ele>
      </trkpt>
      <trkpt lat="45.7912442" lon="6.8976470">
        <ele>1833</ele>
      </trkpt>
      <trkpt lat="45.7912842" lon="6.8978270">
        <ele>1835</ele>
      </trkpt>
      <trkpt lat="45.7911542" lon="6.8978670">
        <ele>1838</ele>
      </trkpt>
      <trkpt lat="45.7910542" lon="6.8979970">
        <ele>1840</ele>
      </trkpt>
      <trkpt lat="45.7909542" lon="6.8980870">
        <ele>1842</ele>
      </trkpt>
      <trkpt lat="45.7909042" lon="6.8982370">
        <ele>1844</ele>
      </trkpt>
      <trkpt lat="45.7909142" lon="6.8983370">
        <ele>1847</ele>
      </trkpt>
      <trkpt lat="45.7908542" lon="6.8984870">
        <ele>1849</ele>
      </trkpt>
      <trkpt lat="45.7909142" lon="6.8986970">
        <ele>1851</ele>
      </trkpt>
      <trkpt lat="45.7910042" lon="6.8988970">
        <ele>1853</ele>
      </trkpt>
      <trkpt lat="45.7909942" lon="6.8990470">
        <ele>1856</ele>
      </trkpt>
      <trkpt lat="45.7909342" lon="6.8992970">
        <ele>1858</ele>
      </trkpt>
      <trkpt lat="45.7909442" lon="6.8993970">
        <ele>1860</ele>
      </trkpt>
      <trkpt lat="45.7908942" lon="6.8994570">
        <ele>1862</ele>
      </trkpt>
      <trkpt lat="45.7909242" lon="6.8995970">
        <ele>1864</ele>
      </trkpt>
      <trkpt lat="45.7908642" lon="6.8997470">
        <ele>1867</ele>
      </trkpt>
      <trkpt lat="45.7910042" lon="6.8998970">
        <ele>1869</ele>
      </trkpt>
      <trkpt lat="45.7910342" lon="6.9000070">
        <ele>1871</ele>
      </trkpt>
      <trkpt lat="45.7911342" lon="6.9001970">
        <ele>1873</ele>
      </trkpt>
      <trkpt lat="45.7911942" lon="6.9005170">
        <ele>1876</ele>
      </trkpt>
      <trkpt lat="45.7911242" lon="6.9006970">
        <ele>1878</ele>
      </trkpt>
      <trkpt lat="45.7911042" lon="6.9008470">
        <ele>1880</ele>
      </trkpt>
      <trkpt lat="45.7910642" lon="6.9009670">
        <ele>1882</ele>
      </trkpt>
      <trkpt lat="45.7910242" lon="6.9010170">
        <ele>1885</ele>
      </trkpt>
      <trkpt lat="45.7909842" lon="6.9011170">
        <ele>1887</ele>
      </trkpt>
      <trkpt lat="45.7909842" lon="6.9011770">
        <ele>1889</ele>
      </trkpt>
      <trkpt lat="45.7909242" lon="6.9013470">
        <ele>1891</ele>
      </trkpt>
      <trkpt lat="45.7908542" lon="6.9014170">
        <ele>1894</ele>
      </trkpt>
      <trkpt lat="45.7908242" lon="6.9015770">
        <ele>1896</ele>
      </trkpt>
      <trkpt lat="45.7908742" lon="6.9020470">
        <ele>1898</ele>
      </trkpt>
      <trkpt lat="45.7909142" lon="6.9022570">
        <ele>1900</ele>
      </trkpt>
      <trkpt lat="45.7909742" lon="6.9023470">
        <ele>1903</ele>
      </trkpt>
      <trkpt lat="45.7909342" lon="6.9024670">
        <ele>1905</ele>
      </trkpt>
      <trkpt lat="45.7909042" lon="6.9025070">
        <ele>1907</ele>
      </trkpt>
      <trkpt lat="45.7908142" lon="6.9024770">
        <ele>1909</ele>
      </trkpt>
      <trkpt lat="45.7907942" lon="6.9024070">
        <ele>1911</ele>
      </trkpt>
      <trkpt lat="45.7906942" lon="6.9023670">
        <ele>1914</ele>
      </trkpt>
      <trkpt lat="45.7906742" lon="6.9023170">
        <ele>1916</ele>
      </trkpt>
      <trkpt lat="45.7906042" lon="6.9022770">
        <ele>1918</ele>
      </trkpt>
      <trkpt lat="45.7905342" lon="6.9023170">
        <ele>1920</ele>
      </trkpt>
      <trkpt lat="45.7904942" lon="6.9024170">
        <ele>1923</ele>
      </trkpt>
      <trkpt lat="45.7903942" lon="6.9025370">
        <ele>1925</ele>
      </trkpt>
      <trkpt lat="45.7903919" lon="6.9027023">
        <ele>1927</ele>
      </trkpt>
      <trkpt lat="45.7902823" lon="6.9026163">
        <ele>1929</ele>
      </trkpt>
      <trkpt lat="45.7901824" lon="6.9025686">
        <ele>1932</ele>
      </trkpt>
      <trkpt lat="45.7901022" lon="6.9026102">
        <ele>1934</ele>
      </trkpt>
      <trkpt lat="45.7899362" lon="6.9028866">
        <ele>1936</ele>
      </trkpt>
      <trkpt lat="45.7899126" lon="6.9030676">
        <ele>1938</ele>
      </trkpt>
      <trkpt lat="45.7899694" lon="6.9032199">
        <ele>1941</ele>
      </trkpt>
      <trkpt lat="45.7900624" lon="6.9033836">
        <ele>1943</ele>
      </trkpt>
      <trkpt lat="45.7901104" lon="6.9035491">
        <ele>1945</ele>
      </trkpt>
      <trkpt lat="45.7901693" lon="6.9038171">
        <ele>1947</ele>
      </trkpt>
      <trkpt lat="45.7901902" lon="6.9039707">
        <ele>1950</ele>
      </trkpt>
      <trkpt lat="45.7901935" lon="6.9041507">
        <ele>1952</ele>
      </trkpt>
      <trkpt lat="45.7901260" lon="6.9043977">
        <ele>1954</ele>
      </trkpt>
      <trkpt lat="45.7899271" lon="6.9048425">
        <ele>1956</ele>
      </trkpt>
      <trkpt lat="45.7898614" lon="6.9049415">
        <ele>1958</ele>
      </trkpt>
      <trkpt lat="45.7898301" lon="6.9049491">
        <ele>1961</ele>
      </trkpt>
      <trkpt lat="45.7897756" lon="6.9049254">
        <ele>1963</ele>
      </trkpt>
      <trkpt lat="45.7895915" lon="6.9047007">
        <ele>1965</ele>
      </trkpt>
      <trkpt lat="45.7894779" lon="6.9046623">
        <ele>1967</ele>
      </trkpt>
      <trkpt lat="45.7893759" lon="6.9047065">
        <ele>1970</ele>
      </trkpt>
      <trkpt lat="45.7892608" lon="6.9048191">
        <ele>1972</ele>
      </trkpt>
      <trkpt lat="45.7892298" lon="6.9048748">
        <ele>1974</ele>
      </trkpt>
      <trkpt lat="45.7892188" lon="6.9049436">
        <ele>1976</ele>
      </trkpt>
      <trkpt lat="45.7892261" lon="6.9050278">
        <ele>1979</ele>
      </trkpt>
      <trkpt lat="45.7892674" lon="6.9051889">
        <ele>1981</ele>
      </trkpt>
      <trkpt lat="45.7894260" lon="6.9054917">
        <ele>1983</ele>
      </trkpt>
      <trkpt lat="45.7896106" lon="6.9057421">
        <ele>1985</ele>
      </trkpt>
      <trkpt lat="45.7897696" lon="6.9060707">
        <ele>1988</ele>
      </trkpt>
      <trkpt lat="45.7899495" lon="6.9065529">
        <ele>1990</ele>
      </trkpt>
      <trkpt lat="45.7906616" lon="6.9080830">
        <ele>1992</ele>
      </trkpt>
      <trkpt lat="45.7907747" lon="6.9083618">
        <ele>1994</ele>
      </trkpt>
      <trkpt lat="45.7911478" lon="6.9095701">
        <ele>1997</ele>
      </trkpt>
      <trkpt lat="45.7911599" lon="6.9097369">
        <ele>1999</ele>
      </trkpt>
      <trkpt lat="45.7911231" lon="6.9100799">
        <ele>2001</ele>
      </trkpt>
    </trkseg>
  </trk>
</gpx>
