<?xml version="1.0" encoding="UTF-8"?>
<gpx version="1.1" creator="sentieri-vda" xmlns="http://www.topografix.com/GPX/1/1">
  <metadata>
    <name>La Palud - Planpincieux</name>
    <desc>Catasto Sentieri VdA — 22_S65</desc>
    <author><name>Regione Autonoma Valle d'Aosta</name></author>
  </metadata>
  <trk>
    <name>La Palud - Planpincieux</name>
    <src>Catasto Sentieri VdA (22_S65)</src>
    <trkseg>
      <trkpt lat="45.8203179" lon="6.9671365">
        <ele>1420</ele>
      </trkpt>
      <trkpt lat="45.8205746" lon="6.9671383">
        <ele>1421</ele>
      </trkpt>
      <trkpt lat="45.8206231" lon="6.9671604">
        <ele>1422</ele>
      </trkpt>
      <trkpt lat="45.8208542" lon="6.9672967">
        <ele>1423</ele>
      </trkpt>
      <trkpt lat="45.8210069" lon="6.9674042">
        <ele>1425</ele>
      </trkpt>
      <trkpt lat="45.8211448" lon="6.9675665">
        <ele>1426</ele>
      </trkpt>
      <trkpt lat="45.8212842" lon="6.9680659">
        <ele>1427</ele>
      </trkpt>
      <trkpt lat="45.8213787" lon="6.9683187">
        <ele>1428</ele>
      </trkpt>
      <trkpt lat="45.8213985" lon="6.9684193">
        <ele>1429</ele>
      </trkpt>
      <trkpt lat="45.8213448" lon="6.9686900">
        <ele>1430</ele>
      </trkpt>
      <trkpt lat="45.8213863" lon="6.9689975">
        <ele>1432</ele>
      </trkpt>
      <trkpt lat="45.8214100" lon="6.9690694">
        <ele>1433</ele>
      </trkpt>
      <trkpt lat="45.8215073" lon="6.9692216">
        <ele>1434</ele>
      </trkpt>
      <trkpt lat="45.8217144" lon="6.9694831">
        <ele>1435</ele>
      </trkpt>
      <trkpt lat="45.8217738" lon="6.9695309">
        <ele>1436</ele>
      </trkpt>
      <trkpt lat="45.8221419" lon="6.9700856">
        <ele>1437</ele>
      </trkpt>
      <trkpt lat="45.8220733" lon="6.9701860">
        <ele>1438</ele>
      </trkpt>
      <trkpt lat="45.8218433" lon="6.9702660">
        <ele>1440</ele>
      </trkpt>
      <trkpt lat="45.8217433" lon="6.9703360">
        <ele>1441</ele>
      </trkpt>
      <trkpt lat="45.8217833" lon="6.9705260">
        <ele>1442</ele>
      </trkpt>
      <trkpt lat="45.8218133" lon="6.9707760">
        <ele>1443</ele>
      </trkpt>
      <trkpt lat="45.8217233" lon="6.9712760">
        <ele>1444</ele>
      </trkpt>
      <trkpt lat="45.8216633" lon="6.9714260">
        <ele>1445</ele>
      </trkpt>
      <trkpt lat="45.8216033" lon="6.9714660">
        <ele>1446</ele>
      </trkpt>
      <trkpt lat="45.8213833" lon="6.9714460">
        <ele>1448</ele>
      </trkpt>
      <trkpt lat="45.8213933" lon="6.9715960">
        <ele>1449</ele>
      </trkpt>
      <trkpt lat="45.8216233" lon="6.9720560">
        <ele>1450</ele>
      </trkpt>
      <trkpt lat="45.8217233" lon="6.9722060">
        <ele>1451</ele>
      </trkpt>
      <trkpt lat="45.8218933" lon="6.9723260">
        <ele>1452</ele>
      </trkpt>
      <trkpt lat="45.8219733" lon="6.9724260">
        <ele>1453</ele>
      </trkpt>
      <trkpt lat="45.8220423" lon="6.9725590">
        <ele>1455</ele>
      </trkpt>
      <trkpt lat="45.8223733" lon="6.9732460">
        <ele>1456</ele>
      </trkpt>
      <trkpt lat="45.8225133" lon="6.9734760">
        <ele>1457</ele>
      </trkpt>
      <trkpt lat="45.8227133" lon="6.9736860">
        <ele>1458</ele>
      </trkpt>
      <trkpt lat="45.8228833" lon="6.9739460">
        <ele>1459</ele>
      </trkpt>
      <trkpt lat="45.8232433" lon="6.9747160">
        <ele>1460</ele>
      </trkpt>
      <trkpt lat="45.8235133" lon="6.9750160">
        <ele>1461</ele>
      </trkpt>
      <trkpt lat="45.8235695" lon="6.9751182">
        <ele>1463</ele>
      </trkpt>
      <trkpt lat="45.8236643" lon="6.9753851">
        <ele>1464</ele>
      </trkpt>
      <trkpt lat="45.8237295" lon="6.9755115">
        <ele>1465</ele>
      </trkpt>
      <trkpt lat="45.8238033" lon="6.9756118">
        <ele>1466</ele>
      </trkpt>
      <trkpt lat="45.8238132" lon="6.9756629">
        <ele>1467</ele>
      </trkpt>
      <trkpt lat="45.8239432" lon="6.9758899">
        <ele>1468</ele>
      </trkpt>
      <trkpt lat="45.8240173" lon="6.9760031">
        <ele>1469</ele>
      </trkpt>
      <trkpt lat="45.8243117" lon="6.9763658">
        <ele>1471</ele>
      </trkpt>
      <trkpt lat="45.8246294" lon="6.9770237">
        <ele>1472</ele>
      </trkpt>
      <trkpt lat="45.8246487" lon="6.9771002">
        <ele>1473</ele>
      </trkpt>
      <trkpt lat="45.8247320" lon="6.9772260">
        <ele>1474</ele>
      </trkpt>
      <trkpt lat="45.8248678" lon="6.9772725">
        <ele>1475</ele>
      </trkpt>
      <trkpt lat="45.8249485" lon="6.9772567">
        <ele>1476</ele>
      </trkpt>
      <trkpt lat="45.8251819" lon="6.9772225">
        <ele>1478</ele>
      </trkpt>
      <trkpt lat="45.8253085" lon="6.9772566">
        <ele>1479</ele>
      </trkpt>
      <trkpt lat="45.8254407" lon="6.9770973">
        <ele>1480</ele>
      </trkpt>
      <trkpt lat="45.8257133" lon="6.9770660">
        <ele>1481</ele>
      </trkpt>
      <trkpt lat="45.8259344" lon="6.9769987">
        <ele>1482</ele>
      </trkpt>
      <trkpt lat="45.8260033" lon="6.9770060">
        <ele>1483</ele>
      </trkpt>
      <trkpt lat="45.8261433" lon="6.9771160">
        <ele>1484</ele>
      </trkpt>
      <trkpt lat="45.8262036" lon="6.9772274">
        <ele>1486</ele>
      </trkpt>
      <trkpt lat="45.8262227" lon="6.9775453">
        <ele>1487</ele>
      </trkpt>
      <trkpt lat="45.8262826" lon="6.9778779">
        <ele>1488</ele>
      </trkpt>
      <trkpt lat="45.8263665" lon="6.9780422">
        <ele>1489</ele>
      </trkpt>
      <trkpt lat="45.8264518" lon="6.9782837">
        <ele>1490</ele>
      </trkpt>
      <trkpt lat="45.8265076" lon="6.9783847">
        <ele>1491</ele>
      </trkpt>
      <trkpt lat="45.8265281" lon="6.9785255">
        <ele>1492</ele>
      </trkpt>
      <trkpt lat="45.8266230" lon="6.9788053">
        <ele>1494</ele>
      </trkpt>
      <trkpt lat="45.8266905" lon="6.9790604">
        <ele>1495</ele>
      </trkpt>
      <trkpt lat="45.8268039" lon="6.9793653">
        <ele>1496</ele>
      </trkpt>
      <trkpt lat="45.8268786" lon="6.9795170">
        <ele>1497</ele>
      </trkpt>
      <trkpt lat="45.8270780" lon="6.9801020">
        <ele>1498</ele>
      </trkpt>
      <trkpt lat="45.8273569" lon="6.9806069">
        <ele>1499</ele>
      </trkpt>
      <trkpt lat="45.8274413" lon="6.9807970">
        <ele>1501</ele>
      </trkpt>
      <trkpt lat="45.8275169" lon="6.9810002">
        <ele>1502</ele>
      </trkpt>
      <trkpt lat="45.8275952" lon="6.9813579">
        <ele>1503</ele>
      </trkpt>
      <trkpt lat="45.8277091" lon="6.9816885">
        <ele>1504</ele>
      </trkpt>
      <trkpt lat="45.8278133" lon="6.9819460">
        <ele>1505</ele>
      </trkpt>
      <trkpt lat="45.8279633" lon="6.9822360">
        <ele>1506</ele>
      </trkpt>
      <trkpt lat="45.8280733" lon="6.9823660">
        <ele>1507</ele>
      </trkpt>
      <trkpt lat="45.8281833" lon="6.9825360">
        <ele>1509</ele>
      </trkpt>
      <trkpt lat="45.8283433" lon="6.9826860">
        <ele>1510</ele>
      </trkpt>
      <trkpt lat="45.8285133" lon="6.9827960">
        <ele>1511</ele>
      </trkpt>
      <trkpt lat="45.8286762" lon="6.9829418">
        <ele>1512</ele>
      </trkpt>
    </trkseg>
  </trk>
</gpx>
