<?xml version="1.0" encoding="UTF-8"?>
<gpx version="1.1" creator="sentieri-vda" xmlns="http://www.topografix.com/GPX/1/1">
  <metadata>
    <name>Toffo (Montjovet) - Erésaz - Sommarèse</name>
    <desc>Catasto Sentieri VdA — 25_S1</desc>
    <author><name>Regione Autonoma Valle d'Aosta</name></author>
  </metadata>
  <trk>
    <name>Toffo (Montjovet) - Erésaz - Sommarèse</name>
    <src>Catasto Sentieri VdA (25_S1)</src>
    <trkseg>
      <trkpt lat="45.7090494" lon="7.6770714">
        <ele>444</ele>
      </trkpt>
      <trkpt lat="45.7090209" lon="7.6771940">
        <ele>451</ele>
      </trkpt>
      <trkpt lat="45.7089599" lon="7.6772677">
        <ele>457</ele>
      </trkpt>
      <trkpt lat="45.7088397" lon="7.6776307">
        <ele>464</ele>
      </trkpt>
      <trkpt lat="45.7087503" lon="7.6782072">
        <ele>470</ele>
      </trkpt>
      <trkpt lat="45.7087580" lon="7.6785022">
        <ele>477</ele>
      </trkpt>
      <trkpt lat="45.7086992" lon="7.6791480">
        <ele>483</ele>
      </trkpt>
      <trkpt lat="45.7085692" lon="7.6797880">
        <ele>490</ele>
      </trkpt>
      <trkpt lat="45.7085492" lon="7.6799580">
        <ele>496</ele>
      </trkpt>
      <trkpt lat="45.7083092" lon="7.6805880">
        <ele>503</ele>
      </trkpt>
      <trkpt lat="45.7083112" lon="7.6806960">
        <ele>509</ele>
      </trkpt>
      <trkpt lat="45.7086002" lon="7.6807410">
        <ele>516</ele>
      </trkpt>
      <trkpt lat="45.7093392" lon="7.6803880">
        <ele>522</ele>
      </trkpt>
      <trkpt lat="45.7093602" lon="7.6800911">
        <ele>529</ele>
      </trkpt>
      <trkpt lat="45.7094800" lon="7.6807226">
        <ele>535</ele>
      </trkpt>
      <trkpt lat="45.7093749" lon="7.6818016">
        <ele>542</ele>
      </trkpt>
      <trkpt lat="45.7101992" lon="7.6817880">
        <ele>548</ele>
      </trkpt>
      <trkpt lat="45.7107515" lon="7.6809388">
        <ele>555</ele>
      </trkpt>
      <trkpt lat="45.7109492" lon="7.6811380">
        <ele>561</ele>
      </trkpt>
      <trkpt lat="45.7112492" lon="7.6807580">
        <ele>568</ele>
      </trkpt>
      <trkpt lat="45.7115692" lon="7.6810580">
        <ele>575</ele>
      </trkpt>
      <trkpt lat="45.7125592" lon="7.6816380">
        <ele>581</ele>
      </trkpt>
      <trkpt lat="45.7128192" lon="7.6814880">
        <ele>588</ele>
      </trkpt>
      <trkpt lat="45.7131780" lon="7.6819606">
        <ele>594</ele>
      </trkpt>
      <trkpt lat="45.7132232" lon="7.6820200">
        <ele>601</ele>
      </trkpt>
      <trkpt lat="45.7139082" lon="7.6821060">
        <ele>607</ele>
      </trkpt>
      <trkpt lat="45.7144472" lon="7.6819910">
        <ele>614</ele>
      </trkpt>
      <trkpt lat="45.7149872" lon="7.6819780">
        <ele>620</ele>
      </trkpt>
      <trkpt lat="45.7150279" lon="7.6819533">
        <ele>627</ele>
      </trkpt>
      <trkpt lat="45.7156292" lon="7.6815880">
        <ele>633</ele>
      </trkpt>
      <trkpt lat="45.7159692" lon="7.6817680">
        <ele>640</ele>
      </trkpt>
      <trkpt lat="45.7162692" lon="7.6820480">
        <ele>646</ele>
      </trkpt>
      <trkpt lat="45.7165812" lon="7.6828140">
        <ele>653</ele>
      </trkpt>
      <trkpt lat="45.7165132" lon="7.6834625">
        <ele>659</ele>
      </trkpt>
      <trkpt lat="45.7164592" lon="7.6839780">
        <ele>666</ele>
      </trkpt>
      <trkpt lat="45.7167432" lon="7.6849973">
        <ele>672</ele>
      </trkpt>
      <trkpt lat="45.7171748" lon="7.6853494">
        <ele>679</ele>
      </trkpt>
      <trkpt lat="45.7173707" lon="7.6855560">
        <ele>686</ele>
      </trkpt>
      <trkpt lat="45.7175996" lon="7.6858999">
        <ele>692</ele>
      </trkpt>
      <trkpt lat="45.7176601" lon="7.6860712">
        <ele>699</ele>
      </trkpt>
      <trkpt lat="45.7178752" lon="7.6863813">
        <ele>705</ele>
      </trkpt>
      <trkpt lat="45.7180317" lon="7.6866889">
        <ele>712</ele>
      </trkpt>
      <trkpt lat="45.7181223" lon="7.6867393">
        <ele>718</ele>
      </trkpt>
      <trkpt lat="45.7184066" lon="7.6868078">
        <ele>725</ele>
      </trkpt>
      <trkpt lat="45.7185290" lon="7.6868844">
        <ele>731</ele>
      </trkpt>
      <trkpt lat="45.7187976" lon="7.6871520">
        <ele>738</ele>
      </trkpt>
      <trkpt lat="45.7189384" lon="7.6872643">
        <ele>744</ele>
      </trkpt>
      <trkpt lat="45.7189546" lon="7.6872981">
        <ele>751</ele>
      </trkpt>
      <trkpt lat="45.7189486" lon="7.6873713">
        <ele>757</ele>
      </trkpt>
      <trkpt lat="45.7196192" lon="7.6872180">
        <ele>764</ele>
      </trkpt>
      <trkpt lat="45.7202973" lon="7.6873815">
        <ele>770</ele>
      </trkpt>
      <trkpt lat="45.7204173" lon="7.6872576">
        <ele>777</ele>
      </trkpt>
      <trkpt lat="45.7204914" lon="7.6873014">
        <ele>783</ele>
      </trkpt>
      <trkpt lat="45.7205292" lon="7.6872980">
        <ele>790</ele>
      </trkpt>
      <trkpt lat="45.7208592" lon="7.6870880">
        <ele>796</ele>
      </trkpt>
      <trkpt lat="45.7208992" lon="7.6872980">
        <ele>803</ele>
      </trkpt>
      <trkpt lat="45.7216092" lon="7.6871680">
        <ele>810</ele>
      </trkpt>
      <trkpt lat="45.7220392" lon="7.6867880">
        <ele>816</ele>
      </trkpt>
      <trkpt lat="45.7229192" lon="7.6866380">
        <ele>823</ele>
      </trkpt>
      <trkpt lat="45.7230892" lon="7.6875780">
        <ele>829</ele>
      </trkpt>
      <trkpt lat="45.7239492" lon="7.6889980">
        <ele>836</ele>
      </trkpt>
      <trkpt lat="45.7239529" lon="7.6902042">
        <ele>842</ele>
      </trkpt>
      <trkpt lat="45.7240696" lon="7.6904002">
        <ele>849</ele>
      </trkpt>
      <trkpt lat="45.7240990" lon="7.6904495">
        <ele>855</ele>
      </trkpt>
      <trkpt lat="45.7241695" lon="7.6905680">
        <ele>862</ele>
      </trkpt>
      <trkpt lat="45.7241882" lon="7.6911380">
        <ele>868</ele>
      </trkpt>
      <trkpt lat="45.7245179" lon="7.6911076">
        <ele>875</ele>
      </trkpt>
      <trkpt lat="45.7245674" lon="7.6912866">
        <ele>881</ele>
      </trkpt>
      <trkpt lat="45.7246268" lon="7.6913990">
        <ele>888</ele>
      </trkpt>
      <trkpt lat="45.7247577" lon="7.6915263">
        <ele>894</ele>
      </trkpt>
      <trkpt lat="45.7247818" lon="7.6916039">
        <ele>901</ele>
      </trkpt>
      <trkpt lat="45.7248982" lon="7.6915680">
        <ele>907</ele>
      </trkpt>
      <trkpt lat="45.7252782" lon="7.6920680">
        <ele>914</ele>
      </trkpt>
      <trkpt lat="45.7253482" lon="7.6924980">
        <ele>920</ele>
      </trkpt>
      <trkpt lat="45.7251970" lon="7.6926527">
        <ele>927</ele>
      </trkpt>
      <trkpt lat="45.7252351" lon="7.6927759">
        <ele>934</ele>
      </trkpt>
      <trkpt lat="45.7253122" lon="7.6928454">
        <ele>940</ele>
      </trkpt>
      <trkpt lat="45.7254482" lon="7.6929680">
        <ele>947</ele>
      </trkpt>
      <trkpt lat="45.7257482" lon="7.6938280">
        <ele>953</ele>
      </trkpt>
      <trkpt lat="45.7256857" lon="7.6949950">
        <ele>960</ele>
      </trkpt>
      <trkpt lat="45.7256287" lon="7.6951168">
        <ele>966</ele>
      </trkpt>
      <trkpt lat="45.7256168" lon="7.6952722">
        <ele>973</ele>
      </trkpt>
      <trkpt lat="45.7256075" lon="7.6955976">
        <ele>979</ele>
      </trkpt>
      <trkpt lat="45.7256231" lon="7.6958954">
        <ele>986</ele>
      </trkpt>
      <trkpt lat="45.7255851" lon="7.6962070">
        <ele>992</ele>
      </trkpt>
      <trkpt lat="45.7255954" lon="7.6964413">
        <ele>999</ele>
      </trkpt>
      <trkpt lat="45.7260482" lon="7.6963580">
        <ele>1005</ele>
      </trkpt>
      <trkpt lat="45.7262282" lon="7.6969180">
        <ele>1012</ele>
      </trkpt>
      <trkpt lat="45.7259282" lon="7.6975180">
        <ele>1018</ele>
      </trkpt>
      <trkpt lat="45.7258982" lon="7.6990380">
        <ele>1025</ele>
      </trkpt>
      <trkpt lat="45.7257782" lon="7.6990780">
        <ele>1031</ele>
      </trkpt>
      <trkpt lat="45.7254082" lon="7.6997480">
        <ele>1038</ele>
      </trkpt>
      <trkpt lat="45.7252201" lon="7.6997183">
        <ele>1045</ele>
      </trkpt>
      <trkpt lat="45.7250855" lon="7.6995222">
        <ele>1051</ele>
      </trkpt>
      <trkpt lat="45.7250387" lon="7.6995102">
        <ele>1058</ele>
      </trkpt>
      <trkpt lat="45.7250182" lon="7.6995780">
        <ele>1064</ele>
      </trkpt>
      <trkpt lat="45.7250466" lon="7.7005506">
        <ele>1071</ele>
      </trkpt>
      <trkpt lat="45.7252482" lon="7.7011036">
        <ele>1077</ele>
      </trkpt>
      <trkpt lat="45.7253050" lon="7.7013762">
        <ele>1084</ele>
      </trkpt>
      <trkpt lat="45.7254473" lon="7.7016215">
        <ele>1090</ele>
      </trkpt>
      <trkpt lat="45.7254851" lon="7.7017115">
        <ele>1097</ele>
      </trkpt>
      <trkpt lat="45.7255250" lon="7.7017248">
        <ele>1103</ele>
      </trkpt>
      <trkpt lat="45.7255621" lon="7.7017541">
        <ele>1110</ele>
      </trkpt>
      <trkpt lat="45.7255981" lon="7.7017967">
        <ele>1116</ele>
      </trkpt>
      <trkpt lat="45.7256169" lon="7.7018147">
        <ele>1123</ele>
      </trkpt>
      <trkpt lat="45.7255987" lon="7.7019001">
        <ele>1129</ele>
      </trkpt>
      <trkpt lat="45.7256169" lon="7.7019821">
        <ele>1136</ele>
      </trkpt>
      <trkpt lat="45.7257574" lon="7.7022751">
        <ele>1142</ele>
      </trkpt>
      <trkpt lat="45.7258187" lon="7.7025270">
        <ele>1149</ele>
      </trkpt>
      <trkpt lat="45.7258253" lon="7.7028473">
        <ele>1155</ele>
      </trkpt>
      <trkpt lat="45.7258582" lon="7.7030080">
        <ele>1162</ele>
      </trkpt>
      <trkpt lat="45.7259882" lon="7.7032880">
        <ele>1169</ele>
      </trkpt>
      <trkpt lat="45.7261982" lon="7.7033980">
        <ele>1175</ele>
      </trkpt>
      <trkpt lat="45.7261182" lon="7.7040180">
        <ele>1182</ele>
      </trkpt>
      <trkpt lat="45.7263282" lon="7.7042280">
        <ele>1188</ele>
      </trkpt>
      <trkpt lat="45.7264924" lon="7.7041434">
        <ele>1195</ele>
      </trkpt>
      <trkpt lat="45.7266582" lon="7.7040580">
        <ele>1201</ele>
      </trkpt>
      <trkpt lat="45.7267098" lon="7.7042334">
        <ele>1208</ele>
      </trkpt>
      <trkpt lat="45.7267582" lon="7.7043980">
        <ele>1214</ele>
      </trkpt>
      <trkpt lat="45.7270582" lon="7.7042780">
        <ele>1221</ele>
      </trkpt>
      <trkpt lat="45.7274482" lon="7.7045780">
        <ele>1227</ele>
      </trkpt>
      <trkpt lat="45.7272982" lon="7.7051280">
        <ele>1234</ele>
      </trkpt>
      <trkpt lat="45.7274482" lon="7.7053880">
        <ele>1240</ele>
      </trkpt>
      <trkpt lat="45.7273582" lon="7.7057580">
        <ele>1247</ele>
      </trkpt>
      <trkpt lat="45.7279582" lon="7.7068480">
        <ele>1253</ele>
      </trkpt>
      <trkpt lat="45.7283010" lon="7.7071667">
        <ele>1260</ele>
      </trkpt>
      <trkpt lat="45.7282906" lon="7.7074416">
        <ele>1266</ele>
      </trkpt>
      <trkpt lat="45.7283371" lon="7.7075779">
        <ele>1273</ele>
      </trkpt>
      <trkpt lat="45.7284142" lon="7.7076283">
        <ele>1279</ele>
      </trkpt>
      <trkpt lat="45.7285357" lon="7.7076255">
        <ele>1286</ele>
      </trkpt>
      <trkpt lat="45.7285377" lon="7.7078050">
        <ele>1293</ele>
      </trkpt>
      <trkpt lat="45.7284942" lon="7.7079365">
        <ele>1299</ele>
      </trkpt>
      <trkpt lat="45.7285230" lon="7.7081005">
        <ele>1306</ele>
      </trkpt>
      <trkpt lat="45.7284763" lon="7.7083498">
        <ele>1312</ele>
      </trkpt>
      <trkpt lat="45.7284500" lon="7.7084098">
        <ele>1319</ele>
      </trkpt>
      <trkpt lat="45.7283391" lon="7.7084610">
        <ele>1325</ele>
      </trkpt>
      <trkpt lat="45.7283843" lon="7.7085666">
        <ele>1332</ele>
      </trkpt>
      <trkpt lat="45.7284166" lon="7.7085980">
        <ele>1338</ele>
      </trkpt>
      <trkpt lat="45.7284655" lon="7.7086049">
        <ele>1345</ele>
      </trkpt>
      <trkpt lat="45.7286839" lon="7.7085555">
        <ele>1351</ele>
      </trkpt>
      <trkpt lat="45.7287980" lon="7.7084974">
        <ele>1358</ele>
      </trkpt>
      <trkpt lat="45.7286868" lon="7.7088536">
        <ele>1364</ele>
      </trkpt>
      <trkpt lat="45.7287526" lon="7.7089448">
        <ele>1371</ele>
      </trkpt>
      <trkpt lat="45.7288225" lon="7.7089434">
        <ele>1377</ele>
      </trkpt>
      <trkpt lat="45.7289356" lon="7.7087641">
        <ele>1384</ele>
      </trkpt>
      <trkpt lat="45.7289895" lon="7.7089522">
        <ele>1390</ele>
      </trkpt>
      <trkpt lat="45.7290782" lon="7.7090617">
        <ele>1397</ele>
      </trkpt>
      <trkpt lat="45.7291070" lon="7.7092354">
        <ele>1404</ele>
      </trkpt>
      <trkpt lat="45.7292334" lon="7.7095346">
        <ele>1410</ele>
      </trkpt>
      <trkpt lat="45.7295282" lon="7.7101780">
        <ele>1417</ele>
      </trkpt>
      <trkpt lat="45.7294382" lon="7.7103480">
        <ele>1423</ele>
      </trkpt>
      <trkpt lat="45.7297182" lon="7.7105780">
        <ele>1430</ele>
      </trkpt>
      <trkpt lat="45.7293382" lon="7.7107580">
        <ele>1436</ele>
      </trkpt>
      <trkpt lat="45.7294382" lon="7.7109280">
        <ele>1443</ele>
      </trkpt>
      <trkpt lat="45.7292882" lon="7.7110280">
        <ele>1449</ele>
      </trkpt>
      <trkpt lat="45.7293582" lon="7.7114180">
        <ele>1456</ele>
      </trkpt>
      <trkpt lat="45.7295682" lon="7.7118480">
        <ele>1462</ele>
      </trkpt>
      <trkpt lat="45.7294682" lon="7.7120180">
        <ele>1469</ele>
      </trkpt>
      <trkpt lat="45.7300682" lon="7.7121480">
        <ele>1475</ele>
      </trkpt>
      <trkpt lat="45.7304982" lon="7.7124880">
        <ele>1482</ele>
      </trkpt>
      <trkpt lat="45.7311782" lon="7.7132880">
        <ele>1488</ele>
      </trkpt>
      <trkpt lat="45.7314982" lon="7.7134380">
        <ele>1495</ele>
      </trkpt>
      <trkpt lat="45.7323280" lon="7.7117857">
        <ele>1501</ele>
      </trkpt>
      <trkpt lat="45.7324069" lon="7.7119250">
        <ele>1508</ele>
      </trkpt>
      <trkpt lat="45.7325308" lon="7.7119748">
        <ele>1514</ele>
      </trkpt>
      <trkpt lat="45.7325888" lon="7.7121187">
        <ele>1521</ele>
      </trkpt>
    </trkseg>
  </trk>
</gpx>
