<?xml version="1.0" encoding="UTF-8"?>
<gpx version="1.1" creator="sentieri-vda" xmlns="http://www.topografix.com/GPX/1/1">
  <metadata>
    <name>Erésaz - Grand Hoel (Montjovet)</name>
    <desc>Catasto Sentieri VdA — 25_S4</desc>
    <author><name>Regione Autonoma Valle d'Aosta</name></author>
  </metadata>
  <trk>
    <name>Erésaz - Grand Hoel (Montjovet)</name>
    <src>Catasto Sentieri VdA (25_S4)</src>
    <trkseg>
      <trkpt lat="45.7009189" lon="7.7000240">
        <ele>1195</ele>
      </trkpt>
      <trkpt lat="45.7009072" lon="7.7000793">
        <ele>1195</ele>
      </trkpt>
      <trkpt lat="45.7009371" lon="7.7002673">
        <ele>1195</ele>
      </trkpt>
      <trkpt lat="45.7010081" lon="7.7003063">
        <ele>1195</ele>
      </trkpt>
      <trkpt lat="45.7011182" lon="7.7004343">
        <ele>1195</ele>
      </trkpt>
      <trkpt lat="45.7012531" lon="7.7005203">
        <ele>1195</ele>
      </trkpt>
      <trkpt lat="45.7013652" lon="7.7005063">
        <ele>1194</ele>
      </trkpt>
      <trkpt lat="45.7014581" lon="7.7005633">
        <ele>1194</ele>
      </trkpt>
      <trkpt lat="45.7015701" lon="7.7005604">
        <ele>1194</ele>
      </trkpt>
      <trkpt lat="45.7016441" lon="7.7006024">
        <ele>1194</ele>
      </trkpt>
      <trkpt lat="45.7017621" lon="7.7008003">
        <ele>1194</ele>
      </trkpt>
      <trkpt lat="45.7019371" lon="7.7009793">
        <ele>1194</ele>
      </trkpt>
      <trkpt lat="45.7019671" lon="7.7009344">
        <ele>1194</ele>
      </trkpt>
      <trkpt lat="45.7022921" lon="7.7008803">
        <ele>1194</ele>
      </trkpt>
      <trkpt lat="45.7024431" lon="7.7008213">
        <ele>1194</ele>
      </trkpt>
      <trkpt lat="45.7026871" lon="7.7008634">
        <ele>1194</ele>
      </trkpt>
      <trkpt lat="45.7028551" lon="7.7010443">
        <ele>1193</ele>
      </trkpt>
      <trkpt lat="45.7028681" lon="7.7011113">
        <ele>1193</ele>
      </trkpt>
      <trkpt lat="45.7031791" lon="7.7009934">
        <ele>1193</ele>
      </trkpt>
      <trkpt lat="45.7032411" lon="7.7011334">
        <ele>1193</ele>
      </trkpt>
      <trkpt lat="45.7032151" lon="7.7012214">
        <ele>1193</ele>
      </trkpt>
      <trkpt lat="45.7032111" lon="7.7013713">
        <ele>1193</ele>
      </trkpt>
      <trkpt lat="45.7032551" lon="7.7014944">
        <ele>1193</ele>
      </trkpt>
      <trkpt lat="45.7032891" lon="7.7017384">
        <ele>1193</ele>
      </trkpt>
      <trkpt lat="45.7033550" lon="7.7019473">
        <ele>1193</ele>
      </trkpt>
      <trkpt lat="45.7034171" lon="7.7020653">
        <ele>1193</ele>
      </trkpt>
      <trkpt lat="45.7035181" lon="7.7021984">
        <ele>1192</ele>
      </trkpt>
      <trkpt lat="45.7035921" lon="7.7024133">
        <ele>1192</ele>
      </trkpt>
      <trkpt lat="45.7036471" lon="7.7025233">
        <ele>1192</ele>
      </trkpt>
      <trkpt lat="45.7037590" lon="7.7025874">
        <ele>1192</ele>
      </trkpt>
      <trkpt lat="45.7038710" lon="7.7025584">
        <ele>1192</ele>
      </trkpt>
      <trkpt lat="45.7039040" lon="7.7026014">
        <ele>1192</ele>
      </trkpt>
      <trkpt lat="45.7039791" lon="7.7026123">
        <ele>1192</ele>
      </trkpt>
      <trkpt lat="45.7040600" lon="7.7024923">
        <ele>1192</ele>
      </trkpt>
      <trkpt lat="45.7042121" lon="7.7023434">
        <ele>1192</ele>
      </trkpt>
      <trkpt lat="45.7042590" lon="7.7023724">
        <ele>1192</ele>
      </trkpt>
      <trkpt lat="45.7044721" lon="7.7020964">
        <ele>1192</ele>
      </trkpt>
      <trkpt lat="45.7046701" lon="7.7020203">
        <ele>1191</ele>
      </trkpt>
      <trkpt lat="45.7048321" lon="7.7018364">
        <ele>1191</ele>
      </trkpt>
      <trkpt lat="45.7050420" lon="7.7018944">
        <ele>1191</ele>
      </trkpt>
      <trkpt lat="45.7051891" lon="7.7017904">
        <ele>1191</ele>
      </trkpt>
      <trkpt lat="45.7053470" lon="7.7018124">
        <ele>1191</ele>
      </trkpt>
      <trkpt lat="45.7054770" lon="7.7018764">
        <ele>1191</ele>
      </trkpt>
      <trkpt lat="45.7057290" lon="7.7017634">
        <ele>1191</ele>
      </trkpt>
      <trkpt lat="45.7058251" lon="7.7016674">
        <ele>1191</ele>
      </trkpt>
      <trkpt lat="45.7059980" lon="7.7015674">
        <ele>1191</ele>
      </trkpt>
      <trkpt lat="45.7062260" lon="7.7014674">
        <ele>1191</ele>
      </trkpt>
      <trkpt lat="45.7063040" lon="7.7013214">
        <ele>1190</ele>
      </trkpt>
      <trkpt lat="45.7064260" lon="7.7013184">
        <ele>1190</ele>
      </trkpt>
      <trkpt lat="45.7065470" lon="7.7011994">
        <ele>1190</ele>
      </trkpt>
      <trkpt lat="45.7066040" lon="7.7010414">
        <ele>1190</ele>
      </trkpt>
      <trkpt lat="45.7067990" lon="7.7009205">
        <ele>1190</ele>
      </trkpt>
      <trkpt lat="45.7068720" lon="7.7008394">
        <ele>1190</ele>
      </trkpt>
      <trkpt lat="45.7070520" lon="7.7008074">
        <ele>1190</ele>
      </trkpt>
      <trkpt lat="45.7071730" lon="7.7008714">
        <ele>1190</ele>
      </trkpt>
      <trkpt lat="45.7073050" lon="7.7008625">
        <ele>1190</ele>
      </trkpt>
      <trkpt lat="45.7076460" lon="7.7009335">
        <ele>1190</ele>
      </trkpt>
      <trkpt lat="45.7076969" lon="7.7009694">
        <ele>1189</ele>
      </trkpt>
      <trkpt lat="45.7079269" lon="7.7009804">
        <ele>1189</ele>
      </trkpt>
      <trkpt lat="45.7080859" lon="7.7010944">
        <ele>1189</ele>
      </trkpt>
      <trkpt lat="45.7081760" lon="7.7012215">
        <ele>1189</ele>
      </trkpt>
      <trkpt lat="45.7083060" lon="7.7012604">
        <ele>1189</ele>
      </trkpt>
      <trkpt lat="45.7083940" lon="7.7013174">
        <ele>1189</ele>
      </trkpt>
      <trkpt lat="45.7086710" lon="7.7013195">
        <ele>1189</ele>
      </trkpt>
      <trkpt lat="45.7087309" lon="7.7013454">
        <ele>1189</ele>
      </trkpt>
      <trkpt lat="45.7088990" lon="7.7015144">
        <ele>1189</ele>
      </trkpt>
      <trkpt lat="45.7089389" lon="7.7016714">
        <ele>1189</ele>
      </trkpt>
      <trkpt lat="45.7090239" lon="7.7018415">
        <ele>1188</ele>
      </trkpt>
      <trkpt lat="45.7090829" lon="7.7019194">
        <ele>1188</ele>
      </trkpt>
      <trkpt lat="45.7095329" lon="7.7022604">
        <ele>1188</ele>
      </trkpt>
      <trkpt lat="45.7095709" lon="7.7024644">
        <ele>1188</ele>
      </trkpt>
      <trkpt lat="45.7096369" lon="7.7025845">
        <ele>1188</ele>
      </trkpt>
      <trkpt lat="45.7097239" lon="7.7025674">
        <ele>1188</ele>
      </trkpt>
      <trkpt lat="45.7100429" lon="7.7023634">
        <ele>1188</ele>
      </trkpt>
      <trkpt lat="45.7100759" lon="7.7024184">
        <ele>1188</ele>
      </trkpt>
      <trkpt lat="45.7104029" lon="7.7026514">
        <ele>1188</ele>
      </trkpt>
      <trkpt lat="45.7104889" lon="7.7025855">
        <ele>1188</ele>
      </trkpt>
      <trkpt lat="45.7107419" lon="7.7025944">
        <ele>1188</ele>
      </trkpt>
      <trkpt lat="45.7108878" lon="7.7024904">
        <ele>1187</ele>
      </trkpt>
      <trkpt lat="45.7109898" lon="7.7025764">
        <ele>1187</ele>
      </trkpt>
      <trkpt lat="45.7111789" lon="7.7027875">
        <ele>1187</ele>
      </trkpt>
      <trkpt lat="45.7111849" lon="7.7028195">
        <ele>1187</ele>
      </trkpt>
      <trkpt lat="45.7112999" lon="7.7029504">
        <ele>1187</ele>
      </trkpt>
      <trkpt lat="45.7114409" lon="7.7029975">
        <ele>1187</ele>
      </trkpt>
      <trkpt lat="45.7115169" lon="7.7030495">
        <ele>1187</ele>
      </trkpt>
      <trkpt lat="45.7116508" lon="7.7030775">
        <ele>1187</ele>
      </trkpt>
      <trkpt lat="45.7117169" lon="7.7031275">
        <ele>1187</ele>
      </trkpt>
      <trkpt lat="45.7117589" lon="7.7031944">
        <ele>1187</ele>
      </trkpt>
      <trkpt lat="45.7118388" lon="7.7034505">
        <ele>1186</ele>
      </trkpt>
      <trkpt lat="45.7118868" lon="7.7037584">
        <ele>1186</ele>
      </trkpt>
      <trkpt lat="45.7120079" lon="7.7040125">
        <ele>1186</ele>
      </trkpt>
      <trkpt lat="45.7120919" lon="7.7041245">
        <ele>1186</ele>
      </trkpt>
      <trkpt lat="45.7121818" lon="7.7040815">
        <ele>1186</ele>
      </trkpt>
      <trkpt lat="45.7123198" lon="7.7041405">
        <ele>1186</ele>
      </trkpt>
      <trkpt lat="45.7125478" lon="7.7039655">
        <ele>1186</ele>
      </trkpt>
      <trkpt lat="45.7127419" lon="7.7038595">
        <ele>1186</ele>
      </trkpt>
      <trkpt lat="45.7127989" lon="7.7037915">
        <ele>1186</ele>
      </trkpt>
      <trkpt lat="45.7129508" lon="7.7038284">
        <ele>1186</ele>
      </trkpt>
      <trkpt lat="45.7131238" lon="7.7037565">
        <ele>1185</ele>
      </trkpt>
      <trkpt lat="45.7132858" lon="7.7036465">
        <ele>1185</ele>
      </trkpt>
      <trkpt lat="45.7133658" lon="7.7035655">
        <ele>1185</ele>
      </trkpt>
      <trkpt lat="45.7136058" lon="7.7032015">
        <ele>1185</ele>
      </trkpt>
      <trkpt lat="45.7137898" lon="7.7030865">
        <ele>1185</ele>
      </trkpt>
      <trkpt lat="45.7139328" lon="7.7030385">
        <ele>1185</ele>
      </trkpt>
      <trkpt lat="45.7140738" lon="7.7030655">
        <ele>1185</ele>
      </trkpt>
      <trkpt lat="45.7141078" lon="7.7031825">
        <ele>1185</ele>
      </trkpt>
      <trkpt lat="45.7141788" lon="7.7033335">
        <ele>1185</ele>
      </trkpt>
      <trkpt lat="45.7142248" lon="7.7033945">
        <ele>1185</ele>
      </trkpt>
      <trkpt lat="45.7143992" lon="7.7034580">
        <ele>1185</ele>
      </trkpt>
      <trkpt lat="45.7144918" lon="7.7034895">
        <ele>1184</ele>
      </trkpt>
      <trkpt lat="45.7149192" lon="7.7034780">
        <ele>1184</ele>
      </trkpt>
      <trkpt lat="45.7152792" lon="7.7037180">
        <ele>1184</ele>
      </trkpt>
      <trkpt lat="45.7160455" lon="7.7030330">
        <ele>1184</ele>
      </trkpt>
      <trkpt lat="45.7163038" lon="7.7028893">
        <ele>1184</ele>
      </trkpt>
      <trkpt lat="45.7164388" lon="7.7028686">
        <ele>1184</ele>
      </trkpt>
      <trkpt lat="45.7165380" lon="7.7028805">
        <ele>1184</ele>
      </trkpt>
      <trkpt lat="45.7166526" lon="7.7029810">
        <ele>1184</ele>
      </trkpt>
      <trkpt lat="45.7168243" lon="7.7032419">
        <ele>1184</ele>
      </trkpt>
      <trkpt lat="45.7169265" lon="7.7032937">
        <ele>1184</ele>
      </trkpt>
      <trkpt lat="45.7170166" lon="7.7033077">
        <ele>1183</ele>
      </trkpt>
      <trkpt lat="45.7170670" lon="7.7032840">
        <ele>1183</ele>
      </trkpt>
      <trkpt lat="45.7171536" lon="7.7031498">
        <ele>1183</ele>
      </trkpt>
      <trkpt lat="45.7173734" lon="7.7029344">
        <ele>1183</ele>
      </trkpt>
      <trkpt lat="45.7176269" lon="7.7027817">
        <ele>1183</ele>
      </trkpt>
      <trkpt lat="45.7180963" lon="7.7026900">
        <ele>1183</ele>
      </trkpt>
      <trkpt lat="45.7182894" lon="7.7026905">
        <ele>1183</ele>
      </trkpt>
      <trkpt lat="45.7183757" lon="7.7026642">
        <ele>1183</ele>
      </trkpt>
      <trkpt lat="45.7185800" lon="7.7025033">
        <ele>1183</ele>
      </trkpt>
      <trkpt lat="45.7187259" lon="7.7022882">
        <ele>1183</ele>
      </trkpt>
      <trkpt lat="45.7188181" lon="7.7022092">
        <ele>1182</ele>
      </trkpt>
      <trkpt lat="45.7190486" lon="7.7021631">
        <ele>1182</ele>
      </trkpt>
      <trkpt lat="45.7192311" lon="7.7021027">
        <ele>1182</ele>
      </trkpt>
      <trkpt lat="45.7196027" lon="7.7019419">
        <ele>1182</ele>
      </trkpt>
      <trkpt lat="45.7197150" lon="7.7018302">
        <ele>1182</ele>
      </trkpt>
      <trkpt lat="45.7198213" lon="7.7015469">
        <ele>1182</ele>
      </trkpt>
      <trkpt lat="45.7198912" lon="7.7014111">
        <ele>1182</ele>
      </trkpt>
      <trkpt lat="45.7200849" lon="7.7012615">
        <ele>1182</ele>
      </trkpt>
      <trkpt lat="45.7201908" lon="7.7012138">
        <ele>1182</ele>
      </trkpt>
      <trkpt lat="45.7202708" lon="7.7012710">
        <ele>1182</ele>
      </trkpt>
      <trkpt lat="45.7203569" lon="7.7014063">
        <ele>1181</ele>
      </trkpt>
      <trkpt lat="45.7204120" lon="7.7015925">
        <ele>1181</ele>
      </trkpt>
      <trkpt lat="45.7204708" lon="7.7018734">
        <ele>1181</ele>
      </trkpt>
      <trkpt lat="45.7205486" lon="7.7020631">
        <ele>1181</ele>
      </trkpt>
      <trkpt lat="45.7206469" lon="7.7020724">
        <ele>1181</ele>
      </trkpt>
      <trkpt lat="45.7208387" lon="7.7020392">
        <ele>1181</ele>
      </trkpt>
      <trkpt lat="45.7209101" lon="7.7020122">
        <ele>1181</ele>
      </trkpt>
      <trkpt lat="45.7212254" lon="7.7018085">
        <ele>1181</ele>
      </trkpt>
      <trkpt lat="45.7213088" lon="7.7017684">
        <ele>1181</ele>
      </trkpt>
      <trkpt lat="45.7214140" lon="7.7017491">
        <ele>1181</ele>
      </trkpt>
      <trkpt lat="45.7216753" lon="7.7017755">
        <ele>1181</ele>
      </trkpt>
      <trkpt lat="45.7217662" lon="7.7018185">
        <ele>1180</ele>
      </trkpt>
      <trkpt lat="45.7219134" lon="7.7019410">
        <ele>1180</ele>
      </trkpt>
      <trkpt lat="45.7220503" lon="7.7019682">
        <ele>1180</ele>
      </trkpt>
      <trkpt lat="45.7222754" lon="7.7019364">
        <ele>1180</ele>
      </trkpt>
      <trkpt lat="45.7222962" lon="7.7019182">
        <ele>1180</ele>
      </trkpt>
      <trkpt lat="45.7224151" lon="7.7019153">
        <ele>1180</ele>
      </trkpt>
      <trkpt lat="45.7225839" lon="7.7018769">
        <ele>1180</ele>
      </trkpt>
      <trkpt lat="45.7228350" lon="7.7017774">
        <ele>1180</ele>
      </trkpt>
      <trkpt lat="45.7229514" lon="7.7016908">
        <ele>1180</ele>
      </trkpt>
      <trkpt lat="45.7231911" lon="7.7014107">
        <ele>1180</ele>
      </trkpt>
      <trkpt lat="45.7233790" lon="7.7013259">
        <ele>1179</ele>
      </trkpt>
      <trkpt lat="45.7235585" lon="7.7013168">
        <ele>1179</ele>
      </trkpt>
      <trkpt lat="45.7235966" lon="7.7013258">
        <ele>1179</ele>
      </trkpt>
      <trkpt lat="45.7237018" lon="7.7014565">
        <ele>1179</ele>
      </trkpt>
      <trkpt lat="45.7239025" lon="7.7015544">
        <ele>1179</ele>
      </trkpt>
      <trkpt lat="45.7239194" lon="7.7015795">
        <ele>1179</ele>
      </trkpt>
      <trkpt lat="45.7240634" lon="7.7017085">
        <ele>1179</ele>
      </trkpt>
      <trkpt lat="45.7241626" lon="7.7017826">
        <ele>1179</ele>
      </trkpt>
      <trkpt lat="45.7242176" lon="7.7018681">
        <ele>1179</ele>
      </trkpt>
      <trkpt lat="45.7243278" lon="7.7020595">
        <ele>1179</ele>
      </trkpt>
      <trkpt lat="45.7243790" lon="7.7022129">
        <ele>1178</ele>
      </trkpt>
      <trkpt lat="45.7246776" lon="7.7026753">
        <ele>1178</ele>
      </trkpt>
      <trkpt lat="45.7249298" lon="7.7026134">
        <ele>1178</ele>
      </trkpt>
      <trkpt lat="45.7249547" lon="7.7026444">
        <ele>1178</ele>
      </trkpt>
      <trkpt lat="45.7249814" lon="7.7027372">
        <ele>1178</ele>
      </trkpt>
      <trkpt lat="45.7250916" lon="7.7027426">
        <ele>1178</ele>
      </trkpt>
    </trkseg>
  </trk>
</gpx>
