<?xml version="1.0" encoding="UTF-8"?>
<gpx version="1.1" creator="sentieri-vda" xmlns="http://www.topografix.com/GPX/1/1">
  <metadata>
    <name>Erésaz - Borna da Ghiasa</name>
    <desc>Catasto Sentieri VdA — 25_S6</desc>
    <author><name>Regione Autonoma Valle d'Aosta</name></author>
  </metadata>
  <trk>
    <name>Erésaz - Borna da Ghiasa</name>
    <src>Catasto Sentieri VdA (25_S6)</src>
    <trkseg>
      <trkpt lat="45.7250916" lon="7.7027434">
        <ele>1187</ele>
      </trkpt>
      <trkpt lat="45.7251959" lon="7.7028930">
        <ele>1196</ele>
      </trkpt>
      <trkpt lat="45.7250265" lon="7.7031398">
        <ele>1206</ele>
      </trkpt>
      <trkpt lat="45.7249582" lon="7.7032680">
        <ele>1215</ele>
      </trkpt>
      <trkpt lat="45.7255382" lon="7.7043780">
        <ele>1225</ele>
      </trkpt>
      <trkpt lat="45.7249782" lon="7.7048080">
        <ele>1234</ele>
      </trkpt>
      <trkpt lat="45.7249582" lon="7.7053880">
        <ele>1243</ele>
      </trkpt>
      <trkpt lat="45.7245682" lon="7.7057080">
        <ele>1253</ele>
      </trkpt>
      <trkpt lat="45.7244182" lon="7.7060780">
        <ele>1262</ele>
      </trkpt>
      <trkpt lat="45.7237382" lon="7.7068480">
        <ele>1271</ele>
      </trkpt>
      <trkpt lat="45.7233082" lon="7.7069580">
        <ele>1281</ele>
      </trkpt>
      <trkpt lat="45.7228082" lon="7.7076380">
        <ele>1290</ele>
      </trkpt>
      <trkpt lat="45.7225082" lon="7.7083980">
        <ele>1300</ele>
      </trkpt>
      <trkpt lat="45.7218482" lon="7.7087580">
        <ele>1309</ele>
      </trkpt>
    </trkseg>
  </trk>
</gpx>
