<?xml version="1.0" encoding="UTF-8"?>
<gpx version="1.1" creator="sentieri-vda" xmlns="http://www.topografix.com/GPX/1/1">
  <metadata>
    <name>Cerise - Bec Tolomon</name>
    <desc>Catasto Sentieri VdA — 27_S4</desc>
    <author><name>Regione Autonoma Valle d'Aosta</name></author>
  </metadata>
  <trk>
    <name>Cerise - Bec Tolomon</name>
    <src>Catasto Sentieri VdA (27_S4)</src>
    <trkseg>
      <trkpt lat="45.7129752" lon="7.5151030">
        <ele>998</ele>
      </trkpt>
      <trkpt lat="45.7129002" lon="7.5153720">
        <ele>1005</ele>
      </trkpt>
      <trkpt lat="45.7125902" lon="7.5162020">
        <ele>1013</ele>
      </trkpt>
      <trkpt lat="45.7126202" lon="7.5164620">
        <ele>1020</ele>
      </trkpt>
      <trkpt lat="45.7123162" lon="7.5169710">
        <ele>1028</ele>
      </trkpt>
      <trkpt lat="45.7121102" lon="7.5168420">
        <ele>1035</ele>
      </trkpt>
      <trkpt lat="45.7120502" lon="7.5163620">
        <ele>1042</ele>
      </trkpt>
      <trkpt lat="45.7116702" lon="7.5162220">
        <ele>1050</ele>
      </trkpt>
      <trkpt lat="45.7115402" lon="7.5162420">
        <ele>1057</ele>
      </trkpt>
      <trkpt lat="45.7113112" lon="7.5161620">
        <ele>1065</ele>
      </trkpt>
      <trkpt lat="45.7112212" lon="7.5160220">
        <ele>1072</ele>
      </trkpt>
      <trkpt lat="45.7109412" lon="7.5159320">
        <ele>1079</ele>
      </trkpt>
      <trkpt lat="45.7107612" lon="7.5157220">
        <ele>1087</ele>
      </trkpt>
      <trkpt lat="45.7105612" lon="7.5156420">
        <ele>1094</ele>
      </trkpt>
      <trkpt lat="45.7104312" lon="7.5155020">
        <ele>1102</ele>
      </trkpt>
      <trkpt lat="45.7104012" lon="7.5153720">
        <ele>1109</ele>
      </trkpt>
      <trkpt lat="45.7104712" lon="7.5152220">
        <ele>1116</ele>
      </trkpt>
      <trkpt lat="45.7105712" lon="7.5149220">
        <ele>1124</ele>
      </trkpt>
      <trkpt lat="45.7107112" lon="7.5147620">
        <ele>1131</ele>
      </trkpt>
      <trkpt lat="45.7107812" lon="7.5145020">
        <ele>1139</ele>
      </trkpt>
      <trkpt lat="45.7107112" lon="7.5144720">
        <ele>1146</ele>
      </trkpt>
      <trkpt lat="45.7105212" lon="7.5141020">
        <ele>1153</ele>
      </trkpt>
      <trkpt lat="45.7104512" lon="7.5138120">
        <ele>1161</ele>
      </trkpt>
      <trkpt lat="45.7105412" lon="7.5135620">
        <ele>1168</ele>
      </trkpt>
      <trkpt lat="45.7105212" lon="7.5132220">
        <ele>1176</ele>
      </trkpt>
      <trkpt lat="45.7106512" lon="7.5127720">
        <ele>1183</ele>
      </trkpt>
      <trkpt lat="45.7107912" lon="7.5120820">
        <ele>1190</ele>
      </trkpt>
      <trkpt lat="45.7108512" lon="7.5115720">
        <ele>1198</ele>
      </trkpt>
      <trkpt lat="45.7110112" lon="7.5113020">
        <ele>1205</ele>
      </trkpt>
      <trkpt lat="45.7109012" lon="7.5112620">
        <ele>1213</ele>
      </trkpt>
      <trkpt lat="45.7108512" lon="7.5111220">
        <ele>1220</ele>
      </trkpt>
      <trkpt lat="45.7107612" lon="7.5111020">
        <ele>1227</ele>
      </trkpt>
      <trkpt lat="45.7107512" lon="7.5109920">
        <ele>1235</ele>
      </trkpt>
      <trkpt lat="45.7106412" lon="7.5110420">
        <ele>1242</ele>
      </trkpt>
      <trkpt lat="45.7106012" lon="7.5108920">
        <ele>1250</ele>
      </trkpt>
      <trkpt lat="45.7102112" lon="7.5110620">
        <ele>1257</ele>
      </trkpt>
      <trkpt lat="45.7100412" lon="7.5109120">
        <ele>1264</ele>
      </trkpt>
      <trkpt lat="45.7097812" lon="7.5109420">
        <ele>1272</ele>
      </trkpt>
      <trkpt lat="45.7097312" lon="7.5110320">
        <ele>1279</ele>
      </trkpt>
      <trkpt lat="45.7097512" lon="7.5104420">
        <ele>1287</ele>
      </trkpt>
      <trkpt lat="45.7096732" lon="7.5103600">
        <ele>1294</ele>
      </trkpt>
      <trkpt lat="45.7095712" lon="7.5104820">
        <ele>1301</ele>
      </trkpt>
      <trkpt lat="45.7095312" lon="7.5103820">
        <ele>1309</ele>
      </trkpt>
      <trkpt lat="45.7094912" lon="7.5100620">
        <ele>1316</ele>
      </trkpt>
      <trkpt lat="45.7095312" lon="7.5098820">
        <ele>1324</ele>
      </trkpt>
      <trkpt lat="45.7096512" lon="7.5098620">
        <ele>1331</ele>
      </trkpt>
      <trkpt lat="45.7098312" lon="7.5093420">
        <ele>1338</ele>
      </trkpt>
      <trkpt lat="45.7099312" lon="7.5092820">
        <ele>1346</ele>
      </trkpt>
      <trkpt lat="45.7099612" lon="7.5089220">
        <ele>1353</ele>
      </trkpt>
      <trkpt lat="45.7101012" lon="7.5086820">
        <ele>1361</ele>
      </trkpt>
      <trkpt lat="45.7101512" lon="7.5084320">
        <ele>1368</ele>
      </trkpt>
      <trkpt lat="45.7101812" lon="7.5084720">
        <ele>1375</ele>
      </trkpt>
      <trkpt lat="45.7102012" lon="7.5083220">
        <ele>1383</ele>
      </trkpt>
      <trkpt lat="45.7103012" lon="7.5083020">
        <ele>1390</ele>
      </trkpt>
      <trkpt lat="45.7103712" lon="7.5081420">
        <ele>1398</ele>
      </trkpt>
      <trkpt lat="45.7103812" lon="7.5077320">
        <ele>1405</ele>
      </trkpt>
      <trkpt lat="45.7105112" lon="7.5073220">
        <ele>1412</ele>
      </trkpt>
      <trkpt lat="45.7105912" lon="7.5072220">
        <ele>1420</ele>
      </trkpt>
      <trkpt lat="45.7106512" lon="7.5069320">
        <ele>1427</ele>
      </trkpt>
      <trkpt lat="45.7107612" lon="7.5069520">
        <ele>1435</ele>
      </trkpt>
      <trkpt lat="45.7107112" lon="7.5066520">
        <ele>1442</ele>
      </trkpt>
      <trkpt lat="45.7107712" lon="7.5062720">
        <ele>1449</ele>
      </trkpt>
      <trkpt lat="45.7108712" lon="7.5061020">
        <ele>1457</ele>
      </trkpt>
      <trkpt lat="45.7109212" lon="7.5057920">
        <ele>1464</ele>
      </trkpt>
      <trkpt lat="45.7110212" lon="7.5047820">
        <ele>1472</ele>
      </trkpt>
      <trkpt lat="45.7113232" lon="7.5043550">
        <ele>1479</ele>
      </trkpt>
      <trkpt lat="45.7114412" lon="7.5043920">
        <ele>1486</ele>
      </trkpt>
      <trkpt lat="45.7117912" lon="7.5049020">
        <ele>1494</ele>
      </trkpt>
      <trkpt lat="45.7118112" lon="7.5052220">
        <ele>1501</ele>
      </trkpt>
      <trkpt lat="45.7118712" lon="7.5052720">
        <ele>1509</ele>
      </trkpt>
      <trkpt lat="45.7120712" lon="7.5050420">
        <ele>1516</ele>
      </trkpt>
      <trkpt lat="45.7122912" lon="7.5050020">
        <ele>1523</ele>
      </trkpt>
      <trkpt lat="45.7124212" lon="7.5053520">
        <ele>1531</ele>
      </trkpt>
      <trkpt lat="45.7126212" lon="7.5054020">
        <ele>1538</ele>
      </trkpt>
      <trkpt lat="45.7126362" lon="7.5056040">
        <ele>1546</ele>
      </trkpt>
      <trkpt lat="45.7128112" lon="7.5056520">
        <ele>1553</ele>
      </trkpt>
      <trkpt lat="45.7128512" lon="7.5057620">
        <ele>1560</ele>
      </trkpt>
      <trkpt lat="45.7129712" lon="7.5056720">
        <ele>1568</ele>
      </trkpt>
      <trkpt lat="45.7131512" lon="7.5052920">
        <ele>1575</ele>
      </trkpt>
      <trkpt lat="45.7133212" lon="7.5052020">
        <ele>1583</ele>
      </trkpt>
      <trkpt lat="45.7133112" lon="7.5050620">
        <ele>1590</ele>
      </trkpt>
      <trkpt lat="45.7133912" lon="7.5050220">
        <ele>1597</ele>
      </trkpt>
      <trkpt lat="45.7134512" lon="7.5046060">
        <ele>1605</ele>
      </trkpt>
      <trkpt lat="45.7134812" lon="7.5046420">
        <ele>1612</ele>
      </trkpt>
      <trkpt lat="45.7135612" lon="7.5045920">
        <ele>1620</ele>
      </trkpt>
      <trkpt lat="45.7137812" lon="7.5047220">
        <ele>1627</ele>
      </trkpt>
      <trkpt lat="45.7138912" lon="7.5050520">
        <ele>1634</ele>
      </trkpt>
      <trkpt lat="45.7139612" lon="7.5049820">
        <ele>1642</ele>
      </trkpt>
      <trkpt lat="45.7142112" lon="7.5051820">
        <ele>1649</ele>
      </trkpt>
      <trkpt lat="45.7142212" lon="7.5054420">
        <ele>1657</ele>
      </trkpt>
      <trkpt lat="45.7145712" lon="7.5053720">
        <ele>1664</ele>
      </trkpt>
      <trkpt lat="45.7146912" lon="7.5050820">
        <ele>1671</ele>
      </trkpt>
      <trkpt lat="45.7148612" lon="7.5050420">
        <ele>1679</ele>
      </trkpt>
      <trkpt lat="45.7148412" lon="7.5048720">
        <ele>1686</ele>
      </trkpt>
      <trkpt lat="45.7150412" lon="7.5049320">
        <ele>1694</ele>
      </trkpt>
      <trkpt lat="45.7151512" lon="7.5047820">
        <ele>1701</ele>
      </trkpt>
      <trkpt lat="45.7151212" lon="7.5049320">
        <ele>1708</ele>
      </trkpt>
      <trkpt lat="45.7153812" lon="7.5050320">
        <ele>1716</ele>
      </trkpt>
      <trkpt lat="45.7154412" lon="7.5048520">
        <ele>1723</ele>
      </trkpt>
      <trkpt lat="45.7156402" lon="7.5051520">
        <ele>1731</ele>
      </trkpt>
      <trkpt lat="45.7157202" lon="7.5048420">
        <ele>1738</ele>
      </trkpt>
      <trkpt lat="45.7156712" lon="7.5044320">
        <ele>1745</ele>
      </trkpt>
      <trkpt lat="45.7158502" lon="7.5045220">
        <ele>1753</ele>
      </trkpt>
      <trkpt lat="45.7158902" lon="7.5044220">
        <ele>1760</ele>
      </trkpt>
      <trkpt lat="45.7160102" lon="7.5047020">
        <ele>1768</ele>
      </trkpt>
      <trkpt lat="45.7160802" lon="7.5047020">
        <ele>1775</ele>
      </trkpt>
      <trkpt lat="45.7162402" lon="7.5044220">
        <ele>1782</ele>
      </trkpt>
      <trkpt lat="45.7161802" lon="7.5041020">
        <ele>1790</ele>
      </trkpt>
      <trkpt lat="45.7166502" lon="7.5039320">
        <ele>1797</ele>
      </trkpt>
      <trkpt lat="45.7168702" lon="7.5037520">
        <ele>1805</ele>
      </trkpt>
      <trkpt lat="45.7170102" lon="7.5037277">
        <ele>1812</ele>
      </trkpt>
    </trkseg>
  </trk>
</gpx>
