<?xml version="1.0" encoding="UTF-8"?>
<gpx version="1.1" creator="sentieri-vda" xmlns="http://www.topografix.com/GPX/1/1">
  <metadata>
    <name>Maison Blanche - Chardonney - Praz Premier</name>
    <desc>Catasto Sentieri VdA — 27_S13</desc>
    <author><name>Regione Autonoma Valle d'Aosta</name></author>
  </metadata>
  <trk>
    <name>Maison Blanche - Chardonney - Praz Premier</name>
    <src>Catasto Sentieri VdA (27_S13)</src>
    <trkseg>
      <trkpt lat="45.6801529" lon="7.4953707">
        <ele>1545</ele>
      </trkpt>
      <trkpt lat="45.6804613" lon="7.4947489">
        <ele>1547</ele>
      </trkpt>
      <trkpt lat="45.6805171" lon="7.4944410">
        <ele>1550</ele>
      </trkpt>
      <trkpt lat="45.6803361" lon="7.4943430">
        <ele>1552</ele>
      </trkpt>
      <trkpt lat="45.6801611" lon="7.4942010">
        <ele>1554</ele>
      </trkpt>
      <trkpt lat="45.6796493" lon="7.4940723">
        <ele>1556</ele>
      </trkpt>
      <trkpt lat="45.6792104" lon="7.4940715">
        <ele>1559</ele>
      </trkpt>
      <trkpt lat="45.6787642" lon="7.4941235">
        <ele>1561</ele>
      </trkpt>
      <trkpt lat="45.6785372" lon="7.4940670">
        <ele>1563</ele>
      </trkpt>
      <trkpt lat="45.6782422" lon="7.4939566">
        <ele>1566</ele>
      </trkpt>
      <trkpt lat="45.6777478" lon="7.4936204">
        <ele>1568</ele>
      </trkpt>
      <trkpt lat="45.6775026" lon="7.4934051">
        <ele>1570</ele>
      </trkpt>
      <trkpt lat="45.6772597" lon="7.4931130">
        <ele>1572</ele>
      </trkpt>
      <trkpt lat="45.6770682" lon="7.4929212">
        <ele>1575</ele>
      </trkpt>
      <trkpt lat="45.6770192" lon="7.4927819">
        <ele>1577</ele>
      </trkpt>
      <trkpt lat="45.6770629" lon="7.4926071">
        <ele>1579</ele>
      </trkpt>
      <trkpt lat="45.6773376" lon="7.4923914">
        <ele>1582</ele>
      </trkpt>
      <trkpt lat="45.6773971" lon="7.4922880">
        <ele>1584</ele>
      </trkpt>
      <trkpt lat="45.6773867" lon="7.4921703">
        <ele>1586</ele>
      </trkpt>
      <trkpt lat="45.6773121" lon="7.4918710">
        <ele>1588</ele>
      </trkpt>
      <trkpt lat="45.6772421" lon="7.4917410">
        <ele>1591</ele>
      </trkpt>
      <trkpt lat="45.6772821" lon="7.4910620">
        <ele>1593</ele>
      </trkpt>
      <trkpt lat="45.6773721" lon="7.4907520">
        <ele>1595</ele>
      </trkpt>
      <trkpt lat="45.6772621" lon="7.4904920">
        <ele>1598</ele>
      </trkpt>
      <trkpt lat="45.6771521" lon="7.4904220">
        <ele>1600</ele>
      </trkpt>
      <trkpt lat="45.6771921" lon="7.4902020">
        <ele>1602</ele>
      </trkpt>
      <trkpt lat="45.6770121" lon="7.4902520">
        <ele>1604</ele>
      </trkpt>
      <trkpt lat="45.6769821" lon="7.4902020">
        <ele>1607</ele>
      </trkpt>
      <trkpt lat="45.6771811" lon="7.4898570">
        <ele>1609</ele>
      </trkpt>
      <trkpt lat="45.6770621" lon="7.4896420">
        <ele>1611</ele>
      </trkpt>
      <trkpt lat="45.6768521" lon="7.4895820">
        <ele>1614</ele>
      </trkpt>
      <trkpt lat="45.6767421" lon="7.4893920">
        <ele>1616</ele>
      </trkpt>
      <trkpt lat="45.6766421" lon="7.4893820">
        <ele>1618</ele>
      </trkpt>
      <trkpt lat="45.6765921" lon="7.4892120">
        <ele>1620</ele>
      </trkpt>
      <trkpt lat="45.6765121" lon="7.4891720">
        <ele>1623</ele>
      </trkpt>
      <trkpt lat="45.6765321" lon="7.4889920">
        <ele>1625</ele>
      </trkpt>
      <trkpt lat="45.6764521" lon="7.4888320">
        <ele>1627</ele>
      </trkpt>
      <trkpt lat="45.6763721" lon="7.4888320">
        <ele>1629</ele>
      </trkpt>
      <trkpt lat="45.6764221" lon="7.4885420">
        <ele>1632</ele>
      </trkpt>
      <trkpt lat="45.6761421" lon="7.4880920">
        <ele>1634</ele>
      </trkpt>
      <trkpt lat="45.6761721" lon="7.4880220">
        <ele>1636</ele>
      </trkpt>
      <trkpt lat="45.6760731" lon="7.4877810">
        <ele>1639</ele>
      </trkpt>
      <trkpt lat="45.6759821" lon="7.4877320">
        <ele>1641</ele>
      </trkpt>
      <trkpt lat="45.6759421" lon="7.4875820">
        <ele>1643</ele>
      </trkpt>
      <trkpt lat="45.6757821" lon="7.4877720">
        <ele>1645</ele>
      </trkpt>
      <trkpt lat="45.6756721" lon="7.4877120">
        <ele>1648</ele>
      </trkpt>
      <trkpt lat="45.6755721" lon="7.4877520">
        <ele>1650</ele>
      </trkpt>
      <trkpt lat="45.6755121" lon="7.4877320">
        <ele>1652</ele>
      </trkpt>
      <trkpt lat="45.6753621" lon="7.4874720">
        <ele>1655</ele>
      </trkpt>
      <trkpt lat="45.6752321" lon="7.4874420">
        <ele>1657</ele>
      </trkpt>
      <trkpt lat="45.6751221" lon="7.4874920">
        <ele>1659</ele>
      </trkpt>
      <trkpt lat="45.6750621" lon="7.4872520">
        <ele>1661</ele>
      </trkpt>
      <trkpt lat="45.6750021" lon="7.4873620">
        <ele>1664</ele>
      </trkpt>
      <trkpt lat="45.6749821" lon="7.4872620">
        <ele>1666</ele>
      </trkpt>
      <trkpt lat="45.6748321" lon="7.4873320">
        <ele>1668</ele>
      </trkpt>
      <trkpt lat="45.6746621" lon="7.4872520">
        <ele>1671</ele>
      </trkpt>
      <trkpt lat="45.6746321" lon="7.4871320">
        <ele>1673</ele>
      </trkpt>
      <trkpt lat="45.6746921" lon="7.4870920">
        <ele>1675</ele>
      </trkpt>
      <trkpt lat="45.6747621" lon="7.4868920">
        <ele>1677</ele>
      </trkpt>
      <trkpt lat="45.6751221" lon="7.4866920">
        <ele>1680</ele>
      </trkpt>
      <trkpt lat="45.6751621" lon="7.4867720">
        <ele>1682</ele>
      </trkpt>
      <trkpt lat="45.6752221" lon="7.4867020">
        <ele>1684</ele>
      </trkpt>
      <trkpt lat="45.6752421" lon="7.4863220">
        <ele>1687</ele>
      </trkpt>
      <trkpt lat="45.6751621" lon="7.4863020">
        <ele>1689</ele>
      </trkpt>
      <trkpt lat="45.6751921" lon="7.4860920">
        <ele>1691</ele>
      </trkpt>
      <trkpt lat="45.6750921" lon="7.4860420">
        <ele>1693</ele>
      </trkpt>
      <trkpt lat="45.6750121" lon="7.4862020">
        <ele>1696</ele>
      </trkpt>
      <trkpt lat="45.6750121" lon="7.4860620">
        <ele>1698</ele>
      </trkpt>
      <trkpt lat="45.6748221" lon="7.4861720">
        <ele>1700</ele>
      </trkpt>
      <trkpt lat="45.6747521" lon="7.4859720">
        <ele>1703</ele>
      </trkpt>
      <trkpt lat="45.6747521" lon="7.4858820">
        <ele>1705</ele>
      </trkpt>
      <trkpt lat="45.6745821" lon="7.4860720">
        <ele>1707</ele>
      </trkpt>
      <trkpt lat="45.6745621" lon="7.4859820">
        <ele>1709</ele>
      </trkpt>
      <trkpt lat="45.6744921" lon="7.4859620">
        <ele>1712</ele>
      </trkpt>
      <trkpt lat="45.6744121" lon="7.4860920">
        <ele>1714</ele>
      </trkpt>
      <trkpt lat="45.6743821" lon="7.4860220">
        <ele>1716</ele>
      </trkpt>
      <trkpt lat="45.6744021" lon="7.4860320">
        <ele>1719</ele>
      </trkpt>
      <trkpt lat="45.6743921" lon="7.4857020">
        <ele>1721</ele>
      </trkpt>
      <trkpt lat="45.6742121" lon="7.4857220">
        <ele>1723</ele>
      </trkpt>
      <trkpt lat="45.6740721" lon="7.4858120">
        <ele>1725</ele>
      </trkpt>
      <trkpt lat="45.6740321" lon="7.4856620">
        <ele>1728</ele>
      </trkpt>
      <trkpt lat="45.6739521" lon="7.4855920">
        <ele>1730</ele>
      </trkpt>
      <trkpt lat="45.6740221" lon="7.4854520">
        <ele>1732</ele>
      </trkpt>
      <trkpt lat="45.6740821" lon="7.4851820">
        <ele>1735</ele>
      </trkpt>
      <trkpt lat="45.6740621" lon="7.4848420">
        <ele>1737</ele>
      </trkpt>
      <trkpt lat="45.6738721" lon="7.4841420">
        <ele>1739</ele>
      </trkpt>
      <trkpt lat="45.6736021" lon="7.4838920">
        <ele>1741</ele>
      </trkpt>
      <trkpt lat="45.6734821" lon="7.4835220">
        <ele>1744</ele>
      </trkpt>
      <trkpt lat="45.6733881" lon="7.4835390">
        <ele>1746</ele>
      </trkpt>
      <trkpt lat="45.6734241" lon="7.4834870">
        <ele>1748</ele>
      </trkpt>
      <trkpt lat="45.6733501" lon="7.4833860">
        <ele>1751</ele>
      </trkpt>
      <trkpt lat="45.6734221" lon="7.4831620">
        <ele>1753</ele>
      </trkpt>
      <trkpt lat="45.6733021" lon="7.4830020">
        <ele>1755</ele>
      </trkpt>
      <trkpt lat="45.6733621" lon="7.4827120">
        <ele>1757</ele>
      </trkpt>
      <trkpt lat="45.6733521" lon="7.4825620">
        <ele>1760</ele>
      </trkpt>
      <trkpt lat="45.6732521" lon="7.4825220">
        <ele>1762</ele>
      </trkpt>
      <trkpt lat="45.6732991" lon="7.4822580">
        <ele>1764</ele>
      </trkpt>
      <trkpt lat="45.6732621" lon="7.4822120">
        <ele>1767</ele>
      </trkpt>
      <trkpt lat="45.6732421" lon="7.4819920">
        <ele>1769</ele>
      </trkpt>
      <trkpt lat="45.6732921" lon="7.4818620">
        <ele>1771</ele>
      </trkpt>
      <trkpt lat="45.6731721" lon="7.4817820">
        <ele>1773</ele>
      </trkpt>
      <trkpt lat="45.6728721" lon="7.4825420">
        <ele>1776</ele>
      </trkpt>
      <trkpt lat="45.6728521" lon="7.4821520">
        <ele>1778</ele>
      </trkpt>
      <trkpt lat="45.6727021" lon="7.4812520">
        <ele>1780</ele>
      </trkpt>
      <trkpt lat="45.6727721" lon="7.4810720">
        <ele>1783</ele>
      </trkpt>
      <trkpt lat="45.6727421" lon="7.4809120">
        <ele>1785</ele>
      </trkpt>
      <trkpt lat="45.6727021" lon="7.4809320">
        <ele>1787</ele>
      </trkpt>
      <trkpt lat="45.6727021" lon="7.4807620">
        <ele>1789</ele>
      </trkpt>
      <trkpt lat="45.6725921" lon="7.4803920">
        <ele>1792</ele>
      </trkpt>
      <trkpt lat="45.6728521" lon="7.4797620">
        <ele>1794</ele>
      </trkpt>
      <trkpt lat="45.6730321" lon="7.4796320">
        <ele>1796</ele>
      </trkpt>
      <trkpt lat="45.6729921" lon="7.4795720">
        <ele>1798</ele>
      </trkpt>
      <trkpt lat="45.6730921" lon="7.4794320">
        <ele>1801</ele>
      </trkpt>
      <trkpt lat="45.6730521" lon="7.4794220">
        <ele>1803</ele>
      </trkpt>
      <trkpt lat="45.6732021" lon="7.4792820">
        <ele>1805</ele>
      </trkpt>
      <trkpt lat="45.6732221" lon="7.4791820">
        <ele>1808</ele>
      </trkpt>
      <trkpt lat="45.6733121" lon="7.4791720">
        <ele>1810</ele>
      </trkpt>
      <trkpt lat="45.6735421" lon="7.4790020">
        <ele>1812</ele>
      </trkpt>
      <trkpt lat="45.6735821" lon="7.4788320">
        <ele>1814</ele>
      </trkpt>
      <trkpt lat="45.6736621" lon="7.4787920">
        <ele>1817</ele>
      </trkpt>
      <trkpt lat="45.6738321" lon="7.4788420">
        <ele>1819</ele>
      </trkpt>
      <trkpt lat="45.6739921" lon="7.4787220">
        <ele>1821</ele>
      </trkpt>
      <trkpt lat="45.6740721" lon="7.4785620">
        <ele>1824</ele>
      </trkpt>
      <trkpt lat="45.6741321" lon="7.4785320">
        <ele>1826</ele>
      </trkpt>
      <trkpt lat="45.6741221" lon="7.4786120">
        <ele>1828</ele>
      </trkpt>
      <trkpt lat="45.6742221" lon="7.4785520">
        <ele>1830</ele>
      </trkpt>
      <trkpt lat="45.6744521" lon="7.4784920">
        <ele>1833</ele>
      </trkpt>
      <trkpt lat="45.6750021" lon="7.4781620">
        <ele>1835</ele>
      </trkpt>
      <trkpt lat="45.6752321" lon="7.4781720">
        <ele>1837</ele>
      </trkpt>
      <trkpt lat="45.6752421" lon="7.4781120">
        <ele>1840</ele>
      </trkpt>
      <trkpt lat="45.6754771" lon="7.4781420">
        <ele>1842</ele>
      </trkpt>
      <trkpt lat="45.6754921" lon="7.4782620">
        <ele>1844</ele>
      </trkpt>
      <trkpt lat="45.6755521" lon="7.4782720">
        <ele>1846</ele>
      </trkpt>
      <trkpt lat="45.6759721" lon="7.4788420">
        <ele>1849</ele>
      </trkpt>
      <trkpt lat="45.6761121" lon="7.4788420">
        <ele>1851</ele>
      </trkpt>
      <trkpt lat="45.6765721" lon="7.4785220">
        <ele>1853</ele>
      </trkpt>
      <trkpt lat="45.6767021" lon="7.4785820">
        <ele>1856</ele>
      </trkpt>
      <trkpt lat="45.6768221" lon="7.4785520">
        <ele>1858</ele>
      </trkpt>
      <trkpt lat="45.6768821" lon="7.4787220">
        <ele>1860</ele>
      </trkpt>
      <trkpt lat="45.6770121" lon="7.4788320">
        <ele>1862</ele>
      </trkpt>
      <trkpt lat="45.6771521" lon="7.4788820">
        <ele>1865</ele>
      </trkpt>
      <trkpt lat="45.6772921" lon="7.4792220">
        <ele>1867</ele>
      </trkpt>
      <trkpt lat="45.6775621" lon="7.4794420">
        <ele>1869</ele>
      </trkpt>
      <trkpt lat="45.6777521" lon="7.4798020">
        <ele>1872</ele>
      </trkpt>
      <trkpt lat="45.6777821" lon="7.4801120">
        <ele>1874</ele>
      </trkpt>
      <trkpt lat="45.6778821" lon="7.4801420">
        <ele>1876</ele>
      </trkpt>
      <trkpt lat="45.6782441" lon="7.4804810">
        <ele>1878</ele>
      </trkpt>
      <trkpt lat="45.6783921" lon="7.4804420">
        <ele>1881</ele>
      </trkpt>
      <trkpt lat="45.6785221" lon="7.4801720">
        <ele>1883</ele>
      </trkpt>
      <trkpt lat="45.6786621" lon="7.4800420">
        <ele>1885</ele>
      </trkpt>
      <trkpt lat="45.6789021" lon="7.4800720">
        <ele>1888</ele>
      </trkpt>
      <trkpt lat="45.6789721" lon="7.4800320">
        <ele>1890</ele>
      </trkpt>
      <trkpt lat="45.6789321" lon="7.4798620">
        <ele>1892</ele>
      </trkpt>
      <trkpt lat="45.6791121" lon="7.4798220">
        <ele>1894</ele>
      </trkpt>
      <trkpt lat="45.6793321" lon="7.4799620">
        <ele>1897</ele>
      </trkpt>
      <trkpt lat="45.6796021" lon="7.4799620">
        <ele>1899</ele>
      </trkpt>
      <trkpt lat="45.6797921" lon="7.4797420">
        <ele>1901</ele>
      </trkpt>
      <trkpt lat="45.6798621" lon="7.4798920">
        <ele>1904</ele>
      </trkpt>
      <trkpt lat="45.6802521" lon="7.4800720">
        <ele>1906</ele>
      </trkpt>
      <trkpt lat="45.6803621" lon="7.4802420">
        <ele>1908</ele>
      </trkpt>
      <trkpt lat="45.6805821" lon="7.4802220">
        <ele>1910</ele>
      </trkpt>
      <trkpt lat="45.6810721" lon="7.4805520">
        <ele>1913</ele>
      </trkpt>
      <trkpt lat="45.6813021" lon="7.4807720">
        <ele>1915</ele>
      </trkpt>
      <trkpt lat="45.6813721" lon="7.4809820">
        <ele>1917</ele>
      </trkpt>
      <trkpt lat="45.6814521" lon="7.4810920">
        <ele>1920</ele>
      </trkpt>
      <trkpt lat="45.6815221" lon="7.4810420">
        <ele>1922</ele>
      </trkpt>
      <trkpt lat="45.6815621" lon="7.4813120">
        <ele>1924</ele>
      </trkpt>
      <trkpt lat="45.6817021" lon="7.4812520">
        <ele>1926</ele>
      </trkpt>
      <trkpt lat="45.6817021" lon="7.4813020">
        <ele>1929</ele>
      </trkpt>
      <trkpt lat="45.6818721" lon="7.4810520">
        <ele>1931</ele>
      </trkpt>
      <trkpt lat="45.6820021" lon="7.4810020">
        <ele>1933</ele>
      </trkpt>
      <trkpt lat="45.6820421" lon="7.4812120">
        <ele>1936</ele>
      </trkpt>
      <trkpt lat="45.6820721" lon="7.4812120">
        <ele>1938</ele>
      </trkpt>
      <trkpt lat="45.6823021" lon="7.4809520">
        <ele>1940</ele>
      </trkpt>
      <trkpt lat="45.6824021" lon="7.4810120">
        <ele>1942</ele>
      </trkpt>
      <trkpt lat="45.6824321" lon="7.4812220">
        <ele>1945</ele>
      </trkpt>
      <trkpt lat="45.6826121" lon="7.4813380">
        <ele>1947</ele>
      </trkpt>
      <trkpt lat="45.6828291" lon="7.4813840">
        <ele>1949</ele>
      </trkpt>
      <trkpt lat="45.6831521" lon="7.4813720">
        <ele>1952</ele>
      </trkpt>
      <trkpt lat="45.6832121" lon="7.4812020">
        <ele>1954</ele>
      </trkpt>
      <trkpt lat="45.6834621" lon="7.4810220">
        <ele>1956</ele>
      </trkpt>
      <trkpt lat="45.6834321" lon="7.4807720">
        <ele>1958</ele>
      </trkpt>
      <trkpt lat="45.6835741" lon="7.4805930">
        <ele>1961</ele>
      </trkpt>
      <trkpt lat="45.6836221" lon="7.4807920">
        <ele>1963</ele>
      </trkpt>
      <trkpt lat="45.6837921" lon="7.4806220">
        <ele>1965</ele>
      </trkpt>
      <trkpt lat="45.6839021" lon="7.4804720">
        <ele>1967</ele>
      </trkpt>
      <trkpt lat="45.6840021" lon="7.4804020">
        <ele>1970</ele>
      </trkpt>
      <trkpt lat="45.6843921" lon="7.4798920">
        <ele>1972</ele>
      </trkpt>
      <trkpt lat="45.6844621" lon="7.4799020">
        <ele>1974</ele>
      </trkpt>
      <trkpt lat="45.6846921" lon="7.4797920">
        <ele>1977</ele>
      </trkpt>
      <trkpt lat="45.6848121" lon="7.4795220">
        <ele>1979</ele>
      </trkpt>
      <trkpt lat="45.6850421" lon="7.4797520">
        <ele>1981</ele>
      </trkpt>
      <trkpt lat="45.6854221" lon="7.4796520">
        <ele>1983</ele>
      </trkpt>
      <trkpt lat="45.6862512" lon="7.4799420">
        <ele>1986</ele>
      </trkpt>
      <trkpt lat="45.6867912" lon="7.4802720">
        <ele>1988</ele>
      </trkpt>
      <trkpt lat="45.6870112" lon="7.4805020">
        <ele>1990</ele>
      </trkpt>
      <trkpt lat="45.6871312" lon="7.4805920">
        <ele>1993</ele>
      </trkpt>
      <trkpt lat="45.6873812" lon="7.4805620">
        <ele>1995</ele>
      </trkpt>
      <trkpt lat="45.6875212" lon="7.4806720">
        <ele>1997</ele>
      </trkpt>
      <trkpt lat="45.6878312" lon="7.4807920">
        <ele>1999</ele>
      </trkpt>
      <trkpt lat="45.6879012" lon="7.4811720">
        <ele>2002</ele>
      </trkpt>
      <trkpt lat="45.6883512" lon="7.4812420">
        <ele>2004</ele>
      </trkpt>
      <trkpt lat="45.6885612" lon="7.4813920">
        <ele>2006</ele>
      </trkpt>
      <trkpt lat="45.6892112" lon="7.4816120">
        <ele>2009</ele>
      </trkpt>
      <trkpt lat="45.6898712" lon="7.4822820">
        <ele>2011</ele>
      </trkpt>
      <trkpt lat="45.6899912" lon="7.4825820">
        <ele>2013</ele>
      </trkpt>
      <trkpt lat="45.6900612" lon="7.4828220">
        <ele>2015</ele>
      </trkpt>
      <trkpt lat="45.6902912" lon="7.4832120">
        <ele>2018</ele>
      </trkpt>
      <trkpt lat="45.6904512" lon="7.4832820">
        <ele>2020</ele>
      </trkpt>
      <trkpt lat="45.6909902" lon="7.4832180">
        <ele>2022</ele>
      </trkpt>
      <trkpt lat="45.6909232" lon="7.4835790">
        <ele>2025</ele>
      </trkpt>
      <trkpt lat="45.6907112" lon="7.4840120">
        <ele>2027</ele>
      </trkpt>
      <trkpt lat="45.6906782" lon="7.4841510">
        <ele>2029</ele>
      </trkpt>
      <trkpt lat="45.6908512" lon="7.4841420">
        <ele>2031</ele>
      </trkpt>
      <trkpt lat="45.6908812" lon="7.4841820">
        <ele>2034</ele>
      </trkpt>
      <trkpt lat="45.6907286" lon="7.4844426">
        <ele>2036</ele>
      </trkpt>
    </trkseg>
  </trk>
</gpx>
