<?xml version="1.0" encoding="UTF-8"?>
<gpx version="1.1" creator="sentieri-vda" xmlns="http://www.topografix.com/GPX/1/1">
  <metadata>
    <name>Maisonnasse - Col de Raye Chevrère</name>
    <desc>Catasto Sentieri VdA — 27_S12</desc>
    <author><name>Regione Autonoma Valle d'Aosta</name></author>
  </metadata>
  <trk>
    <name>Maisonnasse - Col de Raye Chevrère</name>
    <src>Catasto Sentieri VdA (27_S12)</src>
    <trkseg>
      <trkpt lat="45.6681081" lon="7.5423100">
        <ele>1534</ele>
      </trkpt>
      <trkpt lat="45.6683931" lon="7.5423180">
        <ele>1543</ele>
      </trkpt>
      <trkpt lat="45.6688311" lon="7.5425300">
        <ele>1553</ele>
      </trkpt>
      <trkpt lat="45.6691611" lon="7.5428400">
        <ele>1562</ele>
      </trkpt>
      <trkpt lat="45.6698081" lon="7.5431540">
        <ele>1572</ele>
      </trkpt>
      <trkpt lat="45.6698211" lon="7.5430500">
        <ele>1581</ele>
      </trkpt>
      <trkpt lat="45.6702911" lon="7.5422700">
        <ele>1591</ele>
      </trkpt>
      <trkpt lat="45.6706511" lon="7.5421200">
        <ele>1600</ele>
      </trkpt>
      <trkpt lat="45.6709011" lon="7.5418400">
        <ele>1610</ele>
      </trkpt>
      <trkpt lat="45.6712411" lon="7.5411800">
        <ele>1619</ele>
      </trkpt>
      <trkpt lat="45.6712611" lon="7.5409300">
        <ele>1628</ele>
      </trkpt>
      <trkpt lat="45.6711511" lon="7.5406800">
        <ele>1638</ele>
      </trkpt>
      <trkpt lat="45.6711011" lon="7.5407400">
        <ele>1647</ele>
      </trkpt>
      <trkpt lat="45.6711711" lon="7.5401200">
        <ele>1657</ele>
      </trkpt>
      <trkpt lat="45.6710611" lon="7.5400500">
        <ele>1666</ele>
      </trkpt>
      <trkpt lat="45.6710311" lon="7.5398700">
        <ele>1676</ele>
      </trkpt>
      <trkpt lat="45.6716211" lon="7.5389500">
        <ele>1685</ele>
      </trkpt>
      <trkpt lat="45.6716511" lon="7.5371300">
        <ele>1695</ele>
      </trkpt>
      <trkpt lat="45.6719311" lon="7.5368600">
        <ele>1704</ele>
      </trkpt>
      <trkpt lat="45.6718311" lon="7.5368000">
        <ele>1713</ele>
      </trkpt>
      <trkpt lat="45.6719411" lon="7.5363300">
        <ele>1723</ele>
      </trkpt>
      <trkpt lat="45.6716911" lon="7.5360400">
        <ele>1732</ele>
      </trkpt>
      <trkpt lat="45.6716611" lon="7.5357800">
        <ele>1742</ele>
      </trkpt>
      <trkpt lat="45.6713711" lon="7.5356000">
        <ele>1751</ele>
      </trkpt>
      <trkpt lat="45.6713611" lon="7.5350500">
        <ele>1761</ele>
      </trkpt>
      <trkpt lat="45.6714911" lon="7.5349400">
        <ele>1770</ele>
      </trkpt>
      <trkpt lat="45.6713611" lon="7.5346600">
        <ele>1780</ele>
      </trkpt>
      <trkpt lat="45.6714911" lon="7.5344100">
        <ele>1789</ele>
      </trkpt>
      <trkpt lat="45.6715211" lon="7.5339800">
        <ele>1798</ele>
      </trkpt>
      <trkpt lat="45.6720011" lon="7.5332800">
        <ele>1808</ele>
      </trkpt>
      <trkpt lat="45.6720111" lon="7.5324000">
        <ele>1817</ele>
      </trkpt>
      <trkpt lat="45.6726011" lon="7.5316310">
        <ele>1827</ele>
      </trkpt>
      <trkpt lat="45.6729311" lon="7.5309910">
        <ele>1836</ele>
      </trkpt>
      <trkpt lat="45.6729911" lon="7.5304410">
        <ele>1846</ele>
      </trkpt>
      <trkpt lat="45.6733411" lon="7.5293510">
        <ele>1855</ele>
      </trkpt>
      <trkpt lat="45.6734011" lon="7.5292610">
        <ele>1865</ele>
      </trkpt>
      <trkpt lat="45.6736611" lon="7.5293310">
        <ele>1874</ele>
      </trkpt>
      <trkpt lat="45.6738111" lon="7.5291610">
        <ele>1883</ele>
      </trkpt>
      <trkpt lat="45.6738611" lon="7.5293310">
        <ele>1893</ele>
      </trkpt>
      <trkpt lat="45.6739411" lon="7.5292810">
        <ele>1902</ele>
      </trkpt>
      <trkpt lat="45.6738911" lon="7.5289110">
        <ele>1912</ele>
      </trkpt>
      <trkpt lat="45.6743311" lon="7.5283710">
        <ele>1921</ele>
      </trkpt>
      <trkpt lat="45.6746611" lon="7.5275310">
        <ele>1931</ele>
      </trkpt>
      <trkpt lat="45.6753811" lon="7.5270110">
        <ele>1940</ele>
      </trkpt>
      <trkpt lat="45.6759231" lon="7.5258930">
        <ele>1950</ele>
      </trkpt>
      <trkpt lat="45.6758471" lon="7.5255350">
        <ele>1959</ele>
      </trkpt>
      <trkpt lat="45.6758311" lon="7.5251710">
        <ele>1968</ele>
      </trkpt>
      <trkpt lat="45.6756511" lon="7.5250710">
        <ele>1978</ele>
      </trkpt>
      <trkpt lat="45.6755511" lon="7.5246810">
        <ele>1987</ele>
      </trkpt>
      <trkpt lat="45.6754311" lon="7.5234510">
        <ele>1997</ele>
      </trkpt>
      <trkpt lat="45.6754911" lon="7.5226610">
        <ele>2006</ele>
      </trkpt>
      <trkpt lat="45.6753611" lon="7.5220910">
        <ele>2016</ele>
      </trkpt>
      <trkpt lat="45.6753711" lon="7.5218610">
        <ele>2025</ele>
      </trkpt>
      <trkpt lat="45.6755311" lon="7.5216510">
        <ele>2035</ele>
      </trkpt>
      <trkpt lat="45.6753511" lon="7.5214510">
        <ele>2044</ele>
      </trkpt>
      <trkpt lat="45.6754511" lon="7.5213510">
        <ele>2053</ele>
      </trkpt>
      <trkpt lat="45.6754211" lon="7.5207710">
        <ele>2063</ele>
      </trkpt>
      <trkpt lat="45.6755411" lon="7.5202910">
        <ele>2072</ele>
      </trkpt>
      <trkpt lat="45.6755511" lon="7.5190010">
        <ele>2082</ele>
      </trkpt>
      <trkpt lat="45.6756841" lon="7.5185550">
        <ele>2091</ele>
      </trkpt>
      <trkpt lat="45.6758411" lon="7.5181410">
        <ele>2101</ele>
      </trkpt>
      <trkpt lat="45.6761911" lon="7.5175410">
        <ele>2110</ele>
      </trkpt>
      <trkpt lat="45.6766011" lon="7.5170510">
        <ele>2120</ele>
      </trkpt>
      <trkpt lat="45.6768511" lon="7.5160510">
        <ele>2129</ele>
      </trkpt>
      <trkpt lat="45.6771611" lon="7.5155110">
        <ele>2138</ele>
      </trkpt>
      <trkpt lat="45.6784911" lon="7.5142510">
        <ele>2148</ele>
      </trkpt>
      <trkpt lat="45.6784011" lon="7.5140110">
        <ele>2157</ele>
      </trkpt>
      <trkpt lat="45.6785211" lon="7.5137110">
        <ele>2167</ele>
      </trkpt>
      <trkpt lat="45.6784311" lon="7.5132410">
        <ele>2176</ele>
      </trkpt>
      <trkpt lat="45.6786011" lon="7.5130810">
        <ele>2186</ele>
      </trkpt>
      <trkpt lat="45.6786711" lon="7.5128310">
        <ele>2195</ele>
      </trkpt>
      <trkpt lat="45.6787781" lon="7.5128240">
        <ele>2204</ele>
      </trkpt>
      <trkpt lat="45.6787511" lon="7.5126510">
        <ele>2214</ele>
      </trkpt>
      <trkpt lat="45.6789511" lon="7.5114910">
        <ele>2223</ele>
      </trkpt>
      <trkpt lat="45.6788711" lon="7.5113510">
        <ele>2233</ele>
      </trkpt>
      <trkpt lat="45.6785111" lon="7.5112810">
        <ele>2242</ele>
      </trkpt>
      <trkpt lat="45.6786511" lon="7.5102110">
        <ele>2252</ele>
      </trkpt>
      <trkpt lat="45.6784611" lon="7.5099410">
        <ele>2261</ele>
      </trkpt>
      <trkpt lat="45.6785111" lon="7.5096610">
        <ele>2271</ele>
      </trkpt>
      <trkpt lat="45.6783611" lon="7.5095810">
        <ele>2280</ele>
      </trkpt>
      <trkpt lat="45.6786111" lon="7.5091710">
        <ele>2289</ele>
      </trkpt>
      <trkpt lat="45.6784911" lon="7.5089510">
        <ele>2299</ele>
      </trkpt>
      <trkpt lat="45.6786611" lon="7.5088010">
        <ele>2308</ele>
      </trkpt>
      <trkpt lat="45.6784311" lon="7.5086510">
        <ele>2318</ele>
      </trkpt>
      <trkpt lat="45.6784711" lon="7.5085710">
        <ele>2327</ele>
      </trkpt>
      <trkpt lat="45.6782811" lon="7.5085710">
        <ele>2337</ele>
      </trkpt>
      <trkpt lat="45.6782311" lon="7.5084610">
        <ele>2346</ele>
      </trkpt>
      <trkpt lat="45.6783711" lon="7.5081710">
        <ele>2356</ele>
      </trkpt>
      <trkpt lat="45.6782311" lon="7.5081310">
        <ele>2365</ele>
      </trkpt>
      <trkpt lat="45.6783311" lon="7.5077410">
        <ele>2374</ele>
      </trkpt>
      <trkpt lat="45.6781011" lon="7.5075210">
        <ele>2384</ele>
      </trkpt>
      <trkpt lat="45.6786211" lon="7.5066310">
        <ele>2393</ele>
      </trkpt>
      <trkpt lat="45.6789211" lon="7.5051310">
        <ele>2403</ele>
      </trkpt>
      <trkpt lat="45.6788611" lon="7.5037910">
        <ele>2412</ele>
      </trkpt>
      <trkpt lat="45.6787511" lon="7.5037210">
        <ele>2422</ele>
      </trkpt>
      <trkpt lat="45.6787331" lon="7.5038370">
        <ele>2431</ele>
      </trkpt>
      <trkpt lat="45.6786611" lon="7.5038510">
        <ele>2441</ele>
      </trkpt>
      <trkpt lat="45.6786111" lon="7.5037210">
        <ele>2450</ele>
      </trkpt>
      <trkpt lat="45.6786411" lon="7.5032510">
        <ele>2459</ele>
      </trkpt>
      <trkpt lat="45.6788231" lon="7.5024990">
        <ele>2469</ele>
      </trkpt>
      <trkpt lat="45.6789011" lon="7.5015010">
        <ele>2478</ele>
      </trkpt>
      <trkpt lat="45.6792011" lon="7.5012010">
        <ele>2488</ele>
      </trkpt>
      <trkpt lat="45.6795411" lon="7.5008110">
        <ele>2497</ele>
      </trkpt>
      <trkpt lat="45.6796611" lon="7.5009510">
        <ele>2507</ele>
      </trkpt>
      <trkpt lat="45.6797011" lon="7.5008010">
        <ele>2516</ele>
      </trkpt>
      <trkpt lat="45.6800311" lon="7.5009310">
        <ele>2526</ele>
      </trkpt>
      <trkpt lat="45.6799511" lon="7.5006610">
        <ele>2535</ele>
      </trkpt>
      <trkpt lat="45.6800911" lon="7.5006010">
        <ele>2544</ele>
      </trkpt>
      <trkpt lat="45.6799811" lon="7.5003010">
        <ele>2554</ele>
      </trkpt>
      <trkpt lat="45.6801711" lon="7.5003410">
        <ele>2563</ele>
      </trkpt>
      <trkpt lat="45.6800411" lon="7.5000610">
        <ele>2573</ele>
      </trkpt>
      <trkpt lat="45.6801611" lon="7.4999710">
        <ele>2582</ele>
      </trkpt>
      <trkpt lat="45.6800011" lon="7.4997910">
        <ele>2592</ele>
      </trkpt>
      <trkpt lat="45.6801611" lon="7.4996210">
        <ele>2601</ele>
      </trkpt>
      <trkpt lat="45.6798511" lon="7.4993510">
        <ele>2611</ele>
      </trkpt>
      <trkpt lat="45.6794911" lon="7.4987110">
        <ele>2620</ele>
      </trkpt>
      <trkpt lat="45.6792826" lon="7.4986548">
        <ele>2629</ele>
      </trkpt>
      <trkpt lat="45.6794367" lon="7.4983206">
        <ele>2639</ele>
      </trkpt>
      <trkpt lat="45.6803460" lon="7.4980730">
        <ele>2648</ele>
      </trkpt>
      <trkpt lat="45.6805226" lon="7.4973882">
        <ele>2658</ele>
      </trkpt>
      <trkpt lat="45.6809567" lon="7.4968095">
        <ele>2667</ele>
      </trkpt>
      <trkpt lat="45.6808000" lon="7.4964571">
        <ele>2677</ele>
      </trkpt>
      <trkpt lat="45.6807726" lon="7.4961070">
        <ele>2686</ele>
      </trkpt>
      <trkpt lat="45.6802075" lon="7.4955201">
        <ele>2696</ele>
      </trkpt>
      <trkpt lat="45.6801529" lon="7.4953707">
        <ele>2705</ele>
      </trkpt>
    </trkseg>
  </trk>
</gpx>
