<?xml version="1.0" encoding="UTF-8"?>
<gpx version="1.1" creator="sentieri-vda" xmlns="http://www.topografix.com/GPX/1/1">
  <metadata>
    <name>Le Crin - La Rossaz</name>
    <desc>Catasto Sentieri VdA — 27_S25</desc>
    <author><name>Regione Autonoma Valle d'Aosta</name></author>
  </metadata>
  <trk>
    <name>Le Crin - La Rossaz</name>
    <src>Catasto Sentieri VdA (27_S25)</src>
    <trkseg>
      <trkpt lat="45.6733501" lon="7.4833860">
        <ele>1648</ele>
      </trkpt>
      <trkpt lat="45.6733021" lon="7.4835620">
        <ele>1650</ele>
      </trkpt>
      <trkpt lat="45.6732921" lon="7.4837920">
        <ele>1652</ele>
      </trkpt>
      <trkpt lat="45.6732221" lon="7.4840020">
        <ele>1653</ele>
      </trkpt>
      <trkpt lat="45.6731821" lon="7.4844320">
        <ele>1655</ele>
      </trkpt>
      <trkpt lat="45.6731021" lon="7.4845920">
        <ele>1657</ele>
      </trkpt>
      <trkpt lat="45.6730121" lon="7.4846920">
        <ele>1659</ele>
      </trkpt>
      <trkpt lat="45.6729721" lon="7.4846820">
        <ele>1660</ele>
      </trkpt>
      <trkpt lat="45.6728888" lon="7.4845953">
        <ele>1662</ele>
      </trkpt>
      <trkpt lat="45.6728621" lon="7.4846220">
        <ele>1664</ele>
      </trkpt>
      <trkpt lat="45.6728421" lon="7.4845920">
        <ele>1666</ele>
      </trkpt>
      <trkpt lat="45.6727821" lon="7.4846220">
        <ele>1667</ele>
      </trkpt>
      <trkpt lat="45.6726121" lon="7.4845220">
        <ele>1669</ele>
      </trkpt>
      <trkpt lat="45.6725521" lon="7.4844720">
        <ele>1671</ele>
      </trkpt>
      <trkpt lat="45.6725021" lon="7.4843120">
        <ele>1673</ele>
      </trkpt>
      <trkpt lat="45.6723821" lon="7.4841920">
        <ele>1675</ele>
      </trkpt>
      <trkpt lat="45.6723321" lon="7.4840920">
        <ele>1676</ele>
      </trkpt>
      <trkpt lat="45.6720321" lon="7.4839220">
        <ele>1678</ele>
      </trkpt>
      <trkpt lat="45.6718621" lon="7.4839720">
        <ele>1680</ele>
      </trkpt>
      <trkpt lat="45.6717521" lon="7.4841020">
        <ele>1682</ele>
      </trkpt>
      <trkpt lat="45.6713621" lon="7.4840820">
        <ele>1683</ele>
      </trkpt>
      <trkpt lat="45.6712821" lon="7.4840320">
        <ele>1685</ele>
      </trkpt>
      <trkpt lat="45.6711521" lon="7.4840920">
        <ele>1687</ele>
      </trkpt>
      <trkpt lat="45.6710521" lon="7.4840820">
        <ele>1689</ele>
      </trkpt>
      <trkpt lat="45.6709821" lon="7.4841820">
        <ele>1690</ele>
      </trkpt>
      <trkpt lat="45.6709221" lon="7.4842120">
        <ele>1692</ele>
      </trkpt>
      <trkpt lat="45.6708621" lon="7.4841020">
        <ele>1694</ele>
      </trkpt>
      <trkpt lat="45.6707221" lon="7.4840920">
        <ele>1696</ele>
      </trkpt>
      <trkpt lat="45.6705921" lon="7.4843020">
        <ele>1698</ele>
      </trkpt>
      <trkpt lat="45.6704121" lon="7.4843320">
        <ele>1699</ele>
      </trkpt>
      <trkpt lat="45.6703721" lon="7.4843620">
        <ele>1701</ele>
      </trkpt>
      <trkpt lat="45.6702521" lon="7.4843120">
        <ele>1703</ele>
      </trkpt>
      <trkpt lat="45.6701721" lon="7.4843320">
        <ele>1705</ele>
      </trkpt>
      <trkpt lat="45.6701421" lon="7.4842620">
        <ele>1706</ele>
      </trkpt>
      <trkpt lat="45.6699721" lon="7.4841820">
        <ele>1708</ele>
      </trkpt>
      <trkpt lat="45.6698421" lon="7.4840220">
        <ele>1710</ele>
      </trkpt>
      <trkpt lat="45.6697621" lon="7.4837920">
        <ele>1712</ele>
      </trkpt>
      <trkpt lat="45.6696821" lon="7.4837620">
        <ele>1714</ele>
      </trkpt>
      <trkpt lat="45.6696121" lon="7.4836320">
        <ele>1715</ele>
      </trkpt>
      <trkpt lat="45.6694621" lon="7.4835620">
        <ele>1717</ele>
      </trkpt>
      <trkpt lat="45.6693821" lon="7.4834220">
        <ele>1719</ele>
      </trkpt>
      <trkpt lat="45.6694421" lon="7.4832920">
        <ele>1721</ele>
      </trkpt>
      <trkpt lat="45.6693721" lon="7.4832520">
        <ele>1722</ele>
      </trkpt>
      <trkpt lat="45.6693321" lon="7.4832720">
        <ele>1724</ele>
      </trkpt>
      <trkpt lat="45.6692421" lon="7.4834620">
        <ele>1726</ele>
      </trkpt>
      <trkpt lat="45.6692121" lon="7.4836020">
        <ele>1728</ele>
      </trkpt>
      <trkpt lat="45.6691221" lon="7.4836520">
        <ele>1729</ele>
      </trkpt>
      <trkpt lat="45.6690321" lon="7.4836520">
        <ele>1731</ele>
      </trkpt>
      <trkpt lat="45.6689321" lon="7.4833120">
        <ele>1733</ele>
      </trkpt>
      <trkpt lat="45.6686921" lon="7.4832920">
        <ele>1735</ele>
      </trkpt>
      <trkpt lat="45.6686521" lon="7.4833720">
        <ele>1737</ele>
      </trkpt>
      <trkpt lat="45.6686121" lon="7.4833720">
        <ele>1738</ele>
      </trkpt>
      <trkpt lat="45.6684221" lon="7.4835610">
        <ele>1740</ele>
      </trkpt>
      <trkpt lat="45.6683821" lon="7.4836710">
        <ele>1742</ele>
      </trkpt>
      <trkpt lat="45.6682921" lon="7.4836510">
        <ele>1744</ele>
      </trkpt>
      <trkpt lat="45.6682021" lon="7.4835710">
        <ele>1745</ele>
      </trkpt>
      <trkpt lat="45.6681721" lon="7.4836910">
        <ele>1747</ele>
      </trkpt>
      <trkpt lat="45.6681521" lon="7.4837210">
        <ele>1749</ele>
      </trkpt>
      <trkpt lat="45.6680421" lon="7.4837410">
        <ele>1751</ele>
      </trkpt>
      <trkpt lat="45.6680021" lon="7.4838410">
        <ele>1752</ele>
      </trkpt>
      <trkpt lat="45.6678721" lon="7.4839410">
        <ele>1754</ele>
      </trkpt>
      <trkpt lat="45.6677921" lon="7.4839210">
        <ele>1756</ele>
      </trkpt>
      <trkpt lat="45.6675921" lon="7.4840410">
        <ele>1758</ele>
      </trkpt>
      <trkpt lat="45.6675421" lon="7.4840410">
        <ele>1760</ele>
      </trkpt>
      <trkpt lat="45.6673521" lon="7.4841810">
        <ele>1761</ele>
      </trkpt>
      <trkpt lat="45.6672821" lon="7.4841510">
        <ele>1763</ele>
      </trkpt>
      <trkpt lat="45.6672021" lon="7.4842510">
        <ele>1765</ele>
      </trkpt>
      <trkpt lat="45.6671721" lon="7.4843410">
        <ele>1767</ele>
      </trkpt>
      <trkpt lat="45.6670521" lon="7.4842910">
        <ele>1768</ele>
      </trkpt>
      <trkpt lat="45.6668921" lon="7.4841410">
        <ele>1770</ele>
      </trkpt>
      <trkpt lat="45.6665821" lon="7.4844910">
        <ele>1772</ele>
      </trkpt>
      <trkpt lat="45.6664721" lon="7.4844410">
        <ele>1774</ele>
      </trkpt>
      <trkpt lat="45.6663421" lon="7.4846010">
        <ele>1775</ele>
      </trkpt>
      <trkpt lat="45.6662821" lon="7.4845810">
        <ele>1777</ele>
      </trkpt>
      <trkpt lat="45.6661621" lon="7.4844910">
        <ele>1779</ele>
      </trkpt>
      <trkpt lat="45.6660721" lon="7.4844610">
        <ele>1781</ele>
      </trkpt>
      <trkpt lat="45.6659321" lon="7.4843610">
        <ele>1783</ele>
      </trkpt>
      <trkpt lat="45.6657321" lon="7.4842710">
        <ele>1784</ele>
      </trkpt>
      <trkpt lat="45.6656121" lon="7.4841010">
        <ele>1786</ele>
      </trkpt>
      <trkpt lat="45.6654721" lon="7.4840810">
        <ele>1788</ele>
      </trkpt>
      <trkpt lat="45.6653821" lon="7.4842810">
        <ele>1790</ele>
      </trkpt>
      <trkpt lat="45.6650921" lon="7.4840710">
        <ele>1791</ele>
      </trkpt>
      <trkpt lat="45.6648621" lon="7.4840310">
        <ele>1793</ele>
      </trkpt>
      <trkpt lat="45.6648248" lon="7.4840590">
        <ele>1795</ele>
      </trkpt>
      <trkpt lat="45.6647321" lon="7.4839410">
        <ele>1797</ele>
      </trkpt>
      <trkpt lat="45.6645921" lon="7.4839610">
        <ele>1799</ele>
      </trkpt>
      <trkpt lat="45.6644421" lon="7.4840410">
        <ele>1800</ele>
      </trkpt>
      <trkpt lat="45.6642121" lon="7.4840510">
        <ele>1802</ele>
      </trkpt>
      <trkpt lat="45.6641621" lon="7.4840310">
        <ele>1804</ele>
      </trkpt>
      <trkpt lat="45.6640321" lon="7.4839310">
        <ele>1806</ele>
      </trkpt>
      <trkpt lat="45.6639721" lon="7.4838410">
        <ele>1807</ele>
      </trkpt>
      <trkpt lat="45.6639421" lon="7.4838310">
        <ele>1809</ele>
      </trkpt>
      <trkpt lat="45.6636421" lon="7.4835610">
        <ele>1811</ele>
      </trkpt>
      <trkpt lat="45.6635621" lon="7.4833810">
        <ele>1813</ele>
      </trkpt>
      <trkpt lat="45.6635191" lon="7.4831900">
        <ele>1814</ele>
      </trkpt>
      <trkpt lat="45.6634021" lon="7.4831010">
        <ele>1816</ele>
      </trkpt>
      <trkpt lat="45.6633621" lon="7.4831310">
        <ele>1818</ele>
      </trkpt>
      <trkpt lat="45.6630321" lon="7.4829510">
        <ele>1820</ele>
      </trkpt>
      <trkpt lat="45.6630121" lon="7.4830110">
        <ele>1822</ele>
      </trkpt>
      <trkpt lat="45.6631321" lon="7.4832310">
        <ele>1823</ele>
      </trkpt>
      <trkpt lat="45.6631321" lon="7.4833110">
        <ele>1825</ele>
      </trkpt>
      <trkpt lat="45.6630521" lon="7.4833110">
        <ele>1827</ele>
      </trkpt>
      <trkpt lat="45.6630521" lon="7.4834110">
        <ele>1829</ele>
      </trkpt>
      <trkpt lat="45.6628321" lon="7.4833410">
        <ele>1830</ele>
      </trkpt>
      <trkpt lat="45.6627521" lon="7.4833410">
        <ele>1832</ele>
      </trkpt>
      <trkpt lat="45.6627721" lon="7.4834210">
        <ele>1834</ele>
      </trkpt>
      <trkpt lat="45.6627021" lon="7.4833910">
        <ele>1836</ele>
      </trkpt>
      <trkpt lat="45.6625621" lon="7.4832710">
        <ele>1837</ele>
      </trkpt>
      <trkpt lat="45.6624821" lon="7.4833610">
        <ele>1839</ele>
      </trkpt>
      <trkpt lat="45.6623321" lon="7.4832910">
        <ele>1841</ele>
      </trkpt>
      <trkpt lat="45.6622721" lon="7.4833510">
        <ele>1843</ele>
      </trkpt>
      <trkpt lat="45.6621221" lon="7.4836310">
        <ele>1845</ele>
      </trkpt>
      <trkpt lat="45.6621221" lon="7.4837910">
        <ele>1846</ele>
      </trkpt>
      <trkpt lat="45.6620721" lon="7.4839710">
        <ele>1848</ele>
      </trkpt>
      <trkpt lat="45.6620321" lon="7.4840210">
        <ele>1850</ele>
      </trkpt>
      <trkpt lat="45.6620221" lon="7.4843010">
        <ele>1852</ele>
      </trkpt>
      <trkpt lat="45.6620521" lon="7.4843510">
        <ele>1853</ele>
      </trkpt>
      <trkpt lat="45.6620321" lon="7.4844210">
        <ele>1855</ele>
      </trkpt>
      <trkpt lat="45.6620621" lon="7.4844910">
        <ele>1857</ele>
      </trkpt>
      <trkpt lat="45.6620921" lon="7.4844910">
        <ele>1859</ele>
      </trkpt>
      <trkpt lat="45.6621221" lon="7.4846310">
        <ele>1860</ele>
      </trkpt>
      <trkpt lat="45.6621921" lon="7.4847810">
        <ele>1862</ele>
      </trkpt>
      <trkpt lat="45.6623221" lon="7.4846610">
        <ele>1864</ele>
      </trkpt>
      <trkpt lat="45.6624621" lon="7.4851210">
        <ele>1866</ele>
      </trkpt>
      <trkpt lat="45.6623521" lon="7.4854610">
        <ele>1868</ele>
      </trkpt>
      <trkpt lat="45.6624021" lon="7.4855110">
        <ele>1869</ele>
      </trkpt>
      <trkpt lat="45.6623821" lon="7.4855910">
        <ele>1871</ele>
      </trkpt>
      <trkpt lat="45.6624521" lon="7.4856610">
        <ele>1873</ele>
      </trkpt>
      <trkpt lat="45.6624221" lon="7.4857710">
        <ele>1875</ele>
      </trkpt>
      <trkpt lat="45.6625021" lon="7.4858310">
        <ele>1876</ele>
      </trkpt>
      <trkpt lat="45.6623921" lon="7.4861710">
        <ele>1878</ele>
      </trkpt>
      <trkpt lat="45.6621621" lon="7.4865110">
        <ele>1880</ele>
      </trkpt>
      <trkpt lat="45.6621621" lon="7.4865810">
        <ele>1882</ele>
      </trkpt>
      <trkpt lat="45.6621121" lon="7.4866810">
        <ele>1884</ele>
      </trkpt>
      <trkpt lat="45.6619421" lon="7.4867210">
        <ele>1885</ele>
      </trkpt>
      <trkpt lat="45.6618821" lon="7.4868510">
        <ele>1887</ele>
      </trkpt>
      <trkpt lat="45.6619321" lon="7.4868510">
        <ele>1889</ele>
      </trkpt>
      <trkpt lat="45.6619521" lon="7.4868810">
        <ele>1891</ele>
      </trkpt>
      <trkpt lat="45.6619121" lon="7.4869410">
        <ele>1892</ele>
      </trkpt>
      <trkpt lat="45.6619421" lon="7.4869710">
        <ele>1894</ele>
      </trkpt>
      <trkpt lat="45.6620121" lon="7.4869710">
        <ele>1896</ele>
      </trkpt>
      <trkpt lat="45.6620121" lon="7.4871010">
        <ele>1898</ele>
      </trkpt>
      <trkpt lat="45.6618521" lon="7.4871210">
        <ele>1899</ele>
      </trkpt>
      <trkpt lat="45.6618221" lon="7.4871510">
        <ele>1901</ele>
      </trkpt>
      <trkpt lat="45.6618621" lon="7.4872110">
        <ele>1903</ele>
      </trkpt>
      <trkpt lat="45.6615821" lon="7.4872510">
        <ele>1905</ele>
      </trkpt>
      <trkpt lat="45.6612521" lon="7.4871510">
        <ele>1907</ele>
      </trkpt>
      <trkpt lat="45.6610821" lon="7.4871910">
        <ele>1908</ele>
      </trkpt>
      <trkpt lat="45.6609921" lon="7.4870910">
        <ele>1910</ele>
      </trkpt>
      <trkpt lat="45.6609721" lon="7.4871410">
        <ele>1912</ele>
      </trkpt>
      <trkpt lat="45.6609121" lon="7.4869710">
        <ele>1914</ele>
      </trkpt>
      <trkpt lat="45.6608821" lon="7.4869610">
        <ele>1915</ele>
      </trkpt>
      <trkpt lat="45.6606421" lon="7.4871210">
        <ele>1917</ele>
      </trkpt>
      <trkpt lat="45.6605021" lon="7.4871910">
        <ele>1919</ele>
      </trkpt>
      <trkpt lat="45.6604221" lon="7.4872910">
        <ele>1921</ele>
      </trkpt>
      <trkpt lat="45.6602121" lon="7.4873410">
        <ele>1922</ele>
      </trkpt>
      <trkpt lat="45.6600921" lon="7.4873210">
        <ele>1924</ele>
      </trkpt>
      <trkpt lat="45.6600021" lon="7.4873910">
        <ele>1926</ele>
      </trkpt>
      <trkpt lat="45.6599721" lon="7.4873010">
        <ele>1928</ele>
      </trkpt>
      <trkpt lat="45.6598821" lon="7.4872610">
        <ele>1930</ele>
      </trkpt>
      <trkpt lat="45.6597921" lon="7.4872810">
        <ele>1931</ele>
      </trkpt>
      <trkpt lat="45.6596821" lon="7.4873810">
        <ele>1933</ele>
      </trkpt>
      <trkpt lat="45.6595521" lon="7.4874410">
        <ele>1935</ele>
      </trkpt>
      <trkpt lat="45.6594521" lon="7.4874310">
        <ele>1937</ele>
      </trkpt>
      <trkpt lat="45.6593321" lon="7.4874810">
        <ele>1938</ele>
      </trkpt>
      <trkpt lat="45.6591321" lon="7.4874210">
        <ele>1940</ele>
      </trkpt>
      <trkpt lat="45.6590521" lon="7.4874610">
        <ele>1942</ele>
      </trkpt>
      <trkpt lat="45.6589521" lon="7.4875810">
        <ele>1944</ele>
      </trkpt>
      <trkpt lat="45.6588721" lon="7.4876110">
        <ele>1945</ele>
      </trkpt>
      <trkpt lat="45.6588821" lon="7.4876610">
        <ele>1947</ele>
      </trkpt>
      <trkpt lat="45.6588121" lon="7.4877310">
        <ele>1949</ele>
      </trkpt>
      <trkpt lat="45.6587621" lon="7.4877510">
        <ele>1951</ele>
      </trkpt>
      <trkpt lat="45.6586621" lon="7.4879110">
        <ele>1953</ele>
      </trkpt>
      <trkpt lat="45.6584721" lon="7.4879910">
        <ele>1954</ele>
      </trkpt>
      <trkpt lat="45.6582721" lon="7.4879810">
        <ele>1956</ele>
      </trkpt>
      <trkpt lat="45.6583021" lon="7.4879510">
        <ele>1958</ele>
      </trkpt>
      <trkpt lat="45.6581721" lon="7.4878910">
        <ele>1960</ele>
      </trkpt>
      <trkpt lat="45.6579521" lon="7.4880610">
        <ele>1961</ele>
      </trkpt>
      <trkpt lat="45.6577721" lon="7.4880510">
        <ele>1963</ele>
      </trkpt>
      <trkpt lat="45.6575721" lon="7.4881110">
        <ele>1965</ele>
      </trkpt>
      <trkpt lat="45.6574221" lon="7.4883910">
        <ele>1967</ele>
      </trkpt>
      <trkpt lat="45.6572421" lon="7.4886210">
        <ele>1969</ele>
      </trkpt>
      <trkpt lat="45.6571021" lon="7.4887210">
        <ele>1970</ele>
      </trkpt>
      <trkpt lat="45.6569821" lon="7.4889310">
        <ele>1972</ele>
      </trkpt>
      <trkpt lat="45.6567821" lon="7.4897610">
        <ele>1974</ele>
      </trkpt>
      <trkpt lat="45.6570121" lon="7.4903610">
        <ele>1976</ele>
      </trkpt>
      <trkpt lat="45.6570255" lon="7.4905654">
        <ele>1977</ele>
      </trkpt>
      <trkpt lat="45.6573825" lon="7.4905314">
        <ele>1979</ele>
      </trkpt>
      <trkpt lat="45.6575115" lon="7.4904844">
        <ele>1981</ele>
      </trkpt>
      <trkpt lat="45.6575915" lon="7.4905114">
        <ele>1983</ele>
      </trkpt>
      <trkpt lat="45.6575995" lon="7.4905974">
        <ele>1984</ele>
      </trkpt>
      <trkpt lat="45.6575515" lon="7.4909034">
        <ele>1986</ele>
      </trkpt>
      <trkpt lat="45.6575905" lon="7.4910714">
        <ele>1988</ele>
      </trkpt>
      <trkpt lat="45.6577255" lon="7.4910984">
        <ele>1990</ele>
      </trkpt>
      <trkpt lat="45.6579874" lon="7.4910994">
        <ele>1992</ele>
      </trkpt>
      <trkpt lat="45.6582234" lon="7.4910484">
        <ele>1993</ele>
      </trkpt>
      <trkpt lat="45.6584714" lon="7.4909614">
        <ele>1995</ele>
      </trkpt>
      <trkpt lat="45.6587024" lon="7.4908294">
        <ele>1997</ele>
      </trkpt>
      <trkpt lat="45.6588414" lon="7.4908024">
        <ele>1999</ele>
      </trkpt>
      <trkpt lat="45.6590194" lon="7.4908334">
        <ele>2000</ele>
      </trkpt>
      <trkpt lat="45.6595774" lon="7.4908044">
        <ele>2002</ele>
      </trkpt>
      <trkpt lat="45.6598574" lon="7.4908914">
        <ele>2004</ele>
      </trkpt>
      <trkpt lat="45.6602074" lon="7.4908784">
        <ele>2006</ele>
      </trkpt>
      <trkpt lat="45.6603054" lon="7.4908544">
        <ele>2007</ele>
      </trkpt>
      <trkpt lat="45.6605434" lon="7.4909754">
        <ele>2009</ele>
      </trkpt>
      <trkpt lat="45.6606104" lon="7.4910274">
        <ele>2011</ele>
      </trkpt>
      <trkpt lat="45.6608264" lon="7.4910754">
        <ele>2013</ele>
      </trkpt>
      <trkpt lat="45.6610764" lon="7.4910324">
        <ele>2015</ele>
      </trkpt>
      <trkpt lat="45.6614254" lon="7.4910794">
        <ele>2016</ele>
      </trkpt>
      <trkpt lat="45.6618494" lon="7.4912494">
        <ele>2018</ele>
      </trkpt>
      <trkpt lat="45.6620723" lon="7.4912864">
        <ele>2020</ele>
      </trkpt>
      <trkpt lat="45.6622963" lon="7.4914444">
        <ele>2022</ele>
      </trkpt>
      <trkpt lat="45.6623973" lon="7.4914574">
        <ele>2023</ele>
      </trkpt>
      <trkpt lat="45.6628003" lon="7.4914104">
        <ele>2025</ele>
      </trkpt>
      <trkpt lat="45.6630173" lon="7.4914404">
        <ele>2027</ele>
      </trkpt>
      <trkpt lat="45.6631563" lon="7.4915774">
        <ele>2029</ele>
      </trkpt>
      <trkpt lat="45.6633153" lon="7.4916454">
        <ele>2030</ele>
      </trkpt>
      <trkpt lat="45.6635683" lon="7.4915445">
        <ele>2032</ele>
      </trkpt>
      <trkpt lat="45.6639273" lon="7.4915475">
        <ele>2034</ele>
      </trkpt>
      <trkpt lat="45.6642373" lon="7.4914685">
        <ele>2036</ele>
      </trkpt>
      <trkpt lat="45.6643593" lon="7.4914175">
        <ele>2038</ele>
      </trkpt>
      <trkpt lat="45.6645543" lon="7.4914335">
        <ele>2039</ele>
      </trkpt>
      <trkpt lat="45.6646573" lon="7.4914155">
        <ele>2041</ele>
      </trkpt>
      <trkpt lat="45.6648448" lon="7.4913466">
        <ele>2043</ele>
      </trkpt>
      <trkpt lat="45.6650389" lon="7.4911781">
        <ele>2045</ele>
      </trkpt>
      <trkpt lat="45.6652121" lon="7.4911710">
        <ele>2046</ele>
      </trkpt>
      <trkpt lat="45.6652973" lon="7.4910953">
        <ele>2048</ele>
      </trkpt>
      <trkpt lat="45.6653521" lon="7.4911110">
        <ele>2050</ele>
      </trkpt>
      <trkpt lat="45.6657321" lon="7.4910810">
        <ele>2052</ele>
      </trkpt>
      <trkpt lat="45.6658721" lon="7.4909610">
        <ele>2054</ele>
      </trkpt>
      <trkpt lat="45.6659921" lon="7.4909010">
        <ele>2055</ele>
      </trkpt>
      <trkpt lat="45.6662421" lon="7.4908710">
        <ele>2057</ele>
      </trkpt>
      <trkpt lat="45.6663821" lon="7.4908910">
        <ele>2059</ele>
      </trkpt>
      <trkpt lat="45.6665821" lon="7.4908510">
        <ele>2061</ele>
      </trkpt>
      <trkpt lat="45.6666721" lon="7.4908710">
        <ele>2062</ele>
      </trkpt>
      <trkpt lat="45.6668221" lon="7.4909410">
        <ele>2064</ele>
      </trkpt>
      <trkpt lat="45.6668721" lon="7.4909410">
        <ele>2066</ele>
      </trkpt>
      <trkpt lat="45.6669921" lon="7.4908910">
        <ele>2068</ele>
      </trkpt>
      <trkpt lat="45.6670721" lon="7.4908810">
        <ele>2069</ele>
      </trkpt>
      <trkpt lat="45.6671921" lon="7.4909210">
        <ele>2071</ele>
      </trkpt>
      <trkpt lat="45.6673521" lon="7.4908910">
        <ele>2073</ele>
      </trkpt>
      <trkpt lat="45.6674721" lon="7.4908310">
        <ele>2075</ele>
      </trkpt>
      <trkpt lat="45.6676221" lon="7.4908210">
        <ele>2077</ele>
      </trkpt>
      <trkpt lat="45.6677221" lon="7.4908410">
        <ele>2078</ele>
      </trkpt>
      <trkpt lat="45.6678221" lon="7.4909210">
        <ele>2080</ele>
      </trkpt>
      <trkpt lat="45.6680421" lon="7.4911210">
        <ele>2082</ele>
      </trkpt>
      <trkpt lat="45.6683221" lon="7.4914210">
        <ele>2084</ele>
      </trkpt>
      <trkpt lat="45.6684921" lon="7.4915210">
        <ele>2085</ele>
      </trkpt>
      <trkpt lat="45.6686321" lon="7.4915410">
        <ele>2087</ele>
      </trkpt>
      <trkpt lat="45.6691921" lon="7.4918110">
        <ele>2089</ele>
      </trkpt>
      <trkpt lat="45.6693021" lon="7.4918810">
        <ele>2091</ele>
      </trkpt>
      <trkpt lat="45.6694121" lon="7.4920110">
        <ele>2092</ele>
      </trkpt>
      <trkpt lat="45.6695121" lon="7.4920610">
        <ele>2094</ele>
      </trkpt>
      <trkpt lat="45.6694821" lon="7.4921910">
        <ele>2096</ele>
      </trkpt>
      <trkpt lat="45.6694821" lon="7.4923310">
        <ele>2098</ele>
      </trkpt>
      <trkpt lat="45.6694121" lon="7.4925110">
        <ele>2100</ele>
      </trkpt>
      <trkpt lat="45.6694321" lon="7.4925510">
        <ele>2101</ele>
      </trkpt>
      <trkpt lat="45.6694821" lon="7.4925510">
        <ele>2103</ele>
      </trkpt>
      <trkpt lat="45.6695621" lon="7.4926010">
        <ele>2105</ele>
      </trkpt>
      <trkpt lat="45.6696521" lon="7.4926110">
        <ele>2107</ele>
      </trkpt>
      <trkpt lat="45.6698021" lon="7.4927510">
        <ele>2108</ele>
      </trkpt>
      <trkpt lat="45.6698921" lon="7.4927310">
        <ele>2110</ele>
      </trkpt>
      <trkpt lat="45.6699521" lon="7.4927410">
        <ele>2112</ele>
      </trkpt>
      <trkpt lat="45.6699621" lon="7.4926110">
        <ele>2114</ele>
      </trkpt>
      <trkpt lat="45.6699221" lon="7.4924910">
        <ele>2115</ele>
      </trkpt>
      <trkpt lat="45.6699421" lon="7.4924710">
        <ele>2117</ele>
      </trkpt>
      <trkpt lat="45.6704721" lon="7.4927410">
        <ele>2119</ele>
      </trkpt>
      <trkpt lat="45.6705921" lon="7.4928410">
        <ele>2121</ele>
      </trkpt>
      <trkpt lat="45.6706521" lon="7.4928610">
        <ele>2123</ele>
      </trkpt>
      <trkpt lat="45.6707321" lon="7.4927410">
        <ele>2124</ele>
      </trkpt>
      <trkpt lat="45.6707021" lon="7.4926510">
        <ele>2126</ele>
      </trkpt>
      <trkpt lat="45.6705821" lon="7.4925610">
        <ele>2128</ele>
      </trkpt>
      <trkpt lat="45.6705921" lon="7.4923710">
        <ele>2130</ele>
      </trkpt>
      <trkpt lat="45.6706221" lon="7.4922910">
        <ele>2131</ele>
      </trkpt>
      <trkpt lat="45.6707121" lon="7.4922310">
        <ele>2133</ele>
      </trkpt>
      <trkpt lat="45.6707721" lon="7.4921110">
        <ele>2135</ele>
      </trkpt>
      <trkpt lat="45.6708521" lon="7.4921510">
        <ele>2137</ele>
      </trkpt>
      <trkpt lat="45.6709149" lon="7.4921584">
        <ele>2139</ele>
      </trkpt>
      <trkpt lat="45.6709421" lon="7.4922410">
        <ele>2140</ele>
      </trkpt>
      <trkpt lat="45.6710034" lon="7.4921361">
        <ele>2142</ele>
      </trkpt>
      <trkpt lat="45.6711100" lon="7.4920518">
        <ele>2144</ele>
      </trkpt>
      <trkpt lat="45.6713164" lon="7.4921402">
        <ele>2146</ele>
      </trkpt>
      <trkpt lat="45.6714355" lon="7.4922220">
        <ele>2147</ele>
      </trkpt>
      <trkpt lat="45.6714905" lon="7.4922826">
        <ele>2149</ele>
      </trkpt>
      <trkpt lat="45.6718310" lon="7.4928538">
        <ele>2151</ele>
      </trkpt>
      <trkpt lat="45.6718918" lon="7.4930041">
        <ele>2153</ele>
      </trkpt>
      <trkpt lat="45.6719321" lon="7.4933110">
        <ele>2154</ele>
      </trkpt>
      <trkpt lat="45.6719921" lon="7.4934410">
        <ele>2156</ele>
      </trkpt>
      <trkpt lat="45.6720621" lon="7.4935210">
        <ele>2158</ele>
      </trkpt>
      <trkpt lat="45.6721531" lon="7.4935870">
        <ele>2160</ele>
      </trkpt>
      <trkpt lat="45.6722121" lon="7.4936810">
        <ele>2162</ele>
      </trkpt>
      <trkpt lat="45.6721911" lon="7.4937400">
        <ele>2163</ele>
      </trkpt>
      <trkpt lat="45.6722521" lon="7.4938610">
        <ele>2165</ele>
      </trkpt>
      <trkpt lat="45.6722721" lon="7.4938610">
        <ele>2167</ele>
      </trkpt>
      <trkpt lat="45.6723621" lon="7.4939610">
        <ele>2169</ele>
      </trkpt>
      <trkpt lat="45.6727721" lon="7.4940710">
        <ele>2170</ele>
      </trkpt>
      <trkpt lat="45.6732521" lon="7.4940410">
        <ele>2172</ele>
      </trkpt>
      <trkpt lat="45.6733882" lon="7.4940003">
        <ele>2174</ele>
      </trkpt>
      <trkpt lat="45.6738141" lon="7.4940747">
        <ele>2176</ele>
      </trkpt>
      <trkpt lat="45.6741873" lon="7.4941981">
        <ele>2177</ele>
      </trkpt>
      <trkpt lat="45.6744498" lon="7.4944038">
        <ele>2179</ele>
      </trkpt>
      <trkpt lat="45.6747457" lon="7.4947713">
        <ele>2181</ele>
      </trkpt>
    </trkseg>
  </trk>
</gpx>
