<?xml version="1.0" encoding="UTF-8"?>
<gpx version="1.1" creator="sentieri-vda" xmlns="http://www.topografix.com/GPX/1/1">
  <metadata>
    <name>Tillier - Druges</name>
    <desc>Catasto Sentieri VdA — 27_S31</desc>
    <author><name>Regione Autonoma Valle d'Aosta</name></author>
  </metadata>
  <trk>
    <name>Tillier - Druges</name>
    <src>Catasto Sentieri VdA (27_S31)</src>
    <trkseg>
      <trkpt lat="45.7071076" lon="7.4743184">
        <ele>533</ele>
      </trkpt>
      <trkpt lat="45.7071496" lon="7.4744324">
        <ele>536</ele>
      </trkpt>
      <trkpt lat="45.7072789" lon="7.4746814">
        <ele>539</ele>
      </trkpt>
      <trkpt lat="45.7073357" lon="7.4748890">
        <ele>543</ele>
      </trkpt>
      <trkpt lat="45.7073838" lon="7.4751182">
        <ele>546</ele>
      </trkpt>
      <trkpt lat="45.7074196" lon="7.4754404">
        <ele>549</ele>
      </trkpt>
      <trkpt lat="45.7074306" lon="7.4759319">
        <ele>552</ele>
      </trkpt>
      <trkpt lat="45.7074643" lon="7.4760947">
        <ele>555</ele>
      </trkpt>
      <trkpt lat="45.7075854" lon="7.4763982">
        <ele>559</ele>
      </trkpt>
      <trkpt lat="45.7076280" lon="7.4765580">
        <ele>562</ele>
      </trkpt>
      <trkpt lat="45.7078048" lon="7.4776680">
        <ele>565</ele>
      </trkpt>
      <trkpt lat="45.7078375" lon="7.4777559">
        <ele>568</ele>
      </trkpt>
      <trkpt lat="45.7078880" lon="7.4778284">
        <ele>571</ele>
      </trkpt>
      <trkpt lat="45.7081120" lon="7.4782480">
        <ele>575</ele>
      </trkpt>
      <trkpt lat="45.7082809" lon="7.4782656">
        <ele>578</ele>
      </trkpt>
      <trkpt lat="45.7084172" lon="7.4783692">
        <ele>581</ele>
      </trkpt>
      <trkpt lat="45.7086412" lon="7.4784820">
        <ele>584</ele>
      </trkpt>
      <trkpt lat="45.7087812" lon="7.4783720">
        <ele>587</ele>
      </trkpt>
      <trkpt lat="45.7096612" lon="7.4786720">
        <ele>591</ele>
      </trkpt>
      <trkpt lat="45.7097712" lon="7.4785620">
        <ele>594</ele>
      </trkpt>
      <trkpt lat="45.7098412" lon="7.4783720">
        <ele>597</ele>
      </trkpt>
      <trkpt lat="45.7101212" lon="7.4783520">
        <ele>600</ele>
      </trkpt>
      <trkpt lat="45.7106912" lon="7.4780820">
        <ele>603</ele>
      </trkpt>
      <trkpt lat="45.7105412" lon="7.4779320">
        <ele>607</ele>
      </trkpt>
      <trkpt lat="45.7108712" lon="7.4777320">
        <ele>610</ele>
      </trkpt>
      <trkpt lat="45.7113712" lon="7.4777920">
        <ele>613</ele>
      </trkpt>
      <trkpt lat="45.7117512" lon="7.4783220">
        <ele>616</ele>
      </trkpt>
      <trkpt lat="45.7118432" lon="7.4783370">
        <ele>619</ele>
      </trkpt>
      <trkpt lat="45.7119412" lon="7.4784220">
        <ele>623</ele>
      </trkpt>
      <trkpt lat="45.7121312" lon="7.4783290">
        <ele>626</ele>
      </trkpt>
      <trkpt lat="45.7125252" lon="7.4781130">
        <ele>629</ele>
      </trkpt>
      <trkpt lat="45.7129612" lon="7.4780120">
        <ele>632</ele>
      </trkpt>
      <trkpt lat="45.7129312" lon="7.4777330">
        <ele>635</ele>
      </trkpt>
      <trkpt lat="45.7132212" lon="7.4776530">
        <ele>639</ele>
      </trkpt>
      <trkpt lat="45.7131412" lon="7.4775130">
        <ele>642</ele>
      </trkpt>
      <trkpt lat="45.7132612" lon="7.4773530">
        <ele>645</ele>
      </trkpt>
      <trkpt lat="45.7135712" lon="7.4772130">
        <ele>648</ele>
      </trkpt>
      <trkpt lat="45.7136312" lon="7.4768430">
        <ele>651</ele>
      </trkpt>
      <trkpt lat="45.7142696" lon="7.4767802">
        <ele>655</ele>
      </trkpt>
      <trkpt lat="45.7148415" lon="7.4766868">
        <ele>658</ele>
      </trkpt>
      <trkpt lat="45.7149532" lon="7.4766590">
        <ele>661</ele>
      </trkpt>
      <trkpt lat="45.7152812" lon="7.4761630">
        <ele>664</ele>
      </trkpt>
      <trkpt lat="45.7153612" lon="7.4762430">
        <ele>667</ele>
      </trkpt>
      <trkpt lat="45.7156807" lon="7.4758392">
        <ele>671</ele>
      </trkpt>
      <trkpt lat="45.7156982" lon="7.4758170">
        <ele>674</ele>
      </trkpt>
      <trkpt lat="45.7159112" lon="7.4759230">
        <ele>677</ele>
      </trkpt>
      <trkpt lat="45.7160242" lon="7.4759100">
        <ele>680</ele>
      </trkpt>
      <trkpt lat="45.7160912" lon="7.4759330">
        <ele>683</ele>
      </trkpt>
      <trkpt lat="45.7162012" lon="7.4757510">
        <ele>687</ele>
      </trkpt>
      <trkpt lat="45.7163812" lon="7.4756950">
        <ele>690</ele>
      </trkpt>
      <trkpt lat="45.7167432" lon="7.4758910">
        <ele>693</ele>
      </trkpt>
      <trkpt lat="45.7172712" lon="7.4759130">
        <ele>696</ele>
      </trkpt>
      <trkpt lat="45.7175112" lon="7.4757630">
        <ele>699</ele>
      </trkpt>
      <trkpt lat="45.7175751" lon="7.4755537">
        <ele>703</ele>
      </trkpt>
      <trkpt lat="45.7176912" lon="7.4755730">
        <ele>706</ele>
      </trkpt>
      <trkpt lat="45.7178113" lon="7.4751433">
        <ele>709</ele>
      </trkpt>
      <trkpt lat="45.7179164" lon="7.4755998">
        <ele>712</ele>
      </trkpt>
      <trkpt lat="45.7179762" lon="7.4760330">
        <ele>715</ele>
      </trkpt>
      <trkpt lat="45.7179697" lon="7.4762263">
        <ele>719</ele>
      </trkpt>
      <trkpt lat="45.7179213" lon="7.4763027">
        <ele>722</ele>
      </trkpt>
      <trkpt lat="45.7178899" lon="7.4763148">
        <ele>725</ele>
      </trkpt>
      <trkpt lat="45.7179114" lon="7.4764944">
        <ele>728</ele>
      </trkpt>
      <trkpt lat="45.7181516" lon="7.4770474">
        <ele>731</ele>
      </trkpt>
      <trkpt lat="45.7180712" lon="7.4775530">
        <ele>735</ele>
      </trkpt>
      <trkpt lat="45.7181312" lon="7.4779830">
        <ele>738</ele>
      </trkpt>
      <trkpt lat="45.7181432" lon="7.4782170">
        <ele>741</ele>
      </trkpt>
      <trkpt lat="45.7181912" lon="7.4783230">
        <ele>744</ele>
      </trkpt>
      <trkpt lat="45.7181312" lon="7.4783730">
        <ele>747</ele>
      </trkpt>
      <trkpt lat="45.7182212" lon="7.4785030">
        <ele>751</ele>
      </trkpt>
      <trkpt lat="45.7180312" lon="7.4789330">
        <ele>754</ele>
      </trkpt>
      <trkpt lat="45.7180612" lon="7.4789730">
        <ele>757</ele>
      </trkpt>
      <trkpt lat="45.7179912" lon="7.4790730">
        <ele>760</ele>
      </trkpt>
      <trkpt lat="45.7180012" lon="7.4792430">
        <ele>763</ele>
      </trkpt>
      <trkpt lat="45.7179112" lon="7.4793030">
        <ele>767</ele>
      </trkpt>
      <trkpt lat="45.7178912" lon="7.4793930">
        <ele>770</ele>
      </trkpt>
      <trkpt lat="45.7179212" lon="7.4795330">
        <ele>773</ele>
      </trkpt>
      <trkpt lat="45.7177692" lon="7.4796280">
        <ele>776</ele>
      </trkpt>
      <trkpt lat="45.7176942" lon="7.4796680">
        <ele>779</ele>
      </trkpt>
      <trkpt lat="45.7176612" lon="7.4798730">
        <ele>783</ele>
      </trkpt>
      <trkpt lat="45.7176912" lon="7.4799730">
        <ele>786</ele>
      </trkpt>
      <trkpt lat="45.7177212" lon="7.4800130">
        <ele>789</ele>
      </trkpt>
      <trkpt lat="45.7177063" lon="7.4800909">
        <ele>792</ele>
      </trkpt>
      <trkpt lat="45.7176812" lon="7.4802230">
        <ele>795</ele>
      </trkpt>
      <trkpt lat="45.7176412" lon="7.4802730">
        <ele>799</ele>
      </trkpt>
      <trkpt lat="45.7177512" lon="7.4803230">
        <ele>802</ele>
      </trkpt>
      <trkpt lat="45.7178212" lon="7.4805230">
        <ele>805</ele>
      </trkpt>
      <trkpt lat="45.7177512" lon="7.4806230">
        <ele>808</ele>
      </trkpt>
      <trkpt lat="45.7177812" lon="7.4807730">
        <ele>811</ele>
      </trkpt>
      <trkpt lat="45.7178512" lon="7.4808930">
        <ele>815</ele>
      </trkpt>
      <trkpt lat="45.7177612" lon="7.4809630">
        <ele>818</ele>
      </trkpt>
      <trkpt lat="45.7178912" lon="7.4809930">
        <ele>821</ele>
      </trkpt>
      <trkpt lat="45.7178412" lon="7.4812630">
        <ele>824</ele>
      </trkpt>
      <trkpt lat="45.7179212" lon="7.4812030">
        <ele>827</ele>
      </trkpt>
      <trkpt lat="45.7179912" lon="7.4812230">
        <ele>831</ele>
      </trkpt>
      <trkpt lat="45.7180312" lon="7.4811530">
        <ele>834</ele>
      </trkpt>
      <trkpt lat="45.7180712" lon="7.4812630">
        <ele>837</ele>
      </trkpt>
      <trkpt lat="45.7183812" lon="7.4813930">
        <ele>840</ele>
      </trkpt>
      <trkpt lat="45.7183612" lon="7.4814430">
        <ele>843</ele>
      </trkpt>
      <trkpt lat="45.7184012" lon="7.4815130">
        <ele>847</ele>
      </trkpt>
      <trkpt lat="45.7183912" lon="7.4816130">
        <ele>850</ele>
      </trkpt>
      <trkpt lat="45.7186212" lon="7.4816630">
        <ele>853</ele>
      </trkpt>
      <trkpt lat="45.7187112" lon="7.4815830">
        <ele>856</ele>
      </trkpt>
      <trkpt lat="45.7188512" lon="7.4815930">
        <ele>859</ele>
      </trkpt>
      <trkpt lat="45.7188112" lon="7.4816830">
        <ele>863</ele>
      </trkpt>
      <trkpt lat="45.7188312" lon="7.4817530">
        <ele>866</ele>
      </trkpt>
      <trkpt lat="45.7187362" lon="7.4822610">
        <ele>869</ele>
      </trkpt>
      <trkpt lat="45.7188912" lon="7.4825730">
        <ele>872</ele>
      </trkpt>
      <trkpt lat="45.7191412" lon="7.4824930">
        <ele>875</ele>
      </trkpt>
      <trkpt lat="45.7191312" lon="7.4827830">
        <ele>879</ele>
      </trkpt>
      <trkpt lat="45.7190812" lon="7.4828230">
        <ele>882</ele>
      </trkpt>
      <trkpt lat="45.7192302" lon="7.4831710">
        <ele>885</ele>
      </trkpt>
      <trkpt lat="45.7194365" lon="7.4833042">
        <ele>888</ele>
      </trkpt>
      <trkpt lat="45.7195360" lon="7.4833352">
        <ele>891</ele>
      </trkpt>
      <trkpt lat="45.7196811" lon="7.4834169">
        <ele>895</ele>
      </trkpt>
      <trkpt lat="45.7199109" lon="7.4834420">
        <ele>898</ele>
      </trkpt>
      <trkpt lat="45.7201912" lon="7.4831830">
        <ele>901</ele>
      </trkpt>
      <trkpt lat="45.7203298" lon="7.4830231">
        <ele>904</ele>
      </trkpt>
      <trkpt lat="45.7203332" lon="7.4827103">
        <ele>907</ele>
      </trkpt>
      <trkpt lat="45.7203912" lon="7.4826330">
        <ele>911</ele>
      </trkpt>
      <trkpt lat="45.7207046" lon="7.4825027">
        <ele>914</ele>
      </trkpt>
      <trkpt lat="45.7209342" lon="7.4823560">
        <ele>917</ele>
      </trkpt>
      <trkpt lat="45.7211152" lon="7.4824540">
        <ele>920</ele>
      </trkpt>
      <trkpt lat="45.7211312" lon="7.4826130">
        <ele>923</ele>
      </trkpt>
      <trkpt lat="45.7212512" lon="7.4826730">
        <ele>927</ele>
      </trkpt>
      <trkpt lat="45.7214312" lon="7.4827230">
        <ele>930</ele>
      </trkpt>
      <trkpt lat="45.7215212" lon="7.4828200">
        <ele>933</ele>
      </trkpt>
      <trkpt lat="45.7217012" lon="7.4828470">
        <ele>936</ele>
      </trkpt>
      <trkpt lat="45.7218382" lon="7.4829720">
        <ele>939</ele>
      </trkpt>
      <trkpt lat="45.7219012" lon="7.4829830">
        <ele>943</ele>
      </trkpt>
      <trkpt lat="45.7220712" lon="7.4826830">
        <ele>946</ele>
      </trkpt>
      <trkpt lat="45.7222612" lon="7.4827330">
        <ele>949</ele>
      </trkpt>
      <trkpt lat="45.7222512" lon="7.4825430">
        <ele>952</ele>
      </trkpt>
      <trkpt lat="45.7225312" lon="7.4825830">
        <ele>955</ele>
      </trkpt>
      <trkpt lat="45.7226112" lon="7.4826830">
        <ele>959</ele>
      </trkpt>
      <trkpt lat="45.7227412" lon="7.4827430">
        <ele>962</ele>
      </trkpt>
      <trkpt lat="45.7227712" lon="7.4828830">
        <ele>965</ele>
      </trkpt>
      <trkpt lat="45.7227512" lon="7.4829330">
        <ele>968</ele>
      </trkpt>
      <trkpt lat="45.7228412" lon="7.4829430">
        <ele>971</ele>
      </trkpt>
      <trkpt lat="45.7229012" lon="7.4828930">
        <ele>975</ele>
      </trkpt>
      <trkpt lat="45.7230912" lon="7.4829830">
        <ele>978</ele>
      </trkpt>
      <trkpt lat="45.7230112" lon="7.4827430">
        <ele>981</ele>
      </trkpt>
      <trkpt lat="45.7229112" lon="7.4826030">
        <ele>984</ele>
      </trkpt>
      <trkpt lat="45.7229812" lon="7.4825730">
        <ele>987</ele>
      </trkpt>
      <trkpt lat="45.7231312" lon="7.4826330">
        <ele>991</ele>
      </trkpt>
      <trkpt lat="45.7233412" lon="7.4829430">
        <ele>994</ele>
      </trkpt>
      <trkpt lat="45.7234112" lon="7.4829930">
        <ele>997</ele>
      </trkpt>
      <trkpt lat="45.7234612" lon="7.4827430">
        <ele>1000</ele>
      </trkpt>
      <trkpt lat="45.7235412" lon="7.4824830">
        <ele>1003</ele>
      </trkpt>
      <trkpt lat="45.7235912" lon="7.4824930">
        <ele>1007</ele>
      </trkpt>
      <trkpt lat="45.7236612" lon="7.4826030">
        <ele>1010</ele>
      </trkpt>
      <trkpt lat="45.7237312" lon="7.4826530">
        <ele>1013</ele>
      </trkpt>
      <trkpt lat="45.7240312" lon="7.4827330">
        <ele>1016</ele>
      </trkpt>
      <trkpt lat="45.7243002" lon="7.4828930">
        <ele>1019</ele>
      </trkpt>
      <trkpt lat="45.7243632" lon="7.4829830">
        <ele>1023</ele>
      </trkpt>
      <trkpt lat="45.7243402" lon="7.4832630">
        <ele>1026</ele>
      </trkpt>
      <trkpt lat="45.7242802" lon="7.4834530">
        <ele>1029</ele>
      </trkpt>
      <trkpt lat="45.7242002" lon="7.4836230">
        <ele>1032</ele>
      </trkpt>
      <trkpt lat="45.7240902" lon="7.4837430">
        <ele>1035</ele>
      </trkpt>
      <trkpt lat="45.7239902" lon="7.4837430">
        <ele>1039</ele>
      </trkpt>
      <trkpt lat="45.7239602" lon="7.4838030">
        <ele>1042</ele>
      </trkpt>
      <trkpt lat="45.7239902" lon="7.4838230">
        <ele>1045</ele>
      </trkpt>
      <trkpt lat="45.7239802" lon="7.4838530">
        <ele>1048</ele>
      </trkpt>
      <trkpt lat="45.7240002" lon="7.4839030">
        <ele>1051</ele>
      </trkpt>
      <trkpt lat="45.7239802" lon="7.4840430">
        <ele>1055</ele>
      </trkpt>
      <trkpt lat="45.7239002" lon="7.4840830">
        <ele>1058</ele>
      </trkpt>
      <trkpt lat="45.7239002" lon="7.4841730">
        <ele>1061</ele>
      </trkpt>
      <trkpt lat="45.7238502" lon="7.4842230">
        <ele>1064</ele>
      </trkpt>
      <trkpt lat="45.7237502" lon="7.4844030">
        <ele>1067</ele>
      </trkpt>
      <trkpt lat="45.7235302" lon="7.4844830">
        <ele>1071</ele>
      </trkpt>
      <trkpt lat="45.7234602" lon="7.4845330">
        <ele>1074</ele>
      </trkpt>
      <trkpt lat="45.7231112" lon="7.4845930">
        <ele>1077</ele>
      </trkpt>
      <trkpt lat="45.7229012" lon="7.4847330">
        <ele>1080</ele>
      </trkpt>
      <trkpt lat="45.7228612" lon="7.4848130">
        <ele>1083</ele>
      </trkpt>
      <trkpt lat="45.7228012" lon="7.4848130">
        <ele>1087</ele>
      </trkpt>
      <trkpt lat="45.7226812" lon="7.4849030">
        <ele>1090</ele>
      </trkpt>
      <trkpt lat="45.7226312" lon="7.4850130">
        <ele>1093</ele>
      </trkpt>
      <trkpt lat="45.7225512" lon="7.4850930">
        <ele>1096</ele>
      </trkpt>
      <trkpt lat="45.7225212" lon="7.4851630">
        <ele>1099</ele>
      </trkpt>
      <trkpt lat="45.7224612" lon="7.4852430">
        <ele>1103</ele>
      </trkpt>
      <trkpt lat="45.7223312" lon="7.4856730">
        <ele>1106</ele>
      </trkpt>
      <trkpt lat="45.7221312" lon="7.4860230">
        <ele>1109</ele>
      </trkpt>
      <trkpt lat="45.7219812" lon="7.4861220">
        <ele>1112</ele>
      </trkpt>
      <trkpt lat="45.7219012" lon="7.4862420">
        <ele>1115</ele>
      </trkpt>
      <trkpt lat="45.7218142" lon="7.4862900">
        <ele>1119</ele>
      </trkpt>
      <trkpt lat="45.7216722" lon="7.4864480">
        <ele>1122</ele>
      </trkpt>
      <trkpt lat="45.7216382" lon="7.4865520">
        <ele>1125</ele>
      </trkpt>
      <trkpt lat="45.7215662" lon="7.4865540">
        <ele>1128</ele>
      </trkpt>
      <trkpt lat="45.7214378" lon="7.4865938">
        <ele>1131</ele>
      </trkpt>
      <trkpt lat="45.7213156" lon="7.4872207">
        <ele>1135</ele>
      </trkpt>
      <trkpt lat="45.7213264" lon="7.4873578">
        <ele>1138</ele>
      </trkpt>
      <trkpt lat="45.7215334" lon="7.4876983">
        <ele>1141</ele>
      </trkpt>
      <trkpt lat="45.7215590" lon="7.4877464">
        <ele>1144</ele>
      </trkpt>
      <trkpt lat="45.7216055" lon="7.4877671">
        <ele>1147</ele>
      </trkpt>
      <trkpt lat="45.7216471" lon="7.4877332">
        <ele>1151</ele>
      </trkpt>
      <trkpt lat="45.7216615" lon="7.4876574">
        <ele>1154</ele>
      </trkpt>
      <trkpt lat="45.7216543" lon="7.4875668">
        <ele>1157</ele>
      </trkpt>
      <trkpt lat="45.7216653" lon="7.4874454">
        <ele>1160</ele>
      </trkpt>
      <trkpt lat="45.7217078" lon="7.4872926">
        <ele>1163</ele>
      </trkpt>
      <trkpt lat="45.7217827" lon="7.4871475">
        <ele>1167</ele>
      </trkpt>
      <trkpt lat="45.7219330" lon="7.4869435">
        <ele>1170</ele>
      </trkpt>
      <trkpt lat="45.7220706" lon="7.4868060">
        <ele>1173</ele>
      </trkpt>
      <trkpt lat="45.7222053" lon="7.4867783">
        <ele>1176</ele>
      </trkpt>
      <trkpt lat="45.7223367" lon="7.4868462">
        <ele>1179</ele>
      </trkpt>
      <trkpt lat="45.7223783" lon="7.4869274">
        <ele>1183</ele>
      </trkpt>
      <trkpt lat="45.7224268" lon="7.4871895">
        <ele>1186</ele>
      </trkpt>
      <trkpt lat="45.7226202" lon="7.4870320">
        <ele>1189</ele>
      </trkpt>
      <trkpt lat="45.7227102" lon="7.4870020">
        <ele>1192</ele>
      </trkpt>
      <trkpt lat="45.7229022" lon="7.4868780">
        <ele>1195</ele>
      </trkpt>
      <trkpt lat="45.7230452" lon="7.4868220">
        <ele>1199</ele>
      </trkpt>
      <trkpt lat="45.7235482" lon="7.4867060">
        <ele>1202</ele>
      </trkpt>
      <trkpt lat="45.7237282" lon="7.4867010">
        <ele>1205</ele>
      </trkpt>
      <trkpt lat="45.7238712" lon="7.4866460">
        <ele>1208</ele>
      </trkpt>
      <trkpt lat="45.7239792" lon="7.4866430">
        <ele>1211</ele>
      </trkpt>
      <trkpt lat="45.7241222" lon="7.4865880">
        <ele>1215</ele>
      </trkpt>
      <trkpt lat="45.7245542" lon="7.4865760">
        <ele>1218</ele>
      </trkpt>
      <trkpt lat="45.7247352" lon="7.4866220">
        <ele>1221</ele>
      </trkpt>
      <trkpt lat="45.7249502" lon="7.4865650">
        <ele>1224</ele>
      </trkpt>
      <trkpt lat="45.7250666" lon="7.4868252">
        <ele>1227</ele>
      </trkpt>
      <trkpt lat="45.7252082" lon="7.4870210">
        <ele>1231</ele>
      </trkpt>
      <trkpt lat="45.7252802" lon="7.4870190">
        <ele>1234</ele>
      </trkpt>
      <trkpt lat="45.7253512" lon="7.4869660">
        <ele>1237</ele>
      </trkpt>
      <trkpt lat="45.7253902" lon="7.4870230">
        <ele>1240</ele>
      </trkpt>
      <trkpt lat="45.7254362" lon="7.4870301">
        <ele>1243</ele>
      </trkpt>
      <trkpt lat="45.7255202" lon="7.4870430">
        <ele>1247</ele>
      </trkpt>
      <trkpt lat="45.7255682" lon="7.4870110">
        <ele>1250</ele>
      </trkpt>
      <trkpt lat="45.7257852" lon="7.4871080">
        <ele>1253</ele>
      </trkpt>
      <trkpt lat="45.7259202" lon="7.4867930">
        <ele>1256</ele>
      </trkpt>
      <trkpt lat="45.7259242" lon="7.4866930">
        <ele>1259</ele>
      </trkpt>
      <trkpt lat="45.7260102" lon="7.4866430">
        <ele>1263</ele>
      </trkpt>
      <trkpt lat="45.7262472" lon="7.4866330">
        <ele>1266</ele>
      </trkpt>
      <trkpt lat="45.7263802" lon="7.4866430">
        <ele>1269</ele>
      </trkpt>
      <trkpt lat="45.7264302" lon="7.4866030">
        <ele>1272</ele>
      </trkpt>
      <trkpt lat="45.7264602" lon="7.4865430">
        <ele>1275</ele>
      </trkpt>
      <trkpt lat="45.7265802" lon="7.4866430">
        <ele>1279</ele>
      </trkpt>
      <trkpt lat="45.7267202" lon="7.4867030">
        <ele>1282</ele>
      </trkpt>
      <trkpt lat="45.7267902" lon="7.4865630">
        <ele>1285</ele>
      </trkpt>
      <trkpt lat="45.7267482" lon="7.4864140">
        <ele>1288</ele>
      </trkpt>
      <trkpt lat="45.7269402" lon="7.4861330">
        <ele>1291</ele>
      </trkpt>
      <trkpt lat="45.7270102" lon="7.4861430">
        <ele>1295</ele>
      </trkpt>
      <trkpt lat="45.7270502" lon="7.4860530">
        <ele>1298</ele>
      </trkpt>
      <trkpt lat="45.7271602" lon="7.4860330">
        <ele>1301</ele>
      </trkpt>
      <trkpt lat="45.7272602" lon="7.4860930">
        <ele>1304</ele>
      </trkpt>
      <trkpt lat="45.7272702" lon="7.4860030">
        <ele>1307</ele>
      </trkpt>
      <trkpt lat="45.7273702" lon="7.4860730">
        <ele>1311</ele>
      </trkpt>
      <trkpt lat="45.7274402" lon="7.4858530">
        <ele>1314</ele>
      </trkpt>
      <trkpt lat="45.7275002" lon="7.4857730">
        <ele>1317</ele>
      </trkpt>
      <trkpt lat="45.7276302" lon="7.4856830">
        <ele>1320</ele>
      </trkpt>
      <trkpt lat="45.7275202" lon="7.4853930">
        <ele>1323</ele>
      </trkpt>
      <trkpt lat="45.7275602" lon="7.4852430">
        <ele>1327</ele>
      </trkpt>
      <trkpt lat="45.7277502" lon="7.4851030">
        <ele>1330</ele>
      </trkpt>
      <trkpt lat="45.7277902" lon="7.4849930">
        <ele>1333</ele>
      </trkpt>
      <trkpt lat="45.7281602" lon="7.4849730">
        <ele>1336</ele>
      </trkpt>
      <trkpt lat="45.7282102" lon="7.4848330">
        <ele>1339</ele>
      </trkpt>
      <trkpt lat="45.7283402" lon="7.4847930">
        <ele>1343</ele>
      </trkpt>
      <trkpt lat="45.7283302" lon="7.4847430">
        <ele>1346</ele>
      </trkpt>
      <trkpt lat="45.7284002" lon="7.4845730">
        <ele>1349</ele>
      </trkpt>
      <trkpt lat="45.7285702" lon="7.4844030">
        <ele>1352</ele>
      </trkpt>
      <trkpt lat="45.7286102" lon="7.4842530">
        <ele>1355</ele>
      </trkpt>
      <trkpt lat="45.7284802" lon="7.4840430">
        <ele>1359</ele>
      </trkpt>
      <trkpt lat="45.7288902" lon="7.4834530">
        <ele>1362</ele>
      </trkpt>
      <trkpt lat="45.7289772" lon="7.4834230">
        <ele>1365</ele>
      </trkpt>
      <trkpt lat="45.7290482" lon="7.4833700">
        <ele>1368</ele>
      </trkpt>
      <trkpt lat="45.7291595" lon="7.4832664">
        <ele>1371</ele>
      </trkpt>
      <trkpt lat="45.7293567" lon="7.4827496">
        <ele>1375</ele>
      </trkpt>
      <trkpt lat="45.7295402" lon="7.4825330">
        <ele>1378</ele>
      </trkpt>
      <trkpt lat="45.7294902" lon="7.4819430">
        <ele>1381</ele>
      </trkpt>
      <trkpt lat="45.7295102" lon="7.4819430">
        <ele>1384</ele>
      </trkpt>
      <trkpt lat="45.7296002" lon="7.4817230">
        <ele>1387</ele>
      </trkpt>
      <trkpt lat="45.7297202" lon="7.4817330">
        <ele>1391</ele>
      </trkpt>
      <trkpt lat="45.7300502" lon="7.4818430">
        <ele>1394</ele>
      </trkpt>
      <trkpt lat="45.7303502" lon="7.4817230">
        <ele>1397</ele>
      </trkpt>
      <trkpt lat="45.7302902" lon="7.4816330">
        <ele>1400</ele>
      </trkpt>
      <trkpt lat="45.7304502" lon="7.4814530">
        <ele>1403</ele>
      </trkpt>
      <trkpt lat="45.7308102" lon="7.4813930">
        <ele>1407</ele>
      </trkpt>
      <trkpt lat="45.7312102" lon="7.4812430">
        <ele>1410</ele>
      </trkpt>
      <trkpt lat="45.7311602" lon="7.4811930">
        <ele>1413</ele>
      </trkpt>
      <trkpt lat="45.7311802" lon="7.4810330">
        <ele>1416</ele>
      </trkpt>
      <trkpt lat="45.7311402" lon="7.4808430">
        <ele>1419</ele>
      </trkpt>
      <trkpt lat="45.7311702" lon="7.4808130">
        <ele>1423</ele>
      </trkpt>
      <trkpt lat="45.7315402" lon="7.4808330">
        <ele>1426</ele>
      </trkpt>
      <trkpt lat="45.7317402" lon="7.4805530">
        <ele>1429</ele>
      </trkpt>
      <trkpt lat="45.7317832" lon="7.4805710">
        <ele>1432</ele>
      </trkpt>
      <trkpt lat="45.7318702" lon="7.4804230">
        <ele>1435</ele>
      </trkpt>
      <trkpt lat="45.7317802" lon="7.4802930">
        <ele>1439</ele>
      </trkpt>
      <trkpt lat="45.7320102" lon="7.4799030">
        <ele>1442</ele>
      </trkpt>
      <trkpt lat="45.7321602" lon="7.4798230">
        <ele>1445</ele>
      </trkpt>
      <trkpt lat="45.7321602" lon="7.4795330">
        <ele>1448</ele>
      </trkpt>
      <trkpt lat="45.7322002" lon="7.4795730">
        <ele>1451</ele>
      </trkpt>
      <trkpt lat="45.7322902" lon="7.4792730">
        <ele>1455</ele>
      </trkpt>
      <trkpt lat="45.7322702" lon="7.4789930">
        <ele>1458</ele>
      </trkpt>
      <trkpt lat="45.7323302" lon="7.4788330">
        <ele>1461</ele>
      </trkpt>
      <trkpt lat="45.7323302" lon="7.4787230">
        <ele>1464</ele>
      </trkpt>
      <trkpt lat="45.7324602" lon="7.4787330">
        <ele>1467</ele>
      </trkpt>
      <trkpt lat="45.7324802" lon="7.4786230">
        <ele>1471</ele>
      </trkpt>
      <trkpt lat="45.7326912" lon="7.4784390">
        <ele>1474</ele>
      </trkpt>
      <trkpt lat="45.7327972" lon="7.4782820">
        <ele>1477</ele>
      </trkpt>
      <trkpt lat="45.7328802" lon="7.4778530">
        <ele>1480</ele>
      </trkpt>
      <trkpt lat="45.7329402" lon="7.4777430">
        <ele>1483</ele>
      </trkpt>
      <trkpt lat="45.7329302" lon="7.4774030">
        <ele>1487</ele>
      </trkpt>
      <trkpt lat="45.7329502" lon="7.4773430">
        <ele>1490</ele>
      </trkpt>
      <trkpt lat="45.7330802" lon="7.4771930">
        <ele>1493</ele>
      </trkpt>
      <trkpt lat="45.7332902" lon="7.4770830">
        <ele>1496</ele>
      </trkpt>
      <trkpt lat="45.7335802" lon="7.4771430">
        <ele>1499</ele>
      </trkpt>
      <trkpt lat="45.7337002" lon="7.4771430">
        <ele>1503</ele>
      </trkpt>
      <trkpt lat="45.7337602" lon="7.4771130">
        <ele>1506</ele>
      </trkpt>
      <trkpt lat="45.7338702" lon="7.4771430">
        <ele>1509</ele>
      </trkpt>
      <trkpt lat="45.7339413" lon="7.4774122">
        <ele>1512</ele>
      </trkpt>
      <trkpt lat="45.7339902" lon="7.4774430">
        <ele>1515</ele>
      </trkpt>
      <trkpt lat="45.7343602" lon="7.4774130">
        <ele>1519</ele>
      </trkpt>
      <trkpt lat="45.7345502" lon="7.4774830">
        <ele>1522</ele>
      </trkpt>
      <trkpt lat="45.7347202" lon="7.4773730">
        <ele>1525</ele>
      </trkpt>
      <trkpt lat="45.7347602" lon="7.4772730">
        <ele>1528</ele>
      </trkpt>
      <trkpt lat="45.7347602" lon="7.4769330">
        <ele>1531</ele>
      </trkpt>
      <trkpt lat="45.7348202" lon="7.4768530">
        <ele>1535</ele>
      </trkpt>
      <trkpt lat="45.7348735" lon="7.4768755">
        <ele>1538</ele>
      </trkpt>
      <trkpt lat="45.7349032" lon="7.4768880">
        <ele>1541</ele>
      </trkpt>
      <trkpt lat="45.7351202" lon="7.4767530">
        <ele>1544</ele>
      </trkpt>
      <trkpt lat="45.7352602" lon="7.4767730">
        <ele>1547</ele>
      </trkpt>
      <trkpt lat="45.7354202" lon="7.4767030">
        <ele>1551</ele>
      </trkpt>
      <trkpt lat="45.7355902" lon="7.4766730">
        <ele>1554</ele>
      </trkpt>
      <trkpt lat="45.7356202" lon="7.4765930">
        <ele>1557</ele>
      </trkpt>
      <trkpt lat="45.7357902" lon="7.4765930">
        <ele>1560</ele>
      </trkpt>
      <trkpt lat="45.7358702" lon="7.4767030">
        <ele>1563</ele>
      </trkpt>
      <trkpt lat="45.7360002" lon="7.4766130">
        <ele>1567</ele>
      </trkpt>
      <trkpt lat="45.7361103" lon="7.4766043">
        <ele>1570</ele>
      </trkpt>
      <trkpt lat="45.7361592" lon="7.4767346">
        <ele>1573</ele>
      </trkpt>
      <trkpt lat="45.7363029" lon="7.4761482">
        <ele>1576</ele>
      </trkpt>
      <trkpt lat="45.7362738" lon="7.4759911">
        <ele>1579</ele>
      </trkpt>
      <trkpt lat="45.7362369" lon="7.4758981">
        <ele>1583</ele>
      </trkpt>
      <trkpt lat="45.7364553" lon="7.4758218">
        <ele>1586</ele>
      </trkpt>
      <trkpt lat="45.7367621" lon="7.4757518">
        <ele>1589</ele>
      </trkpt>
    </trkseg>
  </trk>
</gpx>
