<?xml version="1.0" encoding="UTF-8"?>
<gpx version="1.1" creator="sentieri-vda" xmlns="http://www.topografix.com/GPX/1/1">
  <metadata>
    <name>Fontainemore - Pointe Prial</name>
    <desc>Catasto Sentieri VdA — 28_S1</desc>
    <author><name>Regione Autonoma Valle d'Aosta</name></author>
  </metadata>
  <trk>
    <name>Fontainemore - Pointe Prial</name>
    <src>Catasto Sentieri VdA (28_S1)</src>
    <trkseg>
      <trkpt lat="45.6597291" lon="7.8133340">
        <ele>761</ele>
      </trkpt>
      <trkpt lat="45.6598591" lon="7.8133840">
        <ele>766</ele>
      </trkpt>
      <trkpt lat="45.6599091" lon="7.8134940">
        <ele>770</ele>
      </trkpt>
      <trkpt lat="45.6598991" lon="7.8137240">
        <ele>775</ele>
      </trkpt>
      <trkpt lat="45.6597191" lon="7.8138640">
        <ele>780</ele>
      </trkpt>
      <trkpt lat="45.6595691" lon="7.8143240">
        <ele>785</ele>
      </trkpt>
      <trkpt lat="45.6595091" lon="7.8144440">
        <ele>789</ele>
      </trkpt>
      <trkpt lat="45.6593391" lon="7.8146040">
        <ele>794</ele>
      </trkpt>
      <trkpt lat="45.6592691" lon="7.8147440">
        <ele>799</ele>
      </trkpt>
      <trkpt lat="45.6591391" lon="7.8148440">
        <ele>803</ele>
      </trkpt>
      <trkpt lat="45.6589391" lon="7.8149440">
        <ele>808</ele>
      </trkpt>
      <trkpt lat="45.6583591" lon="7.8150840">
        <ele>813</ele>
      </trkpt>
      <trkpt lat="45.6582191" lon="7.8151340">
        <ele>818</ele>
      </trkpt>
      <trkpt lat="45.6581581" lon="7.8152100">
        <ele>822</ele>
      </trkpt>
      <trkpt lat="45.6583891" lon="7.8155240">
        <ele>827</ele>
      </trkpt>
      <trkpt lat="45.6586391" lon="7.8159740">
        <ele>832</ele>
      </trkpt>
      <trkpt lat="45.6585291" lon="7.8160640">
        <ele>836</ele>
      </trkpt>
      <trkpt lat="45.6583491" lon="7.8164140">
        <ele>841</ele>
      </trkpt>
      <trkpt lat="45.6583891" lon="7.8165340">
        <ele>846</ele>
      </trkpt>
      <trkpt lat="45.6584391" lon="7.8165840">
        <ele>850</ele>
      </trkpt>
      <trkpt lat="45.6583191" lon="7.8166640">
        <ele>855</ele>
      </trkpt>
      <trkpt lat="45.6582791" lon="7.8167640">
        <ele>860</ele>
      </trkpt>
      <trkpt lat="45.6582891" lon="7.8168140">
        <ele>865</ele>
      </trkpt>
      <trkpt lat="45.6584091" lon="7.8169040">
        <ele>869</ele>
      </trkpt>
      <trkpt lat="45.6583291" lon="7.8170640">
        <ele>874</ele>
      </trkpt>
      <trkpt lat="45.6583791" lon="7.8171040">
        <ele>879</ele>
      </trkpt>
      <trkpt lat="45.6583391" lon="7.8172240">
        <ele>883</ele>
      </trkpt>
      <trkpt lat="45.6584891" lon="7.8172540">
        <ele>888</ele>
      </trkpt>
      <trkpt lat="45.6585891" lon="7.8172140">
        <ele>893</ele>
      </trkpt>
      <trkpt lat="45.6586391" lon="7.8172340">
        <ele>898</ele>
      </trkpt>
      <trkpt lat="45.6586491" lon="7.8172740">
        <ele>902</ele>
      </trkpt>
      <trkpt lat="45.6585891" lon="7.8173240">
        <ele>907</ele>
      </trkpt>
      <trkpt lat="45.6586191" lon="7.8175140">
        <ele>912</ele>
      </trkpt>
      <trkpt lat="45.6587491" lon="7.8174840">
        <ele>916</ele>
      </trkpt>
      <trkpt lat="45.6587991" lon="7.8175640">
        <ele>921</ele>
      </trkpt>
      <trkpt lat="45.6589391" lon="7.8176240">
        <ele>926</ele>
      </trkpt>
      <trkpt lat="45.6590091" lon="7.8176940">
        <ele>931</ele>
      </trkpt>
      <trkpt lat="45.6594891" lon="7.8178540">
        <ele>935</ele>
      </trkpt>
      <trkpt lat="45.6594991" lon="7.8179640">
        <ele>940</ele>
      </trkpt>
      <trkpt lat="45.6594691" lon="7.8180440">
        <ele>945</ele>
      </trkpt>
      <trkpt lat="45.6595991" lon="7.8180740">
        <ele>949</ele>
      </trkpt>
      <trkpt lat="45.6596591" lon="7.8181140">
        <ele>954</ele>
      </trkpt>
      <trkpt lat="45.6600291" lon="7.8187340">
        <ele>959</ele>
      </trkpt>
      <trkpt lat="45.6601781" lon="7.8192500">
        <ele>963</ele>
      </trkpt>
      <trkpt lat="45.6601491" lon="7.8193340">
        <ele>968</ele>
      </trkpt>
      <trkpt lat="45.6600291" lon="7.8194940">
        <ele>973</ele>
      </trkpt>
      <trkpt lat="45.6599291" lon="7.8194940">
        <ele>978</ele>
      </trkpt>
      <trkpt lat="45.6599091" lon="7.8195440">
        <ele>982</ele>
      </trkpt>
      <trkpt lat="45.6597991" lon="7.8195840">
        <ele>987</ele>
      </trkpt>
      <trkpt lat="45.6598191" lon="7.8198540">
        <ele>992</ele>
      </trkpt>
      <trkpt lat="45.6597791" lon="7.8200640">
        <ele>996</ele>
      </trkpt>
      <trkpt lat="45.6597991" lon="7.8206940">
        <ele>1001</ele>
      </trkpt>
      <trkpt lat="45.6597191" lon="7.8213240">
        <ele>1006</ele>
      </trkpt>
      <trkpt lat="45.6597391" lon="7.8214540">
        <ele>1011</ele>
      </trkpt>
      <trkpt lat="45.6596091" lon="7.8214840">
        <ele>1015</ele>
      </trkpt>
      <trkpt lat="45.6596191" lon="7.8216740">
        <ele>1020</ele>
      </trkpt>
      <trkpt lat="45.6595591" lon="7.8216840">
        <ele>1025</ele>
      </trkpt>
      <trkpt lat="45.6594991" lon="7.8219240">
        <ele>1029</ele>
      </trkpt>
      <trkpt lat="45.6593991" lon="7.8218840">
        <ele>1034</ele>
      </trkpt>
      <trkpt lat="45.6593791" lon="7.8219240">
        <ele>1039</ele>
      </trkpt>
      <trkpt lat="45.6592591" lon="7.8217940">
        <ele>1044</ele>
      </trkpt>
      <trkpt lat="45.6591191" lon="7.8225940">
        <ele>1048</ele>
      </trkpt>
      <trkpt lat="45.6590591" lon="7.8225040">
        <ele>1053</ele>
      </trkpt>
      <trkpt lat="45.6590291" lon="7.8225040">
        <ele>1058</ele>
      </trkpt>
      <trkpt lat="45.6589591" lon="7.8227240">
        <ele>1062</ele>
      </trkpt>
      <trkpt lat="45.6588791" lon="7.8226540">
        <ele>1067</ele>
      </trkpt>
      <trkpt lat="45.6588291" lon="7.8225240">
        <ele>1072</ele>
      </trkpt>
      <trkpt lat="45.6587791" lon="7.8226340">
        <ele>1076</ele>
      </trkpt>
      <trkpt lat="45.6587191" lon="7.8225240">
        <ele>1081</ele>
      </trkpt>
      <trkpt lat="45.6586791" lon="7.8225340">
        <ele>1086</ele>
      </trkpt>
      <trkpt lat="45.6586291" lon="7.8226840">
        <ele>1091</ele>
      </trkpt>
      <trkpt lat="45.6585891" lon="7.8227240">
        <ele>1095</ele>
      </trkpt>
      <trkpt lat="45.6585891" lon="7.8227940">
        <ele>1100</ele>
      </trkpt>
      <trkpt lat="45.6585491" lon="7.8228940">
        <ele>1105</ele>
      </trkpt>
      <trkpt lat="45.6584591" lon="7.8228740">
        <ele>1109</ele>
      </trkpt>
      <trkpt lat="45.6583591" lon="7.8232040">
        <ele>1114</ele>
      </trkpt>
      <trkpt lat="45.6582891" lon="7.8231340">
        <ele>1119</ele>
      </trkpt>
      <trkpt lat="45.6582291" lon="7.8232640">
        <ele>1124</ele>
      </trkpt>
      <trkpt lat="45.6581391" lon="7.8232740">
        <ele>1128</ele>
      </trkpt>
      <trkpt lat="45.6579791" lon="7.8236940">
        <ele>1133</ele>
      </trkpt>
      <trkpt lat="45.6579391" lon="7.8237140">
        <ele>1138</ele>
      </trkpt>
      <trkpt lat="45.6578991" lon="7.8236240">
        <ele>1142</ele>
      </trkpt>
      <trkpt lat="45.6578591" lon="7.8237040">
        <ele>1147</ele>
      </trkpt>
      <trkpt lat="45.6577991" lon="7.8236940">
        <ele>1152</ele>
      </trkpt>
      <trkpt lat="45.6577491" lon="7.8237340">
        <ele>1157</ele>
      </trkpt>
      <trkpt lat="45.6576991" lon="7.8236640">
        <ele>1161</ele>
      </trkpt>
      <trkpt lat="45.6575413" lon="7.8239433">
        <ele>1166</ele>
      </trkpt>
      <trkpt lat="45.6574773" lon="7.8239531">
        <ele>1171</ele>
      </trkpt>
      <trkpt lat="45.6572551" lon="7.8241643">
        <ele>1175</ele>
      </trkpt>
      <trkpt lat="45.6571033" lon="7.8243516">
        <ele>1180</ele>
      </trkpt>
      <trkpt lat="45.6570117" lon="7.8246989">
        <ele>1185</ele>
      </trkpt>
      <trkpt lat="45.6569278" lon="7.8249474">
        <ele>1190</ele>
      </trkpt>
      <trkpt lat="45.6568768" lon="7.8254603">
        <ele>1194</ele>
      </trkpt>
      <trkpt lat="45.6568384" lon="7.8255043">
        <ele>1199</ele>
      </trkpt>
      <trkpt lat="45.6568086" lon="7.8255868">
        <ele>1204</ele>
      </trkpt>
      <trkpt lat="45.6568127" lon="7.8256604">
        <ele>1208</ele>
      </trkpt>
      <trkpt lat="45.6567891" lon="7.8256640">
        <ele>1213</ele>
      </trkpt>
      <trkpt lat="45.6567591" lon="7.8258540">
        <ele>1218</ele>
      </trkpt>
      <trkpt lat="45.6567891" lon="7.8259240">
        <ele>1222</ele>
      </trkpt>
      <trkpt lat="45.6567691" lon="7.8260240">
        <ele>1227</ele>
      </trkpt>
      <trkpt lat="45.6568391" lon="7.8265440">
        <ele>1232</ele>
      </trkpt>
      <trkpt lat="45.6568391" lon="7.8266440">
        <ele>1237</ele>
      </trkpt>
      <trkpt lat="45.6568091" lon="7.8266840">
        <ele>1241</ele>
      </trkpt>
      <trkpt lat="45.6568791" lon="7.8269440">
        <ele>1246</ele>
      </trkpt>
      <trkpt lat="45.6568628" lon="7.8269689">
        <ele>1251</ele>
      </trkpt>
      <trkpt lat="45.6568191" lon="7.8269340">
        <ele>1255</ele>
      </trkpt>
      <trkpt lat="45.6568091" lon="7.8269940">
        <ele>1260</ele>
      </trkpt>
      <trkpt lat="45.6568910" lon="7.8272620">
        <ele>1265</ele>
      </trkpt>
      <trkpt lat="45.6569115" lon="7.8273481">
        <ele>1270</ele>
      </trkpt>
      <trkpt lat="45.6569235" lon="7.8275609">
        <ele>1274</ele>
      </trkpt>
      <trkpt lat="45.6569791" lon="7.8277240">
        <ele>1279</ele>
      </trkpt>
      <trkpt lat="45.6571891" lon="7.8280140">
        <ele>1284</ele>
      </trkpt>
      <trkpt lat="45.6572591" lon="7.8283640">
        <ele>1288</ele>
      </trkpt>
      <trkpt lat="45.6574991" lon="7.8287540">
        <ele>1293</ele>
      </trkpt>
      <trkpt lat="45.6575891" lon="7.8290440">
        <ele>1298</ele>
      </trkpt>
      <trkpt lat="45.6575791" lon="7.8290840">
        <ele>1303</ele>
      </trkpt>
      <trkpt lat="45.6574691" lon="7.8291040">
        <ele>1307</ele>
      </trkpt>
      <trkpt lat="45.6574291" lon="7.8292240">
        <ele>1312</ele>
      </trkpt>
      <trkpt lat="45.6573691" lon="7.8292040">
        <ele>1317</ele>
      </trkpt>
      <trkpt lat="45.6572991" lon="7.8293840">
        <ele>1321</ele>
      </trkpt>
      <trkpt lat="45.6571991" lon="7.8294440">
        <ele>1326</ele>
      </trkpt>
      <trkpt lat="45.6571491" lon="7.8295340">
        <ele>1331</ele>
      </trkpt>
      <trkpt lat="45.6569991" lon="7.8295940">
        <ele>1335</ele>
      </trkpt>
      <trkpt lat="45.6569291" lon="7.8296940">
        <ele>1340</ele>
      </trkpt>
      <trkpt lat="45.6567891" lon="7.8297540">
        <ele>1345</ele>
      </trkpt>
      <trkpt lat="45.6566491" lon="7.8299340">
        <ele>1350</ele>
      </trkpt>
      <trkpt lat="45.6566291" lon="7.8299940">
        <ele>1354</ele>
      </trkpt>
      <trkpt lat="45.6566591" lon="7.8299940">
        <ele>1359</ele>
      </trkpt>
      <trkpt lat="45.6566291" lon="7.8300240">
        <ele>1364</ele>
      </trkpt>
      <trkpt lat="45.6565591" lon="7.8299740">
        <ele>1368</ele>
      </trkpt>
      <trkpt lat="45.6565291" lon="7.8300140">
        <ele>1373</ele>
      </trkpt>
      <trkpt lat="45.6565191" lon="7.8302240">
        <ele>1378</ele>
      </trkpt>
      <trkpt lat="45.6564791" lon="7.8302140">
        <ele>1383</ele>
      </trkpt>
      <trkpt lat="45.6563891" lon="7.8300240">
        <ele>1387</ele>
      </trkpt>
      <trkpt lat="45.6563391" lon="7.8302140">
        <ele>1392</ele>
      </trkpt>
      <trkpt lat="45.6562991" lon="7.8302440">
        <ele>1397</ele>
      </trkpt>
      <trkpt lat="45.6562591" lon="7.8302340">
        <ele>1401</ele>
      </trkpt>
      <trkpt lat="45.6562591" lon="7.8302640">
        <ele>1406</ele>
      </trkpt>
      <trkpt lat="45.6562991" lon="7.8303040">
        <ele>1411</ele>
      </trkpt>
      <trkpt lat="45.6563091" lon="7.8303740">
        <ele>1416</ele>
      </trkpt>
      <trkpt lat="45.6562391" lon="7.8305440">
        <ele>1420</ele>
      </trkpt>
      <trkpt lat="45.6561691" lon="7.8306340">
        <ele>1425</ele>
      </trkpt>
      <trkpt lat="45.6560991" lon="7.8306540">
        <ele>1430</ele>
      </trkpt>
      <trkpt lat="45.6560491" lon="7.8307640">
        <ele>1434</ele>
      </trkpt>
      <trkpt lat="45.6559191" lon="7.8308840">
        <ele>1439</ele>
      </trkpt>
      <trkpt lat="45.6559291" lon="7.8309340">
        <ele>1444</ele>
      </trkpt>
      <trkpt lat="45.6558791" lon="7.8310040">
        <ele>1449</ele>
      </trkpt>
      <trkpt lat="45.6557791" lon="7.8310540">
        <ele>1453</ele>
      </trkpt>
      <trkpt lat="45.6558991" lon="7.8311640">
        <ele>1458</ele>
      </trkpt>
      <trkpt lat="45.6558391" lon="7.8315140">
        <ele>1463</ele>
      </trkpt>
      <trkpt lat="45.6558091" lon="7.8315640">
        <ele>1467</ele>
      </trkpt>
      <trkpt lat="45.6557591" lon="7.8315840">
        <ele>1472</ele>
      </trkpt>
      <trkpt lat="45.6557491" lon="7.8316440">
        <ele>1477</ele>
      </trkpt>
      <trkpt lat="45.6556791" lon="7.8316540">
        <ele>1481</ele>
      </trkpt>
      <trkpt lat="45.6557391" lon="7.8317340">
        <ele>1486</ele>
      </trkpt>
      <trkpt lat="45.6557491" lon="7.8319340">
        <ele>1491</ele>
      </trkpt>
      <trkpt lat="45.6555491" lon="7.8322830">
        <ele>1496</ele>
      </trkpt>
      <trkpt lat="45.6554291" lon="7.8326230">
        <ele>1500</ele>
      </trkpt>
      <trkpt lat="45.6554091" lon="7.8330130">
        <ele>1505</ele>
      </trkpt>
      <trkpt lat="45.6554291" lon="7.8332730">
        <ele>1510</ele>
      </trkpt>
      <trkpt lat="45.6553191" lon="7.8336430">
        <ele>1514</ele>
      </trkpt>
      <trkpt lat="45.6553091" lon="7.8339730">
        <ele>1519</ele>
      </trkpt>
      <trkpt lat="45.6552091" lon="7.8341530">
        <ele>1524</ele>
      </trkpt>
      <trkpt lat="45.6552091" lon="7.8345730">
        <ele>1529</ele>
      </trkpt>
      <trkpt lat="45.6551891" lon="7.8345830">
        <ele>1533</ele>
      </trkpt>
      <trkpt lat="45.6551991" lon="7.8347030">
        <ele>1538</ele>
      </trkpt>
      <trkpt lat="45.6549691" lon="7.8356730">
        <ele>1543</ele>
      </trkpt>
      <trkpt lat="45.6549091" lon="7.8358130">
        <ele>1547</ele>
      </trkpt>
      <trkpt lat="45.6547991" lon="7.8358730">
        <ele>1552</ele>
      </trkpt>
      <trkpt lat="45.6546791" lon="7.8361630">
        <ele>1557</ele>
      </trkpt>
      <trkpt lat="45.6545791" lon="7.8362730">
        <ele>1562</ele>
      </trkpt>
      <trkpt lat="45.6544591" lon="7.8363130">
        <ele>1566</ele>
      </trkpt>
      <trkpt lat="45.6544091" lon="7.8365130">
        <ele>1571</ele>
      </trkpt>
      <trkpt lat="45.6543291" lon="7.8366830">
        <ele>1576</ele>
      </trkpt>
      <trkpt lat="45.6541891" lon="7.8373430">
        <ele>1580</ele>
      </trkpt>
      <trkpt lat="45.6540491" lon="7.8376430">
        <ele>1585</ele>
      </trkpt>
      <trkpt lat="45.6539791" lon="7.8379330">
        <ele>1590</ele>
      </trkpt>
      <trkpt lat="45.6539591" lon="7.8381330">
        <ele>1594</ele>
      </trkpt>
      <trkpt lat="45.6537791" lon="7.8384430">
        <ele>1599</ele>
      </trkpt>
      <trkpt lat="45.6536391" lon="7.8388030">
        <ele>1604</ele>
      </trkpt>
      <trkpt lat="45.6535491" lon="7.8391530">
        <ele>1609</ele>
      </trkpt>
      <trkpt lat="45.6533391" lon="7.8395630">
        <ele>1613</ele>
      </trkpt>
      <trkpt lat="45.6531591" lon="7.8405330">
        <ele>1618</ele>
      </trkpt>
      <trkpt lat="45.6530591" lon="7.8407530">
        <ele>1623</ele>
      </trkpt>
      <trkpt lat="45.6530691" lon="7.8406830">
        <ele>1627</ele>
      </trkpt>
      <trkpt lat="45.6530391" lon="7.8407030">
        <ele>1632</ele>
      </trkpt>
      <trkpt lat="45.6530291" lon="7.8406530">
        <ele>1637</ele>
      </trkpt>
      <trkpt lat="45.6529291" lon="7.8407930">
        <ele>1642</ele>
      </trkpt>
      <trkpt lat="45.6527293" lon="7.8412457">
        <ele>1646</ele>
      </trkpt>
      <trkpt lat="45.6526310" lon="7.8416058">
        <ele>1651</ele>
      </trkpt>
      <trkpt lat="45.6524691" lon="7.8418030">
        <ele>1656</ele>
      </trkpt>
      <trkpt lat="45.6524091" lon="7.8422130">
        <ele>1660</ele>
      </trkpt>
      <trkpt lat="45.6523791" lon="7.8423230">
        <ele>1665</ele>
      </trkpt>
      <trkpt lat="45.6523591" lon="7.8422430">
        <ele>1670</ele>
      </trkpt>
      <trkpt lat="45.6521891" lon="7.8419330">
        <ele>1675</ele>
      </trkpt>
      <trkpt lat="45.6521191" lon="7.8416530">
        <ele>1679</ele>
      </trkpt>
      <trkpt lat="45.6520611" lon="7.8415572">
        <ele>1684</ele>
      </trkpt>
      <trkpt lat="45.6520591" lon="7.8414030">
        <ele>1689</ele>
      </trkpt>
      <trkpt lat="45.6520809" lon="7.8412848">
        <ele>1693</ele>
      </trkpt>
      <trkpt lat="45.6521001" lon="7.8411802">
        <ele>1698</ele>
      </trkpt>
      <trkpt lat="45.6520635" lon="7.8411352">
        <ele>1703</ele>
      </trkpt>
      <trkpt lat="45.6520191" lon="7.8411930">
        <ele>1707</ele>
      </trkpt>
      <trkpt lat="45.6519991" lon="7.8411830">
        <ele>1712</ele>
      </trkpt>
      <trkpt lat="45.6519991" lon="7.8411448">
        <ele>1717</ele>
      </trkpt>
      <trkpt lat="45.6519991" lon="7.8410530">
        <ele>1722</ele>
      </trkpt>
      <trkpt lat="45.6520291" lon="7.8409630">
        <ele>1726</ele>
      </trkpt>
      <trkpt lat="45.6519091" lon="7.8409330">
        <ele>1731</ele>
      </trkpt>
      <trkpt lat="45.6517191" lon="7.8411830">
        <ele>1736</ele>
      </trkpt>
      <trkpt lat="45.6514891" lon="7.8412430">
        <ele>1740</ele>
      </trkpt>
      <trkpt lat="45.6513991" lon="7.8412030">
        <ele>1745</ele>
      </trkpt>
      <trkpt lat="45.6514191" lon="7.8412630">
        <ele>1750</ele>
      </trkpt>
      <trkpt lat="45.6512291" lon="7.8414930">
        <ele>1755</ele>
      </trkpt>
      <trkpt lat="45.6508691" lon="7.8422230">
        <ele>1759</ele>
      </trkpt>
      <trkpt lat="45.6508591" lon="7.8425230">
        <ele>1764</ele>
      </trkpt>
      <trkpt lat="45.6508091" lon="7.8426830">
        <ele>1769</ele>
      </trkpt>
      <trkpt lat="45.6507691" lon="7.8432830">
        <ele>1773</ele>
      </trkpt>
      <trkpt lat="45.6507191" lon="7.8434330">
        <ele>1778</ele>
      </trkpt>
      <trkpt lat="45.6506491" lon="7.8435630">
        <ele>1783</ele>
      </trkpt>
      <trkpt lat="45.6505491" lon="7.8436330">
        <ele>1788</ele>
      </trkpt>
      <trkpt lat="45.6503991" lon="7.8436430">
        <ele>1792</ele>
      </trkpt>
      <trkpt lat="45.6503491" lon="7.8437630">
        <ele>1797</ele>
      </trkpt>
      <trkpt lat="45.6503691" lon="7.8440530">
        <ele>1802</ele>
      </trkpt>
      <trkpt lat="45.6504107" lon="7.8441038">
        <ele>1806</ele>
      </trkpt>
      <trkpt lat="45.6504591" lon="7.8441630">
        <ele>1811</ele>
      </trkpt>
      <trkpt lat="45.6505891" lon="7.8442130">
        <ele>1816</ele>
      </trkpt>
      <trkpt lat="45.6505991" lon="7.8442730">
        <ele>1821</ele>
      </trkpt>
      <trkpt lat="45.6506091" lon="7.8444530">
        <ele>1825</ele>
      </trkpt>
      <trkpt lat="45.6505891" lon="7.8444830">
        <ele>1830</ele>
      </trkpt>
      <trkpt lat="45.6505491" lon="7.8447530">
        <ele>1835</ele>
      </trkpt>
      <trkpt lat="45.6504091" lon="7.8449130">
        <ele>1839</ele>
      </trkpt>
      <trkpt lat="45.6504691" lon="7.8450630">
        <ele>1844</ele>
      </trkpt>
      <trkpt lat="45.6503791" lon="7.8451230">
        <ele>1849</ele>
      </trkpt>
      <trkpt lat="45.6502491" lon="7.8452730">
        <ele>1853</ele>
      </trkpt>
      <trkpt lat="45.6502091" lon="7.8452630">
        <ele>1858</ele>
      </trkpt>
      <trkpt lat="45.6500991" lon="7.8453530">
        <ele>1863</ele>
      </trkpt>
      <trkpt lat="45.6501091" lon="7.8454430">
        <ele>1868</ele>
      </trkpt>
      <trkpt lat="45.6500191" lon="7.8455630">
        <ele>1872</ele>
      </trkpt>
      <trkpt lat="45.6499991" lon="7.8456130">
        <ele>1877</ele>
      </trkpt>
      <trkpt lat="45.6500391" lon="7.8456530">
        <ele>1882</ele>
      </trkpt>
      <trkpt lat="45.6499091" lon="7.8458430">
        <ele>1886</ele>
      </trkpt>
      <trkpt lat="45.6499091" lon="7.8458930">
        <ele>1891</ele>
      </trkpt>
      <trkpt lat="45.6497688" lon="7.8460668">
        <ele>1896</ele>
      </trkpt>
      <trkpt lat="45.6496991" lon="7.8461530">
        <ele>1901</ele>
      </trkpt>
      <trkpt lat="45.6496797" lon="7.8462521">
        <ele>1905</ele>
      </trkpt>
      <trkpt lat="45.6493584" lon="7.8462965">
        <ele>1910</ele>
      </trkpt>
      <trkpt lat="45.6489722" lon="7.8464771">
        <ele>1915</ele>
      </trkpt>
      <trkpt lat="45.6489232" lon="7.8464800">
        <ele>1919</ele>
      </trkpt>
      <trkpt lat="45.6488786" lon="7.8464509">
        <ele>1924</ele>
      </trkpt>
      <trkpt lat="45.6488391" lon="7.8465730">
        <ele>1929</ele>
      </trkpt>
      <trkpt lat="45.6487791" lon="7.8466130">
        <ele>1934</ele>
      </trkpt>
      <trkpt lat="45.6488091" lon="7.8467030">
        <ele>1938</ele>
      </trkpt>
      <trkpt lat="45.6487791" lon="7.8469030">
        <ele>1943</ele>
      </trkpt>
      <trkpt lat="45.6488291" lon="7.8469830">
        <ele>1948</ele>
      </trkpt>
      <trkpt lat="45.6488991" lon="7.8470030">
        <ele>1952</ele>
      </trkpt>
      <trkpt lat="45.6488291" lon="7.8472030">
        <ele>1957</ele>
      </trkpt>
      <trkpt lat="45.6488691" lon="7.8476630">
        <ele>1962</ele>
      </trkpt>
      <trkpt lat="45.6487991" lon="7.8479030">
        <ele>1966</ele>
      </trkpt>
      <trkpt lat="45.6488291" lon="7.8479530">
        <ele>1971</ele>
      </trkpt>
      <trkpt lat="45.6486991" lon="7.8482030">
        <ele>1976</ele>
      </trkpt>
      <trkpt lat="45.6485646" lon="7.8483476">
        <ele>1981</ele>
      </trkpt>
      <trkpt lat="45.6484160" lon="7.8483596">
        <ele>1985</ele>
      </trkpt>
      <trkpt lat="45.6483207" lon="7.8484195">
        <ele>1990</ele>
      </trkpt>
      <trkpt lat="45.6482791" lon="7.8487230">
        <ele>1995</ele>
      </trkpt>
      <trkpt lat="45.6482291" lon="7.8487630">
        <ele>1999</ele>
      </trkpt>
      <trkpt lat="45.6481991" lon="7.8488630">
        <ele>2004</ele>
      </trkpt>
      <trkpt lat="45.6483291" lon="7.8489430">
        <ele>2009</ele>
      </trkpt>
      <trkpt lat="45.6483591" lon="7.8490530">
        <ele>2014</ele>
      </trkpt>
      <trkpt lat="45.6484091" lon="7.8490430">
        <ele>2018</ele>
      </trkpt>
      <trkpt lat="45.6484291" lon="7.8490730">
        <ele>2023</ele>
      </trkpt>
      <trkpt lat="45.6483991" lon="7.8491230">
        <ele>2028</ele>
      </trkpt>
      <trkpt lat="45.6485891" lon="7.8491330">
        <ele>2032</ele>
      </trkpt>
      <trkpt lat="45.6487991" lon="7.8492330">
        <ele>2037</ele>
      </trkpt>
      <trkpt lat="45.6488691" lon="7.8492130">
        <ele>2042</ele>
      </trkpt>
      <trkpt lat="45.6489591" lon="7.8492930">
        <ele>2047</ele>
      </trkpt>
      <trkpt lat="45.6487991" lon="7.8495530">
        <ele>2051</ele>
      </trkpt>
      <trkpt lat="45.6488991" lon="7.8495230">
        <ele>2056</ele>
      </trkpt>
      <trkpt lat="45.6489591" lon="7.8495530">
        <ele>2061</ele>
      </trkpt>
      <trkpt lat="45.6490891" lon="7.8494730">
        <ele>2065</ele>
      </trkpt>
      <trkpt lat="45.6490891" lon="7.8495830">
        <ele>2070</ele>
      </trkpt>
      <trkpt lat="45.6492391" lon="7.8496330">
        <ele>2075</ele>
      </trkpt>
      <trkpt lat="45.6492991" lon="7.8497730">
        <ele>2080</ele>
      </trkpt>
      <trkpt lat="45.6494491" lon="7.8497930">
        <ele>2084</ele>
      </trkpt>
      <trkpt lat="45.6495591" lon="7.8499030">
        <ele>2089</ele>
      </trkpt>
      <trkpt lat="45.6496491" lon="7.8499230">
        <ele>2094</ele>
      </trkpt>
      <trkpt lat="45.6496591" lon="7.8500330">
        <ele>2098</ele>
      </trkpt>
      <trkpt lat="45.6496991" lon="7.8500630">
        <ele>2103</ele>
      </trkpt>
      <trkpt lat="45.6497991" lon="7.8500330">
        <ele>2108</ele>
      </trkpt>
      <trkpt lat="45.6497791" lon="7.8501530">
        <ele>2112</ele>
      </trkpt>
      <trkpt lat="45.6498491" lon="7.8501630">
        <ele>2117</ele>
      </trkpt>
      <trkpt lat="45.6498191" lon="7.8502730">
        <ele>2122</ele>
      </trkpt>
      <trkpt lat="45.6498591" lon="7.8503530">
        <ele>2127</ele>
      </trkpt>
      <trkpt lat="45.6497791" lon="7.8504730">
        <ele>2131</ele>
      </trkpt>
      <trkpt lat="45.6498811" lon="7.8504750">
        <ele>2136</ele>
      </trkpt>
      <trkpt lat="45.6498219" lon="7.8508164">
        <ele>2141</ele>
      </trkpt>
      <trkpt lat="45.6498791" lon="7.8510630">
        <ele>2145</ele>
      </trkpt>
      <trkpt lat="45.6498391" lon="7.8511730">
        <ele>2150</ele>
      </trkpt>
      <trkpt lat="45.6498791" lon="7.8514830">
        <ele>2155</ele>
      </trkpt>
      <trkpt lat="45.6499191" lon="7.8515130">
        <ele>2160</ele>
      </trkpt>
      <trkpt lat="45.6499791" lon="7.8516630">
        <ele>2164</ele>
      </trkpt>
      <trkpt lat="45.6499791" lon="7.8517230">
        <ele>2169</ele>
      </trkpt>
      <trkpt lat="45.6500091" lon="7.8517530">
        <ele>2174</ele>
      </trkpt>
      <trkpt lat="45.6499991" lon="7.8518130">
        <ele>2178</ele>
      </trkpt>
      <trkpt lat="45.6500791" lon="7.8518430">
        <ele>2183</ele>
      </trkpt>
      <trkpt lat="45.6499991" lon="7.8521530">
        <ele>2188</ele>
      </trkpt>
      <trkpt lat="45.6500991" lon="7.8521930">
        <ele>2193</ele>
      </trkpt>
      <trkpt lat="45.6501591" lon="7.8523330">
        <ele>2197</ele>
      </trkpt>
      <trkpt lat="45.6502052" lon="7.8527112">
        <ele>2202</ele>
      </trkpt>
      <trkpt lat="45.6502070" lon="7.8528748">
        <ele>2207</ele>
      </trkpt>
      <trkpt lat="45.6502591" lon="7.8531230">
        <ele>2211</ele>
      </trkpt>
      <trkpt lat="45.6507191" lon="7.8540130">
        <ele>2216</ele>
      </trkpt>
      <trkpt lat="45.6510791" lon="7.8541030">
        <ele>2221</ele>
      </trkpt>
      <trkpt lat="45.6512163" lon="7.8543210">
        <ele>2225</ele>
      </trkpt>
      <trkpt lat="45.6513116" lon="7.8547085">
        <ele>2230</ele>
      </trkpt>
      <trkpt lat="45.6515211" lon="7.8557472">
        <ele>2235</ele>
      </trkpt>
      <trkpt lat="45.6522291" lon="7.8561330">
        <ele>2240</ele>
      </trkpt>
      <trkpt lat="45.6522891" lon="7.8564030">
        <ele>2244</ele>
      </trkpt>
      <trkpt lat="45.6524491" lon="7.8565030">
        <ele>2249</ele>
      </trkpt>
      <trkpt lat="45.6525355" lon="7.8569536">
        <ele>2254</ele>
      </trkpt>
      <trkpt lat="45.6530174" lon="7.8567491">
        <ele>2258</ele>
      </trkpt>
      <trkpt lat="45.6525591" lon="7.8573030">
        <ele>2263</ele>
      </trkpt>
      <trkpt lat="45.6525291" lon="7.8577030">
        <ele>2268</ele>
      </trkpt>
      <trkpt lat="45.6516891" lon="7.8580030">
        <ele>2273</ele>
      </trkpt>
      <trkpt lat="45.6514491" lon="7.8582730">
        <ele>2277</ele>
      </trkpt>
      <trkpt lat="45.6511191" lon="7.8582630">
        <ele>2282</ele>
      </trkpt>
      <trkpt lat="45.6510091" lon="7.8583930">
        <ele>2287</ele>
      </trkpt>
      <trkpt lat="45.6506291" lon="7.8584330">
        <ele>2291</ele>
      </trkpt>
      <trkpt lat="45.6505991" lon="7.8586430">
        <ele>2296</ele>
      </trkpt>
      <trkpt lat="45.6504791" lon="7.8588030">
        <ele>2301</ele>
      </trkpt>
      <trkpt lat="45.6500691" lon="7.8591130">
        <ele>2306</ele>
      </trkpt>
      <trkpt lat="45.6499691" lon="7.8590930">
        <ele>2310</ele>
      </trkpt>
      <trkpt lat="45.6499991" lon="7.8589630">
        <ele>2315</ele>
      </trkpt>
      <trkpt lat="45.6498791" lon="7.8586730">
        <ele>2320</ele>
      </trkpt>
      <trkpt lat="45.6496991" lon="7.8586630">
        <ele>2324</ele>
      </trkpt>
      <trkpt lat="45.6492891" lon="7.8588930">
        <ele>2329</ele>
      </trkpt>
      <trkpt lat="45.6487391" lon="7.8590430">
        <ele>2334</ele>
      </trkpt>
      <trkpt lat="45.6487316" lon="7.8591263">
        <ele>2338</ele>
      </trkpt>
      <trkpt lat="45.6486791" lon="7.8591630">
        <ele>2343</ele>
      </trkpt>
      <trkpt lat="45.6485991" lon="7.8590930">
        <ele>2348</ele>
      </trkpt>
      <trkpt lat="45.6485991" lon="7.8593530">
        <ele>2353</ele>
      </trkpt>
      <trkpt lat="45.6485091" lon="7.8595630">
        <ele>2357</ele>
      </trkpt>
      <trkpt lat="45.6483691" lon="7.8596630">
        <ele>2362</ele>
      </trkpt>
      <trkpt lat="45.6483091" lon="7.8595930">
        <ele>2367</ele>
      </trkpt>
      <trkpt lat="45.6483691" lon="7.8600030">
        <ele>2371</ele>
      </trkpt>
      <trkpt lat="45.6484160" lon="7.8600749">
        <ele>2376</ele>
      </trkpt>
      <trkpt lat="45.6483748" lon="7.8601417">
        <ele>2381</ele>
      </trkpt>
      <trkpt lat="45.6483265" lon="7.8603835">
        <ele>2386</ele>
      </trkpt>
      <trkpt lat="45.6483367" lon="7.8605516">
        <ele>2390</ele>
      </trkpt>
      <trkpt lat="45.6483479" lon="7.8608847">
        <ele>2395</ele>
      </trkpt>
    </trkseg>
  </trk>
</gpx>
