<?xml version="1.0" encoding="UTF-8"?>
<gpx version="1.1" creator="sentieri-vda" xmlns="http://www.topografix.com/GPX/1/1">
  <metadata>
    <name>Rifugio Coda - Mont Mars</name>
    <desc>Catasto Sentieri VdA — 28_S11</desc>
    <author><name>Regione Autonoma Valle d'Aosta</name></author>
  </metadata>
  <trk>
    <name>Rifugio Coda - Mont Mars</name>
    <src>Catasto Sentieri VdA (28_S11)</src>
    <trkseg>
      <trkpt lat="45.6224887" lon="7.9077811">
        <ele>2260</ele>
      </trkpt>
      <trkpt lat="45.6224936" lon="7.9078520">
        <ele>2265</ele>
      </trkpt>
      <trkpt lat="45.6224762" lon="7.9078801">
        <ele>2269</ele>
      </trkpt>
      <trkpt lat="45.6224879" lon="7.9081731">
        <ele>2274</ele>
      </trkpt>
      <trkpt lat="45.6224752" lon="7.9083055">
        <ele>2278</ele>
      </trkpt>
      <trkpt lat="45.6224860" lon="7.9082906">
        <ele>2283</ele>
      </trkpt>
      <trkpt lat="45.6224888" lon="7.9083616">
        <ele>2288</ele>
      </trkpt>
      <trkpt lat="45.6224546" lon="7.9084986">
        <ele>2292</ele>
      </trkpt>
      <trkpt lat="45.6224485" lon="7.9089270">
        <ele>2297</ele>
      </trkpt>
      <trkpt lat="45.6224945" lon="7.9091720">
        <ele>2301</ele>
      </trkpt>
      <trkpt lat="45.6225647" lon="7.9092643">
        <ele>2306</ele>
      </trkpt>
      <trkpt lat="45.6227847" lon="7.9093988">
        <ele>2311</ele>
      </trkpt>
      <trkpt lat="45.6228163" lon="7.9093887">
        <ele>2315</ele>
      </trkpt>
      <trkpt lat="45.6228885" lon="7.9094090">
        <ele>2320</ele>
      </trkpt>
      <trkpt lat="45.6230677" lon="7.9093928">
        <ele>2324</ele>
      </trkpt>
      <trkpt lat="45.6231807" lon="7.9093438">
        <ele>2329</ele>
      </trkpt>
      <trkpt lat="45.6233826" lon="7.9093250">
        <ele>2334</ele>
      </trkpt>
      <trkpt lat="45.6235276" lon="7.9093423">
        <ele>2338</ele>
      </trkpt>
      <trkpt lat="45.6236950" lon="7.9092748">
        <ele>2343</ele>
      </trkpt>
      <trkpt lat="45.6238136" lon="7.9092645">
        <ele>2347</ele>
      </trkpt>
      <trkpt lat="45.6239247" lon="7.9093148">
        <ele>2352</ele>
      </trkpt>
      <trkpt lat="45.6242754" lon="7.9093971">
        <ele>2356</ele>
      </trkpt>
      <trkpt lat="45.6243612" lon="7.9094495">
        <ele>2361</ele>
      </trkpt>
      <trkpt lat="45.6244065" lon="7.9094859">
        <ele>2366</ele>
      </trkpt>
      <trkpt lat="45.6244537" lon="7.9095066">
        <ele>2370</ele>
      </trkpt>
      <trkpt lat="45.6245294" lon="7.9095643">
        <ele>2375</ele>
      </trkpt>
      <trkpt lat="45.6245457" lon="7.9095505">
        <ele>2379</ele>
      </trkpt>
      <trkpt lat="45.6245597" lon="7.9094768">
        <ele>2384</ele>
      </trkpt>
      <trkpt lat="45.6245794" lon="7.9094187">
        <ele>2389</ele>
      </trkpt>
      <trkpt lat="45.6246656" lon="7.9094674">
        <ele>2393</ele>
      </trkpt>
      <trkpt lat="45.6247600" lon="7.9094327">
        <ele>2398</ele>
      </trkpt>
      <trkpt lat="45.6247853" lon="7.9094364">
        <ele>2402</ele>
      </trkpt>
      <trkpt lat="45.6248069" lon="7.9094249">
        <ele>2407</ele>
      </trkpt>
      <trkpt lat="45.6248081" lon="7.9094091">
        <ele>2412</ele>
      </trkpt>
      <trkpt lat="45.6248581" lon="7.9094095">
        <ele>2416</ele>
      </trkpt>
      <trkpt lat="45.6249391" lon="7.9095610">
        <ele>2421</ele>
      </trkpt>
      <trkpt lat="45.6252291" lon="7.9103910">
        <ele>2425</ele>
      </trkpt>
      <trkpt lat="45.6256191" lon="7.9106910">
        <ele>2430</ele>
      </trkpt>
      <trkpt lat="45.6260591" lon="7.9114010">
        <ele>2435</ele>
      </trkpt>
      <trkpt lat="45.6264491" lon="7.9114110">
        <ele>2439</ele>
      </trkpt>
      <trkpt lat="45.6264291" lon="7.9115610">
        <ele>2444</ele>
      </trkpt>
      <trkpt lat="45.6266391" lon="7.9116310">
        <ele>2448</ele>
      </trkpt>
      <trkpt lat="45.6268591" lon="7.9115710">
        <ele>2453</ele>
      </trkpt>
      <trkpt lat="45.6270491" lon="7.9120410">
        <ele>2458</ele>
      </trkpt>
      <trkpt lat="45.6272791" lon="7.9122110">
        <ele>2462</ele>
      </trkpt>
      <trkpt lat="45.6274991" lon="7.9126310">
        <ele>2467</ele>
      </trkpt>
      <trkpt lat="45.6276491" lon="7.9127110">
        <ele>2471</ele>
      </trkpt>
      <trkpt lat="45.6276091" lon="7.9127910">
        <ele>2476</ele>
      </trkpt>
      <trkpt lat="45.6277491" lon="7.9129610">
        <ele>2481</ele>
      </trkpt>
      <trkpt lat="45.6277691" lon="7.9132510">
        <ele>2485</ele>
      </trkpt>
      <trkpt lat="45.6278691" lon="7.9134010">
        <ele>2490</ele>
      </trkpt>
      <trkpt lat="45.6282791" lon="7.9136210">
        <ele>2494</ele>
      </trkpt>
      <trkpt lat="45.6286191" lon="7.9139610">
        <ele>2499</ele>
      </trkpt>
      <trkpt lat="45.6292391" lon="7.9141810">
        <ele>2504</ele>
      </trkpt>
      <trkpt lat="45.6292921" lon="7.9141400">
        <ele>2508</ele>
      </trkpt>
      <trkpt lat="45.6292571" lon="7.9142430">
        <ele>2513</ele>
      </trkpt>
      <trkpt lat="45.6292941" lon="7.9143960">
        <ele>2517</ele>
      </trkpt>
      <trkpt lat="45.6292591" lon="7.9144480">
        <ele>2522</ele>
      </trkpt>
      <trkpt lat="45.6295106" lon="7.9147587">
        <ele>2526</ele>
      </trkpt>
      <trkpt lat="45.6298485" lon="7.9147768">
        <ele>2531</ele>
      </trkpt>
      <trkpt lat="45.6302526" lon="7.9145943">
        <ele>2536</ele>
      </trkpt>
      <trkpt lat="45.6305107" lon="7.9142140">
        <ele>2540</ele>
      </trkpt>
      <trkpt lat="45.6306776" lon="7.9139075">
        <ele>2545</ele>
      </trkpt>
      <trkpt lat="45.6310633" lon="7.9138216">
        <ele>2549</ele>
      </trkpt>
      <trkpt lat="45.6315804" lon="7.9141201">
        <ele>2554</ele>
      </trkpt>
      <trkpt lat="45.6317869" lon="7.9146500">
        <ele>2559</ele>
      </trkpt>
      <trkpt lat="45.6317244" lon="7.9148504">
        <ele>2563</ele>
      </trkpt>
      <trkpt lat="45.6318745" lon="7.9150786">
        <ele>2568</ele>
      </trkpt>
      <trkpt lat="45.6323747" lon="7.9155132">
        <ele>2572</ele>
      </trkpt>
      <trkpt lat="45.6325055" lon="7.9159610">
        <ele>2577</ele>
      </trkpt>
      <trkpt lat="45.6325868" lon="7.9164748">
        <ele>2582</ele>
      </trkpt>
      <trkpt lat="45.6328536" lon="7.9166116">
        <ele>2586</ele>
      </trkpt>
      <trkpt lat="45.6329459" lon="7.9163712">
        <ele>2591</ele>
      </trkpt>
      <trkpt lat="45.6332124" lon="7.9164629">
        <ele>2595</ele>
      </trkpt>
      <trkpt lat="45.6333451" lon="7.9163190">
        <ele>2600</ele>
      </trkpt>
    </trkseg>
  </trk>
</gpx>
