<?xml version="1.0" encoding="UTF-8"?>
<gpx version="1.1" creator="sentieri-vda" xmlns="http://www.topografix.com/GPX/1/1">
  <metadata>
    <name>Posa - Saroun</name>
    <desc>Catasto Sentieri VdA — 28_S2</desc>
    <author><name>Regione Autonoma Valle d'Aosta</name></author>
  </metadata>
  <trk>
    <name>Posa - Saroun</name>
    <src>Catasto Sentieri VdA (28_S2)</src>
    <trkseg>
      <trkpt lat="45.6557497" lon="7.8531584">
        <ele>1144</ele>
      </trkpt>
      <trkpt lat="45.6560601" lon="7.8531752">
        <ele>1152</ele>
      </trkpt>
      <trkpt lat="45.6565191" lon="7.8531430">
        <ele>1160</ele>
      </trkpt>
      <trkpt lat="45.6564991" lon="7.8528630">
        <ele>1167</ele>
      </trkpt>
      <trkpt lat="45.6573191" lon="7.8525230">
        <ele>1175</ele>
      </trkpt>
      <trkpt lat="45.6574991" lon="7.8520030">
        <ele>1183</ele>
      </trkpt>
      <trkpt lat="45.6575091" lon="7.8516430">
        <ele>1191</ele>
      </trkpt>
      <trkpt lat="45.6577391" lon="7.8514130">
        <ele>1199</ele>
      </trkpt>
      <trkpt lat="45.6577791" lon="7.8512630">
        <ele>1206</ele>
      </trkpt>
      <trkpt lat="45.6575591" lon="7.8513930">
        <ele>1214</ele>
      </trkpt>
      <trkpt lat="45.6572791" lon="7.8511430">
        <ele>1222</ele>
      </trkpt>
      <trkpt lat="45.6578191" lon="7.8506130">
        <ele>1230</ele>
      </trkpt>
      <trkpt lat="45.6578791" lon="7.8504630">
        <ele>1238</ele>
      </trkpt>
      <trkpt lat="45.6584091" lon="7.8500230">
        <ele>1245</ele>
      </trkpt>
      <trkpt lat="45.6589391" lon="7.8499830">
        <ele>1253</ele>
      </trkpt>
      <trkpt lat="45.6590191" lon="7.8498830">
        <ele>1261</ele>
      </trkpt>
      <trkpt lat="45.6595591" lon="7.8499430">
        <ele>1269</ele>
      </trkpt>
      <trkpt lat="45.6598491" lon="7.8497530">
        <ele>1276</ele>
      </trkpt>
      <trkpt lat="45.6600591" lon="7.8492930">
        <ele>1284</ele>
      </trkpt>
      <trkpt lat="45.6600191" lon="7.8489630">
        <ele>1292</ele>
      </trkpt>
      <trkpt lat="45.6600491" lon="7.8487430">
        <ele>1300</ele>
      </trkpt>
      <trkpt lat="45.6602491" lon="7.8484130">
        <ele>1308</ele>
      </trkpt>
      <trkpt lat="45.6602291" lon="7.8479830">
        <ele>1315</ele>
      </trkpt>
      <trkpt lat="45.6602991" lon="7.8478230">
        <ele>1323</ele>
      </trkpt>
      <trkpt lat="45.6605091" lon="7.8478330">
        <ele>1331</ele>
      </trkpt>
      <trkpt lat="45.6606791" lon="7.8481130">
        <ele>1339</ele>
      </trkpt>
      <trkpt lat="45.6607591" lon="7.8480130">
        <ele>1347</ele>
      </trkpt>
      <trkpt lat="45.6610091" lon="7.8480230">
        <ele>1354</ele>
      </trkpt>
      <trkpt lat="45.6612591" lon="7.8477830">
        <ele>1362</ele>
      </trkpt>
      <trkpt lat="45.6614691" lon="7.8478330">
        <ele>1370</ele>
      </trkpt>
      <trkpt lat="45.6612891" lon="7.8484430">
        <ele>1378</ele>
      </trkpt>
      <trkpt lat="45.6613291" lon="7.8485930">
        <ele>1386</ele>
      </trkpt>
      <trkpt lat="45.6614291" lon="7.8485030">
        <ele>1393</ele>
      </trkpt>
      <trkpt lat="45.6615791" lon="7.8485630">
        <ele>1401</ele>
      </trkpt>
      <trkpt lat="45.6618591" lon="7.8481130">
        <ele>1409</ele>
      </trkpt>
      <trkpt lat="45.6622691" lon="7.8477630">
        <ele>1417</ele>
      </trkpt>
      <trkpt lat="45.6622891" lon="7.8478830">
        <ele>1425</ele>
      </trkpt>
      <trkpt lat="45.6625191" lon="7.8478130">
        <ele>1432</ele>
      </trkpt>
      <trkpt lat="45.6624791" lon="7.8480330">
        <ele>1440</ele>
      </trkpt>
      <trkpt lat="45.6626091" lon="7.8480330">
        <ele>1448</ele>
      </trkpt>
      <trkpt lat="45.6625791" lon="7.8481730">
        <ele>1456</ele>
      </trkpt>
      <trkpt lat="45.6628991" lon="7.8480730">
        <ele>1464</ele>
      </trkpt>
      <trkpt lat="45.6627591" lon="7.8483830">
        <ele>1471</ele>
      </trkpt>
      <trkpt lat="45.6628991" lon="7.8482930">
        <ele>1479</ele>
      </trkpt>
      <trkpt lat="45.6628791" lon="7.8483830">
        <ele>1487</ele>
      </trkpt>
      <trkpt lat="45.6633191" lon="7.8480630">
        <ele>1495</ele>
      </trkpt>
      <trkpt lat="45.6633391" lon="7.8479730">
        <ele>1502</ele>
      </trkpt>
      <trkpt lat="45.6633891" lon="7.8480330">
        <ele>1510</ele>
      </trkpt>
      <trkpt lat="45.6637291" lon="7.8475930">
        <ele>1518</ele>
      </trkpt>
      <trkpt lat="45.6636291" lon="7.8471930">
        <ele>1526</ele>
      </trkpt>
      <trkpt lat="45.6639091" lon="7.8472630">
        <ele>1534</ele>
      </trkpt>
      <trkpt lat="45.6639591" lon="7.8470730">
        <ele>1541</ele>
      </trkpt>
      <trkpt lat="45.6642791" lon="7.8474730">
        <ele>1549</ele>
      </trkpt>
      <trkpt lat="45.6645091" lon="7.8479530">
        <ele>1557</ele>
      </trkpt>
      <trkpt lat="45.6649181" lon="7.8477930">
        <ele>1565</ele>
      </trkpt>
      <trkpt lat="45.6650081" lon="7.8476730">
        <ele>1573</ele>
      </trkpt>
      <trkpt lat="45.6650681" lon="7.8478430">
        <ele>1580</ele>
      </trkpt>
      <trkpt lat="45.6652037" lon="7.8479398">
        <ele>1588</ele>
      </trkpt>
      <trkpt lat="45.6651855" lon="7.8478693">
        <ele>1596</ele>
      </trkpt>
    </trkseg>
  </trk>
</gpx>
