<?xml version="1.0" encoding="UTF-8"?>
<gpx version="1.1" creator="sentieri-vda" xmlns="http://www.topografix.com/GPX/1/1">
  <metadata>
    <name>Yair desor - Pian dou Beily - Mouleret</name>
    <desc>Catasto Sentieri VdA — 29_S17</desc>
    <author><name>Regione Autonoma Valle d'Aosta</name></author>
  </metadata>
  <trk>
    <name>Yair desor - Pian dou Beily - Mouleret</name>
    <src>Catasto Sentieri VdA (29_S17)</src>
    <trkseg>
      <trkpt lat="45.7183944" lon="7.8782003">
        <ele>1068</ele>
      </trkpt>
      <trkpt lat="45.7184572" lon="7.8781140">
        <ele>1072</ele>
      </trkpt>
      <trkpt lat="45.7184972" lon="7.8780240">
        <ele>1075</ele>
      </trkpt>
      <trkpt lat="45.7186255" lon="7.8779253">
        <ele>1079</ele>
      </trkpt>
      <trkpt lat="45.7186372" lon="7.8779340">
        <ele>1083</ele>
      </trkpt>
      <trkpt lat="45.7189472" lon="7.8777840">
        <ele>1087</ele>
      </trkpt>
      <trkpt lat="45.7190272" lon="7.8776940">
        <ele>1090</ele>
      </trkpt>
      <trkpt lat="45.7190672" lon="7.8775540">
        <ele>1094</ele>
      </trkpt>
      <trkpt lat="45.7190472" lon="7.8772640">
        <ele>1098</ele>
      </trkpt>
      <trkpt lat="45.7192072" lon="7.8769840">
        <ele>1102</ele>
      </trkpt>
      <trkpt lat="45.7191672" lon="7.8769640">
        <ele>1105</ele>
      </trkpt>
      <trkpt lat="45.7192472" lon="7.8768740">
        <ele>1109</ele>
      </trkpt>
      <trkpt lat="45.7192072" lon="7.8768340">
        <ele>1113</ele>
      </trkpt>
      <trkpt lat="45.7194072" lon="7.8764940">
        <ele>1116</ele>
      </trkpt>
      <trkpt lat="45.7194172" lon="7.8763340">
        <ele>1120</ele>
      </trkpt>
      <trkpt lat="45.7194972" lon="7.8763040">
        <ele>1124</ele>
      </trkpt>
      <trkpt lat="45.7196672" lon="7.8760040">
        <ele>1128</ele>
      </trkpt>
      <trkpt lat="45.7196172" lon="7.8759440">
        <ele>1131</ele>
      </trkpt>
      <trkpt lat="45.7196972" lon="7.8755140">
        <ele>1135</ele>
      </trkpt>
      <trkpt lat="45.7197672" lon="7.8754440">
        <ele>1139</ele>
      </trkpt>
      <trkpt lat="45.7197072" lon="7.8752440">
        <ele>1143</ele>
      </trkpt>
      <trkpt lat="45.7197872" lon="7.8751940">
        <ele>1146</ele>
      </trkpt>
      <trkpt lat="45.7198472" lon="7.8750940">
        <ele>1150</ele>
      </trkpt>
      <trkpt lat="45.7201172" lon="7.8750440">
        <ele>1154</ele>
      </trkpt>
      <trkpt lat="45.7201472" lon="7.8749640">
        <ele>1158</ele>
      </trkpt>
      <trkpt lat="45.7200672" lon="7.8749540">
        <ele>1161</ele>
      </trkpt>
      <trkpt lat="45.7200372" lon="7.8748540">
        <ele>1165</ele>
      </trkpt>
      <trkpt lat="45.7200672" lon="7.8747240">
        <ele>1169</ele>
      </trkpt>
      <trkpt lat="45.7200472" lon="7.8747540">
        <ele>1172</ele>
      </trkpt>
      <trkpt lat="45.7198572" lon="7.8747440">
        <ele>1176</ele>
      </trkpt>
      <trkpt lat="45.7198972" lon="7.8745340">
        <ele>1180</ele>
      </trkpt>
      <trkpt lat="45.7198772" lon="7.8744140">
        <ele>1184</ele>
      </trkpt>
      <trkpt lat="45.7200272" lon="7.8743440">
        <ele>1187</ele>
      </trkpt>
      <trkpt lat="45.7199672" lon="7.8742540">
        <ele>1191</ele>
      </trkpt>
      <trkpt lat="45.7201272" lon="7.8741540">
        <ele>1195</ele>
      </trkpt>
      <trkpt lat="45.7202372" lon="7.8739640">
        <ele>1199</ele>
      </trkpt>
      <trkpt lat="45.7204372" lon="7.8739040">
        <ele>1202</ele>
      </trkpt>
      <trkpt lat="45.7205072" lon="7.8738340">
        <ele>1206</ele>
      </trkpt>
      <trkpt lat="45.7204172" lon="7.8736740">
        <ele>1210</ele>
      </trkpt>
      <trkpt lat="45.7204072" lon="7.8735540">
        <ele>1213</ele>
      </trkpt>
      <trkpt lat="45.7204972" lon="7.8734740">
        <ele>1217</ele>
      </trkpt>
      <trkpt lat="45.7203772" lon="7.8733440">
        <ele>1221</ele>
      </trkpt>
      <trkpt lat="45.7204472" lon="7.8733040">
        <ele>1225</ele>
      </trkpt>
      <trkpt lat="45.7204772" lon="7.8731240">
        <ele>1228</ele>
      </trkpt>
      <trkpt lat="45.7205472" lon="7.8730640">
        <ele>1232</ele>
      </trkpt>
      <trkpt lat="45.7206572" lon="7.8730340">
        <ele>1236</ele>
      </trkpt>
      <trkpt lat="45.7207372" lon="7.8730540">
        <ele>1240</ele>
      </trkpt>
      <trkpt lat="45.7207472" lon="7.8729940">
        <ele>1243</ele>
      </trkpt>
      <trkpt lat="45.7208972" lon="7.8729740">
        <ele>1247</ele>
      </trkpt>
      <trkpt lat="45.7208772" lon="7.8728040">
        <ele>1251</ele>
      </trkpt>
      <trkpt lat="45.7209772" lon="7.8728740">
        <ele>1255</ele>
      </trkpt>
      <trkpt lat="45.7210372" lon="7.8730840">
        <ele>1258</ele>
      </trkpt>
      <trkpt lat="45.7211472" lon="7.8731440">
        <ele>1262</ele>
      </trkpt>
      <trkpt lat="45.7219672" lon="7.8731840">
        <ele>1266</ele>
      </trkpt>
      <trkpt lat="45.7222672" lon="7.8730940">
        <ele>1269</ele>
      </trkpt>
      <trkpt lat="45.7223672" lon="7.8729440">
        <ele>1273</ele>
      </trkpt>
      <trkpt lat="45.7225172" lon="7.8728140">
        <ele>1277</ele>
      </trkpt>
      <trkpt lat="45.7226272" lon="7.8723840">
        <ele>1281</ele>
      </trkpt>
      <trkpt lat="45.7225972" lon="7.8721740">
        <ele>1284</ele>
      </trkpt>
      <trkpt lat="45.7226572" lon="7.8717840">
        <ele>1288</ele>
      </trkpt>
      <trkpt lat="45.7227972" lon="7.8716140">
        <ele>1292</ele>
      </trkpt>
      <trkpt lat="45.7228023" lon="7.8714320">
        <ele>1296</ele>
      </trkpt>
      <trkpt lat="45.7228372" lon="7.8712240">
        <ele>1299</ele>
      </trkpt>
      <trkpt lat="45.7229182" lon="7.8711100">
        <ele>1303</ele>
      </trkpt>
    </trkseg>
  </trk>
</gpx>
