<?xml version="1.0" encoding="UTF-8"?>
<gpx version="1.1" creator="sentieri-vda" xmlns="http://www.topografix.com/GPX/1/1">
  <metadata>
    <name>Cascate di Niel</name>
    <desc>Catasto Sentieri VdA — 29_S11</desc>
    <author><name>Regione Autonoma Valle d'Aosta</name></author>
  </metadata>
  <trk>
    <name>Cascate di Niel</name>
    <src>Catasto Sentieri VdA (29_S11)</src>
    <trkseg>
      <trkpt lat="45.7127393" lon="7.8875868">
        <ele>1130</ele>
      </trkpt>
      <trkpt lat="45.7130070" lon="7.8875730">
        <ele>1131</ele>
      </trkpt>
      <trkpt lat="45.7130472" lon="7.8875330">
        <ele>1132</ele>
      </trkpt>
      <trkpt lat="45.7131672" lon="7.8875830">
        <ele>1134</ele>
      </trkpt>
      <trkpt lat="45.7132772" lon="7.8876430">
        <ele>1135</ele>
      </trkpt>
      <trkpt lat="45.7133772" lon="7.8877330">
        <ele>1136</ele>
      </trkpt>
      <trkpt lat="45.7135072" lon="7.8879230">
        <ele>1137</ele>
      </trkpt>
      <trkpt lat="45.7135972" lon="7.8879630">
        <ele>1138</ele>
      </trkpt>
      <trkpt lat="45.7136172" lon="7.8880130">
        <ele>1140</ele>
      </trkpt>
      <trkpt lat="45.7136072" lon="7.8880330">
        <ele>1141</ele>
      </trkpt>
      <trkpt lat="45.7136672" lon="7.8880330">
        <ele>1142</ele>
      </trkpt>
      <trkpt lat="45.7137172" lon="7.8880730">
        <ele>1143</ele>
      </trkpt>
      <trkpt lat="45.7137672" lon="7.8881730">
        <ele>1144</ele>
      </trkpt>
      <trkpt lat="45.7138172" lon="7.8881930">
        <ele>1145</ele>
      </trkpt>
      <trkpt lat="45.7138772" lon="7.8883230">
        <ele>1147</ele>
      </trkpt>
      <trkpt lat="45.7137472" lon="7.8884130">
        <ele>1148</ele>
      </trkpt>
      <trkpt lat="45.7138172" lon="7.8884630">
        <ele>1149</ele>
      </trkpt>
      <trkpt lat="45.7138472" lon="7.8885130">
        <ele>1150</ele>
      </trkpt>
      <trkpt lat="45.7138672" lon="7.8886330">
        <ele>1151</ele>
      </trkpt>
      <trkpt lat="45.7138472" lon="7.8887130">
        <ele>1153</ele>
      </trkpt>
      <trkpt lat="45.7137672" lon="7.8887130">
        <ele>1154</ele>
      </trkpt>
      <trkpt lat="45.7138172" lon="7.8887830">
        <ele>1155</ele>
      </trkpt>
      <trkpt lat="45.7137872" lon="7.8888130">
        <ele>1156</ele>
      </trkpt>
      <trkpt lat="45.7138772" lon="7.8888830">
        <ele>1157</ele>
      </trkpt>
      <trkpt lat="45.7139072" lon="7.8889530">
        <ele>1159</ele>
      </trkpt>
      <trkpt lat="45.7139372" lon="7.8889630">
        <ele>1160</ele>
      </trkpt>
      <trkpt lat="45.7139672" lon="7.8890030">
        <ele>1161</ele>
      </trkpt>
      <trkpt lat="45.7140672" lon="7.8890430">
        <ele>1162</ele>
      </trkpt>
      <trkpt lat="45.7141172" lon="7.8891030">
        <ele>1163</ele>
      </trkpt>
      <trkpt lat="45.7141672" lon="7.8891030">
        <ele>1165</ele>
      </trkpt>
      <trkpt lat="45.7142372" lon="7.8891930">
        <ele>1166</ele>
      </trkpt>
      <trkpt lat="45.7144072" lon="7.8891030">
        <ele>1167</ele>
      </trkpt>
      <trkpt lat="45.7145372" lon="7.8891030">
        <ele>1168</ele>
      </trkpt>
      <trkpt lat="45.7146772" lon="7.8891930">
        <ele>1169</ele>
      </trkpt>
      <trkpt lat="45.7148572" lon="7.8892230">
        <ele>1171</ele>
      </trkpt>
      <trkpt lat="45.7148972" lon="7.8892130">
        <ele>1172</ele>
      </trkpt>
      <trkpt lat="45.7149072" lon="7.8893030">
        <ele>1173</ele>
      </trkpt>
      <trkpt lat="45.7149872" lon="7.8893930">
        <ele>1174</ele>
      </trkpt>
      <trkpt lat="45.7150472" lon="7.8894230">
        <ele>1175</ele>
      </trkpt>
      <trkpt lat="45.7150972" lon="7.8895330">
        <ele>1176</ele>
      </trkpt>
      <trkpt lat="45.7150772" lon="7.8896330">
        <ele>1178</ele>
      </trkpt>
      <trkpt lat="45.7151472" lon="7.8898830">
        <ele>1179</ele>
      </trkpt>
      <trkpt lat="45.7151872" lon="7.8898830">
        <ele>1180</ele>
      </trkpt>
      <trkpt lat="45.7152272" lon="7.8899430">
        <ele>1181</ele>
      </trkpt>
      <trkpt lat="45.7152372" lon="7.8899930">
        <ele>1182</ele>
      </trkpt>
      <trkpt lat="45.7152772" lon="7.8900230">
        <ele>1184</ele>
      </trkpt>
      <trkpt lat="45.7154072" lon="7.8900530">
        <ele>1185</ele>
      </trkpt>
      <trkpt lat="45.7153772" lon="7.8901030">
        <ele>1186</ele>
      </trkpt>
      <trkpt lat="45.7154172" lon="7.8901730">
        <ele>1187</ele>
      </trkpt>
      <trkpt lat="45.7153572" lon="7.8901730">
        <ele>1188</ele>
      </trkpt>
      <trkpt lat="45.7153272" lon="7.8902930">
        <ele>1190</ele>
      </trkpt>
      <trkpt lat="45.7153772" lon="7.8903230">
        <ele>1191</ele>
      </trkpt>
      <trkpt lat="45.7153672" lon="7.8903430">
        <ele>1192</ele>
      </trkpt>
      <trkpt lat="45.7154572" lon="7.8903830">
        <ele>1193</ele>
      </trkpt>
      <trkpt lat="45.7154572" lon="7.8904530">
        <ele>1194</ele>
      </trkpt>
      <trkpt lat="45.7155172" lon="7.8904830">
        <ele>1196</ele>
      </trkpt>
      <trkpt lat="45.7155672" lon="7.8905730">
        <ele>1197</ele>
      </trkpt>
      <trkpt lat="45.7155172" lon="7.8906230">
        <ele>1198</ele>
      </trkpt>
      <trkpt lat="45.7155772" lon="7.8906430">
        <ele>1199</ele>
      </trkpt>
      <trkpt lat="45.7155972" lon="7.8906730">
        <ele>1200</ele>
      </trkpt>
      <trkpt lat="45.7155672" lon="7.8907530">
        <ele>1201</ele>
      </trkpt>
      <trkpt lat="45.7155972" lon="7.8907630">
        <ele>1203</ele>
      </trkpt>
      <trkpt lat="45.7156272" lon="7.8907030">
        <ele>1204</ele>
      </trkpt>
      <trkpt lat="45.7156772" lon="7.8906830">
        <ele>1205</ele>
      </trkpt>
      <trkpt lat="45.7157172" lon="7.8906230">
        <ele>1206</ele>
      </trkpt>
      <trkpt lat="45.7157372" lon="7.8907230">
        <ele>1207</ele>
      </trkpt>
      <trkpt lat="45.7157272" lon="7.8908030">
        <ele>1209</ele>
      </trkpt>
      <trkpt lat="45.7159772" lon="7.8908730">
        <ele>1210</ele>
      </trkpt>
      <trkpt lat="45.7160272" lon="7.8908430">
        <ele>1211</ele>
      </trkpt>
    </trkseg>
  </trk>
</gpx>
