<?xml version="1.0" encoding="UTF-8"?>
<gpx version="1.1" creator="sentieri-vda" xmlns="http://www.topografix.com/GPX/1/1">
  <metadata>
    <name>Buthier- Alpe e Rifugio Chaligne</name>
    <desc>Catasto Sentieri VdA — 30_S6</desc>
    <author><name>Regione Autonoma Valle d'Aosta</name></author>
  </metadata>
  <trk>
    <name>Buthier- Alpe e Rifugio Chaligne</name>
    <src>Catasto Sentieri VdA (30_S6)</src>
    <trkseg>
      <trkpt lat="45.7790511" lon="7.2518227">
        <ele>1412</ele>
      </trkpt>
      <trkpt lat="45.7792774" lon="7.2519057">
        <ele>1419</ele>
      </trkpt>
      <trkpt lat="45.7796200" lon="7.2519464">
        <ele>1426</ele>
      </trkpt>
      <trkpt lat="45.7798639" lon="7.2520031">
        <ele>1433</ele>
      </trkpt>
      <trkpt lat="45.7800270" lon="7.2520752">
        <ele>1439</ele>
      </trkpt>
      <trkpt lat="45.7801911" lon="7.2522116">
        <ele>1446</ele>
      </trkpt>
      <trkpt lat="45.7803544" lon="7.2522965">
        <ele>1453</ele>
      </trkpt>
      <trkpt lat="45.7805093" lon="7.2524203">
        <ele>1460</ele>
      </trkpt>
      <trkpt lat="45.7806466" lon="7.2525704">
        <ele>1467</ele>
      </trkpt>
      <trkpt lat="45.7808393" lon="7.2528087">
        <ele>1474</ele>
      </trkpt>
      <trkpt lat="45.7811706" lon="7.2532872">
        <ele>1480</ele>
      </trkpt>
      <trkpt lat="45.7813439" lon="7.2534362">
        <ele>1487</ele>
      </trkpt>
      <trkpt lat="45.7818080" lon="7.2537690">
        <ele>1494</ele>
      </trkpt>
      <trkpt lat="45.7819725" lon="7.2539311">
        <ele>1501</ele>
      </trkpt>
      <trkpt lat="45.7821654" lon="7.2541823">
        <ele>1508</ele>
      </trkpt>
      <trkpt lat="45.7823478" lon="7.2543439">
        <ele>1515</ele>
      </trkpt>
      <trkpt lat="45.7826745" lon="7.2548691">
        <ele>1522</ele>
      </trkpt>
      <trkpt lat="45.7831159" lon="7.2551218">
        <ele>1528</ele>
      </trkpt>
      <trkpt lat="45.7842835" lon="7.2555570">
        <ele>1535</ele>
      </trkpt>
      <trkpt lat="45.7852588" lon="7.2559930">
        <ele>1542</ele>
      </trkpt>
      <trkpt lat="45.7854862" lon="7.2560775">
        <ele>1549</ele>
      </trkpt>
      <trkpt lat="45.7863512" lon="7.2563990">
        <ele>1556</ele>
      </trkpt>
      <trkpt lat="45.7875482" lon="7.2564100">
        <ele>1563</ele>
      </trkpt>
      <trkpt lat="45.7881203" lon="7.2566672">
        <ele>1569</ele>
      </trkpt>
      <trkpt lat="45.7882812" lon="7.2567390">
        <ele>1576</ele>
      </trkpt>
      <trkpt lat="45.7878340" lon="7.2581994">
        <ele>1583</ele>
      </trkpt>
      <trkpt lat="45.7878991" lon="7.2583389">
        <ele>1590</ele>
      </trkpt>
      <trkpt lat="45.7879942" lon="7.2586704">
        <ele>1597</ele>
      </trkpt>
      <trkpt lat="45.7880044" lon="7.2587473">
        <ele>1604</ele>
      </trkpt>
      <trkpt lat="45.7880791" lon="7.2589251">
        <ele>1610</ele>
      </trkpt>
      <trkpt lat="45.7881702" lon="7.2589994">
        <ele>1617</ele>
      </trkpt>
      <trkpt lat="45.7883965" lon="7.2590824">
        <ele>1624</ele>
      </trkpt>
      <trkpt lat="45.7885420" lon="7.2591808">
        <ele>1631</ele>
      </trkpt>
      <trkpt lat="45.7886063" lon="7.2592689">
        <ele>1638</ele>
      </trkpt>
      <trkpt lat="45.7886345" lon="7.2593452">
        <ele>1645</ele>
      </trkpt>
      <trkpt lat="45.7886558" lon="7.2595632">
        <ele>1652</ele>
      </trkpt>
      <trkpt lat="45.7887288" lon="7.2596253">
        <ele>1658</ele>
      </trkpt>
      <trkpt lat="45.7887675" lon="7.2598042">
        <ele>1665</ele>
      </trkpt>
      <trkpt lat="45.7887282" lon="7.2601785">
        <ele>1672</ele>
      </trkpt>
      <trkpt lat="45.7887229" lon="7.2604231">
        <ele>1679</ele>
      </trkpt>
      <trkpt lat="45.7887266" lon="7.2606674">
        <ele>1686</ele>
      </trkpt>
      <trkpt lat="45.7887556" lon="7.2607952">
        <ele>1693</ele>
      </trkpt>
      <trkpt lat="45.7887687" lon="7.2610650">
        <ele>1699</ele>
      </trkpt>
      <trkpt lat="45.7887190" lon="7.2613495">
        <ele>1706</ele>
      </trkpt>
      <trkpt lat="45.7887202" lon="7.2614267">
        <ele>1713</ele>
      </trkpt>
      <trkpt lat="45.7887849" lon="7.2615405">
        <ele>1720</ele>
      </trkpt>
      <trkpt lat="45.7889213" lon="7.2616263">
        <ele>1727</ele>
      </trkpt>
      <trkpt lat="45.7891311" lon="7.2618127">
        <ele>1734</ele>
      </trkpt>
      <trkpt lat="45.7891683" lon="7.2618888">
        <ele>1741</ele>
      </trkpt>
      <trkpt lat="45.7891690" lon="7.2619402">
        <ele>1747</ele>
      </trkpt>
      <trkpt lat="45.7891434" lon="7.2620311">
        <ele>1754</ele>
      </trkpt>
      <trkpt lat="45.7890988" lon="7.2620582">
        <ele>1761</ele>
      </trkpt>
      <trkpt lat="45.7894212" lon="7.2626890">
        <ele>1768</ele>
      </trkpt>
      <trkpt lat="45.7895012" lon="7.2631790">
        <ele>1775</ele>
      </trkpt>
      <trkpt lat="45.7897612" lon="7.2633890">
        <ele>1782</ele>
      </trkpt>
      <trkpt lat="45.7903612" lon="7.2634590">
        <ele>1788</ele>
      </trkpt>
      <trkpt lat="45.7910742" lon="7.2643207">
        <ele>1795</ele>
      </trkpt>
      <trkpt lat="45.7907654" lon="7.2643684">
        <ele>1802</ele>
      </trkpt>
      <trkpt lat="45.7907526" lon="7.2644063">
        <ele>1809</ele>
      </trkpt>
      <trkpt lat="45.7907734" lon="7.2644553">
        <ele>1816</ele>
      </trkpt>
      <trkpt lat="45.7908179" lon="7.2644723">
        <ele>1823</ele>
      </trkpt>
      <trkpt lat="45.7914520" lon="7.2645663">
        <ele>1829</ele>
      </trkpt>
      <trkpt lat="45.7916058" lon="7.2646130">
        <ele>1836</ele>
      </trkpt>
      <trkpt lat="45.7917423" lon="7.2647117">
        <ele>1843</ele>
      </trkpt>
      <trkpt lat="45.7920442" lon="7.2650368">
        <ele>1850</ele>
      </trkpt>
      <trkpt lat="45.7923622" lon="7.2652328">
        <ele>1857</ele>
      </trkpt>
      <trkpt lat="45.7925872" lon="7.2663230">
        <ele>1864</ele>
      </trkpt>
      <trkpt lat="45.7920692" lon="7.2663250">
        <ele>1871</ele>
      </trkpt>
      <trkpt lat="45.7919902" lon="7.2665520">
        <ele>1877</ele>
      </trkpt>
      <trkpt lat="45.7917942" lon="7.2677450">
        <ele>1884</ele>
      </trkpt>
      <trkpt lat="45.7912362" lon="7.2674630">
        <ele>1891</ele>
      </trkpt>
      <trkpt lat="45.7908782" lon="7.2676340">
        <ele>1898</ele>
      </trkpt>
      <trkpt lat="45.7907192" lon="7.2678610">
        <ele>1905</ele>
      </trkpt>
      <trkpt lat="45.7905622" lon="7.2686560">
        <ele>1912</ele>
      </trkpt>
      <trkpt lat="45.7900862" lon="7.2694520">
        <ele>1918</ele>
      </trkpt>
      <trkpt lat="45.7900482" lon="7.2699630">
        <ele>1925</ele>
      </trkpt>
      <trkpt lat="45.7898492" lon="7.2700770">
        <ele>1932</ele>
      </trkpt>
      <trkpt lat="45.7897285" lon="7.2707864">
        <ele>1939</ele>
      </trkpt>
    </trkseg>
  </trk>
</gpx>
