<?xml version="1.0" encoding="UTF-8"?>
<gpx version="1.1" creator="sentieri-vda" xmlns="http://www.topografix.com/GPX/1/1">
  <metadata>
    <name>Mendey - La Lanche</name>
    <desc>Catasto Sentieri VdA — 30_S8</desc>
    <author><name>Regione Autonoma Valle d'Aosta</name></author>
  </metadata>
  <trk>
    <name>Mendey - La Lanche</name>
    <src>Catasto Sentieri VdA (30_S8)</src>
    <trkseg>
      <trkpt lat="45.7923622" lon="7.2652328">
        <ele>1600</ele>
      </trkpt>
      <trkpt lat="45.7928665" lon="7.2653764">
        <ele>1601</ele>
      </trkpt>
      <trkpt lat="45.7934254" lon="7.2654362">
        <ele>1603</ele>
      </trkpt>
      <trkpt lat="45.7934884" lon="7.2654343">
        <ele>1604</ele>
      </trkpt>
      <trkpt lat="45.7935686" lon="7.2653803">
        <ele>1605</ele>
      </trkpt>
      <trkpt lat="45.7936407" lon="7.2653909">
        <ele>1606</ele>
      </trkpt>
      <trkpt lat="45.7936689" lon="7.2654673">
        <ele>1608</ele>
      </trkpt>
      <trkpt lat="45.7936605" lon="7.2655061">
        <ele>1609</ele>
      </trkpt>
      <trkpt lat="45.7935473" lon="7.2657541">
        <ele>1610</ele>
      </trkpt>
      <trkpt lat="45.7934442" lon="7.2660790">
        <ele>1611</ele>
      </trkpt>
      <trkpt lat="45.7932936" lon="7.2662380">
        <ele>1613</ele>
      </trkpt>
      <trkpt lat="45.7932308" lon="7.2662528">
        <ele>1614</ele>
      </trkpt>
      <trkpt lat="45.7931686" lon="7.2663062">
        <ele>1615</ele>
      </trkpt>
      <trkpt lat="45.7931690" lon="7.2663320">
        <ele>1616</ele>
      </trkpt>
      <trkpt lat="45.7933045" lon="7.2663663">
        <ele>1618</ele>
      </trkpt>
      <trkpt lat="45.7935656" lon="7.2663711">
        <ele>1619</ele>
      </trkpt>
      <trkpt lat="45.7940047" lon="7.2662417">
        <ele>1620</ele>
      </trkpt>
      <trkpt lat="45.7940856" lon="7.2662392">
        <ele>1621</ele>
      </trkpt>
      <trkpt lat="45.7941848" lon="7.2662490">
        <ele>1623</ele>
      </trkpt>
      <trkpt lat="45.7944932" lon="7.2664067">
        <ele>1624</ele>
      </trkpt>
      <trkpt lat="45.7946100" lon="7.2663902">
        <ele>1625</ele>
      </trkpt>
      <trkpt lat="45.7948691" lon="7.2662664">
        <ele>1626</ele>
      </trkpt>
      <trkpt lat="45.7950911" lon="7.2660665">
        <ele>1628</ele>
      </trkpt>
      <trkpt lat="45.7952407" lon="7.2658431">
        <ele>1629</ele>
      </trkpt>
      <trkpt lat="45.7952665" lon="7.2657651">
        <ele>1630</ele>
      </trkpt>
      <trkpt lat="45.7953425" lon="7.2656690">
        <ele>1631</ele>
      </trkpt>
      <trkpt lat="45.7951259" lon="7.2653963">
        <ele>1633</ele>
      </trkpt>
      <trkpt lat="45.7947062" lon="7.2644315">
        <ele>1634</ele>
      </trkpt>
      <trkpt lat="45.7944156" lon="7.2636685">
        <ele>1635</ele>
      </trkpt>
      <trkpt lat="45.7942734" lon="7.2631968">
        <ele>1636</ele>
      </trkpt>
      <trkpt lat="45.7942249" lon="7.2629667">
        <ele>1638</ele>
      </trkpt>
      <trkpt lat="45.7942224" lon="7.2627996">
        <ele>1639</ele>
      </trkpt>
      <trkpt lat="45.7942390" lon="7.2627090">
        <ele>1640</ele>
      </trkpt>
      <trkpt lat="45.7943284" lon="7.2626676">
        <ele>1641</ele>
      </trkpt>
      <trkpt lat="45.7952552" lon="7.2626517">
        <ele>1643</ele>
      </trkpt>
      <trkpt lat="45.7953176" lon="7.2626111">
        <ele>1644</ele>
      </trkpt>
      <trkpt lat="45.7953662" lon="7.2625517">
        <ele>1645</ele>
      </trkpt>
      <trkpt lat="45.7953612" lon="7.2625197">
        <ele>1646</ele>
      </trkpt>
      <trkpt lat="45.7952087" lon="7.2625502">
        <ele>1648</ele>
      </trkpt>
      <trkpt lat="45.7950747" lon="7.2626187">
        <ele>1649</ele>
      </trkpt>
      <trkpt lat="45.7950387" lon="7.2626198">
        <ele>1650</ele>
      </trkpt>
      <trkpt lat="45.7947485" lon="7.2624744">
        <ele>1651</ele>
      </trkpt>
      <trkpt lat="45.7945498" lon="7.2624291">
        <ele>1653</ele>
      </trkpt>
      <trkpt lat="45.7941180" lon="7.2624425">
        <ele>1654</ele>
      </trkpt>
      <trkpt lat="45.7940628" lon="7.2623671">
        <ele>1655</ele>
      </trkpt>
      <trkpt lat="45.7940618" lon="7.2623027">
        <ele>1656</ele>
      </trkpt>
      <trkpt lat="45.7942130" lon="7.2621822">
        <ele>1658</ele>
      </trkpt>
      <trkpt lat="45.7945265" lon="7.2620824">
        <ele>1659</ele>
      </trkpt>
      <trkpt lat="45.7947330" lon="7.2620503">
        <ele>1660</ele>
      </trkpt>
      <trkpt lat="45.7950129" lon="7.2621059">
        <ele>1661</ele>
      </trkpt>
      <trkpt lat="45.7951748" lon="7.2621009">
        <ele>1663</ele>
      </trkpt>
      <trkpt lat="45.7953630" lon="7.2620436">
        <ele>1664</ele>
      </trkpt>
      <trkpt lat="45.7954338" lon="7.2619642">
        <ele>1665</ele>
      </trkpt>
      <trkpt lat="45.7954304" lon="7.2617455">
        <ele>1666</ele>
      </trkpt>
      <trkpt lat="45.7954916" lon="7.2616278">
        <ele>1668</ele>
      </trkpt>
      <trkpt lat="45.7956076" lon="7.2615599">
        <ele>1669</ele>
      </trkpt>
      <trkpt lat="45.7962604" lon="7.2612822">
        <ele>1670</ele>
      </trkpt>
      <trkpt lat="45.7963048" lon="7.2612422">
        <ele>1671</ele>
      </trkpt>
      <trkpt lat="45.7962989" lon="7.2608564">
        <ele>1673</ele>
      </trkpt>
      <trkpt lat="45.7963406" lon="7.2606364">
        <ele>1674</ele>
      </trkpt>
      <trkpt lat="45.7964708" lon="7.2603235">
        <ele>1675</ele>
      </trkpt>
      <trkpt lat="45.7966302" lon="7.2601513">
        <ele>1676</ele>
      </trkpt>
      <trkpt lat="45.7968633" lon="7.2600925">
        <ele>1678</ele>
      </trkpt>
      <trkpt lat="45.7971064" lon="7.2600978">
        <ele>1679</ele>
      </trkpt>
      <trkpt lat="45.7973304" lon="7.2600265">
        <ele>1680</ele>
      </trkpt>
      <trkpt lat="45.7978246" lon="7.2599726">
        <ele>1681</ele>
      </trkpt>
      <trkpt lat="45.7987191" lon="7.2596101">
        <ele>1683</ele>
      </trkpt>
      <trkpt lat="45.7988439" lon="7.2595290">
        <ele>1684</ele>
      </trkpt>
      <trkpt lat="45.7989414" lon="7.2594359">
        <ele>1685</ele>
      </trkpt>
      <trkpt lat="45.7991706" lon="7.2591200">
        <ele>1686</ele>
      </trkpt>
      <trkpt lat="45.7994092" lon="7.2588294">
        <ele>1688</ele>
      </trkpt>
      <trkpt lat="45.7995142" lon="7.2586332">
        <ele>1689</ele>
      </trkpt>
      <trkpt lat="45.7996161" lon="7.2582311">
        <ele>1690</ele>
      </trkpt>
      <trkpt lat="45.7996564" lon="7.2579210">
        <ele>1691</ele>
      </trkpt>
      <trkpt lat="45.7997851" lon="7.2575052">
        <ele>1693</ele>
      </trkpt>
      <trkpt lat="45.7998263" lon="7.2572594">
        <ele>1694</ele>
      </trkpt>
      <trkpt lat="45.7998564" lon="7.2568725">
        <ele>1695</ele>
      </trkpt>
      <trkpt lat="45.7998071" lon="7.2565909">
        <ele>1696</ele>
      </trkpt>
      <trkpt lat="45.7996839" lon="7.2561830">
        <ele>1698</ele>
      </trkpt>
      <trkpt lat="45.7996451" lon="7.2560040">
        <ele>1699</ele>
      </trkpt>
      <trkpt lat="45.7995949" lon="7.2556582">
        <ele>1700</ele>
      </trkpt>
      <trkpt lat="45.7994613" lon="7.2551605">
        <ele>1701</ele>
      </trkpt>
      <trkpt lat="45.7990753" lon="7.2534611">
        <ele>1703</ele>
      </trkpt>
      <trkpt lat="45.7989166" lon="7.2530929">
        <ele>1704</ele>
      </trkpt>
      <trkpt lat="45.7987967" lon="7.2529037">
        <ele>1705</ele>
      </trkpt>
      <trkpt lat="45.7987130" lon="7.2527261">
        <ele>1706</ele>
      </trkpt>
      <trkpt lat="45.7986519" lon="7.2522648">
        <ele>1708</ele>
      </trkpt>
      <trkpt lat="45.7985852" lon="7.2520224">
        <ele>1709</ele>
      </trkpt>
      <trkpt lat="45.7985293" lon="7.2518955">
        <ele>1710</ele>
      </trkpt>
      <trkpt lat="45.7984907" lon="7.2517294">
        <ele>1711</ele>
      </trkpt>
      <trkpt lat="45.7984598" lon="7.2514730">
        <ele>1713</ele>
      </trkpt>
      <trkpt lat="45.7984343" lon="7.2509848">
        <ele>1714</ele>
      </trkpt>
      <trkpt lat="45.7984687" lon="7.2502889">
        <ele>1715</ele>
      </trkpt>
      <trkpt lat="45.7985259" lon="7.2499140">
        <ele>1717</ele>
      </trkpt>
      <trkpt lat="45.7985222" lon="7.2496696">
        <ele>1718</ele>
      </trkpt>
      <trkpt lat="45.7985437" lon="7.2493086">
        <ele>1719</ele>
      </trkpt>
      <trkpt lat="45.7985205" lon="7.2489748">
        <ele>1720</ele>
      </trkpt>
      <trkpt lat="45.7985262" lon="7.2487559">
        <ele>1722</ele>
      </trkpt>
      <trkpt lat="45.7986010" lon="7.2483546">
        <ele>1723</ele>
      </trkpt>
      <trkpt lat="45.7987582" lon="7.2480409">
        <ele>1724</ele>
      </trkpt>
      <trkpt lat="45.7989518" lon="7.2477517">
        <ele>1725</ele>
      </trkpt>
      <trkpt lat="45.7989778" lon="7.2476866">
        <ele>1727</ele>
      </trkpt>
      <trkpt lat="45.7990022" lon="7.2475185">
        <ele>1728</ele>
      </trkpt>
      <trkpt lat="45.7989607" lon="7.2471595">
        <ele>1729</ele>
      </trkpt>
      <trkpt lat="45.7989764" lon="7.2470046">
        <ele>1730</ele>
      </trkpt>
      <trkpt lat="45.7989730" lon="7.2467860">
        <ele>1732</ele>
      </trkpt>
      <trkpt lat="45.7988409" lon="7.2463912">
        <ele>1733</ele>
      </trkpt>
      <trkpt lat="45.7988016" lon="7.2461737">
        <ele>1734</ele>
      </trkpt>
      <trkpt lat="45.7988074" lon="7.2459676">
        <ele>1735</ele>
      </trkpt>
      <trkpt lat="45.7988491" lon="7.2457476">
        <ele>1737</ele>
      </trkpt>
      <trkpt lat="45.7988138" lon="7.2452082">
        <ele>1738</ele>
      </trkpt>
      <trkpt lat="45.7988902" lon="7.2449099">
        <ele>1739</ele>
      </trkpt>
      <trkpt lat="45.7989060" lon="7.2447678">
        <ele>1740</ele>
      </trkpt>
      <trkpt lat="45.7988936" lon="7.2445495">
        <ele>1742</ele>
      </trkpt>
      <trkpt lat="45.7987915" lon="7.2443468">
        <ele>1743</ele>
      </trkpt>
      <trkpt lat="45.7985349" lon="7.2440460">
        <ele>1744</ele>
      </trkpt>
      <trkpt lat="45.7984973" lon="7.2439443">
        <ele>1745</ele>
      </trkpt>
      <trkpt lat="45.7984948" lon="7.2437771">
        <ele>1747</ele>
      </trkpt>
      <trkpt lat="45.7984632" lon="7.2434821">
        <ele>1748</ele>
      </trkpt>
      <trkpt lat="45.7984438" lon="7.2433927">
        <ele>1749</ele>
      </trkpt>
      <trkpt lat="45.7983785" lon="7.2432403">
        <ele>1750</ele>
      </trkpt>
      <trkpt lat="45.7981770" lon="7.2430150">
        <ele>1752</ele>
      </trkpt>
      <trkpt lat="45.7979317" lon="7.2428683">
        <ele>1753</ele>
      </trkpt>
      <trkpt lat="45.7977854" lon="7.2427185">
        <ele>1754</ele>
      </trkpt>
      <trkpt lat="45.7975382" lon="7.2424432">
        <ele>1755</ele>
      </trkpt>
      <trkpt lat="45.7974455" lon="7.2422660">
        <ele>1757</ele>
      </trkpt>
      <trkpt lat="45.7974355" lon="7.2422020">
        <ele>1758</ele>
      </trkpt>
      <trkpt lat="45.7974693" lon="7.2420593">
        <ele>1759</ele>
      </trkpt>
      <trkpt lat="45.7974241" lon="7.2420479">
        <ele>1760</ele>
      </trkpt>
      <trkpt lat="45.7971954" lon="7.2418106">
        <ele>1762</ele>
      </trkpt>
      <trkpt lat="45.7968684" lon="7.2416150">
        <ele>1763</ele>
      </trkpt>
      <trkpt lat="45.7964858" lon="7.2413183">
        <ele>1764</ele>
      </trkpt>
      <trkpt lat="45.7961220" lon="7.2410724">
        <ele>1765</ele>
      </trkpt>
      <trkpt lat="45.7955205" lon="7.2405895">
        <ele>1767</ele>
      </trkpt>
      <trkpt lat="45.7952665" lon="7.2404559">
        <ele>1768</ele>
      </trkpt>
      <trkpt lat="45.7951387" lon="7.2403442">
        <ele>1769</ele>
      </trkpt>
      <trkpt lat="45.7948993" lon="7.2399914">
        <ele>1770</ele>
      </trkpt>
      <trkpt lat="45.7947168" lon="7.2398299">
        <ele>1772</ele>
      </trkpt>
      <trkpt lat="45.7946890" lon="7.2397793">
        <ele>1773</ele>
      </trkpt>
      <trkpt lat="45.7946962" lon="7.2396633">
        <ele>1774</ele>
      </trkpt>
      <trkpt lat="45.7947656" lon="7.2394938">
        <ele>1775</ele>
      </trkpt>
      <trkpt lat="45.7948612" lon="7.2392721">
        <ele>1777</ele>
      </trkpt>
      <trkpt lat="45.7949228" lon="7.2391801">
        <ele>1778</ele>
      </trkpt>
      <trkpt lat="45.7950477" lon="7.2391118">
        <ele>1779</ele>
      </trkpt>
      <trkpt lat="45.7952189" lon="7.2391193">
        <ele>1780</ele>
      </trkpt>
      <trkpt lat="45.7954536" lon="7.2391634">
        <ele>1782</ele>
      </trkpt>
      <trkpt lat="45.7956693" lon="7.2391437">
        <ele>1783</ele>
      </trkpt>
      <trkpt lat="45.7959822" lon="7.2390052">
        <ele>1784</ele>
      </trkpt>
      <trkpt lat="45.7965469" lon="7.2388587">
        <ele>1785</ele>
      </trkpt>
      <trkpt lat="45.7967259" lon="7.2387887">
        <ele>1787</ele>
      </trkpt>
      <trkpt lat="45.7968948" lon="7.2386547">
        <ele>1788</ele>
      </trkpt>
      <trkpt lat="45.7969472" lon="7.2385501">
        <ele>1789</ele>
      </trkpt>
      <trkpt lat="45.7969376" lon="7.2385118">
        <ele>1790</ele>
      </trkpt>
      <trkpt lat="45.7969104" lon="7.2384998">
        <ele>1792</ele>
      </trkpt>
      <trkpt lat="45.7967155" lon="7.2386990">
        <ele>1793</ele>
      </trkpt>
      <trkpt lat="45.7966441" lon="7.2387398">
        <ele>1794</ele>
      </trkpt>
      <trkpt lat="45.7965185" lon="7.2387695">
        <ele>1795</ele>
      </trkpt>
      <trkpt lat="45.7962929" lon="7.2387252">
        <ele>1797</ele>
      </trkpt>
      <trkpt lat="45.7961649" lon="7.2386005">
        <ele>1798</ele>
      </trkpt>
      <trkpt lat="45.7960822" lon="7.2384873">
        <ele>1799</ele>
      </trkpt>
      <trkpt lat="45.7960540" lon="7.2384110">
        <ele>1800</ele>
      </trkpt>
      <trkpt lat="45.7960226" lon="7.2381289">
        <ele>1802</ele>
      </trkpt>
      <trkpt lat="45.7960295" lon="7.2379872">
        <ele>1803</ele>
      </trkpt>
      <trkpt lat="45.7960545" lon="7.2378577">
        <ele>1804</ele>
      </trkpt>
      <trkpt lat="45.7960891" lon="7.2377666">
        <ele>1805</ele>
      </trkpt>
      <trkpt lat="45.7961948" lon="7.2376217">
        <ele>1807</ele>
      </trkpt>
      <trkpt lat="45.7962928" lon="7.2375543">
        <ele>1808</ele>
      </trkpt>
      <trkpt lat="45.7963910" lon="7.2374997">
        <ele>1809</ele>
      </trkpt>
      <trkpt lat="45.7965345" lon="7.2374694">
        <ele>1810</ele>
      </trkpt>
      <trkpt lat="45.7967934" lon="7.2373326">
        <ele>1812</ele>
      </trkpt>
      <trkpt lat="45.7970811" lon="7.2373107">
        <ele>1813</ele>
      </trkpt>
      <trkpt lat="45.7974475" lon="7.2371447">
        <ele>1814</ele>
      </trkpt>
      <trkpt lat="45.7977702" lon="7.2370573">
        <ele>1815</ele>
      </trkpt>
      <trkpt lat="45.7978506" lon="7.2370162">
        <ele>1817</ele>
      </trkpt>
      <trkpt lat="45.7978768" lon="7.2369639">
        <ele>1818</ele>
      </trkpt>
      <trkpt lat="45.7977238" lon="7.2369687">
        <ele>1819</ele>
      </trkpt>
      <trkpt lat="45.7973114" lon="7.2370718">
        <ele>1820</ele>
      </trkpt>
      <trkpt lat="45.7970419" lon="7.2371060">
        <ele>1822</ele>
      </trkpt>
      <trkpt lat="45.7969606" lon="7.2370828">
        <ele>1823</ele>
      </trkpt>
      <trkpt lat="45.7969326" lon="7.2370194">
        <ele>1824</ele>
      </trkpt>
      <trkpt lat="45.7969314" lon="7.2369422">
        <ele>1826</ele>
      </trkpt>
      <trkpt lat="45.7969578" lon="7.2369028">
        <ele>1827</ele>
      </trkpt>
      <trkpt lat="45.7972539" lon="7.2368420">
        <ele>1828</ele>
      </trkpt>
      <trkpt lat="45.7974418" lon="7.2367717">
        <ele>1829</ele>
      </trkpt>
      <trkpt lat="45.7976561" lon="7.2366620">
        <ele>1831</ele>
      </trkpt>
      <trkpt lat="45.7979938" lon="7.2363811">
        <ele>1832</ele>
      </trkpt>
      <trkpt lat="45.7980837" lon="7.2363783">
        <ele>1833</ele>
      </trkpt>
      <trkpt lat="45.7982283" lon="7.2364123">
        <ele>1834</ele>
      </trkpt>
      <trkpt lat="45.7983462" lon="7.2364730">
        <ele>1836</ele>
      </trkpt>
      <trkpt lat="45.7985175" lon="7.2364933">
        <ele>1837</ele>
      </trkpt>
      <trkpt lat="45.7986075" lon="7.2364905">
        <ele>1838</ele>
      </trkpt>
      <trkpt lat="45.7987327" lon="7.2364350">
        <ele>1839</ele>
      </trkpt>
      <trkpt lat="45.7989556" lon="7.2362993">
        <ele>1841</ele>
      </trkpt>
      <trkpt lat="45.7991511" lon="7.2361387">
        <ele>1842</ele>
      </trkpt>
      <trkpt lat="45.7993206" lon="7.2360433">
        <ele>1843</ele>
      </trkpt>
      <trkpt lat="45.7995510" lon="7.2358044">
        <ele>1844</ele>
      </trkpt>
      <trkpt lat="45.7997579" lon="7.2357979">
        <ele>1846</ele>
      </trkpt>
      <trkpt lat="45.7997825" lon="7.2356427">
        <ele>1847</ele>
      </trkpt>
      <trkpt lat="45.7998173" lon="7.2355644">
        <ele>1848</ele>
      </trkpt>
      <trkpt lat="45.7999860" lon="7.2354175">
        <ele>1849</ele>
      </trkpt>
      <trkpt lat="45.8000934" lon="7.2353755">
        <ele>1851</ele>
      </trkpt>
      <trkpt lat="45.8002091" lon="7.2352947">
        <ele>1852</ele>
      </trkpt>
      <trkpt lat="45.8004574" lon="7.2350552">
        <ele>1853</ele>
      </trkpt>
      <trkpt lat="45.8006366" lon="7.2349981">
        <ele>1854</ele>
      </trkpt>
      <trkpt lat="45.8007359" lon="7.2350207">
        <ele>1856</ele>
      </trkpt>
      <trkpt lat="45.8010018" lon="7.2347549">
        <ele>1857</ele>
      </trkpt>
      <trkpt lat="45.8012593" lon="7.2345280">
        <ele>1858</ele>
      </trkpt>
      <trkpt lat="45.8014111" lon="7.2344460">
        <ele>1859</ele>
      </trkpt>
      <trkpt lat="45.8014381" lon="7.2344451">
        <ele>1861</ele>
      </trkpt>
      <trkpt lat="45.8015382" lon="7.2345192">
        <ele>1862</ele>
      </trkpt>
      <trkpt lat="45.8016739" lon="7.2345664">
        <ele>1863</ele>
      </trkpt>
      <trkpt lat="45.8021026" lon="7.2343469">
        <ele>1864</ele>
      </trkpt>
      <trkpt lat="45.8023093" lon="7.2343275">
        <ele>1866</ele>
      </trkpt>
      <trkpt lat="45.8024256" lon="7.2342853">
        <ele>1867</ele>
      </trkpt>
      <trkpt lat="45.8026220" lon="7.2341761">
        <ele>1868</ele>
      </trkpt>
      <trkpt lat="45.8028463" lon="7.2341304">
        <ele>1869</ele>
      </trkpt>
      <trkpt lat="45.8030608" lon="7.2340335">
        <ele>1871</ele>
      </trkpt>
      <trkpt lat="45.8033013" lon="7.2338715">
        <ele>1872</ele>
      </trkpt>
      <trkpt lat="45.8035496" lon="7.2336320">
        <ele>1873</ele>
      </trkpt>
      <trkpt lat="45.8036024" lon="7.2335532">
        <ele>1874</ele>
      </trkpt>
      <trkpt lat="45.8036534" lon="7.2333585">
        <ele>1876</ele>
      </trkpt>
      <trkpt lat="45.8036476" lon="7.2332750">
        <ele>1877</ele>
      </trkpt>
      <trkpt lat="45.8036248" lon="7.2332565">
        <ele>1878</ele>
      </trkpt>
      <trkpt lat="45.8033555" lon="7.2333036">
        <ele>1879</ele>
      </trkpt>
      <trkpt lat="45.8027370" lon="7.2334647">
        <ele>1881</ele>
      </trkpt>
      <trkpt lat="45.8021706" lon="7.2335083">
        <ele>1882</ele>
      </trkpt>
      <trkpt lat="45.8017732" lon="7.2334180">
        <ele>1883</ele>
      </trkpt>
      <trkpt lat="45.8017012" lon="7.2334202">
        <ele>1884</ele>
      </trkpt>
      <trkpt lat="45.8015311" lon="7.2334771">
        <ele>1886</ele>
      </trkpt>
      <trkpt lat="45.8014499" lon="7.2334668">
        <ele>1887</ele>
      </trkpt>
      <trkpt lat="45.8011963" lon="7.2333590">
        <ele>1888</ele>
      </trkpt>
      <trkpt lat="45.8011063" lon="7.2333618">
        <ele>1889</ele>
      </trkpt>
      <trkpt lat="45.8010437" lon="7.2333895">
        <ele>1891</ele>
      </trkpt>
      <trkpt lat="45.8008660" lon="7.2335367">
        <ele>1892</ele>
      </trkpt>
      <trkpt lat="45.8007976" lon="7.2337705">
        <ele>1893</ele>
      </trkpt>
      <trkpt lat="45.8007178" lon="7.2338502">
        <ele>1894</ele>
      </trkpt>
      <trkpt lat="45.8004657" lon="7.2338453">
        <ele>1896</ele>
      </trkpt>
      <trkpt lat="45.8004106" lon="7.2337699">
        <ele>1897</ele>
      </trkpt>
      <trkpt lat="45.8004094" lon="7.2336927">
        <ele>1898</ele>
      </trkpt>
      <trkpt lat="45.8004358" lon="7.2336533">
        <ele>1899</ele>
      </trkpt>
      <trkpt lat="45.8005341" lon="7.2336115">
        <ele>1901</ele>
      </trkpt>
      <trkpt lat="45.8006141" lon="7.2335447">
        <ele>1902</ele>
      </trkpt>
      <trkpt lat="45.8006845" lon="7.2334395">
        <ele>1903</ele>
      </trkpt>
      <trkpt lat="45.8007537" lon="7.2332572">
        <ele>1904</ele>
      </trkpt>
      <trkpt lat="45.8008680" lon="7.2330863">
        <ele>1906</ele>
      </trkpt>
      <trkpt lat="45.8009922" lon="7.2329665">
        <ele>1907</ele>
      </trkpt>
      <trkpt lat="45.8012597" lon="7.2328036">
        <ele>1908</ele>
      </trkpt>
      <trkpt lat="45.8014720" lon="7.2325653">
        <ele>1909</ele>
      </trkpt>
      <trkpt lat="45.8016327" lon="7.2324830">
        <ele>1911</ele>
      </trkpt>
      <trkpt lat="45.8017125" lon="7.2324033">
        <ele>1912</ele>
      </trkpt>
      <trkpt lat="45.8018882" lon="7.2321275">
        <ele>1913</ele>
      </trkpt>
      <trkpt lat="45.8020382" lon="7.2319297">
        <ele>1914</ele>
      </trkpt>
      <trkpt lat="45.8023485" lon="7.2316239">
        <ele>1916</ele>
      </trkpt>
      <trkpt lat="45.8024538" lon="7.2314533">
        <ele>1917</ele>
      </trkpt>
      <trkpt lat="45.8026322" lon="7.2313447">
        <ele>1918</ele>
      </trkpt>
      <trkpt lat="45.8028747" lon="7.2313113">
        <ele>1919</ele>
      </trkpt>
      <trkpt lat="45.8030982" lon="7.2312141">
        <ele>1921</ele>
      </trkpt>
      <trkpt lat="45.8032599" lon="7.2311961">
        <ele>1922</ele>
      </trkpt>
      <trkpt lat="45.8033315" lon="7.2311681">
        <ele>1923</ele>
      </trkpt>
      <trkpt lat="45.8033481" lon="7.2310775">
        <ele>1924</ele>
      </trkpt>
      <trkpt lat="45.8032891" lon="7.2307577">
        <ele>1926</ele>
      </trkpt>
      <trkpt lat="45.8033145" lon="7.2306539">
        <ele>1927</ele>
      </trkpt>
      <trkpt lat="45.8033671" lon="7.2305622">
        <ele>1928</ele>
      </trkpt>
      <trkpt lat="45.8036180" lon="7.2304899">
        <ele>1929</ele>
      </trkpt>
      <trkpt lat="45.8036526" lon="7.2303987">
        <ele>1931</ele>
      </trkpt>
      <trkpt lat="45.8036280" lon="7.2299748">
        <ele>1932</ele>
      </trkpt>
      <trkpt lat="45.8035321" lon="7.2295918">
        <ele>1933</ele>
      </trkpt>
      <trkpt lat="45.8034377" lon="7.2293117">
        <ele>1934</ele>
      </trkpt>
      <trkpt lat="45.8033727" lon="7.2291850">
        <ele>1936</ele>
      </trkpt>
      <trkpt lat="45.8032442" lon="7.2290218">
        <ele>1937</ele>
      </trkpt>
      <trkpt lat="45.8031884" lon="7.2289078">
        <ele>1938</ele>
      </trkpt>
      <trkpt lat="45.8031766" lon="7.2287280">
        <ele>1940</ele>
      </trkpt>
      <trkpt lat="45.8031389" lon="7.2286134">
        <ele>1941</ele>
      </trkpt>
      <trkpt lat="45.8027439" lon="7.2280983">
        <ele>1942</ele>
      </trkpt>
      <trkpt lat="45.8024198" lon="7.2275166">
        <ele>1943</ele>
      </trkpt>
      <trkpt lat="45.8024094" lon="7.2274268">
        <ele>1945</ele>
      </trkpt>
      <trkpt lat="45.8024606" lon="7.2272451">
        <ele>1946</ele>
      </trkpt>
      <trkpt lat="45.8024764" lon="7.2271030">
        <ele>1947</ele>
      </trkpt>
      <trkpt lat="45.8023904" lon="7.2267840">
        <ele>1948</ele>
      </trkpt>
      <trkpt lat="45.8023872" lon="7.2265782">
        <ele>1950</ele>
      </trkpt>
      <trkpt lat="45.8025170" lon="7.2262395">
        <ele>1951</ele>
      </trkpt>
      <trkpt lat="45.8025520" lon="7.2261741">
        <ele>1952</ele>
      </trkpt>
      <trkpt lat="45.8026757" lon="7.2260286">
        <ele>1953</ele>
      </trkpt>
      <trkpt lat="45.8027711" lon="7.2257939">
        <ele>1955</ele>
      </trkpt>
      <trkpt lat="45.8028503" lon="7.2256756">
        <ele>1956</ele>
      </trkpt>
      <trkpt lat="45.8029110" lon="7.2255321">
        <ele>1957</ele>
      </trkpt>
      <trkpt lat="45.8030250" lon="7.2253355">
        <ele>1958</ele>
      </trkpt>
      <trkpt lat="45.8032685" lon="7.2247872">
        <ele>1960</ele>
      </trkpt>
      <trkpt lat="45.8034582" lon="7.2242536">
        <ele>1961</ele>
      </trkpt>
      <trkpt lat="45.8035028" lon="7.2242264">
        <ele>1962</ele>
      </trkpt>
      <trkpt lat="45.8035747" lon="7.2242241">
        <ele>1963</ele>
      </trkpt>
      <trkpt lat="45.8037735" lon="7.2242693">
        <ele>1965</ele>
      </trkpt>
      <trkpt lat="45.8038272" lon="7.2242547">
        <ele>1966</ele>
      </trkpt>
      <trkpt lat="45.8039896" lon="7.2242753">
        <ele>1967</ele>
      </trkpt>
      <trkpt lat="45.8040881" lon="7.2242464">
        <ele>1968</ele>
      </trkpt>
      <trkpt lat="45.8041589" lon="7.2241670">
        <ele>1970</ele>
      </trkpt>
      <trkpt lat="45.8043074" lon="7.2238791">
        <ele>1971</ele>
      </trkpt>
      <trkpt lat="45.8044046" lon="7.2237602">
        <ele>1972</ele>
      </trkpt>
      <trkpt lat="45.8045477" lon="7.2237042">
        <ele>1973</ele>
      </trkpt>
      <trkpt lat="45.8046277" lon="7.2236373">
        <ele>1975</ele>
      </trkpt>
      <trkpt lat="45.8049195" lon="7.2233063">
        <ele>1976</ele>
      </trkpt>
      <trkpt lat="45.8049999" lon="7.2232651">
        <ele>1977</ele>
      </trkpt>
      <trkpt lat="45.8052424" lon="7.2232317">
        <ele>1978</ele>
      </trkpt>
      <trkpt lat="45.8053400" lon="7.2231385">
        <ele>1980</ele>
      </trkpt>
      <trkpt lat="45.8055696" lon="7.2228609">
        <ele>1981</ele>
      </trkpt>
      <trkpt lat="45.8056620" lon="7.2227229">
        <ele>1982</ele>
      </trkpt>
      <trkpt lat="45.8056698" lon="7.2226454">
        <ele>1983</ele>
      </trkpt>
      <trkpt lat="45.8057094" lon="7.2225862">
        <ele>1985</ele>
      </trkpt>
      <trkpt lat="45.8058163" lon="7.2225185">
        <ele>1986</ele>
      </trkpt>
      <trkpt lat="45.8058865" lon="7.2224004">
        <ele>1987</ele>
      </trkpt>
      <trkpt lat="45.8060080" lon="7.2221134">
        <ele>1988</ele>
      </trkpt>
      <trkpt lat="45.8060594" lon="7.2219445">
        <ele>1990</ele>
      </trkpt>
      <trkpt lat="45.8061973" lon="7.2209749">
        <ele>1991</ele>
      </trkpt>
      <trkpt lat="45.8062485" lon="7.2207931">
        <ele>1992</ele>
      </trkpt>
      <trkpt lat="45.8063612" lon="7.2205193">
        <ele>1993</ele>
      </trkpt>
      <trkpt lat="45.8064486" lon="7.2203492">
        <ele>1995</ele>
      </trkpt>
      <trkpt lat="45.8073347" lon="7.2188796">
        <ele>1996</ele>
      </trkpt>
      <trkpt lat="45.8074215" lon="7.2186709">
        <ele>1997</ele>
      </trkpt>
      <trkpt lat="45.8075272" lon="7.2185259">
        <ele>1998</ele>
      </trkpt>
      <trkpt lat="45.8075708" lon="7.2184345">
        <ele>2000</ele>
      </trkpt>
      <trkpt lat="45.8076306" lon="7.2182266">
        <ele>2001</ele>
      </trkpt>
      <trkpt lat="45.8078926" lon="7.2177164">
        <ele>2002</ele>
      </trkpt>
      <trkpt lat="45.8079982" lon="7.2175586">
        <ele>2003</ele>
      </trkpt>
      <trkpt lat="45.8081841" lon="7.2173596">
        <ele>2005</ele>
      </trkpt>
      <trkpt lat="45.8082452" lon="7.2172418">
        <ele>2006</ele>
      </trkpt>
      <trkpt lat="45.8082956" lon="7.2170085">
        <ele>2007</ele>
      </trkpt>
      <trkpt lat="45.8083645" lon="7.2168133">
        <ele>2008</ele>
      </trkpt>
      <trkpt lat="45.8084173" lon="7.2167344">
        <ele>2010</ele>
      </trkpt>
      <trkpt lat="45.8086040" lon="7.2165868">
        <ele>2011</ele>
      </trkpt>
      <trkpt lat="45.8086748" lon="7.2165074">
        <ele>2012</ele>
      </trkpt>
      <trkpt lat="45.8087711" lon="7.2163370">
        <ele>2013</ele>
      </trkpt>
      <trkpt lat="45.8090366" lon="7.2160454">
        <ele>2015</ele>
      </trkpt>
      <trkpt lat="45.8091225" lon="7.2157852">
        <ele>2016</ele>
      </trkpt>
      <trkpt lat="45.8091291" lon="7.2156306">
        <ele>2017</ele>
      </trkpt>
      <trkpt lat="45.8091005" lon="7.2155285">
        <ele>2018</ele>
      </trkpt>
      <trkpt lat="45.8091083" lon="7.2154510">
        <ele>2020</ele>
      </trkpt>
      <trkpt lat="45.8091521" lon="7.2153724">
        <ele>2021</ele>
      </trkpt>
      <trkpt lat="45.8093214" lon="7.2152641">
        <ele>2022</ele>
      </trkpt>
      <trkpt lat="45.8093845" lon="7.2146958">
        <ele>2023</ele>
      </trkpt>
      <trkpt lat="45.8094515" lon="7.2143719">
        <ele>2025</ele>
      </trkpt>
      <trkpt lat="45.8095540" lon="7.2140211">
        <ele>2026</ele>
      </trkpt>
      <trkpt lat="45.8096179" lon="7.2135042">
        <ele>2027</ele>
      </trkpt>
      <trkpt lat="45.8096477" lon="7.2131043">
        <ele>2028</ele>
      </trkpt>
      <trkpt lat="45.8098691" lon="7.2122993">
        <ele>2030</ele>
      </trkpt>
      <trkpt lat="45.8099360" lon="7.2119754">
        <ele>2031</ele>
      </trkpt>
      <trkpt lat="45.8099796" lon="7.2118839">
        <ele>2032</ele>
      </trkpt>
      <trkpt lat="45.8100323" lon="7.2118050">
        <ele>2033</ele>
      </trkpt>
      <trkpt lat="45.8100857" lon="7.2117647">
        <ele>2035</ele>
      </trkpt>
      <trkpt lat="45.8101735" lon="7.2116203">
        <ele>2036</ele>
      </trkpt>
      <trkpt lat="45.8102981" lon="7.2109599">
        <ele>2037</ele>
      </trkpt>
      <trkpt lat="45.8103135" lon="7.2107921">
        <ele>2038</ele>
      </trkpt>
      <trkpt lat="45.8104336" lon="7.2104150">
        <ele>2040</ele>
      </trkpt>
      <trkpt lat="45.8104574" lon="7.2102083">
        <ele>2041</ele>
      </trkpt>
      <trkpt lat="45.8105453" lon="7.2098286">
        <ele>2042</ele>
      </trkpt>
      <trkpt lat="45.8105625" lon="7.2096957">
        <ele>2043</ele>
      </trkpt>
      <trkpt lat="45.8105460" lon="7.2095285">
        <ele>2045</ele>
      </trkpt>
      <trkpt lat="45.8105612" lon="7.2093331">
        <ele>2046</ele>
      </trkpt>
      <trkpt lat="45.8106039" lon="7.2090963">
        <ele>2047</ele>
      </trkpt>
      <trkpt lat="45.8105890" lon="7.2089234">
        <ele>2048</ele>
      </trkpt>
      <trkpt lat="45.8105476" lon="7.2087478">
        <ele>2050</ele>
      </trkpt>
      <trkpt lat="45.8104493" lon="7.2085483">
        <ele>2051</ele>
      </trkpt>
    </trkseg>
  </trk>
</gpx>
