<?xml version="1.0" encoding="UTF-8"?>
<gpx version="1.1" creator="sentieri-vda" xmlns="http://www.topografix.com/GPX/1/1">
  <metadata>
    <name>Rifugio Gabiet - Passo Zube</name>
    <desc>Catasto Sentieri VdA — 32_S33</desc>
    <author><name>Regione Autonoma Valle d'Aosta</name></author>
  </metadata>
  <trk>
    <name>Rifugio Gabiet - Passo Zube</name>
    <src>Catasto Sentieri VdA (32_S33)</src>
    <trkseg>
      <trkpt lat="45.8541143" lon="7.8508870">
        <ele>2364</ele>
      </trkpt>
      <trkpt lat="45.8542826" lon="7.8510047">
        <ele>2368</ele>
      </trkpt>
      <trkpt lat="45.8544346" lon="7.8509808">
        <ele>2372</ele>
      </trkpt>
      <trkpt lat="45.8545732" lon="7.8508820">
        <ele>2376</ele>
      </trkpt>
      <trkpt lat="45.8546343" lon="7.8508970">
        <ele>2380</ele>
      </trkpt>
      <trkpt lat="45.8543543" lon="7.8512870">
        <ele>2384</ele>
      </trkpt>
      <trkpt lat="45.8542643" lon="7.8513370">
        <ele>2388</ele>
      </trkpt>
      <trkpt lat="45.8542443" lon="7.8514070">
        <ele>2391</ele>
      </trkpt>
      <trkpt lat="45.8541443" lon="7.8514970">
        <ele>2395</ele>
      </trkpt>
      <trkpt lat="45.8542243" lon="7.8515270">
        <ele>2399</ele>
      </trkpt>
      <trkpt lat="45.8545543" lon="7.8514570">
        <ele>2403</ele>
      </trkpt>
      <trkpt lat="45.8548743" lon="7.8512170">
        <ele>2407</ele>
      </trkpt>
      <trkpt lat="45.8551343" lon="7.8513170">
        <ele>2411</ele>
      </trkpt>
      <trkpt lat="45.8552343" lon="7.8513070">
        <ele>2415</ele>
      </trkpt>
      <trkpt lat="45.8556243" lon="7.8510970">
        <ele>2419</ele>
      </trkpt>
      <trkpt lat="45.8560143" lon="7.8504470">
        <ele>2423</ele>
      </trkpt>
      <trkpt lat="45.8560843" lon="7.8500970">
        <ele>2427</ele>
      </trkpt>
      <trkpt lat="45.8565543" lon="7.8498570">
        <ele>2431</ele>
      </trkpt>
      <trkpt lat="45.8567343" lon="7.8498670">
        <ele>2435</ele>
      </trkpt>
      <trkpt lat="45.8567943" lon="7.8499170">
        <ele>2439</ele>
      </trkpt>
      <trkpt lat="45.8569243" lon="7.8499170">
        <ele>2442</ele>
      </trkpt>
      <trkpt lat="45.8571983" lon="7.8497800">
        <ele>2446</ele>
      </trkpt>
      <trkpt lat="45.8573043" lon="7.8498570">
        <ele>2450</ele>
      </trkpt>
      <trkpt lat="45.8575343" lon="7.8499070">
        <ele>2454</ele>
      </trkpt>
      <trkpt lat="45.8577643" lon="7.8498870">
        <ele>2458</ele>
      </trkpt>
      <trkpt lat="45.8578543" lon="7.8499770">
        <ele>2462</ele>
      </trkpt>
      <trkpt lat="45.8581643" lon="7.8498970">
        <ele>2466</ele>
      </trkpt>
      <trkpt lat="45.8581843" lon="7.8499170">
        <ele>2470</ele>
      </trkpt>
      <trkpt lat="45.8583343" lon="7.8499170">
        <ele>2474</ele>
      </trkpt>
      <trkpt lat="45.8584143" lon="7.8499870">
        <ele>2478</ele>
      </trkpt>
      <trkpt lat="45.8585143" lon="7.8500270">
        <ele>2482</ele>
      </trkpt>
      <trkpt lat="45.8587243" lon="7.8500570">
        <ele>2486</ele>
      </trkpt>
      <trkpt lat="45.8588043" lon="7.8501470">
        <ele>2490</ele>
      </trkpt>
      <trkpt lat="45.8590043" lon="7.8502070">
        <ele>2493</ele>
      </trkpt>
      <trkpt lat="45.8590843" lon="7.8503170">
        <ele>2497</ele>
      </trkpt>
      <trkpt lat="45.8590543" lon="7.8504270">
        <ele>2501</ele>
      </trkpt>
      <trkpt lat="45.8592343" lon="7.8506070">
        <ele>2505</ele>
      </trkpt>
      <trkpt lat="45.8595543" lon="7.8507270">
        <ele>2509</ele>
      </trkpt>
      <trkpt lat="45.8596943" lon="7.8513070">
        <ele>2513</ele>
      </trkpt>
      <trkpt lat="45.8598243" lon="7.8516070">
        <ele>2517</ele>
      </trkpt>
      <trkpt lat="45.8601843" lon="7.8523470">
        <ele>2521</ele>
      </trkpt>
      <trkpt lat="45.8603043" lon="7.8527770">
        <ele>2525</ele>
      </trkpt>
      <trkpt lat="45.8603043" lon="7.8526870">
        <ele>2529</ele>
      </trkpt>
      <trkpt lat="45.8606633" lon="7.8529470">
        <ele>2533</ele>
      </trkpt>
      <trkpt lat="45.8607633" lon="7.8529070">
        <ele>2537</ele>
      </trkpt>
      <trkpt lat="45.8608833" lon="7.8531070">
        <ele>2541</ele>
      </trkpt>
      <trkpt lat="45.8610533" lon="7.8534870">
        <ele>2544</ele>
      </trkpt>
      <trkpt lat="45.8612933" lon="7.8547170">
        <ele>2548</ele>
      </trkpt>
      <trkpt lat="45.8615433" lon="7.8552270">
        <ele>2552</ele>
      </trkpt>
      <trkpt lat="45.8616533" lon="7.8556670">
        <ele>2556</ele>
      </trkpt>
      <trkpt lat="45.8616033" lon="7.8557570">
        <ele>2560</ele>
      </trkpt>
      <trkpt lat="45.8619333" lon="7.8559370">
        <ele>2564</ele>
      </trkpt>
      <trkpt lat="45.8620233" lon="7.8563870">
        <ele>2568</ele>
      </trkpt>
      <trkpt lat="45.8622433" lon="7.8567670">
        <ele>2572</ele>
      </trkpt>
      <trkpt lat="45.8625333" lon="7.8576470">
        <ele>2576</ele>
      </trkpt>
      <trkpt lat="45.8625233" lon="7.8577470">
        <ele>2580</ele>
      </trkpt>
      <trkpt lat="45.8624933" lon="7.8577870">
        <ele>2584</ele>
      </trkpt>
      <trkpt lat="45.8625033" lon="7.8577370">
        <ele>2588</ele>
      </trkpt>
      <trkpt lat="45.8624133" lon="7.8578170">
        <ele>2592</ele>
      </trkpt>
      <trkpt lat="45.8624133" lon="7.8580970">
        <ele>2595</ele>
      </trkpt>
      <trkpt lat="45.8626133" lon="7.8581970">
        <ele>2599</ele>
      </trkpt>
      <trkpt lat="45.8625233" lon="7.8583470">
        <ele>2603</ele>
      </trkpt>
      <trkpt lat="45.8625733" lon="7.8583370">
        <ele>2607</ele>
      </trkpt>
      <trkpt lat="45.8625933" lon="7.8585270">
        <ele>2611</ele>
      </trkpt>
      <trkpt lat="45.8627933" lon="7.8585770">
        <ele>2615</ele>
      </trkpt>
      <trkpt lat="45.8628333" lon="7.8588570">
        <ele>2619</ele>
      </trkpt>
      <trkpt lat="45.8629133" lon="7.8589770">
        <ele>2623</ele>
      </trkpt>
      <trkpt lat="45.8630233" lon="7.8589770">
        <ele>2627</ele>
      </trkpt>
      <trkpt lat="45.8629733" lon="7.8593470">
        <ele>2631</ele>
      </trkpt>
      <trkpt lat="45.8630233" lon="7.8597770">
        <ele>2635</ele>
      </trkpt>
      <trkpt lat="45.8631433" lon="7.8601270">
        <ele>2639</ele>
      </trkpt>
      <trkpt lat="45.8631633" lon="7.8606370">
        <ele>2643</ele>
      </trkpt>
      <trkpt lat="45.8632833" lon="7.8609570">
        <ele>2646</ele>
      </trkpt>
      <trkpt lat="45.8633533" lon="7.8614570">
        <ele>2650</ele>
      </trkpt>
      <trkpt lat="45.8630133" lon="7.8622170">
        <ele>2654</ele>
      </trkpt>
      <trkpt lat="45.8630333" lon="7.8622170">
        <ele>2658</ele>
      </trkpt>
      <trkpt lat="45.8630833" lon="7.8623470">
        <ele>2662</ele>
      </trkpt>
      <trkpt lat="45.8628933" lon="7.8629470">
        <ele>2666</ele>
      </trkpt>
      <trkpt lat="45.8627633" lon="7.8629370">
        <ele>2670</ele>
      </trkpt>
      <trkpt lat="45.8627333" lon="7.8628670">
        <ele>2674</ele>
      </trkpt>
      <trkpt lat="45.8624233" lon="7.8631370">
        <ele>2678</ele>
      </trkpt>
      <trkpt lat="45.8624533" lon="7.8633770">
        <ele>2682</ele>
      </trkpt>
      <trkpt lat="45.8625433" lon="7.8637570">
        <ele>2686</ele>
      </trkpt>
      <trkpt lat="45.8625133" lon="7.8639270">
        <ele>2690</ele>
      </trkpt>
      <trkpt lat="45.8626033" lon="7.8644570">
        <ele>2694</ele>
      </trkpt>
      <trkpt lat="45.8626487" lon="7.8646694">
        <ele>2697</ele>
      </trkpt>
      <trkpt lat="45.8626396" lon="7.8648403">
        <ele>2701</ele>
      </trkpt>
      <trkpt lat="45.8626433" lon="7.8650470">
        <ele>2705</ele>
      </trkpt>
      <trkpt lat="45.8623852" lon="7.8655711">
        <ele>2709</ele>
      </trkpt>
      <trkpt lat="45.8621010" lon="7.8657955">
        <ele>2713</ele>
      </trkpt>
      <trkpt lat="45.8620487" lon="7.8658781">
        <ele>2717</ele>
      </trkpt>
      <trkpt lat="45.8619339" lon="7.8660291">
        <ele>2721</ele>
      </trkpt>
      <trkpt lat="45.8617821" lon="7.8661254">
        <ele>2725</ele>
      </trkpt>
      <trkpt lat="45.8616633" lon="7.8662670">
        <ele>2729</ele>
      </trkpt>
      <trkpt lat="45.8614833" lon="7.8668470">
        <ele>2733</ele>
      </trkpt>
      <trkpt lat="45.8615633" lon="7.8673770">
        <ele>2737</ele>
      </trkpt>
      <trkpt lat="45.8614933" lon="7.8677870">
        <ele>2741</ele>
      </trkpt>
      <trkpt lat="45.8614233" lon="7.8678370">
        <ele>2745</ele>
      </trkpt>
      <trkpt lat="45.8613533" lon="7.8681070">
        <ele>2748</ele>
      </trkpt>
      <trkpt lat="45.8613933" lon="7.8687070">
        <ele>2752</ele>
      </trkpt>
      <trkpt lat="45.8612025" lon="7.8699600">
        <ele>2756</ele>
      </trkpt>
      <trkpt lat="45.8612133" lon="7.8700570">
        <ele>2760</ele>
      </trkpt>
      <trkpt lat="45.8612221" lon="7.8701122">
        <ele>2764</ele>
      </trkpt>
      <trkpt lat="45.8612166" lon="7.8702016">
        <ele>2768</ele>
      </trkpt>
      <trkpt lat="45.8611920" lon="7.8703573">
        <ele>2772</ele>
      </trkpt>
      <trkpt lat="45.8611514" lon="7.8704590">
        <ele>2776</ele>
      </trkpt>
      <trkpt lat="45.8610733" lon="7.8705670">
        <ele>2780</ele>
      </trkpt>
      <trkpt lat="45.8609133" lon="7.8707170">
        <ele>2784</ele>
      </trkpt>
      <trkpt lat="45.8608633" lon="7.8708970">
        <ele>2788</ele>
      </trkpt>
      <trkpt lat="45.8608532" lon="7.8711739">
        <ele>2792</ele>
      </trkpt>
      <trkpt lat="45.8608333" lon="7.8714670">
        <ele>2796</ele>
      </trkpt>
      <trkpt lat="45.8608533" lon="7.8716070">
        <ele>2799</ele>
      </trkpt>
      <trkpt lat="45.8609639" lon="7.8717621">
        <ele>2803</ele>
      </trkpt>
      <trkpt lat="45.8610833" lon="7.8720470">
        <ele>2807</ele>
      </trkpt>
      <trkpt lat="45.8609733" lon="7.8723270">
        <ele>2811</ele>
      </trkpt>
      <trkpt lat="45.8608833" lon="7.8724070">
        <ele>2815</ele>
      </trkpt>
      <trkpt lat="45.8608933" lon="7.8723570">
        <ele>2819</ele>
      </trkpt>
      <trkpt lat="45.8608133" lon="7.8723470">
        <ele>2823</ele>
      </trkpt>
      <trkpt lat="45.8607433" lon="7.8725270">
        <ele>2827</ele>
      </trkpt>
      <trkpt lat="45.8604333" lon="7.8727870">
        <ele>2831</ele>
      </trkpt>
      <trkpt lat="45.8604033" lon="7.8728770">
        <ele>2835</ele>
      </trkpt>
      <trkpt lat="45.8605033" lon="7.8729970">
        <ele>2839</ele>
      </trkpt>
      <trkpt lat="45.8603833" lon="7.8731070">
        <ele>2843</ele>
      </trkpt>
      <trkpt lat="45.8604233" lon="7.8732770">
        <ele>2847</ele>
      </trkpt>
      <trkpt lat="45.8603733" lon="7.8740470">
        <ele>2850</ele>
      </trkpt>
      <trkpt lat="45.8602933" lon="7.8740970">
        <ele>2854</ele>
      </trkpt>
      <trkpt lat="45.8603033" lon="7.8742070">
        <ele>2858</ele>
      </trkpt>
      <trkpt lat="45.8603933" lon="7.8743570">
        <ele>2862</ele>
      </trkpt>
      <trkpt lat="45.8603833" lon="7.8745670">
        <ele>2866</ele>
      </trkpt>
      <trkpt lat="45.8606033" lon="7.8755470">
        <ele>2870</ele>
      </trkpt>
      <trkpt lat="45.8607533" lon="7.8756770">
        <ele>2874</ele>
      </trkpt>
    </trkseg>
  </trk>
</gpx>
