<?xml version="1.0" encoding="UTF-8"?>
<gpx version="1.1" creator="sentieri-vda" xmlns="http://www.topografix.com/GPX/1/1">
  <metadata>
    <name>Loomatto- Passo di Lazoney</name>
    <desc>Catasto Sentieri VdA — 33_S43</desc>
    <author><name>Regione Autonoma Valle d'Aosta</name></author>
  </metadata>
  <trk>
    <name>Loomatto- Passo di Lazoney</name>
    <src>Catasto Sentieri VdA (33_S43)</src>
    <trkseg>
      <trkpt lat="45.7360170" lon="7.9187360">
        <ele>1349</ele>
      </trkpt>
      <trkpt lat="45.7360860" lon="7.9187190">
        <ele>1351</ele>
      </trkpt>
      <trkpt lat="45.7361730" lon="7.9186341">
        <ele>1352</ele>
      </trkpt>
      <trkpt lat="45.7362088" lon="7.9186268">
        <ele>1354</ele>
      </trkpt>
      <trkpt lat="45.7363050" lon="7.9184721">
        <ele>1355</ele>
      </trkpt>
      <trkpt lat="45.7364097" lon="7.9184098">
        <ele>1357</ele>
      </trkpt>
      <trkpt lat="45.7364499" lon="7.9183584">
        <ele>1359</ele>
      </trkpt>
      <trkpt lat="45.7364897" lon="7.9183514">
        <ele>1360</ele>
      </trkpt>
      <trkpt lat="45.7364833" lon="7.9182647">
        <ele>1362</ele>
      </trkpt>
      <trkpt lat="45.7365424" lon="7.9182513">
        <ele>1364</ele>
      </trkpt>
      <trkpt lat="45.7366027" lon="7.9181924">
        <ele>1365</ele>
      </trkpt>
      <trkpt lat="45.7367333" lon="7.9181643">
        <ele>1367</ele>
      </trkpt>
      <trkpt lat="45.7368496" lon="7.9182327">
        <ele>1368</ele>
      </trkpt>
      <trkpt lat="45.7369131" lon="7.9183564">
        <ele>1370</ele>
      </trkpt>
      <trkpt lat="45.7370054" lon="7.9183544">
        <ele>1372</ele>
      </trkpt>
      <trkpt lat="45.7370972" lon="7.9183064">
        <ele>1373</ele>
      </trkpt>
      <trkpt lat="45.7371525" lon="7.9183022">
        <ele>1375</ele>
      </trkpt>
      <trkpt lat="45.7373800" lon="7.9183632">
        <ele>1376</ele>
      </trkpt>
      <trkpt lat="45.7375086" lon="7.9184675">
        <ele>1378</ele>
      </trkpt>
      <trkpt lat="45.7376373" lon="7.9184630">
        <ele>1380</ele>
      </trkpt>
      <trkpt lat="45.7377172" lon="7.9185018">
        <ele>1381</ele>
      </trkpt>
      <trkpt lat="45.7380862" lon="7.9188536">
        <ele>1383</ele>
      </trkpt>
      <trkpt lat="45.7383172" lon="7.9189868">
        <ele>1385</ele>
      </trkpt>
      <trkpt lat="45.7383869" lon="7.9190078">
        <ele>1386</ele>
      </trkpt>
      <trkpt lat="45.7383983" lon="7.9189935">
        <ele>1388</ele>
      </trkpt>
      <trkpt lat="45.7384335" lon="7.9190153">
        <ele>1389</ele>
      </trkpt>
      <trkpt lat="45.7387054" lon="7.9192432">
        <ele>1391</ele>
      </trkpt>
      <trkpt lat="45.7388106" lon="7.9189069">
        <ele>1393</ele>
      </trkpt>
      <trkpt lat="45.7387946" lon="7.9188387">
        <ele>1394</ele>
      </trkpt>
      <trkpt lat="45.7388119" lon="7.9187506">
        <ele>1396</ele>
      </trkpt>
      <trkpt lat="45.7389980" lon="7.9184331">
        <ele>1398</ele>
      </trkpt>
      <trkpt lat="45.7390409" lon="7.9183251">
        <ele>1399</ele>
      </trkpt>
      <trkpt lat="45.7391182" lon="7.9182212">
        <ele>1401</ele>
      </trkpt>
      <trkpt lat="45.7391810" lon="7.9181819">
        <ele>1402</ele>
      </trkpt>
      <trkpt lat="45.7393031" lon="7.9181603">
        <ele>1404</ele>
      </trkpt>
      <trkpt lat="45.7394456" lon="7.9180937">
        <ele>1406</ele>
      </trkpt>
      <trkpt lat="45.7395715" lon="7.9180587">
        <ele>1407</ele>
      </trkpt>
      <trkpt lat="45.7396824" lon="7.9180567">
        <ele>1409</ele>
      </trkpt>
      <trkpt lat="45.7397918" lon="7.9179745">
        <ele>1410</ele>
      </trkpt>
      <trkpt lat="45.7399854" lon="7.9179062">
        <ele>1412</ele>
      </trkpt>
      <trkpt lat="45.7400485" lon="7.9178682">
        <ele>1414</ele>
      </trkpt>
      <trkpt lat="45.7402476" lon="7.9176149">
        <ele>1415</ele>
      </trkpt>
      <trkpt lat="45.7402996" lon="7.9172368">
        <ele>1417</ele>
      </trkpt>
      <trkpt lat="45.7404513" lon="7.9168751">
        <ele>1419</ele>
      </trkpt>
      <trkpt lat="45.7404656" lon="7.9167675">
        <ele>1420</ele>
      </trkpt>
      <trkpt lat="45.7404958" lon="7.9166740">
        <ele>1422</ele>
      </trkpt>
      <trkpt lat="45.7405967" lon="7.9164916">
        <ele>1423</ele>
      </trkpt>
      <trkpt lat="45.7406287" lon="7.9163646">
        <ele>1425</ele>
      </trkpt>
      <trkpt lat="45.7406609" lon="7.9159687">
        <ele>1427</ele>
      </trkpt>
      <trkpt lat="45.7407402" lon="7.9156607">
        <ele>1428</ele>
      </trkpt>
      <trkpt lat="45.7407614" lon="7.9154104">
        <ele>1430</ele>
      </trkpt>
      <trkpt lat="45.7408334" lon="7.9150445">
        <ele>1431</ele>
      </trkpt>
      <trkpt lat="45.7408283" lon="7.9146629">
        <ele>1433</ele>
      </trkpt>
      <trkpt lat="45.7408837" lon="7.9143436">
        <ele>1435</ele>
      </trkpt>
      <trkpt lat="45.7409569" lon="7.9141144">
        <ele>1436</ele>
      </trkpt>
      <trkpt lat="45.7409977" lon="7.9140446">
        <ele>1438</ele>
      </trkpt>
      <trkpt lat="45.7411587" lon="7.9134864">
        <ele>1440</ele>
      </trkpt>
      <trkpt lat="45.7411940" lon="7.9132025">
        <ele>1441</ele>
      </trkpt>
      <trkpt lat="45.7412469" lon="7.9130046">
        <ele>1443</ele>
      </trkpt>
      <trkpt lat="45.7412543" lon="7.9128965">
        <ele>1444</ele>
      </trkpt>
      <trkpt lat="45.7414750" lon="7.9120421">
        <ele>1446</ele>
      </trkpt>
      <trkpt lat="45.7414813" lon="7.9119545">
        <ele>1448</ele>
      </trkpt>
      <trkpt lat="45.7415011" lon="7.9119176">
        <ele>1449</ele>
      </trkpt>
      <trkpt lat="45.7415134" lon="7.9116960">
        <ele>1451</ele>
      </trkpt>
      <trkpt lat="45.7415318" lon="7.9116719">
        <ele>1453</ele>
      </trkpt>
      <trkpt lat="45.7415482" lon="7.9115321">
        <ele>1454</ele>
      </trkpt>
      <trkpt lat="45.7416442" lon="7.9112659">
        <ele>1456</ele>
      </trkpt>
      <trkpt lat="45.7416793" lon="7.9110400">
        <ele>1457</ele>
      </trkpt>
      <trkpt lat="45.7416648" lon="7.9109721">
        <ele>1459</ele>
      </trkpt>
      <trkpt lat="45.7416913" lon="7.9109424">
        <ele>1461</ele>
      </trkpt>
      <trkpt lat="45.7418012" lon="7.9106842">
        <ele>1462</ele>
      </trkpt>
      <trkpt lat="45.7418373" lon="7.9106398">
        <ele>1464</ele>
      </trkpt>
      <trkpt lat="45.7418750" lon="7.9105062">
        <ele>1465</ele>
      </trkpt>
      <trkpt lat="45.7418890" lon="7.9103863">
        <ele>1467</ele>
      </trkpt>
      <trkpt lat="45.7418742" lon="7.9101702">
        <ele>1469</ele>
      </trkpt>
      <trkpt lat="45.7419509" lon="7.9099169">
        <ele>1470</ele>
      </trkpt>
      <trkpt lat="45.7419696" lon="7.9093261">
        <ele>1472</ele>
      </trkpt>
      <trkpt lat="45.7419286" lon="7.9089920">
        <ele>1474</ele>
      </trkpt>
      <trkpt lat="45.7419332" lon="7.9087498">
        <ele>1475</ele>
      </trkpt>
      <trkpt lat="45.7418764" lon="7.9085612">
        <ele>1477</ele>
      </trkpt>
      <trkpt lat="45.7417903" lon="7.9081533">
        <ele>1478</ele>
      </trkpt>
      <trkpt lat="45.7417530" lon="7.9078725">
        <ele>1480</ele>
      </trkpt>
      <trkpt lat="45.7417712" lon="7.9071880">
        <ele>1482</ele>
      </trkpt>
      <trkpt lat="45.7417411" lon="7.9069527">
        <ele>1483</ele>
      </trkpt>
      <trkpt lat="45.7417646" lon="7.9067862">
        <ele>1485</ele>
      </trkpt>
      <trkpt lat="45.7417671" lon="7.9065855">
        <ele>1486</ele>
      </trkpt>
      <trkpt lat="45.7417859" lon="7.9064944">
        <ele>1488</ele>
      </trkpt>
      <trkpt lat="45.7417566" lon="7.9063896">
        <ele>1490</ele>
      </trkpt>
      <trkpt lat="45.7418071" lon="7.9062982">
        <ele>1491</ele>
      </trkpt>
      <trkpt lat="45.7417858" lon="7.9062378">
        <ele>1493</ele>
      </trkpt>
      <trkpt lat="45.7417897" lon="7.9061130">
        <ele>1495</ele>
      </trkpt>
      <trkpt lat="45.7418195" lon="7.9060284">
        <ele>1496</ele>
      </trkpt>
      <trkpt lat="45.7418181" lon="7.9059538">
        <ele>1498</ele>
      </trkpt>
      <trkpt lat="45.7418416" lon="7.9058384">
        <ele>1499</ele>
      </trkpt>
      <trkpt lat="45.7419184" lon="7.9057551">
        <ele>1501</ele>
      </trkpt>
      <trkpt lat="45.7419675" lon="7.9055572">
        <ele>1503</ele>
      </trkpt>
      <trkpt lat="45.7419832" lon="7.9054221">
        <ele>1504</ele>
      </trkpt>
      <trkpt lat="45.7421059" lon="7.9052780">
        <ele>1506</ele>
      </trkpt>
      <trkpt lat="45.7422059" lon="7.9052064">
        <ele>1508</ele>
      </trkpt>
      <trkpt lat="45.7423555" lon="7.9049269">
        <ele>1509</ele>
      </trkpt>
      <trkpt lat="45.7423953" lon="7.9048216">
        <ele>1511</ele>
      </trkpt>
      <trkpt lat="45.7424602" lon="7.9047430">
        <ele>1512</ele>
      </trkpt>
      <trkpt lat="45.7429347" lon="7.9036653">
        <ele>1514</ele>
      </trkpt>
      <trkpt lat="45.7430774" lon="7.9034657">
        <ele>1516</ele>
      </trkpt>
      <trkpt lat="45.7430833" lon="7.9034208">
        <ele>1517</ele>
      </trkpt>
      <trkpt lat="45.7431683" lon="7.9033094">
        <ele>1519</ele>
      </trkpt>
      <trkpt lat="45.7432367" lon="7.9031781">
        <ele>1520</ele>
      </trkpt>
      <trkpt lat="45.7433387" lon="7.9030949">
        <ele>1522</ele>
      </trkpt>
      <trkpt lat="45.7434564" lon="7.9029347">
        <ele>1524</ele>
      </trkpt>
      <trkpt lat="45.7435626" lon="7.9028317">
        <ele>1525</ele>
      </trkpt>
      <trkpt lat="45.7437180" lon="7.9027615">
        <ele>1527</ele>
      </trkpt>
      <trkpt lat="45.7438055" lon="7.9027877">
        <ele>1529</ele>
      </trkpt>
      <trkpt lat="45.7438597" lon="7.9025969">
        <ele>1530</ele>
      </trkpt>
      <trkpt lat="45.7438837" lon="7.9025887">
        <ele>1532</ele>
      </trkpt>
      <trkpt lat="45.7439190" lon="7.9026367">
        <ele>1533</ele>
      </trkpt>
      <trkpt lat="45.7440115" lon="7.9026589">
        <ele>1535</ele>
      </trkpt>
      <trkpt lat="45.7440654" lon="7.9026186">
        <ele>1537</ele>
      </trkpt>
      <trkpt lat="45.7441086" lon="7.9025476">
        <ele>1538</ele>
      </trkpt>
      <trkpt lat="45.7442646" lon="7.9025374">
        <ele>1540</ele>
      </trkpt>
      <trkpt lat="45.7443235" lon="7.9024569">
        <ele>1541</ele>
      </trkpt>
      <trkpt lat="45.7444861" lon="7.9023343">
        <ele>1543</ele>
      </trkpt>
      <trkpt lat="45.7445327" lon="7.9022570">
        <ele>1545</ele>
      </trkpt>
      <trkpt lat="45.7446067" lon="7.9022025">
        <ele>1546</ele>
      </trkpt>
      <trkpt lat="45.7446096" lon="7.9021649">
        <ele>1548</ele>
      </trkpt>
      <trkpt lat="45.7447317" lon="7.9019830">
        <ele>1550</ele>
      </trkpt>
      <trkpt lat="45.7447729" lon="7.9018526">
        <ele>1551</ele>
      </trkpt>
      <trkpt lat="45.7448296" lon="7.9017941">
        <ele>1553</ele>
      </trkpt>
      <trkpt lat="45.7448500" lon="7.9017136">
        <ele>1554</ele>
      </trkpt>
      <trkpt lat="45.7447978" lon="7.9016601">
        <ele>1556</ele>
      </trkpt>
      <trkpt lat="45.7447834" lon="7.9015997">
        <ele>1558</ele>
      </trkpt>
      <trkpt lat="45.7447964" lon="7.9015482">
        <ele>1559</ele>
      </trkpt>
      <trkpt lat="45.7448465" lon="7.9014802">
        <ele>1561</ele>
      </trkpt>
      <trkpt lat="45.7448533" lon="7.9013940">
        <ele>1563</ele>
      </trkpt>
      <trkpt lat="45.7449070" lon="7.9013043">
        <ele>1564</ele>
      </trkpt>
      <trkpt lat="45.7449014" lon="7.9012332">
        <ele>1566</ele>
      </trkpt>
      <trkpt lat="45.7449339" lon="7.9011702">
        <ele>1567</ele>
      </trkpt>
      <trkpt lat="45.7449245" lon="7.9011342">
        <ele>1569</ele>
      </trkpt>
      <trkpt lat="45.7449431" lon="7.9010746">
        <ele>1571</ele>
      </trkpt>
      <trkpt lat="45.7449157" lon="7.9006797">
        <ele>1572</ele>
      </trkpt>
      <trkpt lat="45.7448607" lon="7.9005057">
        <ele>1574</ele>
      </trkpt>
      <trkpt lat="45.7448783" lon="7.9003819">
        <ele>1575</ele>
      </trkpt>
      <trkpt lat="45.7448714" lon="7.9003170">
        <ele>1577</ele>
      </trkpt>
      <trkpt lat="45.7449549" lon="7.9001158">
        <ele>1579</ele>
      </trkpt>
      <trkpt lat="45.7449659" lon="7.8999548">
        <ele>1580</ele>
      </trkpt>
      <trkpt lat="45.7450129" lon="7.8998369">
        <ele>1582</ele>
      </trkpt>
      <trkpt lat="45.7450282" lon="7.8997384">
        <ele>1584</ele>
      </trkpt>
      <trkpt lat="45.7450561" lon="7.8997147">
        <ele>1585</ele>
      </trkpt>
      <trkpt lat="45.7450169" lon="7.8996128">
        <ele>1587</ele>
      </trkpt>
      <trkpt lat="45.7449777" lon="7.8994199">
        <ele>1588</ele>
      </trkpt>
      <trkpt lat="45.7449352" lon="7.8993307">
        <ele>1590</ele>
      </trkpt>
      <trkpt lat="45.7449476" lon="7.8990731">
        <ele>1592</ele>
      </trkpt>
      <trkpt lat="45.7449154" lon="7.8990055">
        <ele>1593</ele>
      </trkpt>
      <trkpt lat="45.7449461" lon="7.8989045">
        <ele>1595</ele>
      </trkpt>
      <trkpt lat="45.7450031" lon="7.8988140">
        <ele>1596</ele>
      </trkpt>
      <trkpt lat="45.7450261" lon="7.8987134">
        <ele>1598</ele>
      </trkpt>
      <trkpt lat="45.7451072" lon="7.8986061">
        <ele>1600</ele>
      </trkpt>
      <trkpt lat="45.7452937" lon="7.8982942">
        <ele>1601</ele>
      </trkpt>
      <trkpt lat="45.7453305" lon="7.8981959">
        <ele>1603</ele>
      </trkpt>
      <trkpt lat="45.7454153" lon="7.8980621">
        <ele>1605</ele>
      </trkpt>
      <trkpt lat="45.7454213" lon="7.8979592">
        <ele>1606</ele>
      </trkpt>
      <trkpt lat="45.7454071" lon="7.8978397">
        <ele>1608</ele>
      </trkpt>
      <trkpt lat="45.7454986" lon="7.8975180">
        <ele>1609</ele>
      </trkpt>
      <trkpt lat="45.7455030" lon="7.8971931">
        <ele>1611</ele>
      </trkpt>
      <trkpt lat="45.7454727" lon="7.8969387">
        <ele>1613</ele>
      </trkpt>
      <trkpt lat="45.7454440" lon="7.8968555">
        <ele>1614</ele>
      </trkpt>
      <trkpt lat="45.7454490" lon="7.8967009">
        <ele>1616</ele>
      </trkpt>
      <trkpt lat="45.7454078" lon="7.8964823">
        <ele>1618</ele>
      </trkpt>
      <trkpt lat="45.7454160" lon="7.8963445">
        <ele>1619</ele>
      </trkpt>
      <trkpt lat="45.7453865" lon="7.8961369">
        <ele>1621</ele>
      </trkpt>
      <trkpt lat="45.7453163" lon="7.8959484">
        <ele>1622</ele>
      </trkpt>
      <trkpt lat="45.7453275" lon="7.8956531">
        <ele>1624</ele>
      </trkpt>
      <trkpt lat="45.7453738" lon="7.8954395">
        <ele>1626</ele>
      </trkpt>
      <trkpt lat="45.7453774" lon="7.8953364">
        <ele>1627</ele>
      </trkpt>
      <trkpt lat="45.7453307" lon="7.8951126">
        <ele>1629</ele>
      </trkpt>
      <trkpt lat="45.7453380" lon="7.8950513">
        <ele>1630</ele>
      </trkpt>
      <trkpt lat="45.7454597" lon="7.8948885">
        <ele>1632</ele>
      </trkpt>
      <trkpt lat="45.7454791" lon="7.8948264">
        <ele>1634</ele>
      </trkpt>
      <trkpt lat="45.7454894" lon="7.8946188">
        <ele>1635</ele>
      </trkpt>
      <trkpt lat="45.7455126" lon="7.8945767">
        <ele>1637</ele>
      </trkpt>
      <trkpt lat="45.7456557" lon="7.8944659">
        <ele>1639</ele>
      </trkpt>
      <trkpt lat="45.7457218" lon="7.8944404">
        <ele>1640</ele>
      </trkpt>
      <trkpt lat="45.7457908" lon="7.8944658">
        <ele>1642</ele>
      </trkpt>
      <trkpt lat="45.7458466" lon="7.8943711">
        <ele>1643</ele>
      </trkpt>
      <trkpt lat="45.7459060" lon="7.8943374">
        <ele>1645</ele>
      </trkpt>
      <trkpt lat="45.7460154" lon="7.8943937">
        <ele>1647</ele>
      </trkpt>
      <trkpt lat="45.7460349" lon="7.8942699">
        <ele>1648</ele>
      </trkpt>
      <trkpt lat="45.7460521" lon="7.8942437">
        <ele>1650</ele>
      </trkpt>
      <trkpt lat="45.7460831" lon="7.8942400">
        <ele>1651</ele>
      </trkpt>
      <trkpt lat="45.7461273" lon="7.8942859">
        <ele>1653</ele>
      </trkpt>
      <trkpt lat="45.7463724" lon="7.8943980">
        <ele>1655</ele>
      </trkpt>
      <trkpt lat="45.7463836" lon="7.8943747">
        <ele>1656</ele>
      </trkpt>
      <trkpt lat="45.7463629" lon="7.8943185">
        <ele>1658</ele>
      </trkpt>
      <trkpt lat="45.7463666" lon="7.8942223">
        <ele>1660</ele>
      </trkpt>
      <trkpt lat="45.7464141" lon="7.8940094">
        <ele>1661</ele>
      </trkpt>
      <trkpt lat="45.7464204" lon="7.8939047">
        <ele>1663</ele>
      </trkpt>
      <trkpt lat="45.7464416" lon="7.8938386">
        <ele>1664</ele>
      </trkpt>
      <trkpt lat="45.7465352" lon="7.8937524">
        <ele>1666</ele>
      </trkpt>
      <trkpt lat="45.7465738" lon="7.8935703">
        <ele>1668</ele>
      </trkpt>
      <trkpt lat="45.7465759" lon="7.8934774">
        <ele>1669</ele>
      </trkpt>
      <trkpt lat="45.7465485" lon="7.8933502">
        <ele>1671</ele>
      </trkpt>
      <trkpt lat="45.7465366" lon="7.8931649">
        <ele>1673</ele>
      </trkpt>
      <trkpt lat="45.7465572" lon="7.8930936">
        <ele>1674</ele>
      </trkpt>
      <trkpt lat="45.7467528" lon="7.8927778">
        <ele>1676</ele>
      </trkpt>
      <trkpt lat="45.7469504" lon="7.8925169">
        <ele>1677</ele>
      </trkpt>
      <trkpt lat="45.7469998" lon="7.8924131">
        <ele>1679</ele>
      </trkpt>
      <trkpt lat="45.7470901" lon="7.8923805">
        <ele>1681</ele>
      </trkpt>
      <trkpt lat="45.7472413" lon="7.8922377">
        <ele>1682</ele>
      </trkpt>
      <trkpt lat="45.7472566" lon="7.8921839">
        <ele>1684</ele>
      </trkpt>
      <trkpt lat="45.7472172" lon="7.8921683">
        <ele>1685</ele>
      </trkpt>
      <trkpt lat="45.7472807" lon="7.8919385">
        <ele>1687</ele>
      </trkpt>
      <trkpt lat="45.7474959" lon="7.8916712">
        <ele>1689</ele>
      </trkpt>
      <trkpt lat="45.7475507" lon="7.8915747">
        <ele>1690</ele>
      </trkpt>
      <trkpt lat="45.7475850" lon="7.8915436">
        <ele>1692</ele>
      </trkpt>
      <trkpt lat="45.7476089" lon="7.8915456">
        <ele>1694</ele>
      </trkpt>
      <trkpt lat="45.7477350" lon="7.8917001">
        <ele>1695</ele>
      </trkpt>
      <trkpt lat="45.7477673" lon="7.8916865">
        <ele>1697</ele>
      </trkpt>
      <trkpt lat="45.7478310" lon="7.8915583">
        <ele>1698</ele>
      </trkpt>
      <trkpt lat="45.7478580" lon="7.8915349">
        <ele>1700</ele>
      </trkpt>
      <trkpt lat="45.7479321" lon="7.8913458">
        <ele>1702</ele>
      </trkpt>
      <trkpt lat="45.7479524" lon="7.8911116">
        <ele>1703</ele>
      </trkpt>
      <trkpt lat="45.7478424" lon="7.8908187">
        <ele>1705</ele>
      </trkpt>
      <trkpt lat="45.7478945" lon="7.8906523">
        <ele>1706</ele>
      </trkpt>
      <trkpt lat="45.7479140" lon="7.8905226">
        <ele>1708</ele>
      </trkpt>
      <trkpt lat="45.7479026" lon="7.8903668">
        <ele>1710</ele>
      </trkpt>
      <trkpt lat="45.7479782" lon="7.8901792">
        <ele>1711</ele>
      </trkpt>
      <trkpt lat="45.7480448" lon="7.8901055">
        <ele>1713</ele>
      </trkpt>
      <trkpt lat="45.7480823" lon="7.8900241">
        <ele>1715</ele>
      </trkpt>
      <trkpt lat="45.7482052" lon="7.8899149">
        <ele>1716</ele>
      </trkpt>
      <trkpt lat="45.7483005" lon="7.8896219">
        <ele>1718</ele>
      </trkpt>
      <trkpt lat="45.7482750" lon="7.8894342">
        <ele>1719</ele>
      </trkpt>
      <trkpt lat="45.7481497" lon="7.8891962">
        <ele>1721</ele>
      </trkpt>
      <trkpt lat="45.7480937" lon="7.8891333">
        <ele>1723</ele>
      </trkpt>
      <trkpt lat="45.7480387" lon="7.8891084">
        <ele>1724</ele>
      </trkpt>
      <trkpt lat="45.7480208" lon="7.8889525">
        <ele>1726</ele>
      </trkpt>
      <trkpt lat="45.7481314" lon="7.8886977">
        <ele>1727</ele>
      </trkpt>
      <trkpt lat="45.7481399" lon="7.8886203">
        <ele>1729</ele>
      </trkpt>
      <trkpt lat="45.7481204" lon="7.8885625">
        <ele>1731</ele>
      </trkpt>
      <trkpt lat="45.7481271" lon="7.8884739">
        <ele>1732</ele>
      </trkpt>
      <trkpt lat="45.7481966" lon="7.8884113">
        <ele>1734</ele>
      </trkpt>
      <trkpt lat="45.7482236" lon="7.8882989">
        <ele>1736</ele>
      </trkpt>
      <trkpt lat="45.7481782" lon="7.8881304">
        <ele>1737</ele>
      </trkpt>
      <trkpt lat="45.7482053" lon="7.8880231">
        <ele>1739</ele>
      </trkpt>
      <trkpt lat="45.7481903" lon="7.8878649">
        <ele>1740</ele>
      </trkpt>
      <trkpt lat="45.7482102" lon="7.8877703">
        <ele>1742</ele>
      </trkpt>
      <trkpt lat="45.7482047" lon="7.8876133">
        <ele>1744</ele>
      </trkpt>
      <trkpt lat="45.7482214" lon="7.8875965">
        <ele>1745</ele>
      </trkpt>
      <trkpt lat="45.7482298" lon="7.8875427">
        <ele>1747</ele>
      </trkpt>
      <trkpt lat="45.7482190" lon="7.8873883">
        <ele>1749</ele>
      </trkpt>
      <trkpt lat="45.7482385" lon="7.8873370">
        <ele>1750</ele>
      </trkpt>
      <trkpt lat="45.7483196" lon="7.8872785">
        <ele>1752</ele>
      </trkpt>
      <trkpt lat="45.7482969" lon="7.8872011">
        <ele>1753</ele>
      </trkpt>
      <trkpt lat="45.7483051" lon="7.8870743">
        <ele>1755</ele>
      </trkpt>
      <trkpt lat="45.7483366" lon="7.8869497">
        <ele>1757</ele>
      </trkpt>
      <trkpt lat="45.7483584" lon="7.8867479">
        <ele>1758</ele>
      </trkpt>
      <trkpt lat="45.7484049" lon="7.8866222">
        <ele>1760</ele>
      </trkpt>
      <trkpt lat="45.7484147" lon="7.8865232">
        <ele>1761</ele>
      </trkpt>
      <trkpt lat="45.7484500" lon="7.8864661">
        <ele>1763</ele>
      </trkpt>
      <trkpt lat="45.7484966" lon="7.8859834">
        <ele>1765</ele>
      </trkpt>
      <trkpt lat="45.7484981" lon="7.8858249">
        <ele>1766</ele>
      </trkpt>
      <trkpt lat="45.7485699" lon="7.8856089">
        <ele>1768</ele>
      </trkpt>
      <trkpt lat="45.7485689" lon="7.8854806">
        <ele>1770</ele>
      </trkpt>
      <trkpt lat="45.7486346" lon="7.8852473">
        <ele>1771</ele>
      </trkpt>
      <trkpt lat="45.7486452" lon="7.8850682">
        <ele>1773</ele>
      </trkpt>
      <trkpt lat="45.7487613" lon="7.8848223">
        <ele>1774</ele>
      </trkpt>
      <trkpt lat="45.7488058" lon="7.8847802">
        <ele>1776</ele>
      </trkpt>
      <trkpt lat="45.7489968" lon="7.8843705">
        <ele>1778</ele>
      </trkpt>
      <trkpt lat="45.7490076" lon="7.8840741">
        <ele>1779</ele>
      </trkpt>
      <trkpt lat="45.7489885" lon="7.8839654">
        <ele>1781</ele>
      </trkpt>
      <trkpt lat="45.7489531" lon="7.8838846">
        <ele>1782</ele>
      </trkpt>
      <trkpt lat="45.7489665" lon="7.8837719">
        <ele>1784</ele>
      </trkpt>
      <trkpt lat="45.7489564" lon="7.8835142">
        <ele>1786</ele>
      </trkpt>
      <trkpt lat="45.7488919" lon="7.8834785">
        <ele>1787</ele>
      </trkpt>
      <trkpt lat="45.7488193" lon="7.8833934">
        <ele>1789</ele>
      </trkpt>
      <trkpt lat="45.7488213" lon="7.8833375">
        <ele>1791</ele>
      </trkpt>
      <trkpt lat="45.7488440" lon="7.8832961">
        <ele>1792</ele>
      </trkpt>
      <trkpt lat="45.7488489" lon="7.8831140">
        <ele>1794</ele>
      </trkpt>
      <trkpt lat="45.7489089" lon="7.8827191">
        <ele>1795</ele>
      </trkpt>
      <trkpt lat="45.7489461" lon="7.8826007">
        <ele>1797</ele>
      </trkpt>
      <trkpt lat="45.7489343" lon="7.8824881">
        <ele>1799</ele>
      </trkpt>
      <trkpt lat="45.7489484" lon="7.8822384">
        <ele>1800</ele>
      </trkpt>
      <trkpt lat="45.7489766" lon="7.8822166">
        <ele>1802</ele>
      </trkpt>
      <trkpt lat="45.7489895" lon="7.8821577">
        <ele>1804</ele>
      </trkpt>
      <trkpt lat="45.7489818" lon="7.8820225">
        <ele>1805</ele>
      </trkpt>
      <trkpt lat="45.7490207" lon="7.8819510">
        <ele>1807</ele>
      </trkpt>
      <trkpt lat="45.7489807" lon="7.8819251">
        <ele>1808</ele>
      </trkpt>
      <trkpt lat="45.7490107" lon="7.8816142">
        <ele>1810</ele>
      </trkpt>
      <trkpt lat="45.7489786" lon="7.8814725">
        <ele>1812</ele>
      </trkpt>
      <trkpt lat="45.7489783" lon="7.8813658">
        <ele>1813</ele>
      </trkpt>
      <trkpt lat="45.7490097" lon="7.8811741">
        <ele>1815</ele>
      </trkpt>
      <trkpt lat="45.7489493" lon="7.8807448">
        <ele>1816</ele>
      </trkpt>
      <trkpt lat="45.7489433" lon="7.8802466">
        <ele>1818</ele>
      </trkpt>
      <trkpt lat="45.7490063" lon="7.8800964">
        <ele>1820</ele>
      </trkpt>
      <trkpt lat="45.7491480" lon="7.8800398">
        <ele>1821</ele>
      </trkpt>
      <trkpt lat="45.7491661" lon="7.8797962">
        <ele>1823</ele>
      </trkpt>
      <trkpt lat="45.7492262" lon="7.8796096">
        <ele>1825</ele>
      </trkpt>
      <trkpt lat="45.7492273" lon="7.8795177">
        <ele>1826</ele>
      </trkpt>
      <trkpt lat="45.7491940" lon="7.8794130">
        <ele>1828</ele>
      </trkpt>
      <trkpt lat="45.7491885" lon="7.8792931">
        <ele>1829</ele>
      </trkpt>
      <trkpt lat="45.7492192" lon="7.8792146">
        <ele>1831</ele>
      </trkpt>
      <trkpt lat="45.7492159" lon="7.8791252">
        <ele>1833</ele>
      </trkpt>
      <trkpt lat="45.7492439" lon="7.8790530">
        <ele>1834</ele>
      </trkpt>
      <trkpt lat="45.7492707" lon="7.8787470">
        <ele>1836</ele>
      </trkpt>
      <trkpt lat="45.7493201" lon="7.8785960">
        <ele>1837</ele>
      </trkpt>
      <trkpt lat="45.7493992" lon="7.8785287">
        <ele>1839</ele>
      </trkpt>
      <trkpt lat="45.7494933" lon="7.8783780">
        <ele>1841</ele>
      </trkpt>
      <trkpt lat="45.7496500" lon="7.8782242">
        <ele>1842</ele>
      </trkpt>
      <trkpt lat="45.7497365" lon="7.8781007">
        <ele>1844</ele>
      </trkpt>
      <trkpt lat="45.7497106" lon="7.8780189">
        <ele>1846</ele>
      </trkpt>
      <trkpt lat="45.7496418" lon="7.8779689">
        <ele>1847</ele>
      </trkpt>
      <trkpt lat="45.7496205" lon="7.8779864">
        <ele>1849</ele>
      </trkpt>
      <trkpt lat="45.7496229" lon="7.8780096">
        <ele>1850</ele>
      </trkpt>
      <trkpt lat="45.7495919" lon="7.8780021">
        <ele>1852</ele>
      </trkpt>
      <trkpt lat="45.7495657" lon="7.8780442">
        <ele>1854</ele>
      </trkpt>
      <trkpt lat="45.7495298" lon="7.8780031">
        <ele>1855</ele>
      </trkpt>
      <trkpt lat="45.7495671" lon="7.8777442">
        <ele>1857</ele>
      </trkpt>
      <trkpt lat="45.7496816" lon="7.8774168">
        <ele>1859</ele>
      </trkpt>
      <trkpt lat="45.7496937" lon="7.8773521">
        <ele>1860</ele>
      </trkpt>
      <trkpt lat="45.7496864" lon="7.8772522">
        <ele>1862</ele>
      </trkpt>
      <trkpt lat="45.7497072" lon="7.8771787">
        <ele>1863</ele>
      </trkpt>
      <trkpt lat="45.7498210" lon="7.8769351">
        <ele>1865</ele>
      </trkpt>
      <trkpt lat="45.7499626" lon="7.8767535">
        <ele>1867</ele>
      </trkpt>
      <trkpt lat="45.7499614" lon="7.8766348">
        <ele>1868</ele>
      </trkpt>
      <trkpt lat="45.7499819" lon="7.8766080">
        <ele>1870</ele>
      </trkpt>
      <trkpt lat="45.7500321" lon="7.8766208">
        <ele>1871</ele>
      </trkpt>
      <trkpt lat="45.7501798" lon="7.8764681">
        <ele>1873</ele>
      </trkpt>
      <trkpt lat="45.7502112" lon="7.8764128">
        <ele>1875</ele>
      </trkpt>
      <trkpt lat="45.7502684" lon="7.8762284">
        <ele>1876</ele>
      </trkpt>
      <trkpt lat="45.7503004" lon="7.8761796">
        <ele>1878</ele>
      </trkpt>
      <trkpt lat="45.7503569" lon="7.8761569">
        <ele>1880</ele>
      </trkpt>
      <trkpt lat="45.7504820" lon="7.8759891">
        <ele>1881</ele>
      </trkpt>
      <trkpt lat="45.7505658" lon="7.8757104">
        <ele>1883</ele>
      </trkpt>
      <trkpt lat="45.7506316" lon="7.8756156">
        <ele>1884</ele>
      </trkpt>
      <trkpt lat="45.7506996" lon="7.8754339">
        <ele>1886</ele>
      </trkpt>
      <trkpt lat="45.7506445" lon="7.8752152">
        <ele>1888</ele>
      </trkpt>
      <trkpt lat="45.7506512" lon="7.8751484">
        <ele>1889</ele>
      </trkpt>
      <trkpt lat="45.7506834" lon="7.8750577">
        <ele>1891</ele>
      </trkpt>
      <trkpt lat="45.7507840" lon="7.8749194">
        <ele>1892</ele>
      </trkpt>
      <trkpt lat="45.7508046" lon="7.8748163">
        <ele>1894</ele>
      </trkpt>
      <trkpt lat="45.7509051" lon="7.8747039">
        <ele>1896</ele>
      </trkpt>
      <trkpt lat="45.7509333" lon="7.8746469">
        <ele>1897</ele>
      </trkpt>
      <trkpt lat="45.7511287" lon="7.8744484">
        <ele>1899</ele>
      </trkpt>
      <trkpt lat="45.7511699" lon="7.8743480">
        <ele>1901</ele>
      </trkpt>
      <trkpt lat="45.7511673" lon="7.8739881">
        <ele>1902</ele>
      </trkpt>
      <trkpt lat="45.7511273" lon="7.8738741">
        <ele>1904</ele>
      </trkpt>
      <trkpt lat="45.7511219" lon="7.8737903">
        <ele>1905</ele>
      </trkpt>
      <trkpt lat="45.7511685" lon="7.8736325">
        <ele>1907</ele>
      </trkpt>
      <trkpt lat="45.7511936" lon="7.8736160">
        <ele>1909</ele>
      </trkpt>
      <trkpt lat="45.7512057" lon="7.8735742">
        <ele>1910</ele>
      </trkpt>
      <trkpt lat="45.7511740" lon="7.8734586">
        <ele>1912</ele>
      </trkpt>
      <trkpt lat="45.7511468" lon="7.8732246">
        <ele>1914</ele>
      </trkpt>
      <trkpt lat="45.7511600" lon="7.8730879">
        <ele>1915</ele>
      </trkpt>
      <trkpt lat="45.7512834" lon="7.8728004">
        <ele>1917</ele>
      </trkpt>
      <trkpt lat="45.7512839" lon="7.8727091">
        <ele>1918</ele>
      </trkpt>
      <trkpt lat="45.7512434" lon="7.8724197">
        <ele>1920</ele>
      </trkpt>
      <trkpt lat="45.7512575" lon="7.8722222">
        <ele>1922</ele>
      </trkpt>
      <trkpt lat="45.7514153" lon="7.8719226">
        <ele>1923</ele>
      </trkpt>
      <trkpt lat="45.7514561" lon="7.8718089">
        <ele>1925</ele>
      </trkpt>
      <trkpt lat="45.7515060" lon="7.8717379">
        <ele>1926</ele>
      </trkpt>
      <trkpt lat="45.7515711" lon="7.8716784">
        <ele>1928</ele>
      </trkpt>
      <trkpt lat="45.7516073" lon="7.8716131">
        <ele>1930</ele>
      </trkpt>
      <trkpt lat="45.7517361" lon="7.8715546">
        <ele>1931</ele>
      </trkpt>
      <trkpt lat="45.7518340" lon="7.8714561">
        <ele>1933</ele>
      </trkpt>
      <trkpt lat="45.7518957" lon="7.8712303">
        <ele>1935</ele>
      </trkpt>
      <trkpt lat="45.7519547" lon="7.8711974">
        <ele>1936</ele>
      </trkpt>
      <trkpt lat="45.7519997" lon="7.8712109">
        <ele>1938</ele>
      </trkpt>
      <trkpt lat="45.7520399" lon="7.8711641">
        <ele>1939</ele>
      </trkpt>
      <trkpt lat="45.7520885" lon="7.8710818">
        <ele>1941</ele>
      </trkpt>
      <trkpt lat="45.7521255" lon="7.8708741">
        <ele>1943</ele>
      </trkpt>
      <trkpt lat="45.7522047" lon="7.8706958">
        <ele>1944</ele>
      </trkpt>
      <trkpt lat="45.7522379" lon="7.8706864">
        <ele>1946</ele>
      </trkpt>
      <trkpt lat="45.7523655" lon="7.8705194">
        <ele>1947</ele>
      </trkpt>
      <trkpt lat="45.7525095" lon="7.8703922">
        <ele>1949</ele>
      </trkpt>
      <trkpt lat="45.7525385" lon="7.8702854">
        <ele>1951</ele>
      </trkpt>
      <trkpt lat="45.7526172" lon="7.8701503">
        <ele>1952</ele>
      </trkpt>
      <trkpt lat="45.7526540" lon="7.8699081">
        <ele>1954</ele>
      </trkpt>
      <trkpt lat="45.7526522" lon="7.8698037">
        <ele>1956</ele>
      </trkpt>
      <trkpt lat="45.7526758" lon="7.8696140">
        <ele>1957</ele>
      </trkpt>
      <trkpt lat="45.7526250" lon="7.8695206">
        <ele>1959</ele>
      </trkpt>
      <trkpt lat="45.7524966" lon="7.8693559">
        <ele>1960</ele>
      </trkpt>
      <trkpt lat="45.7524437" lon="7.8692200">
        <ele>1962</ele>
      </trkpt>
      <trkpt lat="45.7523263" lon="7.8688504">
        <ele>1964</ele>
      </trkpt>
      <trkpt lat="45.7523352" lon="7.8686464">
        <ele>1965</ele>
      </trkpt>
      <trkpt lat="45.7522535" lon="7.8685958">
        <ele>1967</ele>
      </trkpt>
      <trkpt lat="45.7522271" lon="7.8684837">
        <ele>1969</ele>
      </trkpt>
      <trkpt lat="45.7521907" lon="7.8684305">
        <ele>1970</ele>
      </trkpt>
      <trkpt lat="45.7521747" lon="7.8683732">
        <ele>1972</ele>
      </trkpt>
      <trkpt lat="45.7521573" lon="7.8682316">
        <ele>1973</ele>
      </trkpt>
      <trkpt lat="45.7521328" lon="7.8681518">
        <ele>1975</ele>
      </trkpt>
      <trkpt lat="45.7520209" lon="7.8680210">
        <ele>1977</ele>
      </trkpt>
      <trkpt lat="45.7519084" lon="7.8677894">
        <ele>1978</ele>
      </trkpt>
      <trkpt lat="45.7519148" lon="7.8675713">
        <ele>1980</ele>
      </trkpt>
      <trkpt lat="45.7518739" lon="7.8673961">
        <ele>1981</ele>
      </trkpt>
      <trkpt lat="45.7518710" lon="7.8672833">
        <ele>1983</ele>
      </trkpt>
      <trkpt lat="45.7516214" lon="7.8671542">
        <ele>1985</ele>
      </trkpt>
      <trkpt lat="45.7516389" lon="7.8670736">
        <ele>1986</ele>
      </trkpt>
      <trkpt lat="45.7517917" lon="7.8668085">
        <ele>1988</ele>
      </trkpt>
      <trkpt lat="45.7518262" lon="7.8665904">
        <ele>1990</ele>
      </trkpt>
      <trkpt lat="45.7518845" lon="7.8664264">
        <ele>1991</ele>
      </trkpt>
      <trkpt lat="45.7518787" lon="7.8663524">
        <ele>1993</ele>
      </trkpt>
      <trkpt lat="45.7518371" lon="7.8662483">
        <ele>1994</ele>
      </trkpt>
      <trkpt lat="45.7518245" lon="7.8661486">
        <ele>1996</ele>
      </trkpt>
      <trkpt lat="45.7517674" lon="7.8660185">
        <ele>1998</ele>
      </trkpt>
      <trkpt lat="45.7516571" lon="7.8660252">
        <ele>1999</ele>
      </trkpt>
      <trkpt lat="45.7516317" lon="7.8660062">
        <ele>2001</ele>
      </trkpt>
      <trkpt lat="45.7516155" lon="7.8658996">
        <ele>2002</ele>
      </trkpt>
      <trkpt lat="45.7516127" lon="7.8657331">
        <ele>2004</ele>
      </trkpt>
      <trkpt lat="45.7516393" lon="7.8655460">
        <ele>2006</ele>
      </trkpt>
      <trkpt lat="45.7516485" lon="7.8651901">
        <ele>2007</ele>
      </trkpt>
      <trkpt lat="45.7516497" lon="7.8648927">
        <ele>2009</ele>
      </trkpt>
      <trkpt lat="45.7516354" lon="7.8647729">
        <ele>2011</ele>
      </trkpt>
      <trkpt lat="45.7517198" lon="7.8642033">
        <ele>2012</ele>
      </trkpt>
      <trkpt lat="45.7517151" lon="7.8640896">
        <ele>2014</ele>
      </trkpt>
      <trkpt lat="45.7516679" lon="7.8639177">
        <ele>2015</ele>
      </trkpt>
      <trkpt lat="45.7516229" lon="7.8638446">
        <ele>2017</ele>
      </trkpt>
      <trkpt lat="45.7515994" lon="7.8637291">
        <ele>2019</ele>
      </trkpt>
      <trkpt lat="45.7515761" lon="7.8637316">
        <ele>2020</ele>
      </trkpt>
      <trkpt lat="45.7515508" lon="7.8637031">
        <ele>2022</ele>
      </trkpt>
      <trkpt lat="45.7515190" lon="7.8636098">
        <ele>2024</ele>
      </trkpt>
      <trkpt lat="45.7514119" lon="7.8635330">
        <ele>2025</ele>
      </trkpt>
      <trkpt lat="45.7512408" lon="7.8633553">
        <ele>2027</ele>
      </trkpt>
      <trkpt lat="45.7511785" lon="7.8633730">
        <ele>2028</ele>
      </trkpt>
      <trkpt lat="45.7511051" lon="7.8633286">
        <ele>2030</ele>
      </trkpt>
      <trkpt lat="45.7510231" lon="7.8632397">
        <ele>2032</ele>
      </trkpt>
      <trkpt lat="45.7509219" lon="7.8632067">
        <ele>2033</ele>
      </trkpt>
      <trkpt lat="45.7508366" lon="7.8630944">
        <ele>2035</ele>
      </trkpt>
      <trkpt lat="45.7507706" lon="7.8629737">
        <ele>2036</ele>
      </trkpt>
      <trkpt lat="45.7507750" lon="7.8629337">
        <ele>2038</ele>
      </trkpt>
      <trkpt lat="45.7506784" lon="7.8626941">
        <ele>2040</ele>
      </trkpt>
      <trkpt lat="45.7505328" lon="7.8623944">
        <ele>2041</ele>
      </trkpt>
      <trkpt lat="45.7505219" lon="7.8623437">
        <ele>2043</ele>
      </trkpt>
      <trkpt lat="45.7505380" lon="7.8622971">
        <ele>2045</ele>
      </trkpt>
      <trkpt lat="45.7505302" lon="7.8622043">
        <ele>2046</ele>
      </trkpt>
      <trkpt lat="45.7504732" lon="7.8620459">
        <ele>2048</ele>
      </trkpt>
      <trkpt lat="45.7504892" lon="7.8620088">
        <ele>2049</ele>
      </trkpt>
      <trkpt lat="45.7504701" lon="7.8619774">
        <ele>2051</ele>
      </trkpt>
      <trkpt lat="45.7504117" lon="7.8619519">
        <ele>2053</ele>
      </trkpt>
      <trkpt lat="45.7503448" lon="7.8617733">
        <ele>2054</ele>
      </trkpt>
      <trkpt lat="45.7502597" lon="7.8616101">
        <ele>2056</ele>
      </trkpt>
      <trkpt lat="45.7501955" lon="7.8614298">
        <ele>2057</ele>
      </trkpt>
      <trkpt lat="45.7502278" lon="7.8613910">
        <ele>2059</ele>
      </trkpt>
      <trkpt lat="45.7501738" lon="7.8612297">
        <ele>2061</ele>
      </trkpt>
      <trkpt lat="45.7501600" lon="7.8612108">
        <ele>2062</ele>
      </trkpt>
      <trkpt lat="45.7500860" lon="7.8612260">
        <ele>2064</ele>
      </trkpt>
      <trkpt lat="45.7500580" lon="7.8610924">
        <ele>2066</ele>
      </trkpt>
      <trkpt lat="45.7500699" lon="7.8610193">
        <ele>2067</ele>
      </trkpt>
      <trkpt lat="45.7499845" lon="7.8610062">
        <ele>2069</ele>
      </trkpt>
      <trkpt lat="45.7499899" lon="7.8609510">
        <ele>2070</ele>
      </trkpt>
      <trkpt lat="45.7500212" lon="7.8609364">
        <ele>2072</ele>
      </trkpt>
      <trkpt lat="45.7499923" lon="7.8608780">
        <ele>2074</ele>
      </trkpt>
      <trkpt lat="45.7499298" lon="7.8608399">
        <ele>2075</ele>
      </trkpt>
      <trkpt lat="45.7498520" lon="7.8608229">
        <ele>2077</ele>
      </trkpt>
      <trkpt lat="45.7498403" lon="7.8607728">
        <ele>2078</ele>
      </trkpt>
      <trkpt lat="45.7498235" lon="7.8607636">
        <ele>2080</ele>
      </trkpt>
      <trkpt lat="45.7497069" lon="7.8608407">
        <ele>2082</ele>
      </trkpt>
      <trkpt lat="45.7496818" lon="7.8608269">
        <ele>2083</ele>
      </trkpt>
      <trkpt lat="45.7496798" lon="7.8607902">
        <ele>2085</ele>
      </trkpt>
      <trkpt lat="45.7497419" lon="7.8606849">
        <ele>2087</ele>
      </trkpt>
      <trkpt lat="45.7497327" lon="7.8606249">
        <ele>2088</ele>
      </trkpt>
      <trkpt lat="45.7495745" lon="7.8605244">
        <ele>2090</ele>
      </trkpt>
      <trkpt lat="45.7495447" lon="7.8604649">
        <ele>2091</ele>
      </trkpt>
      <trkpt lat="45.7494738" lon="7.8604686">
        <ele>2093</ele>
      </trkpt>
      <trkpt lat="45.7494105" lon="7.8605337">
        <ele>2095</ele>
      </trkpt>
      <trkpt lat="45.7493050" lon="7.8604803">
        <ele>2096</ele>
      </trkpt>
      <trkpt lat="45.7492248" lon="7.8605471">
        <ele>2098</ele>
      </trkpt>
      <trkpt lat="45.7491954" lon="7.8605271">
        <ele>2100</ele>
      </trkpt>
      <trkpt lat="45.7491856" lon="7.8604711">
        <ele>2101</ele>
      </trkpt>
      <trkpt lat="45.7491435" lon="7.8604528">
        <ele>2103</ele>
      </trkpt>
      <trkpt lat="45.7491104" lon="7.8604979">
        <ele>2104</ele>
      </trkpt>
      <trkpt lat="45.7490753" lon="7.8606231">
        <ele>2106</ele>
      </trkpt>
      <trkpt lat="45.7490594" lon="7.8606482">
        <ele>2108</ele>
      </trkpt>
      <trkpt lat="45.7490141" lon="7.8606617">
        <ele>2109</ele>
      </trkpt>
      <trkpt lat="45.7490095" lon="7.8605812">
        <ele>2111</ele>
      </trkpt>
      <trkpt lat="45.7489490" lon="7.8606385">
        <ele>2112</ele>
      </trkpt>
      <trkpt lat="45.7489328" lon="7.8606299">
        <ele>2114</ele>
      </trkpt>
      <trkpt lat="45.7489048" lon="7.8605526">
        <ele>2116</ele>
      </trkpt>
      <trkpt lat="45.7488782" lon="7.8605408">
        <ele>2117</ele>
      </trkpt>
      <trkpt lat="45.7488437" lon="7.8606217">
        <ele>2119</ele>
      </trkpt>
      <trkpt lat="45.7488000" lon="7.8606565">
        <ele>2121</ele>
      </trkpt>
      <trkpt lat="45.7487982" lon="7.8605814">
        <ele>2122</ele>
      </trkpt>
      <trkpt lat="45.7487327" lon="7.8606333">
        <ele>2124</ele>
      </trkpt>
      <trkpt lat="45.7486850" lon="7.8605868">
        <ele>2125</ele>
      </trkpt>
      <trkpt lat="45.7486495" lon="7.8606249">
        <ele>2127</ele>
      </trkpt>
      <trkpt lat="45.7484412" lon="7.8606468">
        <ele>2129</ele>
      </trkpt>
      <trkpt lat="45.7484122" lon="7.8606160">
        <ele>2130</ele>
      </trkpt>
      <trkpt lat="45.7483633" lon="7.8606259">
        <ele>2132</ele>
      </trkpt>
      <trkpt lat="45.7483402" lon="7.8605907">
        <ele>2133</ele>
      </trkpt>
      <trkpt lat="45.7483347" lon="7.8604874">
        <ele>2135</ele>
      </trkpt>
      <trkpt lat="45.7482254" lon="7.8605136">
        <ele>2137</ele>
      </trkpt>
      <trkpt lat="45.7481761" lon="7.8605772">
        <ele>2138</ele>
      </trkpt>
      <trkpt lat="45.7481475" lon="7.8605497">
        <ele>2140</ele>
      </trkpt>
      <trkpt lat="45.7481079" lon="7.8605619">
        <ele>2142</ele>
      </trkpt>
      <trkpt lat="45.7480436" lon="7.8604738">
        <ele>2143</ele>
      </trkpt>
      <trkpt lat="45.7479625" lon="7.8605123">
        <ele>2145</ele>
      </trkpt>
      <trkpt lat="45.7479239" lon="7.8605073">
        <ele>2146</ele>
      </trkpt>
      <trkpt lat="45.7478403" lon="7.8605850">
        <ele>2148</ele>
      </trkpt>
      <trkpt lat="45.7478209" lon="7.8605757">
        <ele>2150</ele>
      </trkpt>
      <trkpt lat="45.7478062" lon="7.8604888">
        <ele>2151</ele>
      </trkpt>
      <trkpt lat="45.7477693" lon="7.8604944">
        <ele>2153</ele>
      </trkpt>
      <trkpt lat="45.7477499" lon="7.8604478">
        <ele>2155</ele>
      </trkpt>
      <trkpt lat="45.7475978" lon="7.8603821">
        <ele>2156</ele>
      </trkpt>
      <trkpt lat="45.7475380" lon="7.8603825">
        <ele>2158</ele>
      </trkpt>
      <trkpt lat="45.7474312" lon="7.8603455">
        <ele>2159</ele>
      </trkpt>
      <trkpt lat="45.7473588" lon="7.8602751">
        <ele>2161</ele>
      </trkpt>
      <trkpt lat="45.7473022" lon="7.8602482">
        <ele>2163</ele>
      </trkpt>
      <trkpt lat="45.7472706" lon="7.8602173">
        <ele>2164</ele>
      </trkpt>
      <trkpt lat="45.7472326" lon="7.8601219">
        <ele>2166</ele>
      </trkpt>
      <trkpt lat="45.7471888" lon="7.8600954">
        <ele>2167</ele>
      </trkpt>
      <trkpt lat="45.7471650" lon="7.8600066">
        <ele>2169</ele>
      </trkpt>
      <trkpt lat="45.7471286" lon="7.8599908">
        <ele>2171</ele>
      </trkpt>
      <trkpt lat="45.7471064" lon="7.8599541">
        <ele>2172</ele>
      </trkpt>
      <trkpt lat="45.7470996" lon="7.8599328">
        <ele>2174</ele>
      </trkpt>
      <trkpt lat="45.7471161" lon="7.8599004">
        <ele>2176</ele>
      </trkpt>
      <trkpt lat="45.7470623" lon="7.8597754">
        <ele>2177</ele>
      </trkpt>
      <trkpt lat="45.7469232" lon="7.8597199">
        <ele>2179</ele>
      </trkpt>
      <trkpt lat="45.7468665" lon="7.8596355">
        <ele>2180</ele>
      </trkpt>
      <trkpt lat="45.7468005" lon="7.8595936">
        <ele>2182</ele>
      </trkpt>
      <trkpt lat="45.7467873" lon="7.8595522">
        <ele>2184</ele>
      </trkpt>
      <trkpt lat="45.7466873" lon="7.8594450">
        <ele>2185</ele>
      </trkpt>
      <trkpt lat="45.7465999" lon="7.8593164">
        <ele>2187</ele>
      </trkpt>
      <trkpt lat="45.7465240" lon="7.8593433">
        <ele>2188</ele>
      </trkpt>
      <trkpt lat="45.7465096" lon="7.8592447">
        <ele>2190</ele>
      </trkpt>
      <trkpt lat="45.7464582" lon="7.8591040">
        <ele>2192</ele>
      </trkpt>
      <trkpt lat="45.7464877" lon="7.8590828">
        <ele>2193</ele>
      </trkpt>
      <trkpt lat="45.7465047" lon="7.8590212">
        <ele>2195</ele>
      </trkpt>
      <trkpt lat="45.7465188" lon="7.8590376">
        <ele>2197</ele>
      </trkpt>
      <trkpt lat="45.7465070" lon="7.8590060">
        <ele>2198</ele>
      </trkpt>
      <trkpt lat="45.7463867" lon="7.8588675">
        <ele>2200</ele>
      </trkpt>
      <trkpt lat="45.7463674" lon="7.8588733">
        <ele>2201</ele>
      </trkpt>
      <trkpt lat="45.7463498" lon="7.8588518">
        <ele>2203</ele>
      </trkpt>
      <trkpt lat="45.7463256" lon="7.8588107">
        <ele>2205</ele>
      </trkpt>
      <trkpt lat="45.7463391" lon="7.8587923">
        <ele>2206</ele>
      </trkpt>
      <trkpt lat="45.7462587" lon="7.8587176">
        <ele>2208</ele>
      </trkpt>
      <trkpt lat="45.7462326" lon="7.8586381">
        <ele>2210</ele>
      </trkpt>
      <trkpt lat="45.7462012" lon="7.8586010">
        <ele>2211</ele>
      </trkpt>
      <trkpt lat="45.7461466" lon="7.8585928">
        <ele>2213</ele>
      </trkpt>
      <trkpt lat="45.7461251" lon="7.8585232">
        <ele>2214</ele>
      </trkpt>
      <trkpt lat="45.7460791" lon="7.8585499">
        <ele>2216</ele>
      </trkpt>
      <trkpt lat="45.7460024" lon="7.8584966">
        <ele>2218</ele>
      </trkpt>
      <trkpt lat="45.7459754" lon="7.8583902">
        <ele>2219</ele>
      </trkpt>
      <trkpt lat="45.7458823" lon="7.8583657">
        <ele>2221</ele>
      </trkpt>
      <trkpt lat="45.7458640" lon="7.8584118">
        <ele>2222</ele>
      </trkpt>
      <trkpt lat="45.7458370" lon="7.8583836">
        <ele>2224</ele>
      </trkpt>
      <trkpt lat="45.7458033" lon="7.8582370">
        <ele>2226</ele>
      </trkpt>
      <trkpt lat="45.7457693" lon="7.8581794">
        <ele>2227</ele>
      </trkpt>
      <trkpt lat="45.7455944" lon="7.8580592">
        <ele>2229</ele>
      </trkpt>
      <trkpt lat="45.7455975" lon="7.8580215">
        <ele>2231</ele>
      </trkpt>
      <trkpt lat="45.7456889" lon="7.8579587">
        <ele>2232</ele>
      </trkpt>
      <trkpt lat="45.7457181" lon="7.8579090">
        <ele>2234</ele>
      </trkpt>
      <trkpt lat="45.7457196" lon="7.8578644">
        <ele>2235</ele>
      </trkpt>
      <trkpt lat="45.7456447" lon="7.8578240">
        <ele>2237</ele>
      </trkpt>
      <trkpt lat="45.7456308" lon="7.8577826">
        <ele>2239</ele>
      </trkpt>
      <trkpt lat="45.7456998" lon="7.8577010">
        <ele>2240</ele>
      </trkpt>
      <trkpt lat="45.7457207" lon="7.8576473">
        <ele>2242</ele>
      </trkpt>
      <trkpt lat="45.7458616" lon="7.8575694">
        <ele>2243</ele>
      </trkpt>
      <trkpt lat="45.7458883" lon="7.8575741">
        <ele>2245</ele>
      </trkpt>
      <trkpt lat="45.7458828" lon="7.8575303">
        <ele>2247</ele>
      </trkpt>
      <trkpt lat="45.7459042" lon="7.8575132">
        <ele>2248</ele>
      </trkpt>
      <trkpt lat="45.7460170" lon="7.8575600">
        <ele>2250</ele>
      </trkpt>
      <trkpt lat="45.7461578" lon="7.8574932">
        <ele>2252</ele>
      </trkpt>
      <trkpt lat="45.7462363" lon="7.8573183">
        <ele>2253</ele>
      </trkpt>
      <trkpt lat="45.7462455" lon="7.8572934">
        <ele>2255</ele>
      </trkpt>
      <trkpt lat="45.7462226" lon="7.8572270">
        <ele>2256</ele>
      </trkpt>
      <trkpt lat="45.7461055" lon="7.8570734">
        <ele>2258</ele>
      </trkpt>
      <trkpt lat="45.7461040" lon="7.8569123">
        <ele>2260</ele>
      </trkpt>
      <trkpt lat="45.7461636" lon="7.8567423">
        <ele>2261</ele>
      </trkpt>
      <trkpt lat="45.7461683" lon="7.8566546">
        <ele>2263</ele>
      </trkpt>
      <trkpt lat="45.7462149" lon="7.8564243">
        <ele>2265</ele>
      </trkpt>
      <trkpt lat="45.7462759" lon="7.8563288">
        <ele>2266</ele>
      </trkpt>
      <trkpt lat="45.7463158" lon="7.8561922">
        <ele>2268</ele>
      </trkpt>
      <trkpt lat="45.7463474" lon="7.8561825">
        <ele>2269</ele>
      </trkpt>
      <trkpt lat="45.7463630" lon="7.8561250">
        <ele>2271</ele>
      </trkpt>
      <trkpt lat="45.7463843" lon="7.8561310">
        <ele>2273</ele>
      </trkpt>
      <trkpt lat="45.7464012" lon="7.8560943">
        <ele>2274</ele>
      </trkpt>
      <trkpt lat="45.7464123" lon="7.8560996">
        <ele>2276</ele>
      </trkpt>
      <trkpt lat="45.7464707" lon="7.8559536">
        <ele>2277</ele>
      </trkpt>
      <trkpt lat="45.7465437" lon="7.8559122">
        <ele>2279</ele>
      </trkpt>
      <trkpt lat="45.7465761" lon="7.8558530">
        <ele>2281</ele>
      </trkpt>
      <trkpt lat="45.7466369" lon="7.8557046">
        <ele>2282</ele>
      </trkpt>
      <trkpt lat="45.7466526" lon="7.8555978">
        <ele>2284</ele>
      </trkpt>
      <trkpt lat="45.7466400" lon="7.8555748">
        <ele>2286</ele>
      </trkpt>
      <trkpt lat="45.7466923" lon="7.8554096">
        <ele>2287</ele>
      </trkpt>
      <trkpt lat="45.7467214" lon="7.8553427">
        <ele>2289</ele>
      </trkpt>
      <trkpt lat="45.7467981" lon="7.8552568">
        <ele>2290</ele>
      </trkpt>
      <trkpt lat="45.7468163" lon="7.8551961">
        <ele>2292</ele>
      </trkpt>
      <trkpt lat="45.7468368" lon="7.8551978">
        <ele>2294</ele>
      </trkpt>
      <trkpt lat="45.7468511" lon="7.8551677">
        <ele>2295</ele>
      </trkpt>
      <trkpt lat="45.7468987" lon="7.8551653">
        <ele>2297</ele>
      </trkpt>
      <trkpt lat="45.7469010" lon="7.8551178">
        <ele>2298</ele>
      </trkpt>
      <trkpt lat="45.7469440" lon="7.8551120">
        <ele>2300</ele>
      </trkpt>
      <trkpt lat="45.7469703" lon="7.8549699">
        <ele>2302</ele>
      </trkpt>
      <trkpt lat="45.7469915" lon="7.8549464">
        <ele>2303</ele>
      </trkpt>
      <trkpt lat="45.7471010" lon="7.8548513">
        <ele>2305</ele>
      </trkpt>
      <trkpt lat="45.7472448" lon="7.8548233">
        <ele>2307</ele>
      </trkpt>
      <trkpt lat="45.7472666" lon="7.8547548">
        <ele>2308</ele>
      </trkpt>
      <trkpt lat="45.7472644" lon="7.8546738">
        <ele>2310</ele>
      </trkpt>
      <trkpt lat="45.7472925" lon="7.8545049">
        <ele>2311</ele>
      </trkpt>
      <trkpt lat="45.7473138" lon="7.8544739">
        <ele>2313</ele>
      </trkpt>
      <trkpt lat="45.7473517" lon="7.8544629">
        <ele>2315</ele>
      </trkpt>
      <trkpt lat="45.7474726" lon="7.8543244">
        <ele>2316</ele>
      </trkpt>
      <trkpt lat="45.7475017" lon="7.8542237">
        <ele>2318</ele>
      </trkpt>
      <trkpt lat="45.7474970" lon="7.8541500">
        <ele>2320</ele>
      </trkpt>
      <trkpt lat="45.7475486" lon="7.8540476">
        <ele>2321</ele>
      </trkpt>
      <trkpt lat="45.7475778" lon="7.8540298">
        <ele>2323</ele>
      </trkpt>
      <trkpt lat="45.7476014" lon="7.8539208">
        <ele>2324</ele>
      </trkpt>
      <trkpt lat="45.7476817" lon="7.8536926">
        <ele>2326</ele>
      </trkpt>
      <trkpt lat="45.7477435" lon="7.8535909">
        <ele>2328</ele>
      </trkpt>
      <trkpt lat="45.7478737" lon="7.8535814">
        <ele>2329</ele>
      </trkpt>
      <trkpt lat="45.7479374" lon="7.8535392">
        <ele>2331</ele>
      </trkpt>
      <trkpt lat="45.7479468" lon="7.8534084">
        <ele>2332</ele>
      </trkpt>
      <trkpt lat="45.7480392" lon="7.8532463">
        <ele>2334</ele>
      </trkpt>
      <trkpt lat="45.7480874" lon="7.8531908">
        <ele>2336</ele>
      </trkpt>
      <trkpt lat="45.7481002" lon="7.8531067">
        <ele>2337</ele>
      </trkpt>
      <trkpt lat="45.7481316" lon="7.8530669">
        <ele>2339</ele>
      </trkpt>
      <trkpt lat="45.7481368" lon="7.8530448">
        <ele>2341</ele>
      </trkpt>
      <trkpt lat="45.7481085" lon="7.8530321">
        <ele>2342</ele>
      </trkpt>
      <trkpt lat="45.7481298" lon="7.8528612">
        <ele>2344</ele>
      </trkpt>
      <trkpt lat="45.7483205" lon="7.8525742">
        <ele>2345</ele>
      </trkpt>
      <trkpt lat="45.7483385" lon="7.8524877">
        <ele>2347</ele>
      </trkpt>
      <trkpt lat="45.7483982" lon="7.8524400">
        <ele>2349</ele>
      </trkpt>
      <trkpt lat="45.7484318" lon="7.8523332">
        <ele>2350</ele>
      </trkpt>
      <trkpt lat="45.7485014" lon="7.8522173">
        <ele>2352</ele>
      </trkpt>
      <trkpt lat="45.7485729" lon="7.8521445">
        <ele>2353</ele>
      </trkpt>
      <trkpt lat="45.7485756" lon="7.8521234">
        <ele>2355</ele>
      </trkpt>
      <trkpt lat="45.7486677" lon="7.8520773">
        <ele>2357</ele>
      </trkpt>
      <trkpt lat="45.7487328" lon="7.8519961">
        <ele>2358</ele>
      </trkpt>
      <trkpt lat="45.7487209" lon="7.8519309">
        <ele>2360</ele>
      </trkpt>
      <trkpt lat="45.7487442" lon="7.8519011">
        <ele>2362</ele>
      </trkpt>
      <trkpt lat="45.7487423" lon="7.8516668">
        <ele>2363</ele>
      </trkpt>
      <trkpt lat="45.7488088" lon="7.8515640">
        <ele>2365</ele>
      </trkpt>
      <trkpt lat="45.7488553" lon="7.8514376">
        <ele>2366</ele>
      </trkpt>
      <trkpt lat="45.7489273" lon="7.8513098">
        <ele>2368</ele>
      </trkpt>
      <trkpt lat="45.7489743" lon="7.8511697">
        <ele>2370</ele>
      </trkpt>
      <trkpt lat="45.7490656" lon="7.8510412">
        <ele>2371</ele>
      </trkpt>
      <trkpt lat="45.7491143" lon="7.8508039">
        <ele>2373</ele>
      </trkpt>
      <trkpt lat="45.7492059" lon="7.8506553">
        <ele>2375</ele>
      </trkpt>
      <trkpt lat="45.7491860" lon="7.8505371">
        <ele>2376</ele>
      </trkpt>
      <trkpt lat="45.7493296" lon="7.8502406">
        <ele>2378</ele>
      </trkpt>
      <trkpt lat="45.7494667" lon="7.8498211">
        <ele>2379</ele>
      </trkpt>
      <trkpt lat="45.7494821" lon="7.8497157">
        <ele>2381</ele>
      </trkpt>
      <trkpt lat="45.7495945" lon="7.8495797">
        <ele>2383</ele>
      </trkpt>
      <trkpt lat="45.7496170" lon="7.8494725">
        <ele>2384</ele>
      </trkpt>
      <trkpt lat="45.7497132" lon="7.8493798">
        <ele>2386</ele>
      </trkpt>
      <trkpt lat="45.7498031" lon="7.8492410">
        <ele>2387</ele>
      </trkpt>
      <trkpt lat="45.7498195" lon="7.8491997">
        <ele>2389</ele>
      </trkpt>
      <trkpt lat="45.7498105" lon="7.8491090">
        <ele>2391</ele>
      </trkpt>
      <trkpt lat="45.7498876" lon="7.8490351">
        <ele>2392</ele>
      </trkpt>
      <trkpt lat="45.7498670" lon="7.8489315">
        <ele>2394</ele>
      </trkpt>
      <trkpt lat="45.7497129" lon="7.8487842">
        <ele>2396</ele>
      </trkpt>
      <trkpt lat="45.7496363" lon="7.8486522">
        <ele>2397</ele>
      </trkpt>
      <trkpt lat="45.7496355" lon="7.8486123">
        <ele>2399</ele>
      </trkpt>
      <trkpt lat="45.7496641" lon="7.8485702">
        <ele>2400</ele>
      </trkpt>
      <trkpt lat="45.7496822" lon="7.8484536">
        <ele>2402</ele>
      </trkpt>
    </trkseg>
  </trk>
</gpx>
