<?xml version="1.0" encoding="UTF-8"?>
<gpx version="1.1" creator="sentieri-vda" xmlns="http://www.topografix.com/GPX/1/1">
  <metadata>
    <name>Les Combes - Combientse - Plan Bry (confine comunale Valgrisenche)</name>
    <desc>Catasto Sentieri VdA — 35_S9</desc>
    <author><name>Regione Autonoma Valle d'Aosta</name></author>
  </metadata>
  <trk>
    <name>Les Combes - Combientse - Plan Bry (confine comunale Valgrisenche)</name>
    <src>Catasto Sentieri VdA (35_S9)</src>
    <trkseg>
      <trkpt lat="45.6682848" lon="7.1332140">
        <ele>1366</ele>
      </trkpt>
      <trkpt lat="45.6682917" lon="7.1336374">
        <ele>1369</ele>
      </trkpt>
      <trkpt lat="45.6682346" lon="7.1339988">
        <ele>1372</ele>
      </trkpt>
      <trkpt lat="45.6681007" lon="7.1346194">
        <ele>1375</ele>
      </trkpt>
      <trkpt lat="45.6680936" lon="7.1352872">
        <ele>1378</ele>
      </trkpt>
      <trkpt lat="45.6682424" lon="7.1355775">
        <ele>1381</ele>
      </trkpt>
      <trkpt lat="45.6685081" lon="7.1364160">
        <ele>1384</ele>
      </trkpt>
      <trkpt lat="45.6686945" lon="7.1368078">
        <ele>1387</ele>
      </trkpt>
      <trkpt lat="45.6687604" lon="7.1369853">
        <ele>1390</ele>
      </trkpt>
      <trkpt lat="45.6687817" lon="7.1371900">
        <ele>1393</ele>
      </trkpt>
      <trkpt lat="45.6688022" lon="7.1378954">
        <ele>1396</ele>
      </trkpt>
      <trkpt lat="45.6688602" lon="7.1381374">
        <ele>1399</ele>
      </trkpt>
      <trkpt lat="45.6689997" lon="7.1384152">
        <ele>1402</ele>
      </trkpt>
      <trkpt lat="45.6691826" lon="7.1385889">
        <ele>1405</ele>
      </trkpt>
      <trkpt lat="45.6694322" lon="7.1389915">
        <ele>1408</ele>
      </trkpt>
      <trkpt lat="45.6696568" lon="7.1395232">
        <ele>1411</ele>
      </trkpt>
      <trkpt lat="45.6699637" lon="7.1401293">
        <ele>1414</ele>
      </trkpt>
      <trkpt lat="45.6701198" lon="7.1403167">
        <ele>1417</ele>
      </trkpt>
      <trkpt lat="45.6707491" lon="7.1413742">
        <ele>1420</ele>
      </trkpt>
      <trkpt lat="45.6708545" lon="7.1417687">
        <ele>1423</ele>
      </trkpt>
      <trkpt lat="45.6709844" lon="7.1420084">
        <ele>1426</ele>
      </trkpt>
      <trkpt lat="45.6710386" lon="7.1420194">
        <ele>1429</ele>
      </trkpt>
      <trkpt lat="45.6711116" lon="7.1420812">
        <ele>1432</ele>
      </trkpt>
      <trkpt lat="45.6712867" lon="7.1423322">
        <ele>1435</ele>
      </trkpt>
      <trkpt lat="45.6715986" lon="7.1426942">
        <ele>1438</ele>
      </trkpt>
      <trkpt lat="45.6719444" lon="7.1429266">
        <ele>1441</ele>
      </trkpt>
      <trkpt lat="45.6722157" lon="7.1430075">
        <ele>1444</ele>
      </trkpt>
      <trkpt lat="45.6724348" lon="7.1431929">
        <ele>1447</ele>
      </trkpt>
      <trkpt lat="45.6726009" lon="7.1434441">
        <ele>1450</ele>
      </trkpt>
      <trkpt lat="45.6727954" lon="7.1437844">
        <ele>1453</ele>
      </trkpt>
      <trkpt lat="45.6729220" lon="7.1439567">
        <ele>1456</ele>
      </trkpt>
      <trkpt lat="45.6732251" lon="7.1447990">
        <ele>1459</ele>
      </trkpt>
      <trkpt lat="45.6734681" lon="7.1455300">
        <ele>1462</ele>
      </trkpt>
      <trkpt lat="45.6738449" lon="7.1460813">
        <ele>1465</ele>
      </trkpt>
      <trkpt lat="45.6741536" lon="7.1463618">
        <ele>1468</ele>
      </trkpt>
      <trkpt lat="45.6746380" lon="7.1477838">
        <ele>1470</ele>
      </trkpt>
      <trkpt lat="45.6748401" lon="7.1481752">
        <ele>1473</ele>
      </trkpt>
      <trkpt lat="45.6749561" lon="7.1485308">
        <ele>1476</ele>
      </trkpt>
      <trkpt lat="45.6751355" lon="7.1487689">
        <ele>1479</ele>
      </trkpt>
      <trkpt lat="45.6753072" lon="7.1490874">
        <ele>1482</ele>
      </trkpt>
      <trkpt lat="45.6753667" lon="7.1494321">
        <ele>1485</ele>
      </trkpt>
      <trkpt lat="45.6754728" lon="7.1498651">
        <ele>1488</ele>
      </trkpt>
      <trkpt lat="45.6755855" lon="7.1501567">
        <ele>1491</ele>
      </trkpt>
      <trkpt lat="45.6756618" lon="7.1504206">
        <ele>1494</ele>
      </trkpt>
      <trkpt lat="45.6757741" lon="7.1506898">
        <ele>1497</ele>
      </trkpt>
      <trkpt lat="45.6758032" lon="7.1508172">
        <ele>1500</ele>
      </trkpt>
      <trkpt lat="45.6758778" lon="7.1509785">
        <ele>1503</ele>
      </trkpt>
      <trkpt lat="45.6759728" lon="7.1512867">
        <ele>1506</ele>
      </trkpt>
      <trkpt lat="45.6760312" lon="7.1515576">
        <ele>1509</ele>
      </trkpt>
      <trkpt lat="45.6761322" lon="7.1522380">
        <ele>1512</ele>
      </trkpt>
      <trkpt lat="45.6761986" lon="7.1527269">
        <ele>1515</ele>
      </trkpt>
      <trkpt lat="45.6762063" lon="7.1534778">
        <ele>1518</ele>
      </trkpt>
      <trkpt lat="45.6761950" lon="7.1538922">
        <ele>1521</ele>
      </trkpt>
      <trkpt lat="45.6762094" lon="7.1542256">
        <ele>1524</ele>
      </trkpt>
      <trkpt lat="45.6762519" lon="7.1546318">
        <ele>1527</ele>
      </trkpt>
      <trkpt lat="45.6763393" lon="7.1550238">
        <ele>1530</ele>
      </trkpt>
      <trkpt lat="45.6764096" lon="7.1551980">
        <ele>1533</ele>
      </trkpt>
      <trkpt lat="45.6767339" lon="7.1557748">
        <ele>1536</ele>
      </trkpt>
      <trkpt lat="45.6768351" lon="7.1559095">
        <ele>1539</ele>
      </trkpt>
      <trkpt lat="45.6769218" lon="7.1559836">
        <ele>1542</ele>
      </trkpt>
      <trkpt lat="45.6770600" lon="7.1560433">
        <ele>1545</ele>
      </trkpt>
      <trkpt lat="45.6771565" lon="7.1561621">
        <ele>1548</ele>
      </trkpt>
      <trkpt lat="45.6773007" lon="7.1565939">
        <ele>1551</ele>
      </trkpt>
      <trkpt lat="45.6776130" lon="7.1571229">
        <ele>1554</ele>
      </trkpt>
      <trkpt lat="45.6778202" lon="7.1575527">
        <ele>1557</ele>
      </trkpt>
      <trkpt lat="45.6780076" lon="7.1580088">
        <ele>1560</ele>
      </trkpt>
      <trkpt lat="45.6780832" lon="7.1582310">
        <ele>1563</ele>
      </trkpt>
      <trkpt lat="45.6782024" lon="7.1589269">
        <ele>1566</ele>
      </trkpt>
      <trkpt lat="45.6781571" lon="7.1591884">
        <ele>1569</ele>
      </trkpt>
      <trkpt lat="45.6780612" lon="7.1596573">
        <ele>1572</ele>
      </trkpt>
      <trkpt lat="45.6779002" lon="7.1599937">
        <ele>1575</ele>
      </trkpt>
      <trkpt lat="45.6778600" lon="7.1602199">
        <ele>1578</ele>
      </trkpt>
      <trkpt lat="45.6777684" lon="7.1605102">
        <ele>1581</ele>
      </trkpt>
      <trkpt lat="45.6776835" lon="7.1606754">
        <ele>1584</ele>
      </trkpt>
      <trkpt lat="45.6776991" lon="7.1608311">
        <ele>1587</ele>
      </trkpt>
      <trkpt lat="45.6778455" lon="7.1609512">
        <ele>1590</ele>
      </trkpt>
      <trkpt lat="45.6779776" lon="7.1609906">
        <ele>1593</ele>
      </trkpt>
      <trkpt lat="45.6780556" lon="7.1609444">
        <ele>1596</ele>
      </trkpt>
      <trkpt lat="45.6781372" lon="7.1608417">
        <ele>1599</ele>
      </trkpt>
      <trkpt lat="45.6782847" lon="7.1607557">
        <ele>1602</ele>
      </trkpt>
      <trkpt lat="45.6784397" lon="7.1607256">
        <ele>1605</ele>
      </trkpt>
      <trkpt lat="45.6786632" lon="7.1607370">
        <ele>1608</ele>
      </trkpt>
      <trkpt lat="45.6788707" lon="7.1608427">
        <ele>1611</ele>
      </trkpt>
      <trkpt lat="45.6789977" lon="7.1611134">
        <ele>1614</ele>
      </trkpt>
      <trkpt lat="45.6791052" lon="7.1609912">
        <ele>1617</ele>
      </trkpt>
      <trkpt lat="45.6792051" lon="7.1609442">
        <ele>1620</ele>
      </trkpt>
      <trkpt lat="45.6792779" lon="7.1611105">
        <ele>1623</ele>
      </trkpt>
      <trkpt lat="45.6793471" lon="7.1613331">
        <ele>1626</ele>
      </trkpt>
      <trkpt lat="45.6794748" lon="7.1613726">
        <ele>1629</ele>
      </trkpt>
      <trkpt lat="45.6795549" lon="7.1613200">
        <ele>1632</ele>
      </trkpt>
      <trkpt lat="45.6796453" lon="7.1612234">
        <ele>1635</ele>
      </trkpt>
      <trkpt lat="45.6796941" lon="7.1612593">
        <ele>1638</ele>
      </trkpt>
      <trkpt lat="45.6797416" lon="7.1614888">
        <ele>1641</ele>
      </trkpt>
      <trkpt lat="45.6798218" lon="7.1615737">
        <ele>1644</ele>
      </trkpt>
      <trkpt lat="45.6799444" lon="7.1615759">
        <ele>1647</ele>
      </trkpt>
      <trkpt lat="45.6800859" lon="7.1616587">
        <ele>1650</ele>
      </trkpt>
      <trkpt lat="45.6802924" lon="7.1619768">
        <ele>1653</ele>
      </trkpt>
      <trkpt lat="45.6804634" lon="7.1619900">
        <ele>1656</ele>
      </trkpt>
      <trkpt lat="45.6805656" lon="7.1619429">
        <ele>1659</ele>
      </trkpt>
      <trkpt lat="45.6806510" lon="7.1618089">
        <ele>1662</ele>
      </trkpt>
      <trkpt lat="45.6808919" lon="7.1612700">
        <ele>1665</ele>
      </trkpt>
      <trkpt lat="45.6810125" lon="7.1611411">
        <ele>1668</ele>
      </trkpt>
      <trkpt lat="45.6810364" lon="7.1609966">
        <ele>1671</ele>
      </trkpt>
      <trkpt lat="45.6810724" lon="7.1602395">
        <ele>1673</ele>
      </trkpt>
      <trkpt lat="45.6811353" lon="7.1595252">
        <ele>1676</ele>
      </trkpt>
      <trkpt lat="45.6812815" lon="7.1593580">
        <ele>1679</ele>
      </trkpt>
      <trkpt lat="45.6814936" lon="7.1592011">
        <ele>1682</ele>
      </trkpt>
      <trkpt lat="45.6817460" lon="7.1591054">
        <ele>1685</ele>
      </trkpt>
      <trkpt lat="45.6817697" lon="7.1589422">
        <ele>1688</ele>
      </trkpt>
      <trkpt lat="45.6817007" lon="7.1587383">
        <ele>1691</ele>
      </trkpt>
      <trkpt lat="45.6815886" lon="7.1585733">
        <ele>1694</ele>
      </trkpt>
      <trkpt lat="45.6815728" lon="7.1584113">
        <ele>1697</ele>
      </trkpt>
      <trkpt lat="45.6816546" lon="7.1583212">
        <ele>1700</ele>
      </trkpt>
      <trkpt lat="45.6821102" lon="7.1583375">
        <ele>1703</ele>
      </trkpt>
      <trkpt lat="45.6821749" lon="7.1582729">
        <ele>1706</ele>
      </trkpt>
      <trkpt lat="45.6821109" lon="7.1581063">
        <ele>1709</ele>
      </trkpt>
      <trkpt lat="45.6819792" lon="7.1579835">
        <ele>1712</ele>
      </trkpt>
      <trkpt lat="45.6815351" lon="7.1576390">
        <ele>1715</ele>
      </trkpt>
      <trkpt lat="45.6815851" lon="7.1567490">
        <ele>1718</ele>
      </trkpt>
      <trkpt lat="45.6813951" lon="7.1564190">
        <ele>1721</ele>
      </trkpt>
      <trkpt lat="45.6818351" lon="7.1560290">
        <ele>1724</ele>
      </trkpt>
      <trkpt lat="45.6818651" lon="7.1558390">
        <ele>1727</ele>
      </trkpt>
      <trkpt lat="45.6820051" lon="7.1557990">
        <ele>1730</ele>
      </trkpt>
      <trkpt lat="45.6821151" lon="7.1554090">
        <ele>1733</ele>
      </trkpt>
      <trkpt lat="45.6825851" lon="7.1548590">
        <ele>1736</ele>
      </trkpt>
      <trkpt lat="45.6827019" lon="7.1546020">
        <ele>1739</ele>
      </trkpt>
      <trkpt lat="45.6827526" lon="7.1542086">
        <ele>1742</ele>
      </trkpt>
      <trkpt lat="45.6828132" lon="7.1540601">
        <ele>1745</ele>
      </trkpt>
      <trkpt lat="45.6829053" lon="7.1539146">
        <ele>1748</ele>
      </trkpt>
      <trkpt lat="45.6831338" lon="7.1538517">
        <ele>1751</ele>
      </trkpt>
      <trkpt lat="45.6832972" lon="7.1536537">
        <ele>1754</ele>
      </trkpt>
      <trkpt lat="45.6834224" lon="7.1537703">
        <ele>1757</ele>
      </trkpt>
      <trkpt lat="45.6834754" lon="7.1538196">
        <ele>1760</ele>
      </trkpt>
      <trkpt lat="45.6835704" lon="7.1538502">
        <ele>1763</ele>
      </trkpt>
      <trkpt lat="45.6838001" lon="7.1538639">
        <ele>1766</ele>
      </trkpt>
      <trkpt lat="45.6840418" lon="7.1540598">
        <ele>1769</ele>
      </trkpt>
      <trkpt lat="45.6841479" lon="7.1542221">
        <ele>1772</ele>
      </trkpt>
      <trkpt lat="45.6842412" lon="7.1544273">
        <ele>1775</ele>
      </trkpt>
    </trkseg>
  </trk>
</gpx>
