<?xml version="1.0" encoding="UTF-8"?>
<gpx version="1.1" creator="sentieri-vda" xmlns="http://www.topografix.com/GPX/1/1">
  <metadata>
    <name>Cossèi - Belvedere Tsan</name>
    <desc>Catasto Sentieri VdA — 35_S15</desc>
    <author><name>Regione Autonoma Valle d'Aosta</name></author>
  </metadata>
  <trk>
    <name>Cossèi - Belvedere Tsan</name>
    <src>Catasto Sentieri VdA (35_S15)</src>
    <trkseg>
      <trkpt lat="45.6894470" lon="7.1761339">
        <ele>1029</ele>
      </trkpt>
      <trkpt lat="45.6894228" lon="7.1761562">
        <ele>1030</ele>
      </trkpt>
      <trkpt lat="45.6893204" lon="7.1762480">
        <ele>1032</ele>
      </trkpt>
      <trkpt lat="45.6892394" lon="7.1763176">
        <ele>1033</ele>
      </trkpt>
      <trkpt lat="45.6892011" lon="7.1763585">
        <ele>1035</ele>
      </trkpt>
      <trkpt lat="45.6891555" lon="7.1763875">
        <ele>1036</ele>
      </trkpt>
      <trkpt lat="45.6890698" lon="7.1764238">
        <ele>1037</ele>
      </trkpt>
      <trkpt lat="45.6888567" lon="7.1764785">
        <ele>1039</ele>
      </trkpt>
      <trkpt lat="45.6887649" lon="7.1765018">
        <ele>1040</ele>
      </trkpt>
      <trkpt lat="45.6886701" lon="7.1765479">
        <ele>1042</ele>
      </trkpt>
      <trkpt lat="45.6885033" lon="7.1766146">
        <ele>1043</ele>
      </trkpt>
      <trkpt lat="45.6884028" lon="7.1766214">
        <ele>1044</ele>
      </trkpt>
      <trkpt lat="45.6883199" lon="7.1766217">
        <ele>1046</ele>
      </trkpt>
      <trkpt lat="45.6882193" lon="7.1766055">
        <ele>1047</ele>
      </trkpt>
      <trkpt lat="45.6880278" lon="7.1765834">
        <ele>1049</ele>
      </trkpt>
      <trkpt lat="45.6878605" lon="7.1765685">
        <ele>1050</ele>
      </trkpt>
      <trkpt lat="45.6876384" lon="7.1765507">
        <ele>1051</ele>
      </trkpt>
      <trkpt lat="45.6875768" lon="7.1765511">
        <ele>1053</ele>
      </trkpt>
      <trkpt lat="45.6875586" lon="7.1765141">
        <ele>1054</ele>
      </trkpt>
      <trkpt lat="45.6874483" lon="7.1764725">
        <ele>1055</ele>
      </trkpt>
      <trkpt lat="45.6873375" lon="7.1764565">
        <ele>1057</ele>
      </trkpt>
      <trkpt lat="45.6872339" lon="7.1764623">
        <ele>1058</ele>
      </trkpt>
      <trkpt lat="45.6870493" lon="7.1764649">
        <ele>1060</ele>
      </trkpt>
      <trkpt lat="45.6868959" lon="7.1764729">
        <ele>1061</ele>
      </trkpt>
      <trkpt lat="45.6867576" lon="7.1763786">
        <ele>1062</ele>
      </trkpt>
      <trkpt lat="45.6867384" lon="7.1763725">
        <ele>1064</ele>
      </trkpt>
      <trkpt lat="45.6867257" lon="7.1763681">
        <ele>1065</ele>
      </trkpt>
      <trkpt lat="45.6867102" lon="7.1763577">
        <ele>1067</ele>
      </trkpt>
      <trkpt lat="45.6866966" lon="7.1763498">
        <ele>1068</ele>
      </trkpt>
      <trkpt lat="45.6866842" lon="7.1763465">
        <ele>1069</ele>
      </trkpt>
      <trkpt lat="45.6866455" lon="7.1763291">
        <ele>1071</ele>
      </trkpt>
      <trkpt lat="45.6866224" lon="7.1762185">
        <ele>1072</ele>
      </trkpt>
      <trkpt lat="45.6865831" lon="7.1761849">
        <ele>1074</ele>
      </trkpt>
      <trkpt lat="45.6863850" lon="7.1761351">
        <ele>1075</ele>
      </trkpt>
      <trkpt lat="45.6863284" lon="7.1761297">
        <ele>1076</ele>
      </trkpt>
      <trkpt lat="45.6862586" lon="7.1761149">
        <ele>1078</ele>
      </trkpt>
      <trkpt lat="45.6861464" lon="7.1760697">
        <ele>1079</ele>
      </trkpt>
      <trkpt lat="45.6860839" lon="7.1760530">
        <ele>1081</ele>
      </trkpt>
      <trkpt lat="45.6859039" lon="7.1759285">
        <ele>1082</ele>
      </trkpt>
      <trkpt lat="45.6858653" lon="7.1758934">
        <ele>1083</ele>
      </trkpt>
      <trkpt lat="45.6857628" lon="7.1758249">
        <ele>1085</ele>
      </trkpt>
      <trkpt lat="45.6857542" lon="7.1758160">
        <ele>1086</ele>
      </trkpt>
      <trkpt lat="45.6856449" lon="7.1757310">
        <ele>1088</ele>
      </trkpt>
      <trkpt lat="45.6855180" lon="7.1757140">
        <ele>1089</ele>
      </trkpt>
      <trkpt lat="45.6853608" lon="7.1756124">
        <ele>1090</ele>
      </trkpt>
      <trkpt lat="45.6851018" lon="7.1755095">
        <ele>1092</ele>
      </trkpt>
      <trkpt lat="45.6850824" lon="7.1754998">
        <ele>1093</ele>
      </trkpt>
      <trkpt lat="45.6849604" lon="7.1755143">
        <ele>1094</ele>
      </trkpt>
      <trkpt lat="45.6847375" lon="7.1754638">
        <ele>1096</ele>
      </trkpt>
      <trkpt lat="45.6845239" lon="7.1753734">
        <ele>1097</ele>
      </trkpt>
      <trkpt lat="45.6843437" lon="7.1752730">
        <ele>1099</ele>
      </trkpt>
      <trkpt lat="45.6841703" lon="7.1751915">
        <ele>1100</ele>
      </trkpt>
      <trkpt lat="45.6840451" lon="7.1751574">
        <ele>1101</ele>
      </trkpt>
      <trkpt lat="45.6838529" lon="7.1750770">
        <ele>1103</ele>
      </trkpt>
      <trkpt lat="45.6837336" lon="7.1750270">
        <ele>1104</ele>
      </trkpt>
      <trkpt lat="45.6837060" lon="7.1750105">
        <ele>1106</ele>
      </trkpt>
      <trkpt lat="45.6836356" lon="7.1749821">
        <ele>1107</ele>
      </trkpt>
      <trkpt lat="45.6835704" lon="7.1749644">
        <ele>1108</ele>
      </trkpt>
      <trkpt lat="45.6833845" lon="7.1749808">
        <ele>1110</ele>
      </trkpt>
      <trkpt lat="45.6831224" lon="7.1749360">
        <ele>1111</ele>
      </trkpt>
      <trkpt lat="45.6829547" lon="7.1749417">
        <ele>1113</ele>
      </trkpt>
      <trkpt lat="45.6827921" lon="7.1749849">
        <ele>1114</ele>
      </trkpt>
      <trkpt lat="45.6826995" lon="7.1749807">
        <ele>1115</ele>
      </trkpt>
      <trkpt lat="45.6825669" lon="7.1749281">
        <ele>1117</ele>
      </trkpt>
      <trkpt lat="45.6823405" lon="7.1749180">
        <ele>1118</ele>
      </trkpt>
      <trkpt lat="45.6821036" lon="7.1748423">
        <ele>1120</ele>
      </trkpt>
      <trkpt lat="45.6819862" lon="7.1747981">
        <ele>1121</ele>
      </trkpt>
      <trkpt lat="45.6819346" lon="7.1747917">
        <ele>1122</ele>
      </trkpt>
      <trkpt lat="45.6818834" lon="7.1747365">
        <ele>1124</ele>
      </trkpt>
      <trkpt lat="45.6817217" lon="7.1746995">
        <ele>1125</ele>
      </trkpt>
      <trkpt lat="45.6816764" lon="7.1746938">
        <ele>1127</ele>
      </trkpt>
      <trkpt lat="45.6815248" lon="7.1746735">
        <ele>1128</ele>
      </trkpt>
      <trkpt lat="45.6814051" lon="7.1746446">
        <ele>1129</ele>
      </trkpt>
      <trkpt lat="45.6812441" lon="7.1746313">
        <ele>1131</ele>
      </trkpt>
      <trkpt lat="45.6810333" lon="7.1745937">
        <ele>1132</ele>
      </trkpt>
      <trkpt lat="45.6808866" lon="7.1745695">
        <ele>1134</ele>
      </trkpt>
      <trkpt lat="45.6806822" lon="7.1745937">
        <ele>1135</ele>
      </trkpt>
      <trkpt lat="45.6804542" lon="7.1745677">
        <ele>1136</ele>
      </trkpt>
      <trkpt lat="45.6803150" lon="7.1745227">
        <ele>1138</ele>
      </trkpt>
      <trkpt lat="45.6801544" lon="7.1745318">
        <ele>1139</ele>
      </trkpt>
      <trkpt lat="45.6799457" lon="7.1745060">
        <ele>1140</ele>
      </trkpt>
      <trkpt lat="45.6797815" lon="7.1745291">
        <ele>1142</ele>
      </trkpt>
      <trkpt lat="45.6796186" lon="7.1745881">
        <ele>1143</ele>
      </trkpt>
      <trkpt lat="45.6794919" lon="7.1745636">
        <ele>1145</ele>
      </trkpt>
      <trkpt lat="45.6794582" lon="7.1745529">
        <ele>1146</ele>
      </trkpt>
      <trkpt lat="45.6793930" lon="7.1745102">
        <ele>1147</ele>
      </trkpt>
      <trkpt lat="45.6792667" lon="7.1744432">
        <ele>1149</ele>
      </trkpt>
      <trkpt lat="45.6791703" lon="7.1744634">
        <ele>1150</ele>
      </trkpt>
      <trkpt lat="45.6790439" lon="7.1744560">
        <ele>1152</ele>
      </trkpt>
      <trkpt lat="45.6790215" lon="7.1744638">
        <ele>1153</ele>
      </trkpt>
      <trkpt lat="45.6788554" lon="7.1744681">
        <ele>1154</ele>
      </trkpt>
      <trkpt lat="45.6786807" lon="7.1745065">
        <ele>1156</ele>
      </trkpt>
      <trkpt lat="45.6786439" lon="7.1745161">
        <ele>1157</ele>
      </trkpt>
      <trkpt lat="45.6784544" lon="7.1746233">
        <ele>1159</ele>
      </trkpt>
      <trkpt lat="45.6783427" lon="7.1747032">
        <ele>1160</ele>
      </trkpt>
      <trkpt lat="45.6782748" lon="7.1748477">
        <ele>1161</ele>
      </trkpt>
      <trkpt lat="45.6782701" lon="7.1748360">
        <ele>1163</ele>
      </trkpt>
      <trkpt lat="45.6782833" lon="7.1746868">
        <ele>1164</ele>
      </trkpt>
      <trkpt lat="45.6782847" lon="7.1746537">
        <ele>1166</ele>
      </trkpt>
      <trkpt lat="45.6782666" lon="7.1746488">
        <ele>1167</ele>
      </trkpt>
      <trkpt lat="45.6781988" lon="7.1747013">
        <ele>1168</ele>
      </trkpt>
      <trkpt lat="45.6782025" lon="7.1746260">
        <ele>1170</ele>
      </trkpt>
      <trkpt lat="45.6781478" lon="7.1747390">
        <ele>1171</ele>
      </trkpt>
      <trkpt lat="45.6781095" lon="7.1748320">
        <ele>1173</ele>
      </trkpt>
      <trkpt lat="45.6780812" lon="7.1746197">
        <ele>1174</ele>
      </trkpt>
      <trkpt lat="45.6780421" lon="7.1745576">
        <ele>1175</ele>
      </trkpt>
      <trkpt lat="45.6780232" lon="7.1745780">
        <ele>1177</ele>
      </trkpt>
      <trkpt lat="45.6779107" lon="7.1746604">
        <ele>1178</ele>
      </trkpt>
      <trkpt lat="45.6779112" lon="7.1746408">
        <ele>1179</ele>
      </trkpt>
      <trkpt lat="45.6779938" lon="7.1744309">
        <ele>1181</ele>
      </trkpt>
      <trkpt lat="45.6779884" lon="7.1743581">
        <ele>1182</ele>
      </trkpt>
      <trkpt lat="45.6779127" lon="7.1743820">
        <ele>1184</ele>
      </trkpt>
      <trkpt lat="45.6778711" lon="7.1744141">
        <ele>1185</ele>
      </trkpt>
      <trkpt lat="45.6777239" lon="7.1744344">
        <ele>1186</ele>
      </trkpt>
      <trkpt lat="45.6776870" lon="7.1744163">
        <ele>1188</ele>
      </trkpt>
      <trkpt lat="45.6775600" lon="7.1743855">
        <ele>1189</ele>
      </trkpt>
      <trkpt lat="45.6774716" lon="7.1743649">
        <ele>1191</ele>
      </trkpt>
      <trkpt lat="45.6774027" lon="7.1744413">
        <ele>1192</ele>
      </trkpt>
      <trkpt lat="45.6773671" lon="7.1744719">
        <ele>1193</ele>
      </trkpt>
      <trkpt lat="45.6773379" lon="7.1745016">
        <ele>1195</ele>
      </trkpt>
      <trkpt lat="45.6773225" lon="7.1744757">
        <ele>1196</ele>
      </trkpt>
      <trkpt lat="45.6773262" lon="7.1743138">
        <ele>1198</ele>
      </trkpt>
      <trkpt lat="45.6773183" lon="7.1742243">
        <ele>1199</ele>
      </trkpt>
      <trkpt lat="45.6772526" lon="7.1742477">
        <ele>1200</ele>
      </trkpt>
      <trkpt lat="45.6770912" lon="7.1743259">
        <ele>1202</ele>
      </trkpt>
      <trkpt lat="45.6769935" lon="7.1743055">
        <ele>1203</ele>
      </trkpt>
      <trkpt lat="45.6768800" lon="7.1742047">
        <ele>1205</ele>
      </trkpt>
      <trkpt lat="45.6768708" lon="7.1741977">
        <ele>1206</ele>
      </trkpt>
      <trkpt lat="45.6768599" lon="7.1740749">
        <ele>1207</ele>
      </trkpt>
      <trkpt lat="45.6769646" lon="7.1739855">
        <ele>1209</ele>
      </trkpt>
      <trkpt lat="45.6771385" lon="7.1738754">
        <ele>1210</ele>
      </trkpt>
      <trkpt lat="45.6771261" lon="7.1738606">
        <ele>1212</ele>
      </trkpt>
      <trkpt lat="45.6770221" lon="7.1738606">
        <ele>1213</ele>
      </trkpt>
      <trkpt lat="45.6769312" lon="7.1738460">
        <ele>1214</ele>
      </trkpt>
      <trkpt lat="45.6769528" lon="7.1738238">
        <ele>1216</ele>
      </trkpt>
      <trkpt lat="45.6771234" lon="7.1737147">
        <ele>1217</ele>
      </trkpt>
      <trkpt lat="45.6771509" lon="7.1736549">
        <ele>1218</ele>
      </trkpt>
      <trkpt lat="45.6770831" lon="7.1736314">
        <ele>1220</ele>
      </trkpt>
      <trkpt lat="45.6770733" lon="7.1736078">
        <ele>1221</ele>
      </trkpt>
      <trkpt lat="45.6770925" lon="7.1735362">
        <ele>1223</ele>
      </trkpt>
      <trkpt lat="45.6771333" lon="7.1735075">
        <ele>1224</ele>
      </trkpt>
      <trkpt lat="45.6770997" lon="7.1734338">
        <ele>1225</ele>
      </trkpt>
      <trkpt lat="45.6769502" lon="7.1733525">
        <ele>1227</ele>
      </trkpt>
      <trkpt lat="45.6768247" lon="7.1732700">
        <ele>1228</ele>
      </trkpt>
      <trkpt lat="45.6768127" lon="7.1732621">
        <ele>1230</ele>
      </trkpt>
      <trkpt lat="45.6767328" lon="7.1732494">
        <ele>1231</ele>
      </trkpt>
      <trkpt lat="45.6766841" lon="7.1733001">
        <ele>1232</ele>
      </trkpt>
      <trkpt lat="45.6765673" lon="7.1733182">
        <ele>1234</ele>
      </trkpt>
      <trkpt lat="45.6764255" lon="7.1731948">
        <ele>1235</ele>
      </trkpt>
      <trkpt lat="45.6763818" lon="7.1731505">
        <ele>1237</ele>
      </trkpt>
      <trkpt lat="45.6763145" lon="7.1730943">
        <ele>1238</ele>
      </trkpt>
    </trkseg>
  </trk>
</gpx>
