<?xml version="1.0" encoding="UTF-8"?>
<gpx version="1.1" creator="sentieri-vda" xmlns="http://www.topografix.com/GPX/1/1">
  <metadata>
    <name>Muni - Piccoli Laghi - Col Dondeuil</name>
    <desc>Catasto Sentieri VdA — 36_S2</desc>
    <author><name>Regione Autonoma Valle d'Aosta</name></author>
  </metadata>
  <trk>
    <name>Muni - Piccoli Laghi - Col Dondeuil</name>
    <src>Catasto Sentieri VdA (36_S2)</src>
    <trkseg>
      <trkpt lat="45.6760291" lon="7.7998650">
        <ele>2016</ele>
      </trkpt>
      <trkpt lat="45.6759691" lon="7.7998850">
        <ele>2019</ele>
      </trkpt>
      <trkpt lat="45.6758291" lon="7.7996650">
        <ele>2022</ele>
      </trkpt>
      <trkpt lat="45.6756991" lon="7.7997750">
        <ele>2025</ele>
      </trkpt>
      <trkpt lat="45.6753591" lon="7.7997550">
        <ele>2027</ele>
      </trkpt>
      <trkpt lat="45.6751891" lon="7.8001350">
        <ele>2030</ele>
      </trkpt>
      <trkpt lat="45.6751591" lon="7.8000950">
        <ele>2033</ele>
      </trkpt>
      <trkpt lat="45.6750191" lon="7.8002550">
        <ele>2036</ele>
      </trkpt>
      <trkpt lat="45.6750191" lon="7.7999350">
        <ele>2039</ele>
      </trkpt>
      <trkpt lat="45.6748991" lon="7.7997950">
        <ele>2042</ele>
      </trkpt>
      <trkpt lat="45.6748491" lon="7.7999750">
        <ele>2045</ele>
      </trkpt>
      <trkpt lat="45.6746291" lon="7.8000550">
        <ele>2047</ele>
      </trkpt>
      <trkpt lat="45.6744291" lon="7.8003350">
        <ele>2050</ele>
      </trkpt>
      <trkpt lat="45.6742391" lon="7.8004350">
        <ele>2053</ele>
      </trkpt>
      <trkpt lat="45.6740791" lon="7.8003850">
        <ele>2056</ele>
      </trkpt>
      <trkpt lat="45.6740291" lon="7.8002350">
        <ele>2059</ele>
      </trkpt>
      <trkpt lat="45.6738491" lon="7.8003850">
        <ele>2062</ele>
      </trkpt>
      <trkpt lat="45.6736091" lon="7.8004350">
        <ele>2064</ele>
      </trkpt>
      <trkpt lat="45.6733691" lon="7.8001750">
        <ele>2067</ele>
      </trkpt>
      <trkpt lat="45.6731191" lon="7.7997550">
        <ele>2070</ele>
      </trkpt>
      <trkpt lat="45.6731391" lon="7.7996650">
        <ele>2073</ele>
      </trkpt>
      <trkpt lat="45.6730191" lon="7.7993750">
        <ele>2076</ele>
      </trkpt>
      <trkpt lat="45.6727191" lon="7.7991250">
        <ele>2079</ele>
      </trkpt>
      <trkpt lat="45.6724791" lon="7.7988550">
        <ele>2082</ele>
      </trkpt>
      <trkpt lat="45.6724691" lon="7.7983750">
        <ele>2084</ele>
      </trkpt>
      <trkpt lat="45.6723991" lon="7.7981650">
        <ele>2087</ele>
      </trkpt>
      <trkpt lat="45.6720491" lon="7.7978350">
        <ele>2090</ele>
      </trkpt>
      <trkpt lat="45.6720091" lon="7.7976450">
        <ele>2093</ele>
      </trkpt>
      <trkpt lat="45.6717891" lon="7.7973650">
        <ele>2096</ele>
      </trkpt>
      <trkpt lat="45.6717191" lon="7.7971450">
        <ele>2099</ele>
      </trkpt>
      <trkpt lat="45.6714691" lon="7.7972650">
        <ele>2102</ele>
      </trkpt>
      <trkpt lat="45.6712991" lon="7.7972550">
        <ele>2104</ele>
      </trkpt>
      <trkpt lat="45.6711891" lon="7.7973550">
        <ele>2107</ele>
      </trkpt>
      <trkpt lat="45.6709691" lon="7.7977250">
        <ele>2110</ele>
      </trkpt>
      <trkpt lat="45.6709591" lon="7.7979050">
        <ele>2113</ele>
      </trkpt>
      <trkpt lat="45.6707791" lon="7.7980050">
        <ele>2116</ele>
      </trkpt>
      <trkpt lat="45.6706691" lon="7.7985450">
        <ele>2119</ele>
      </trkpt>
      <trkpt lat="45.6705391" lon="7.7988050">
        <ele>2122</ele>
      </trkpt>
      <trkpt lat="45.6704591" lon="7.7986150">
        <ele>2124</ele>
      </trkpt>
      <trkpt lat="45.6703391" lon="7.7989550">
        <ele>2127</ele>
      </trkpt>
      <trkpt lat="45.6702391" lon="7.7990050">
        <ele>2130</ele>
      </trkpt>
      <trkpt lat="45.6701591" lon="7.7988350">
        <ele>2133</ele>
      </trkpt>
      <trkpt lat="45.6700691" lon="7.7988650">
        <ele>2136</ele>
      </trkpt>
      <trkpt lat="45.6696891" lon="7.7995440">
        <ele>2139</ele>
      </trkpt>
      <trkpt lat="45.6696491" lon="7.7994750">
        <ele>2141</ele>
      </trkpt>
      <trkpt lat="45.6695691" lon="7.7995640">
        <ele>2144</ele>
      </trkpt>
      <trkpt lat="45.6695291" lon="7.7995340">
        <ele>2147</ele>
      </trkpt>
      <trkpt lat="45.6695391" lon="7.7991750">
        <ele>2150</ele>
      </trkpt>
      <trkpt lat="45.6693991" lon="7.7990950">
        <ele>2153</ele>
      </trkpt>
      <trkpt lat="45.6692291" lon="7.7997940">
        <ele>2156</ele>
      </trkpt>
      <trkpt lat="45.6686791" lon="7.7995640">
        <ele>2159</ele>
      </trkpt>
      <trkpt lat="45.6680691" lon="7.7996940">
        <ele>2161</ele>
      </trkpt>
      <trkpt lat="45.6679791" lon="7.7996040">
        <ele>2164</ele>
      </trkpt>
      <trkpt lat="45.6679291" lon="7.7993140">
        <ele>2167</ele>
      </trkpt>
      <trkpt lat="45.6678591" lon="7.7992340">
        <ele>2170</ele>
      </trkpt>
      <trkpt lat="45.6674391" lon="7.7990840">
        <ele>2173</ele>
      </trkpt>
      <trkpt lat="45.6670491" lon="7.7986640">
        <ele>2176</ele>
      </trkpt>
      <trkpt lat="45.6669791" lon="7.7986740">
        <ele>2179</ele>
      </trkpt>
      <trkpt lat="45.6668791" lon="7.7984540">
        <ele>2181</ele>
      </trkpt>
      <trkpt lat="45.6669291" lon="7.7982040">
        <ele>2184</ele>
      </trkpt>
      <trkpt lat="45.6670791" lon="7.7979640">
        <ele>2187</ele>
      </trkpt>
      <trkpt lat="45.6669791" lon="7.7978240">
        <ele>2190</ele>
      </trkpt>
      <trkpt lat="45.6670291" lon="7.7975740">
        <ele>2193</ele>
      </trkpt>
      <trkpt lat="45.6671521" lon="7.7975100">
        <ele>2196</ele>
      </trkpt>
      <trkpt lat="45.6671991" lon="7.7974240">
        <ele>2199</ele>
      </trkpt>
      <trkpt lat="45.6672091" lon="7.7970750">
        <ele>2201</ele>
      </trkpt>
      <trkpt lat="45.6672991" lon="7.7968550">
        <ele>2204</ele>
      </trkpt>
      <trkpt lat="45.6677891" lon="7.7967050">
        <ele>2207</ele>
      </trkpt>
      <trkpt lat="45.6679891" lon="7.7963250">
        <ele>2210</ele>
      </trkpt>
      <trkpt lat="45.6680691" lon="7.7962850">
        <ele>2213</ele>
      </trkpt>
      <trkpt lat="45.6683791" lon="7.7962850">
        <ele>2216</ele>
      </trkpt>
      <trkpt lat="45.6684291" lon="7.7963550">
        <ele>2219</ele>
      </trkpt>
      <trkpt lat="45.6684891" lon="7.7961150">
        <ele>2221</ele>
      </trkpt>
      <trkpt lat="45.6686691" lon="7.7959850">
        <ele>2224</ele>
      </trkpt>
      <trkpt lat="45.6686991" lon="7.7952150">
        <ele>2227</ele>
      </trkpt>
      <trkpt lat="45.6687891" lon="7.7949550">
        <ele>2230</ele>
      </trkpt>
      <trkpt lat="45.6686791" lon="7.7945950">
        <ele>2233</ele>
      </trkpt>
      <trkpt lat="45.6687691" lon="7.7943350">
        <ele>2236</ele>
      </trkpt>
      <trkpt lat="45.6687291" lon="7.7941950">
        <ele>2238</ele>
      </trkpt>
      <trkpt lat="45.6687591" lon="7.7938150">
        <ele>2241</ele>
      </trkpt>
      <trkpt lat="45.6687391" lon="7.7935450">
        <ele>2244</ele>
      </trkpt>
      <trkpt lat="45.6688191" lon="7.7931950">
        <ele>2247</ele>
      </trkpt>
      <trkpt lat="45.6689291" lon="7.7932150">
        <ele>2250</ele>
      </trkpt>
      <trkpt lat="45.6692491" lon="7.7929550">
        <ele>2253</ele>
      </trkpt>
      <trkpt lat="45.6696991" lon="7.7929650">
        <ele>2256</ele>
      </trkpt>
      <trkpt lat="45.6700491" lon="7.7926750">
        <ele>2258</ele>
      </trkpt>
      <trkpt lat="45.6702091" lon="7.7926250">
        <ele>2261</ele>
      </trkpt>
      <trkpt lat="45.6704191" lon="7.7924750">
        <ele>2264</ele>
      </trkpt>
      <trkpt lat="45.6704791" lon="7.7923650">
        <ele>2267</ele>
      </trkpt>
      <trkpt lat="45.6705391" lon="7.7924450">
        <ele>2270</ele>
      </trkpt>
      <trkpt lat="45.6707491" lon="7.7923850">
        <ele>2273</ele>
      </trkpt>
      <trkpt lat="45.6712091" lon="7.7920350">
        <ele>2276</ele>
      </trkpt>
      <trkpt lat="45.6712891" lon="7.7918050">
        <ele>2278</ele>
      </trkpt>
      <trkpt lat="45.6718191" lon="7.7909750">
        <ele>2281</ele>
      </trkpt>
      <trkpt lat="45.6718791" lon="7.7906250">
        <ele>2284</ele>
      </trkpt>
      <trkpt lat="45.6720991" lon="7.7903450">
        <ele>2287</ele>
      </trkpt>
      <trkpt lat="45.6720691" lon="7.7902750">
        <ele>2290</ele>
      </trkpt>
      <trkpt lat="45.6721791" lon="7.7901950">
        <ele>2293</ele>
      </trkpt>
      <trkpt lat="45.6722391" lon="7.7902550">
        <ele>2296</ele>
      </trkpt>
      <trkpt lat="45.6721991" lon="7.7901450">
        <ele>2298</ele>
      </trkpt>
      <trkpt lat="45.6724391" lon="7.7896350">
        <ele>2301</ele>
      </trkpt>
      <trkpt lat="45.6732591" lon="7.7890950">
        <ele>2304</ele>
      </trkpt>
      <trkpt lat="45.6739191" lon="7.7888850">
        <ele>2307</ele>
      </trkpt>
      <trkpt lat="45.6745691" lon="7.7885850">
        <ele>2310</ele>
      </trkpt>
      <trkpt lat="45.6748191" lon="7.7883650">
        <ele>2313</ele>
      </trkpt>
      <trkpt lat="45.6748291" lon="7.7881850">
        <ele>2315</ele>
      </trkpt>
      <trkpt lat="45.6747491" lon="7.7880550">
        <ele>2318</ele>
      </trkpt>
      <trkpt lat="45.6748391" lon="7.7879950">
        <ele>2321</ele>
      </trkpt>
      <trkpt lat="45.6748191" lon="7.7876050">
        <ele>2324</ele>
      </trkpt>
      <trkpt lat="45.6749491" lon="7.7876150">
        <ele>2327</ele>
      </trkpt>
      <trkpt lat="45.6753991" lon="7.7874750">
        <ele>2330</ele>
      </trkpt>
      <trkpt lat="45.6753691" lon="7.7876850">
        <ele>2333</ele>
      </trkpt>
      <trkpt lat="45.6754591" lon="7.7877450">
        <ele>2335</ele>
      </trkpt>
      <trkpt lat="45.6754891" lon="7.7875450">
        <ele>2338</ele>
      </trkpt>
      <trkpt lat="45.6757891" lon="7.7874750">
        <ele>2341</ele>
      </trkpt>
      <trkpt lat="45.6761161" lon="7.7872010">
        <ele>2344</ele>
      </trkpt>
    </trkseg>
  </trk>
</gpx>
