<?xml version="1.0" encoding="UTF-8"?>
<gpx version="1.1" creator="sentieri-vda" xmlns="http://www.topografix.com/GPX/1/1">
  <metadata>
    <name>Saint-Roch - Cresta - Lancellina - Maison Sala - La Borney</name>
    <desc>Catasto Sentieri VdA — 37_S3</desc>
    <author><name>Regione Autonoma Valle d'Aosta</name></author>
  </metadata>
  <trk>
    <name>Saint-Roch - Cresta - Lancellina - Maison Sala - La Borney</name>
    <src>Catasto Sentieri VdA (37_S3)</src>
    <trkseg>
      <trkpt lat="45.6332181" lon="7.6846700">
        <ele>485</ele>
      </trkpt>
      <trkpt lat="45.6333311" lon="7.6846760">
        <ele>494</ele>
      </trkpt>
      <trkpt lat="45.6339511" lon="7.6839760">
        <ele>503</ele>
      </trkpt>
      <trkpt lat="45.6345511" lon="7.6835860">
        <ele>512</ele>
      </trkpt>
      <trkpt lat="45.6346411" lon="7.6833660">
        <ele>521</ele>
      </trkpt>
      <trkpt lat="45.6351311" lon="7.6829160">
        <ele>530</ele>
      </trkpt>
      <trkpt lat="45.6351411" lon="7.6826360">
        <ele>540</ele>
      </trkpt>
      <trkpt lat="45.6356711" lon="7.6827260">
        <ele>549</ele>
      </trkpt>
      <trkpt lat="45.6357711" lon="7.6823460">
        <ele>558</ele>
      </trkpt>
      <trkpt lat="45.6363411" lon="7.6826860">
        <ele>567</ele>
      </trkpt>
      <trkpt lat="45.6364711" lon="7.6824360">
        <ele>576</ele>
      </trkpt>
      <trkpt lat="45.6363411" lon="7.6821760">
        <ele>585</ele>
      </trkpt>
      <trkpt lat="45.6364011" lon="7.6819160">
        <ele>594</ele>
      </trkpt>
      <trkpt lat="45.6360411" lon="7.6813560">
        <ele>603</ele>
      </trkpt>
      <trkpt lat="45.6365208" lon="7.6811012">
        <ele>612</ele>
      </trkpt>
      <trkpt lat="45.6363511" lon="7.6810160">
        <ele>621</ele>
      </trkpt>
      <trkpt lat="45.6360611" lon="7.6804060">
        <ele>631</ele>
      </trkpt>
      <trkpt lat="45.6362011" lon="7.6797670">
        <ele>640</ele>
      </trkpt>
      <trkpt lat="45.6361311" lon="7.6796270">
        <ele>649</ele>
      </trkpt>
      <trkpt lat="45.6361311" lon="7.6790770">
        <ele>658</ele>
      </trkpt>
      <trkpt lat="45.6361911" lon="7.6791670">
        <ele>667</ele>
      </trkpt>
      <trkpt lat="45.6361911" lon="7.6788970">
        <ele>676</ele>
      </trkpt>
      <trkpt lat="45.6365611" lon="7.6785170">
        <ele>685</ele>
      </trkpt>
      <trkpt lat="45.6365711" lon="7.6783470">
        <ele>694</ele>
      </trkpt>
      <trkpt lat="45.6366611" lon="7.6782370">
        <ele>703</ele>
      </trkpt>
      <trkpt lat="45.6367211" lon="7.6782970">
        <ele>712</ele>
      </trkpt>
      <trkpt lat="45.6370211" lon="7.6779270">
        <ele>721</ele>
      </trkpt>
      <trkpt lat="45.6371511" lon="7.6773070">
        <ele>731</ele>
      </trkpt>
      <trkpt lat="45.6372211" lon="7.6773770">
        <ele>740</ele>
      </trkpt>
      <trkpt lat="45.6372011" lon="7.6770870">
        <ele>749</ele>
      </trkpt>
      <trkpt lat="45.6373011" lon="7.6772170">
        <ele>758</ele>
      </trkpt>
      <trkpt lat="45.6373511" lon="7.6768970">
        <ele>767</ele>
      </trkpt>
      <trkpt lat="45.6374611" lon="7.6769970">
        <ele>776</ele>
      </trkpt>
      <trkpt lat="45.6375311" lon="7.6764970">
        <ele>785</ele>
      </trkpt>
      <trkpt lat="45.6374211" lon="7.6764470">
        <ele>794</ele>
      </trkpt>
      <trkpt lat="45.6372911" lon="7.6765470">
        <ele>803</ele>
      </trkpt>
      <trkpt lat="45.6373781" lon="7.6761600">
        <ele>812</ele>
      </trkpt>
      <trkpt lat="45.6374981" lon="7.6760000">
        <ele>821</ele>
      </trkpt>
      <trkpt lat="45.6379011" lon="7.6759470">
        <ele>831</ele>
      </trkpt>
      <trkpt lat="45.6379981" lon="7.6759800">
        <ele>840</ele>
      </trkpt>
      <trkpt lat="45.6381811" lon="7.6761870">
        <ele>849</ele>
      </trkpt>
      <trkpt lat="45.6385181" lon="7.6763400">
        <ele>858</ele>
      </trkpt>
      <trkpt lat="45.6394311" lon="7.6771070">
        <ele>867</ele>
      </trkpt>
      <trkpt lat="45.6401211" lon="7.6769270">
        <ele>876</ele>
      </trkpt>
      <trkpt lat="45.6402838" lon="7.6767434">
        <ele>885</ele>
      </trkpt>
      <trkpt lat="45.6402811" lon="7.6768670">
        <ele>894</ele>
      </trkpt>
      <trkpt lat="45.6405111" lon="7.6769270">
        <ele>903</ele>
      </trkpt>
      <trkpt lat="45.6408411" lon="7.6766970">
        <ele>912</ele>
      </trkpt>
      <trkpt lat="45.6408811" lon="7.6768070">
        <ele>922</ele>
      </trkpt>
      <trkpt lat="45.6411211" lon="7.6767770">
        <ele>931</ele>
      </trkpt>
      <trkpt lat="45.6414911" lon="7.6763870">
        <ele>940</ele>
      </trkpt>
      <trkpt lat="45.6415511" lon="7.6765770">
        <ele>949</ele>
      </trkpt>
      <trkpt lat="45.6416811" lon="7.6765670">
        <ele>958</ele>
      </trkpt>
      <trkpt lat="45.6418411" lon="7.6762570">
        <ele>967</ele>
      </trkpt>
      <trkpt lat="45.6419911" lon="7.6766570">
        <ele>976</ele>
      </trkpt>
      <trkpt lat="45.6420911" lon="7.6765470">
        <ele>985</ele>
      </trkpt>
      <trkpt lat="45.6422211" lon="7.6766770">
        <ele>994</ele>
      </trkpt>
      <trkpt lat="45.6420611" lon="7.6779370">
        <ele>1003</ele>
      </trkpt>
      <trkpt lat="45.6421611" lon="7.6778470">
        <ele>1012</ele>
      </trkpt>
      <trkpt lat="45.6422911" lon="7.6780770">
        <ele>1022</ele>
      </trkpt>
      <trkpt lat="45.6424111" lon="7.6779970">
        <ele>1031</ele>
      </trkpt>
      <trkpt lat="45.6423911" lon="7.6782670">
        <ele>1040</ele>
      </trkpt>
      <trkpt lat="45.6424611" lon="7.6782270">
        <ele>1049</ele>
      </trkpt>
      <trkpt lat="45.6427611" lon="7.6787770">
        <ele>1058</ele>
      </trkpt>
      <trkpt lat="45.6430411" lon="7.6789970">
        <ele>1067</ele>
      </trkpt>
      <trkpt lat="45.6431811" lon="7.6789670">
        <ele>1076</ele>
      </trkpt>
      <trkpt lat="45.6434411" lon="7.6791470">
        <ele>1085</ele>
      </trkpt>
      <trkpt lat="45.6432411" lon="7.6795170">
        <ele>1094</ele>
      </trkpt>
      <trkpt lat="45.6433311" lon="7.6795870">
        <ele>1103</ele>
      </trkpt>
      <trkpt lat="45.6431411" lon="7.6799670">
        <ele>1112</ele>
      </trkpt>
      <trkpt lat="45.6433711" lon="7.6801270">
        <ele>1122</ele>
      </trkpt>
      <trkpt lat="45.6441611" lon="7.6801870">
        <ele>1131</ele>
      </trkpt>
      <trkpt lat="45.6440811" lon="7.6804370">
        <ele>1140</ele>
      </trkpt>
      <trkpt lat="45.6444011" lon="7.6805170">
        <ele>1149</ele>
      </trkpt>
      <trkpt lat="45.6444211" lon="7.6806070">
        <ele>1158</ele>
      </trkpt>
      <trkpt lat="45.6447511" lon="7.6804570">
        <ele>1167</ele>
      </trkpt>
      <trkpt lat="45.6449711" lon="7.6807870">
        <ele>1176</ele>
      </trkpt>
      <trkpt lat="45.6448881" lon="7.6811000">
        <ele>1185</ele>
      </trkpt>
      <trkpt lat="45.6449911" lon="7.6813970">
        <ele>1194</ele>
      </trkpt>
      <trkpt lat="45.6452311" lon="7.6809770">
        <ele>1203</ele>
      </trkpt>
      <trkpt lat="45.6455711" lon="7.6815270">
        <ele>1213</ele>
      </trkpt>
      <trkpt lat="45.6455711" lon="7.6817270">
        <ele>1222</ele>
      </trkpt>
      <trkpt lat="45.6456711" lon="7.6817270">
        <ele>1231</ele>
      </trkpt>
      <trkpt lat="45.6456311" lon="7.6824970">
        <ele>1240</ele>
      </trkpt>
      <trkpt lat="45.6457981" lon="7.6828310">
        <ele>1249</ele>
      </trkpt>
      <trkpt lat="45.6459711" lon="7.6831770">
        <ele>1258</ele>
      </trkpt>
      <trkpt lat="45.6463011" lon="7.6831370">
        <ele>1267</ele>
      </trkpt>
      <trkpt lat="45.6464711" lon="7.6828670">
        <ele>1276</ele>
      </trkpt>
      <trkpt lat="45.6465411" lon="7.6830270">
        <ele>1285</ele>
      </trkpt>
      <trkpt lat="45.6466411" lon="7.6829470">
        <ele>1294</ele>
      </trkpt>
      <trkpt lat="45.6468011" lon="7.6835370">
        <ele>1303</ele>
      </trkpt>
      <trkpt lat="45.6472411" lon="7.6841670">
        <ele>1313</ele>
      </trkpt>
      <trkpt lat="45.6474211" lon="7.6835770">
        <ele>1322</ele>
      </trkpt>
      <trkpt lat="45.6475901" lon="7.6836470">
        <ele>1331</ele>
      </trkpt>
      <trkpt lat="45.6476601" lon="7.6835670">
        <ele>1340</ele>
      </trkpt>
      <trkpt lat="45.6478201" lon="7.6837970">
        <ele>1349</ele>
      </trkpt>
      <trkpt lat="45.6479801" lon="7.6829070">
        <ele>1358</ele>
      </trkpt>
      <trkpt lat="45.6482101" lon="7.6825170">
        <ele>1367</ele>
      </trkpt>
      <trkpt lat="45.6483601" lon="7.6835670">
        <ele>1376</ele>
      </trkpt>
      <trkpt lat="45.6486301" lon="7.6839870">
        <ele>1385</ele>
      </trkpt>
      <trkpt lat="45.6489401" lon="7.6841270">
        <ele>1394</ele>
      </trkpt>
      <trkpt lat="45.6492001" lon="7.6844970">
        <ele>1403</ele>
      </trkpt>
      <trkpt lat="45.6494401" lon="7.6842270">
        <ele>1413</ele>
      </trkpt>
      <trkpt lat="45.6497401" lon="7.6842370">
        <ele>1422</ele>
      </trkpt>
      <trkpt lat="45.6498101" lon="7.6839370">
        <ele>1431</ele>
      </trkpt>
      <trkpt lat="45.6496801" lon="7.6835070">
        <ele>1440</ele>
      </trkpt>
      <trkpt lat="45.6498001" lon="7.6834770">
        <ele>1449</ele>
      </trkpt>
      <trkpt lat="45.6497801" lon="7.6830670">
        <ele>1458</ele>
      </trkpt>
      <trkpt lat="45.6499201" lon="7.6829870">
        <ele>1467</ele>
      </trkpt>
      <trkpt lat="45.6499001" lon="7.6828670">
        <ele>1476</ele>
      </trkpt>
      <trkpt lat="45.6500701" lon="7.6827970">
        <ele>1485</ele>
      </trkpt>
      <trkpt lat="45.6502201" lon="7.6826770">
        <ele>1494</ele>
      </trkpt>
      <trkpt lat="45.6503401" lon="7.6819970">
        <ele>1504</ele>
      </trkpt>
      <trkpt lat="45.6504901" lon="7.6816870">
        <ele>1513</ele>
      </trkpt>
      <trkpt lat="45.6506501" lon="7.6815970">
        <ele>1522</ele>
      </trkpt>
      <trkpt lat="45.6505901" lon="7.6813270">
        <ele>1531</ele>
      </trkpt>
      <trkpt lat="45.6506757" lon="7.6812399">
        <ele>1540</ele>
      </trkpt>
      <trkpt lat="45.6507233" lon="7.6810603">
        <ele>1549</ele>
      </trkpt>
    </trkseg>
  </trk>
</gpx>
