<?xml version="1.0" encoding="UTF-8"?>
<gpx version="1.1" creator="sentieri-vda" xmlns="http://www.topografix.com/GPX/1/1">
  <metadata>
    <name>Visey dessus - Col d'Arcomy</name>
    <desc>Catasto Sentieri VdA — 37_S6</desc>
    <author><name>Regione Autonoma Valle d'Aosta</name></author>
  </metadata>
  <trk>
    <name>Visey dessus - Col d'Arcomy</name>
    <src>Catasto Sentieri VdA (37_S6)</src>
    <trkseg>
      <trkpt lat="45.6380551" lon="7.6366680">
        <ele>1441</ele>
      </trkpt>
      <trkpt lat="45.6381611" lon="7.6364280">
        <ele>1446</ele>
      </trkpt>
      <trkpt lat="45.6383711" lon="7.6361380">
        <ele>1451</ele>
      </trkpt>
      <trkpt lat="45.6384311" lon="7.6353480">
        <ele>1456</ele>
      </trkpt>
      <trkpt lat="45.6386411" lon="7.6347180">
        <ele>1461</ele>
      </trkpt>
      <trkpt lat="45.6386411" lon="7.6330480">
        <ele>1466</ele>
      </trkpt>
      <trkpt lat="45.6384711" lon="7.6328380">
        <ele>1471</ele>
      </trkpt>
      <trkpt lat="45.6384511" lon="7.6293680">
        <ele>1476</ele>
      </trkpt>
      <trkpt lat="45.6386313" lon="7.6290214">
        <ele>1481</ele>
      </trkpt>
      <trkpt lat="45.6390801" lon="7.6288524">
        <ele>1486</ele>
      </trkpt>
      <trkpt lat="45.6391930" lon="7.6287311">
        <ele>1491</ele>
      </trkpt>
      <trkpt lat="45.6393076" lon="7.6281060">
        <ele>1496</ele>
      </trkpt>
      <trkpt lat="45.6393229" lon="7.6280797">
        <ele>1501</ele>
      </trkpt>
      <trkpt lat="45.6393414" lon="7.6281015">
        <ele>1506</ele>
      </trkpt>
      <trkpt lat="45.6393893" lon="7.6282003">
        <ele>1511</ele>
      </trkpt>
      <trkpt lat="45.6396137" lon="7.6284912">
        <ele>1516</ele>
      </trkpt>
      <trkpt lat="45.6398533" lon="7.6287521">
        <ele>1521</ele>
      </trkpt>
      <trkpt lat="45.6400371" lon="7.6289143">
        <ele>1526</ele>
      </trkpt>
      <trkpt lat="45.6402544" lon="7.6290461">
        <ele>1531</ele>
      </trkpt>
      <trkpt lat="45.6405506" lon="7.6292611">
        <ele>1536</ele>
      </trkpt>
      <trkpt lat="45.6407713" lon="7.6294595">
        <ele>1541</ele>
      </trkpt>
      <trkpt lat="45.6408714" lon="7.6295719">
        <ele>1546</ele>
      </trkpt>
      <trkpt lat="45.6409619" lon="7.6297512">
        <ele>1551</ele>
      </trkpt>
      <trkpt lat="45.6411495" lon="7.6304505">
        <ele>1556</ele>
      </trkpt>
      <trkpt lat="45.6414745" lon="7.6311093">
        <ele>1561</ele>
      </trkpt>
      <trkpt lat="45.6416486" lon="7.6315422">
        <ele>1566</ele>
      </trkpt>
      <trkpt lat="45.6418538" lon="7.6321892">
        <ele>1572</ele>
      </trkpt>
      <trkpt lat="45.6419357" lon="7.6323058">
        <ele>1577</ele>
      </trkpt>
      <trkpt lat="45.6419578" lon="7.6324090">
        <ele>1582</ele>
      </trkpt>
      <trkpt lat="45.6419561" lon="7.6324868">
        <ele>1587</ele>
      </trkpt>
      <trkpt lat="45.6418754" lon="7.6326888">
        <ele>1592</ele>
      </trkpt>
      <trkpt lat="45.6418483" lon="7.6328191">
        <ele>1597</ele>
      </trkpt>
      <trkpt lat="45.6418524" lon="7.6329450">
        <ele>1602</ele>
      </trkpt>
      <trkpt lat="45.6418875" lon="7.6330516">
        <ele>1607</ele>
      </trkpt>
      <trkpt lat="45.6420527" lon="7.6331772">
        <ele>1612</ele>
      </trkpt>
      <trkpt lat="45.6422080" lon="7.6333401">
        <ele>1617</ele>
      </trkpt>
      <trkpt lat="45.6422575" lon="7.6333501">
        <ele>1622</ele>
      </trkpt>
      <trkpt lat="45.6422938" lon="7.6333492">
        <ele>1627</ele>
      </trkpt>
      <trkpt lat="45.6424198" lon="7.6332313">
        <ele>1632</ele>
      </trkpt>
      <trkpt lat="45.6425281" lon="7.6331620">
        <ele>1637</ele>
      </trkpt>
      <trkpt lat="45.6426754" lon="7.6330954">
        <ele>1642</ele>
      </trkpt>
      <trkpt lat="45.6428297" lon="7.6333991">
        <ele>1647</ele>
      </trkpt>
      <trkpt lat="45.6428839" lon="7.6337979">
        <ele>1652</ele>
      </trkpt>
      <trkpt lat="45.6428689" lon="7.6340687">
        <ele>1657</ele>
      </trkpt>
      <trkpt lat="45.6428979" lon="7.6343162">
        <ele>1662</ele>
      </trkpt>
      <trkpt lat="45.6428806" lon="7.6345476">
        <ele>1667</ele>
      </trkpt>
      <trkpt lat="45.6430374" lon="7.6345234">
        <ele>1672</ele>
      </trkpt>
      <trkpt lat="45.6431961" lon="7.6343515">
        <ele>1677</ele>
      </trkpt>
      <trkpt lat="45.6433250" lon="7.6340887">
        <ele>1682</ele>
      </trkpt>
      <trkpt lat="45.6434512" lon="7.6338870">
        <ele>1687</ele>
      </trkpt>
      <trkpt lat="45.6436400" lon="7.6338569">
        <ele>1692</ele>
      </trkpt>
      <trkpt lat="45.6439274" lon="7.6339976">
        <ele>1697</ele>
      </trkpt>
      <trkpt lat="45.6439959" lon="7.6339852">
        <ele>1702</ele>
      </trkpt>
      <trkpt lat="45.6441329" lon="7.6339603">
        <ele>1707</ele>
      </trkpt>
      <trkpt lat="45.6444013" lon="7.6338169">
        <ele>1712</ele>
      </trkpt>
      <trkpt lat="45.6444973" lon="7.6338082">
        <ele>1717</ele>
      </trkpt>
      <trkpt lat="45.6445937" lon="7.6338409">
        <ele>1722</ele>
      </trkpt>
      <trkpt lat="45.6447143" lon="7.6340322">
        <ele>1727</ele>
      </trkpt>
      <trkpt lat="45.6449139" lon="7.6344795">
        <ele>1732</ele>
      </trkpt>
      <trkpt lat="45.6450161" lon="7.6348114">
        <ele>1737</ele>
      </trkpt>
      <trkpt lat="45.6451515" lon="7.6350511">
        <ele>1742</ele>
      </trkpt>
      <trkpt lat="45.6453717" lon="7.6353578">
        <ele>1747</ele>
      </trkpt>
      <trkpt lat="45.6454174" lon="7.6354459">
        <ele>1752</ele>
      </trkpt>
      <trkpt lat="45.6454615" lon="7.6355881">
        <ele>1757</ele>
      </trkpt>
      <trkpt lat="45.6454789" lon="7.6357342">
        <ele>1762</ele>
      </trkpt>
      <trkpt lat="45.6455258" lon="7.6359209">
        <ele>1767</ele>
      </trkpt>
      <trkpt lat="45.6455899" lon="7.6360499">
        <ele>1772</ele>
      </trkpt>
      <trkpt lat="45.6457551" lon="7.6363094">
        <ele>1777</ele>
      </trkpt>
      <trkpt lat="45.6459548" lon="7.6366184">
        <ele>1782</ele>
      </trkpt>
      <trkpt lat="45.6460411" lon="7.6367055">
        <ele>1787</ele>
      </trkpt>
      <trkpt lat="45.6462469" lon="7.6368220">
        <ele>1792</ele>
      </trkpt>
      <trkpt lat="45.6463463" lon="7.6368236">
        <ele>1797</ele>
      </trkpt>
      <trkpt lat="45.6464408" lon="7.6368861">
        <ele>1802</ele>
      </trkpt>
      <trkpt lat="45.6465189" lon="7.6370017">
        <ele>1807</ele>
      </trkpt>
      <trkpt lat="45.6465786" lon="7.6372396">
        <ele>1812</ele>
      </trkpt>
      <trkpt lat="45.6465901" lon="7.6377739">
        <ele>1817</ele>
      </trkpt>
      <trkpt lat="45.6465778" lon="7.6378729">
        <ele>1822</ele>
      </trkpt>
      <trkpt lat="45.6465531" lon="7.6380710">
        <ele>1827</ele>
      </trkpt>
      <trkpt lat="45.6464639" lon="7.6384452">
        <ele>1833</ele>
      </trkpt>
      <trkpt lat="45.6464775" lon="7.6385244">
        <ele>1838</ele>
      </trkpt>
      <trkpt lat="45.6465140" lon="7.6386174">
        <ele>1843</ele>
      </trkpt>
      <trkpt lat="45.6466091" lon="7.6387343">
        <ele>1848</ele>
      </trkpt>
      <trkpt lat="45.6467269" lon="7.6388398">
        <ele>1853</ele>
      </trkpt>
      <trkpt lat="45.6469176" lon="7.6391134">
        <ele>1858</ele>
      </trkpt>
      <trkpt lat="45.6470559" lon="7.6392437">
        <ele>1863</ele>
      </trkpt>
      <trkpt lat="45.6471948" lon="7.6394245">
        <ele>1868</ele>
      </trkpt>
      <trkpt lat="45.6473633" lon="7.6395397">
        <ele>1873</ele>
      </trkpt>
      <trkpt lat="45.6475672" lon="7.6398494">
        <ele>1878</ele>
      </trkpt>
      <trkpt lat="45.6476724" lon="7.6400776">
        <ele>1883</ele>
      </trkpt>
      <trkpt lat="45.6477823" lon="7.6404246">
        <ele>1888</ele>
      </trkpt>
      <trkpt lat="45.6479979" lon="7.6409038">
        <ele>1893</ele>
      </trkpt>
      <trkpt lat="45.6480329" lon="7.6411589">
        <ele>1898</ele>
      </trkpt>
      <trkpt lat="45.6481969" lon="7.6416144">
        <ele>1903</ele>
      </trkpt>
      <trkpt lat="45.6482272" lon="7.6417624">
        <ele>1908</ele>
      </trkpt>
      <trkpt lat="45.6482537" lon="7.6420695">
        <ele>1913</ele>
      </trkpt>
      <trkpt lat="45.6482949" lon="7.6422866">
        <ele>1918</ele>
      </trkpt>
      <trkpt lat="45.6483891" lon="7.6426142">
        <ele>1923</ele>
      </trkpt>
      <trkpt lat="45.6484130" lon="7.6426940">
        <ele>1928</ele>
      </trkpt>
      <trkpt lat="45.6484242" lon="7.6428163">
        <ele>1933</ele>
      </trkpt>
      <trkpt lat="45.6485310" lon="7.6430772">
        <ele>1938</ele>
      </trkpt>
      <trkpt lat="45.6492229" lon="7.6445379">
        <ele>1943</ele>
      </trkpt>
      <trkpt lat="45.6492390" lon="7.6448341">
        <ele>1948</ele>
      </trkpt>
      <trkpt lat="45.6492326" lon="7.6449901">
        <ele>1953</ele>
      </trkpt>
      <trkpt lat="45.6496833" lon="7.6449595">
        <ele>1958</ele>
      </trkpt>
    </trkseg>
  </trk>
</gpx>
