<?xml version="1.0" encoding="UTF-8"?>
<gpx version="1.1" creator="sentieri-vda" xmlns="http://www.topografix.com/GPX/1/1">
  <metadata>
    <name>Strada per Lazey (presso Cretaz damon) - Mont Charvet</name>
    <desc>Catasto Sentieri VdA — 40_S16</desc>
    <author><name>Regione Autonoma Valle d'Aosta</name></author>
  </metadata>
  <trk>
    <name>Strada per Lazey (presso Cretaz damon) - Mont Charvet</name>
    <src>Catasto Sentieri VdA (40_S16)</src>
    <trkseg>
      <trkpt lat="45.7317782" lon="7.0146100">
        <ele>1430</ele>
      </trkpt>
      <trkpt lat="45.7317252" lon="7.0153730">
        <ele>1447</ele>
      </trkpt>
      <trkpt lat="45.7314452" lon="7.0154130">
        <ele>1464</ele>
      </trkpt>
      <trkpt lat="45.7311852" lon="7.0167030">
        <ele>1481</ele>
      </trkpt>
      <trkpt lat="45.7305852" lon="7.0174030">
        <ele>1497</ele>
      </trkpt>
      <trkpt lat="45.7305252" lon="7.0181630">
        <ele>1514</ele>
      </trkpt>
      <trkpt lat="45.7302852" lon="7.0175830">
        <ele>1531</ele>
      </trkpt>
      <trkpt lat="45.7301752" lon="7.0177930">
        <ele>1548</ele>
      </trkpt>
      <trkpt lat="45.7295552" lon="7.0170830">
        <ele>1565</ele>
      </trkpt>
      <trkpt lat="45.7288752" lon="7.0168730">
        <ele>1582</ele>
      </trkpt>
      <trkpt lat="45.7286352" lon="7.0173230">
        <ele>1599</ele>
      </trkpt>
      <trkpt lat="45.7288252" lon="7.0201530">
        <ele>1616</ele>
      </trkpt>
      <trkpt lat="45.7293852" lon="7.0218730">
        <ele>1632</ele>
      </trkpt>
      <trkpt lat="45.7286352" lon="7.0215030">
        <ele>1649</ele>
      </trkpt>
      <trkpt lat="45.7286352" lon="7.0221030">
        <ele>1666</ele>
      </trkpt>
      <trkpt lat="45.7271552" lon="7.0232030">
        <ele>1683</ele>
      </trkpt>
      <trkpt lat="45.7269352" lon="7.0249830">
        <ele>1700</ele>
      </trkpt>
      <trkpt lat="45.7279052" lon="7.0302630">
        <ele>1717</ele>
      </trkpt>
      <trkpt lat="45.7278682" lon="7.0312300">
        <ele>1734</ele>
      </trkpt>
      <trkpt lat="45.7279952" lon="7.0313130">
        <ele>1751</ele>
      </trkpt>
      <trkpt lat="45.7280652" lon="7.0315530">
        <ele>1767</ele>
      </trkpt>
      <trkpt lat="45.7283452" lon="7.0317030">
        <ele>1784</ele>
      </trkpt>
      <trkpt lat="45.7287952" lon="7.0326330">
        <ele>1801</ele>
      </trkpt>
      <trkpt lat="45.7286852" lon="7.0334230">
        <ele>1818</ele>
      </trkpt>
      <trkpt lat="45.7288452" lon="7.0338930">
        <ele>1835</ele>
      </trkpt>
      <trkpt lat="45.7286052" lon="7.0342430">
        <ele>1852</ele>
      </trkpt>
      <trkpt lat="45.7286182" lon="7.0342300">
        <ele>1869</ele>
      </trkpt>
      <trkpt lat="45.7297952" lon="7.0352830">
        <ele>1886</ele>
      </trkpt>
      <trkpt lat="45.7303782" lon="7.0346200">
        <ele>1902</ele>
      </trkpt>
      <trkpt lat="45.7306682" lon="7.0348400">
        <ele>1919</ele>
      </trkpt>
      <trkpt lat="45.7308652" lon="7.0355630">
        <ele>1936</ele>
      </trkpt>
      <trkpt lat="45.7329252" lon="7.0386030">
        <ele>1953</ele>
      </trkpt>
      <trkpt lat="45.7326252" lon="7.0389930">
        <ele>1970</ele>
      </trkpt>
      <trkpt lat="45.7334452" lon="7.0412230">
        <ele>1987</ele>
      </trkpt>
      <trkpt lat="45.7333352" lon="7.0417830">
        <ele>2004</ele>
      </trkpt>
      <trkpt lat="45.7327152" lon="7.0421930">
        <ele>2021</ele>
      </trkpt>
      <trkpt lat="45.7326280" lon="7.0432753">
        <ele>2037</ele>
      </trkpt>
      <trkpt lat="45.7326201" lon="7.0433398">
        <ele>2054</ele>
      </trkpt>
      <trkpt lat="45.7326392" lon="7.0434034">
        <ele>2071</ele>
      </trkpt>
      <trkpt lat="45.7327983" lon="7.0437577">
        <ele>2088</ele>
      </trkpt>
      <trkpt lat="45.7329121" lon="7.0441008">
        <ele>2105</ele>
      </trkpt>
      <trkpt lat="45.7330528" lon="7.0444300">
        <ele>2122</ele>
      </trkpt>
      <trkpt lat="45.7331362" lon="7.0445685">
        <ele>2139</ele>
      </trkpt>
      <trkpt lat="45.7332832" lon="7.0447433">
        <ele>2156</ele>
      </trkpt>
      <trkpt lat="45.7334196" lon="7.0448285">
        <ele>2172</ele>
      </trkpt>
      <trkpt lat="45.7335605" lon="7.0449071">
        <ele>2189</ele>
      </trkpt>
      <trkpt lat="45.7336191" lon="7.0449115">
        <ele>2206</ele>
      </trkpt>
      <trkpt lat="45.7336816" lon="7.0448836">
        <ele>2223</ele>
      </trkpt>
      <trkpt lat="45.7337226" lon="7.0449143">
        <ele>2240</ele>
      </trkpt>
      <trkpt lat="45.7337237" lon="7.0449785">
        <ele>2257</ele>
      </trkpt>
      <trkpt lat="45.7337022" lon="7.0450371">
        <ele>2274</ele>
      </trkpt>
      <trkpt lat="45.7334541" lon="7.0452643">
        <ele>2291</ele>
      </trkpt>
      <trkpt lat="45.7333927" lon="7.0453564">
        <ele>2307</ele>
      </trkpt>
      <trkpt lat="45.7333672" lon="7.0454473">
        <ele>2324</ele>
      </trkpt>
      <trkpt lat="45.7333547" lon="7.0457690">
        <ele>2341</ele>
      </trkpt>
      <trkpt lat="45.7333751" lon="7.0459097">
        <ele>2358</ele>
      </trkpt>
      <trkpt lat="45.7333800" lon="7.0461923">
        <ele>2375</ele>
      </trkpt>
      <trkpt lat="45.7334190" lon="7.0463708">
        <ele>2392</ele>
      </trkpt>
      <trkpt lat="45.7335327" lon="7.0467010">
        <ele>2409</ele>
      </trkpt>
      <trkpt lat="45.7335814" lon="7.0469178">
        <ele>2426</ele>
      </trkpt>
      <trkpt lat="45.7338429" lon="7.0466838">
        <ele>2442</ele>
      </trkpt>
      <trkpt lat="45.7339723" lon="7.0466215">
        <ele>2459</ele>
      </trkpt>
      <trkpt lat="45.7340454" lon="7.0466832">
        <ele>2476</ele>
      </trkpt>
      <trkpt lat="45.7340379" lon="7.0467734">
        <ele>2493</ele>
      </trkpt>
    </trkseg>
  </trk>
</gpx>
