<?xml version="1.0" encoding="UTF-8"?>
<gpx version="1.1" creator="sentieri-vda" xmlns="http://www.topografix.com/GPX/1/1">
  <metadata>
    <name>Promoud</name>
    <desc>Catasto Sentieri VdA — 40_S42</desc>
    <author><name>Regione Autonoma Valle d'Aosta</name></author>
  </metadata>
  <trk>
    <name>Promoud</name>
    <src>Catasto Sentieri VdA (40_S42)</src>
    <trkseg>
      <trkpt lat="45.7001501" lon="7.0422037">
        <ele>1170</ele>
      </trkpt>
      <trkpt lat="45.7001537" lon="7.0422468">
        <ele>1176</ele>
      </trkpt>
      <trkpt lat="45.7002186" lon="7.0423336">
        <ele>1182</ele>
      </trkpt>
      <trkpt lat="45.7006452" lon="7.0426220">
        <ele>1187</ele>
      </trkpt>
      <trkpt lat="45.7013152" lon="7.0427720">
        <ele>1193</ele>
      </trkpt>
      <trkpt lat="45.7016352" lon="7.0430520">
        <ele>1199</ele>
      </trkpt>
      <trkpt lat="45.7023652" lon="7.0433820">
        <ele>1205</ele>
      </trkpt>
      <trkpt lat="45.7027652" lon="7.0432020">
        <ele>1210</ele>
      </trkpt>
      <trkpt lat="45.7038552" lon="7.0439220">
        <ele>1216</ele>
      </trkpt>
      <trkpt lat="45.7045152" lon="7.0445220">
        <ele>1222</ele>
      </trkpt>
      <trkpt lat="45.7050252" lon="7.0443620">
        <ele>1228</ele>
      </trkpt>
      <trkpt lat="45.7053052" lon="7.0446720">
        <ele>1233</ele>
      </trkpt>
      <trkpt lat="45.7054052" lon="7.0453520">
        <ele>1239</ele>
      </trkpt>
      <trkpt lat="45.7055452" lon="7.0452420">
        <ele>1245</ele>
      </trkpt>
      <trkpt lat="45.7056752" lon="7.0456620">
        <ele>1251</ele>
      </trkpt>
      <trkpt lat="45.7058252" lon="7.0455120">
        <ele>1256</ele>
      </trkpt>
      <trkpt lat="45.7059952" lon="7.0458820">
        <ele>1262</ele>
      </trkpt>
      <trkpt lat="45.7067052" lon="7.0460220">
        <ele>1268</ele>
      </trkpt>
      <trkpt lat="45.7070352" lon="7.0464920">
        <ele>1274</ele>
      </trkpt>
      <trkpt lat="45.7077152" lon="7.0470620">
        <ele>1279</ele>
      </trkpt>
      <trkpt lat="45.7077952" lon="7.0469920">
        <ele>1285</ele>
      </trkpt>
      <trkpt lat="45.7078452" lon="7.0471220">
        <ele>1291</ele>
      </trkpt>
      <trkpt lat="45.7081652" lon="7.0471920">
        <ele>1297</ele>
      </trkpt>
      <trkpt lat="45.7083352" lon="7.0473620">
        <ele>1303</ele>
      </trkpt>
      <trkpt lat="45.7089152" lon="7.0474720">
        <ele>1308</ele>
      </trkpt>
      <trkpt lat="45.7092152" lon="7.0478220">
        <ele>1314</ele>
      </trkpt>
      <trkpt lat="45.7094752" lon="7.0478120">
        <ele>1320</ele>
      </trkpt>
      <trkpt lat="45.7098452" lon="7.0479720">
        <ele>1326</ele>
      </trkpt>
      <trkpt lat="45.7099152" lon="7.0481520">
        <ele>1331</ele>
      </trkpt>
      <trkpt lat="45.7099452" lon="7.0480020">
        <ele>1337</ele>
      </trkpt>
      <trkpt lat="45.7100252" lon="7.0481320">
        <ele>1343</ele>
      </trkpt>
      <trkpt lat="45.7101352" lon="7.0480420">
        <ele>1349</ele>
      </trkpt>
      <trkpt lat="45.7102852" lon="7.0476120">
        <ele>1354</ele>
      </trkpt>
      <trkpt lat="45.7103252" lon="7.0469220">
        <ele>1360</ele>
      </trkpt>
      <trkpt lat="45.7107152" lon="7.0470320">
        <ele>1366</ele>
      </trkpt>
      <trkpt lat="45.7110352" lon="7.0474320">
        <ele>1372</ele>
      </trkpt>
      <trkpt lat="45.7108052" lon="7.0479420">
        <ele>1377</ele>
      </trkpt>
      <trkpt lat="45.7110952" lon="7.0480420">
        <ele>1383</ele>
      </trkpt>
      <trkpt lat="45.7116052" lon="7.0478520">
        <ele>1389</ele>
      </trkpt>
      <trkpt lat="45.7116852" lon="7.0481720">
        <ele>1395</ele>
      </trkpt>
      <trkpt lat="45.7119552" lon="7.0482620">
        <ele>1400</ele>
      </trkpt>
      <trkpt lat="45.7121952" lon="7.0482120">
        <ele>1406</ele>
      </trkpt>
      <trkpt lat="45.7129752" lon="7.0484720">
        <ele>1412</ele>
      </trkpt>
      <trkpt lat="45.7132844" lon="7.0484604">
        <ele>1418</ele>
      </trkpt>
      <trkpt lat="45.7132418" lon="7.0486032">
        <ele>1424</ele>
      </trkpt>
      <trkpt lat="45.7132552" lon="7.0488597">
        <ele>1429</ele>
      </trkpt>
      <trkpt lat="45.7133410" lon="7.0491394">
        <ele>1435</ele>
      </trkpt>
      <trkpt lat="45.7135299" lon="7.0496596">
        <ele>1441</ele>
      </trkpt>
      <trkpt lat="45.7135946" lon="7.0497601">
        <ele>1447</ele>
      </trkpt>
      <trkpt lat="45.7137315" lon="7.0498710">
        <ele>1452</ele>
      </trkpt>
      <trkpt lat="45.7142484" lon="7.0500971">
        <ele>1458</ele>
      </trkpt>
      <trkpt lat="45.7145948" lon="7.0503549">
        <ele>1464</ele>
      </trkpt>
      <trkpt lat="45.7152901" lon="7.0510116">
        <ele>1470</ele>
      </trkpt>
      <trkpt lat="45.7155380" lon="7.0512985">
        <ele>1475</ele>
      </trkpt>
      <trkpt lat="45.7156200" lon="7.0513599">
        <ele>1481</ele>
      </trkpt>
      <trkpt lat="45.7157014" lon="7.0513828">
        <ele>1487</ele>
      </trkpt>
      <trkpt lat="45.7157925" lon="7.0514439">
        <ele>1493</ele>
      </trkpt>
      <trkpt lat="45.7159116" lon="7.0515682">
        <ele>1498</ele>
      </trkpt>
      <trkpt lat="45.7159478" lon="7.0515798">
        <ele>1504</ele>
      </trkpt>
      <trkpt lat="45.7162038" lon="7.0518150">
        <ele>1510</ele>
      </trkpt>
      <trkpt lat="45.7163418" lon="7.0519901">
        <ele>1516</ele>
      </trkpt>
      <trkpt lat="45.7165189" lon="7.0523437">
        <ele>1521</ele>
      </trkpt>
      <trkpt lat="45.7166580" lon="7.0525830">
        <ele>1527</ele>
      </trkpt>
      <trkpt lat="45.7168699" lon="7.0528712">
        <ele>1533</ele>
      </trkpt>
      <trkpt lat="45.7174074" lon="7.0537776">
        <ele>1539</ele>
      </trkpt>
      <trkpt lat="45.7178659" lon="7.0542757">
        <ele>1545</ele>
      </trkpt>
      <trkpt lat="45.7179506" lon="7.0544912">
        <ele>1550</ele>
      </trkpt>
      <trkpt lat="45.7180199" lon="7.0545980">
        <ele>1556</ele>
      </trkpt>
      <trkpt lat="45.7181292" lon="7.0546713">
        <ele>1562</ele>
      </trkpt>
      <trkpt lat="45.7183867" lon="7.0547330">
        <ele>1568</ele>
      </trkpt>
      <trkpt lat="45.7184955" lon="7.0547806">
        <ele>1573</ele>
      </trkpt>
      <trkpt lat="45.7187055" lon="7.0549532">
        <ele>1579</ele>
      </trkpt>
      <trkpt lat="45.7190453" lon="7.0553526">
        <ele>1585</ele>
      </trkpt>
      <trkpt lat="45.7194944" lon="7.0558253">
        <ele>1591</ele>
      </trkpt>
      <trkpt lat="45.7196686" lon="7.0560120">
        <ele>1596</ele>
      </trkpt>
      <trkpt lat="45.7199597" lon="7.0561947">
        <ele>1602</ele>
      </trkpt>
      <trkpt lat="45.7201877" lon="7.0563666">
        <ele>1608</ele>
      </trkpt>
      <trkpt lat="45.7203987" lon="7.0566035">
        <ele>1614</ele>
      </trkpt>
      <trkpt lat="45.7205084" lon="7.0567025">
        <ele>1619</ele>
      </trkpt>
      <trkpt lat="45.7206723" lon="7.0568124">
        <ele>1625</ele>
      </trkpt>
      <trkpt lat="45.7209334" lon="7.0568162">
        <ele>1631</ele>
      </trkpt>
      <trkpt lat="45.7212142" lon="7.0569221">
        <ele>1637</ele>
      </trkpt>
      <trkpt lat="45.7215119" lon="7.0569632">
        <ele>1642</ele>
      </trkpt>
      <trkpt lat="45.7217734" lon="7.0569927">
        <ele>1648</ele>
      </trkpt>
      <trkpt lat="45.7219353" lon="7.0569871">
        <ele>1654</ele>
      </trkpt>
      <trkpt lat="45.7220891" lon="7.0570331">
        <ele>1660</ele>
      </trkpt>
      <trkpt lat="45.7222603" lon="7.0570401">
        <ele>1666</ele>
      </trkpt>
      <trkpt lat="45.7223408" lon="7.0570116">
        <ele>1671</ele>
      </trkpt>
      <trkpt lat="45.7227179" lon="7.0569599">
        <ele>1677</ele>
      </trkpt>
      <trkpt lat="45.7229959" lon="7.0568989">
        <ele>1683</ele>
      </trkpt>
      <trkpt lat="45.7231938" lon="7.0568920">
        <ele>1689</ele>
      </trkpt>
      <trkpt lat="45.7232921" lon="7.0568501">
        <ele>1694</ele>
      </trkpt>
      <trkpt lat="45.7233893" lon="7.0567439">
        <ele>1700</ele>
      </trkpt>
      <trkpt lat="45.7234516" lon="7.0567032">
        <ele>1706</ele>
      </trkpt>
      <trkpt lat="45.7235244" lon="7.0567521">
        <ele>1712</ele>
      </trkpt>
      <trkpt lat="45.7236914" lon="7.0570418">
        <ele>1717</ele>
      </trkpt>
      <trkpt lat="45.7237647" lon="7.0571164">
        <ele>1723</ele>
      </trkpt>
      <trkpt lat="45.7240095" lon="7.0572236">
        <ele>1729</ele>
      </trkpt>
      <trkpt lat="45.7241174" lon="7.0572198">
        <ele>1735</ele>
      </trkpt>
      <trkpt lat="45.7243050" lon="7.0571362">
        <ele>1740</ele>
      </trkpt>
      <trkpt lat="45.7244584" lon="7.0571566">
        <ele>1746</ele>
      </trkpt>
      <trkpt lat="45.7245400" lon="7.0571923">
        <ele>1752</ele>
      </trkpt>
      <trkpt lat="45.7247572" lon="7.0574000">
        <ele>1758</ele>
      </trkpt>
      <trkpt lat="45.7247352" lon="7.0577820">
        <ele>1763</ele>
      </trkpt>
      <trkpt lat="45.7253052" lon="7.0581420">
        <ele>1769</ele>
      </trkpt>
      <trkpt lat="45.7261652" lon="7.0580120">
        <ele>1775</ele>
      </trkpt>
      <trkpt lat="45.7264952" lon="7.0586920">
        <ele>1781</ele>
      </trkpt>
      <trkpt lat="45.7266500" lon="7.0587448">
        <ele>1787</ele>
      </trkpt>
      <trkpt lat="45.7266553" lon="7.0587896">
        <ele>1792</ele>
      </trkpt>
      <trkpt lat="45.7267468" lon="7.0588764">
        <ele>1798</ele>
      </trkpt>
      <trkpt lat="45.7269776" lon="7.0592154">
        <ele>1804</ele>
      </trkpt>
      <trkpt lat="45.7271471" lon="7.0596593">
        <ele>1810</ele>
      </trkpt>
      <trkpt lat="45.7273013" lon="7.0599945">
        <ele>1815</ele>
      </trkpt>
      <trkpt lat="45.7274520" lon="7.0601242">
        <ele>1821</ele>
      </trkpt>
      <trkpt lat="45.7280942" lon="7.0608220">
        <ele>1827</ele>
      </trkpt>
      <trkpt lat="45.7285342" lon="7.0609220">
        <ele>1833</ele>
      </trkpt>
      <trkpt lat="45.7289842" lon="7.0607520">
        <ele>1838</ele>
      </trkpt>
      <trkpt lat="45.7289942" lon="7.0608720">
        <ele>1844</ele>
      </trkpt>
      <trkpt lat="45.7292142" lon="7.0608520">
        <ele>1850</ele>
      </trkpt>
      <trkpt lat="45.7295942" lon="7.0605520">
        <ele>1856</ele>
      </trkpt>
      <trkpt lat="45.7300042" lon="7.0605220">
        <ele>1861</ele>
      </trkpt>
      <trkpt lat="45.7304442" lon="7.0602820">
        <ele>1867</ele>
      </trkpt>
      <trkpt lat="45.7303042" lon="7.0605420">
        <ele>1873</ele>
      </trkpt>
      <trkpt lat="45.7304842" lon="7.0606220">
        <ele>1879</ele>
      </trkpt>
      <trkpt lat="45.7304042" lon="7.0607820">
        <ele>1884</ele>
      </trkpt>
      <trkpt lat="45.7306142" lon="7.0607420">
        <ele>1890</ele>
      </trkpt>
      <trkpt lat="45.7308742" lon="7.0602520">
        <ele>1896</ele>
      </trkpt>
      <trkpt lat="45.7309842" lon="7.0602720">
        <ele>1902</ele>
      </trkpt>
      <trkpt lat="45.7309742" lon="7.0604420">
        <ele>1908</ele>
      </trkpt>
      <trkpt lat="45.7310742" lon="7.0604020">
        <ele>1913</ele>
      </trkpt>
      <trkpt lat="45.7314642" lon="7.0600020">
        <ele>1919</ele>
      </trkpt>
      <trkpt lat="45.7316242" lon="7.0597420">
        <ele>1925</ele>
      </trkpt>
      <trkpt lat="45.7315142" lon="7.0597420">
        <ele>1931</ele>
      </trkpt>
      <trkpt lat="45.7315242" lon="7.0595120">
        <ele>1936</ele>
      </trkpt>
      <trkpt lat="45.7319442" lon="7.0589920">
        <ele>1942</ele>
      </trkpt>
      <trkpt lat="45.7321542" lon="7.0588720">
        <ele>1948</ele>
      </trkpt>
      <trkpt lat="45.7320142" lon="7.0592220">
        <ele>1954</ele>
      </trkpt>
      <trkpt lat="45.7327842" lon="7.0584420">
        <ele>1959</ele>
      </trkpt>
      <trkpt lat="45.7333142" lon="7.0576720">
        <ele>1965</ele>
      </trkpt>
      <trkpt lat="45.7336442" lon="7.0576220">
        <ele>1971</ele>
      </trkpt>
      <trkpt lat="45.7341442" lon="7.0572820">
        <ele>1977</ele>
      </trkpt>
      <trkpt lat="45.7354442" lon="7.0574120">
        <ele>1982</ele>
      </trkpt>
      <trkpt lat="45.7354942" lon="7.0573220">
        <ele>1988</ele>
      </trkpt>
      <trkpt lat="45.7355042" lon="7.0571020">
        <ele>1994</ele>
      </trkpt>
      <trkpt lat="45.7358342" lon="7.0568020">
        <ele>2000</ele>
      </trkpt>
      <trkpt lat="45.7362342" lon="7.0573120">
        <ele>2005</ele>
      </trkpt>
      <trkpt lat="45.7363542" lon="7.0586620">
        <ele>2011</ele>
      </trkpt>
      <trkpt lat="45.7359172" lon="7.0603966">
        <ele>2017</ele>
      </trkpt>
    </trkseg>
  </trk>
</gpx>
