<?xml version="1.0" encoding="UTF-8"?>
<gpx version="1.1" creator="sentieri-vda" xmlns="http://www.topografix.com/GPX/1/1">
  <metadata>
    <name>Parcheggio Area camper - Arnouvaz - Souches</name>
    <desc>Catasto Sentieri VdA — 41_S23</desc>
    <author><name>Regione Autonoma Valle d'Aosta</name></author>
  </metadata>
  <trk>
    <name>Parcheggio Area camper - Arnouvaz - Souches</name>
    <src>Catasto Sentieri VdA (41_S23)</src>
    <trkseg>
      <trkpt lat="45.6977962" lon="6.9426416">
        <ele>1475</ele>
      </trkpt>
      <trkpt lat="45.6973622" lon="6.9425430">
        <ele>1480</ele>
      </trkpt>
      <trkpt lat="45.6956462" lon="6.9415720">
        <ele>1486</ele>
      </trkpt>
      <trkpt lat="45.6949277" lon="6.9428933">
        <ele>1491</ele>
      </trkpt>
      <trkpt lat="45.6948354" lon="6.9436232">
        <ele>1496</ele>
      </trkpt>
      <trkpt lat="45.6943892" lon="6.9443330">
        <ele>1502</ele>
      </trkpt>
      <trkpt lat="45.6942094" lon="6.9444131">
        <ele>1507</ele>
      </trkpt>
      <trkpt lat="45.6941781" lon="6.9444270">
        <ele>1512</ele>
      </trkpt>
      <trkpt lat="45.6938172" lon="6.9446580">
        <ele>1518</ele>
      </trkpt>
      <trkpt lat="45.6932693" lon="6.9446930">
        <ele>1523</ele>
      </trkpt>
      <trkpt lat="45.6922152" lon="6.9451470">
        <ele>1529</ele>
      </trkpt>
      <trkpt lat="45.6918162" lon="6.9454730">
        <ele>1534</ele>
      </trkpt>
      <trkpt lat="45.6918722" lon="6.9462840">
        <ele>1539</ele>
      </trkpt>
      <trkpt lat="45.6923415" lon="6.9470724">
        <ele>1545</ele>
      </trkpt>
      <trkpt lat="45.6922162" lon="6.9477450">
        <ele>1550</ele>
      </trkpt>
      <trkpt lat="45.6924854" lon="6.9493959">
        <ele>1555</ele>
      </trkpt>
      <trkpt lat="45.6924643" lon="6.9498721">
        <ele>1561</ele>
      </trkpt>
      <trkpt lat="45.6923619" lon="6.9502393">
        <ele>1566</ele>
      </trkpt>
      <trkpt lat="45.6920477" lon="6.9504972">
        <ele>1571</ele>
      </trkpt>
      <trkpt lat="45.6910537" lon="6.9506853">
        <ele>1577</ele>
      </trkpt>
      <trkpt lat="45.6899970" lon="6.9504920">
        <ele>1582</ele>
      </trkpt>
      <trkpt lat="45.6890677" lon="6.9503940">
        <ele>1587</ele>
      </trkpt>
      <trkpt lat="45.6884432" lon="6.9502660">
        <ele>1593</ele>
      </trkpt>
      <trkpt lat="45.6873385" lon="6.9508729">
        <ele>1598</ele>
      </trkpt>
      <trkpt lat="45.6884379" lon="6.9507879">
        <ele>1604</ele>
      </trkpt>
      <trkpt lat="45.6887953" lon="6.9511097">
        <ele>1609</ele>
      </trkpt>
      <trkpt lat="45.6893335" lon="6.9511930">
        <ele>1614</ele>
      </trkpt>
      <trkpt lat="45.6899648" lon="6.9519073">
        <ele>1620</ele>
      </trkpt>
      <trkpt lat="45.6903721" lon="6.9525255">
        <ele>1625</ele>
      </trkpt>
      <trkpt lat="45.6905303" lon="6.9528151">
        <ele>1630</ele>
      </trkpt>
      <trkpt lat="45.6908518" lon="6.9531758">
        <ele>1636</ele>
      </trkpt>
      <trkpt lat="45.6910649" lon="6.9535148">
        <ele>1641</ele>
      </trkpt>
      <trkpt lat="45.6911874" lon="6.9538186">
        <ele>1646</ele>
      </trkpt>
      <trkpt lat="45.6912192" lon="6.9540871">
        <ele>1652</ele>
      </trkpt>
      <trkpt lat="45.6913068" lon="6.9544564">
        <ele>1657</ele>
      </trkpt>
      <trkpt lat="45.6914722" lon="6.9546430">
        <ele>1662</ele>
      </trkpt>
      <trkpt lat="45.6915005" lon="6.9547190">
        <ele>1668</ele>
      </trkpt>
      <trkpt lat="45.6914662" lon="6.9548102">
        <ele>1673</ele>
      </trkpt>
      <trkpt lat="45.6914129" lon="6.9548507">
        <ele>1679</ele>
      </trkpt>
      <trkpt lat="45.6912332" lon="6.9548701">
        <ele>1684</ele>
      </trkpt>
      <trkpt lat="45.6909850" lon="6.9550846">
        <ele>1689</ele>
      </trkpt>
      <trkpt lat="45.6910941" lon="6.9551448">
        <ele>1695</ele>
      </trkpt>
      <trkpt lat="45.6913407" lon="6.9553413">
        <ele>1700</ele>
      </trkpt>
      <trkpt lat="45.6914862" lon="6.9554259">
        <ele>1705</ele>
      </trkpt>
      <trkpt lat="45.6917486" lon="6.9555063">
        <ele>1711</ele>
      </trkpt>
      <trkpt lat="45.6917943" lon="6.9555431">
        <ele>1716</ele>
      </trkpt>
      <trkpt lat="45.6920120" lon="6.9556379">
        <ele>1721</ele>
      </trkpt>
      <trkpt lat="45.6921296" lon="6.9556722">
        <ele>1727</ele>
      </trkpt>
      <trkpt lat="45.6922648" lon="6.9556801">
        <ele>1732</ele>
      </trkpt>
      <trkpt lat="45.6928135" lon="6.9556601">
        <ele>1737</ele>
      </trkpt>
      <trkpt lat="45.6928418" lon="6.9557361">
        <ele>1743</ele>
      </trkpt>
      <trkpt lat="45.6928444" lon="6.9558773">
        <ele>1748</ele>
      </trkpt>
      <trkpt lat="45.6928905" lon="6.9559398">
        <ele>1753</ele>
      </trkpt>
      <trkpt lat="45.6932240" lon="6.9559662">
        <ele>1759</ele>
      </trkpt>
      <trkpt lat="45.6938266" lon="6.9559443">
        <ele>1764</ele>
      </trkpt>
      <trkpt lat="45.6940328" lon="6.9558982">
        <ele>1770</ele>
      </trkpt>
      <trkpt lat="45.6941320" lon="6.9559074">
        <ele>1775</ele>
      </trkpt>
      <trkpt lat="45.6942665" lon="6.9558769">
        <ele>1780</ele>
      </trkpt>
      <trkpt lat="45.6950043" lon="6.9558628">
        <ele>1786</ele>
      </trkpt>
      <trkpt lat="45.6954805" lon="6.9558198">
        <ele>1791</ele>
      </trkpt>
      <trkpt lat="45.6955959" lon="6.9557256">
        <ele>1796</ele>
      </trkpt>
      <trkpt lat="45.6957354" lon="6.9554765">
        <ele>1802</ele>
      </trkpt>
      <trkpt lat="45.6958233" lon="6.9553577">
        <ele>1807</ele>
      </trkpt>
      <trkpt lat="45.6959305" lon="6.9553153">
        <ele>1812</ele>
      </trkpt>
      <trkpt lat="45.6962447" lon="6.9552653">
        <ele>1818</ele>
      </trkpt>
      <trkpt lat="45.6964762" lon="6.9551284">
        <ele>1823</ele>
      </trkpt>
      <trkpt lat="45.6965934" lon="6.9551370">
        <ele>1828</ele>
      </trkpt>
      <trkpt lat="45.6972791" lon="6.9547266">
        <ele>1834</ele>
      </trkpt>
      <trkpt lat="45.6975270" lon="6.9544992">
        <ele>1839</ele>
      </trkpt>
      <trkpt lat="45.6976428" lon="6.9544308">
        <ele>1845</ele>
      </trkpt>
      <trkpt lat="45.6977572" lon="6.9542853">
        <ele>1850</ele>
      </trkpt>
      <trkpt lat="45.6978619" lon="6.9541017">
        <ele>1855</ele>
      </trkpt>
      <trkpt lat="45.6979221" lon="6.9539454">
        <ele>1861</ele>
      </trkpt>
      <trkpt lat="45.6979849" lon="6.9539302">
        <ele>1866</ele>
      </trkpt>
      <trkpt lat="45.6980580" lon="6.9539918">
        <ele>1871</ele>
      </trkpt>
      <trkpt lat="45.6982464" lon="6.9544602">
        <ele>1877</ele>
      </trkpt>
      <trkpt lat="45.6983110" lon="6.9545477">
        <ele>1882</ele>
      </trkpt>
      <trkpt lat="45.6984878" lon="6.9548752">
        <ele>1887</ele>
      </trkpt>
      <trkpt lat="45.6986352" lon="6.9550625">
        <ele>1893</ele>
      </trkpt>
      <trkpt lat="45.6987083" lon="6.9551241">
        <ele>1898</ele>
      </trkpt>
      <trkpt lat="45.6987895" lon="6.9551340">
        <ele>1903</ele>
      </trkpt>
      <trkpt lat="45.6989099" lon="6.9550718">
        <ele>1909</ele>
      </trkpt>
      <trkpt lat="45.6990635" lon="6.9548542">
        <ele>1914</ele>
      </trkpt>
      <trkpt lat="45.6992146" lon="6.9547460">
        <ele>1919</ele>
      </trkpt>
      <trkpt lat="45.6997612" lon="6.9546104">
        <ele>1925</ele>
      </trkpt>
      <trkpt lat="45.7002292" lon="6.9546062">
        <ele>1930</ele>
      </trkpt>
      <trkpt lat="45.7005829" lon="6.9547603">
        <ele>1936</ele>
      </trkpt>
      <trkpt lat="45.7007096" lon="6.9547942">
        <ele>1941</ele>
      </trkpt>
      <trkpt lat="45.7011240" lon="6.9548176">
        <ele>1946</ele>
      </trkpt>
      <trkpt lat="45.7013018" lon="6.9546955">
        <ele>1952</ele>
      </trkpt>
      <trkpt lat="45.7013987" lon="6.9545764">
        <ele>1957</ele>
      </trkpt>
      <trkpt lat="45.7014520" lon="6.9545359">
        <ele>1962</ele>
      </trkpt>
      <trkpt lat="45.7016144" lon="6.9545557">
        <ele>1968</ele>
      </trkpt>
      <trkpt lat="45.7017760" lon="6.9545369">
        <ele>1973</ele>
      </trkpt>
      <trkpt lat="45.7020436" lon="6.9543987">
        <ele>1978</ele>
      </trkpt>
      <trkpt lat="45.7021243" lon="6.9543829">
        <ele>1984</ele>
      </trkpt>
      <trkpt lat="45.7023473" lon="6.9542720">
        <ele>1989</ele>
      </trkpt>
      <trkpt lat="45.7024191" lon="6.9542565">
        <ele>1994</ele>
      </trkpt>
      <trkpt lat="45.7025881" lon="6.9541476">
        <ele>2000</ele>
      </trkpt>
      <trkpt lat="45.7027120" lon="6.9540275">
        <ele>2005</ele>
      </trkpt>
      <trkpt lat="45.7030058" lon="6.9538498">
        <ele>2011</ele>
      </trkpt>
      <trkpt lat="45.7030762" lon="6.9537573">
        <ele>2016</ele>
      </trkpt>
      <trkpt lat="45.7033871" lon="6.9535275">
        <ele>2021</ele>
      </trkpt>
      <trkpt lat="45.7035541" lon="6.9533031">
        <ele>2027</ele>
      </trkpt>
      <trkpt lat="45.7036495" lon="6.9531069">
        <ele>2032</ele>
      </trkpt>
      <trkpt lat="45.7038800" lon="6.9529058">
        <ele>2037</ele>
      </trkpt>
      <trkpt lat="45.7039515" lon="6.9528775">
        <ele>2043</ele>
      </trkpt>
      <trkpt lat="45.7042847" lon="6.9528910">
        <ele>2048</ele>
      </trkpt>
      <trkpt lat="45.7044838" lon="6.9529480">
        <ele>2053</ele>
      </trkpt>
      <trkpt lat="45.7047813" lon="6.9529757">
        <ele>2059</ele>
      </trkpt>
      <trkpt lat="45.7049789" lon="6.9529556">
        <ele>2064</ele>
      </trkpt>
      <trkpt lat="45.7051399" lon="6.9528983">
        <ele>2069</ele>
      </trkpt>
      <trkpt lat="45.7052557" lon="6.9528299">
        <ele>2075</ele>
      </trkpt>
      <trkpt lat="45.7053087" lon="6.9527765">
        <ele>2080</ele>
      </trkpt>
      <trkpt lat="45.7054444" lon="6.9528101">
        <ele>2086</ele>
      </trkpt>
      <trkpt lat="45.7056150" lon="6.9530416">
        <ele>2091</ele>
      </trkpt>
      <trkpt lat="45.7057015" lon="6.9530962">
        <ele>2096</ele>
      </trkpt>
      <trkpt lat="45.7058101" lon="6.9531308">
        <ele>2102</ele>
      </trkpt>
      <trkpt lat="45.7059448" lon="6.9531130">
        <ele>2107</ele>
      </trkpt>
      <trkpt lat="45.7061835" lon="6.9531236">
        <ele>2112</ele>
      </trkpt>
      <trkpt lat="45.7068485" lon="6.9532034">
        <ele>2118</ele>
      </trkpt>
      <trkpt lat="45.7072878" lon="6.9537192">
        <ele>2123</ele>
      </trkpt>
    </trkseg>
  </trk>
</gpx>
