<?xml version="1.0" encoding="UTF-8"?>
<gpx version="1.1" creator="sentieri-vda" xmlns="http://www.topografix.com/GPX/1/1">
  <metadata>
    <name>Joux - Rifugio Deffeyes</name>
    <desc>Catasto Sentieri VdA — 41_S25</desc>
    <author><name>Regione Autonoma Valle d'Aosta</name></author>
  </metadata>
  <trk>
    <name>Joux - Rifugio Deffeyes</name>
    <src>Catasto Sentieri VdA (41_S25)</src>
    <trkseg>
      <trkpt lat="45.6754671" lon="6.9872830">
        <ele>1623</ele>
      </trkpt>
      <trkpt lat="45.6755515" lon="6.9871987">
        <ele>1625</ele>
      </trkpt>
      <trkpt lat="45.6756230" lon="6.9871417">
        <ele>1627</ele>
      </trkpt>
      <trkpt lat="45.6756880" lon="6.9870541">
        <ele>1629</ele>
      </trkpt>
      <trkpt lat="45.6757590" lon="6.9869985">
        <ele>1631</ele>
      </trkpt>
      <trkpt lat="45.6758533" lon="6.9869081">
        <ele>1633</ele>
      </trkpt>
      <trkpt lat="45.6760103" lon="6.9867675">
        <ele>1635</ele>
      </trkpt>
      <trkpt lat="45.6761067" lon="6.9866947">
        <ele>1637</ele>
      </trkpt>
      <trkpt lat="45.6761743" lon="6.9867101">
        <ele>1639</ele>
      </trkpt>
      <trkpt lat="45.6762997" lon="6.9867606">
        <ele>1641</ele>
      </trkpt>
      <trkpt lat="45.6764199" lon="6.9867972">
        <ele>1643</ele>
      </trkpt>
      <trkpt lat="45.6764938" lon="6.9867519">
        <ele>1645</ele>
      </trkpt>
      <trkpt lat="45.6765226" lon="6.9866578">
        <ele>1648</ele>
      </trkpt>
      <trkpt lat="45.6765485" lon="6.9863188">
        <ele>1650</ele>
      </trkpt>
      <trkpt lat="45.6765927" lon="6.9860728">
        <ele>1652</ele>
      </trkpt>
      <trkpt lat="45.6766675" lon="6.9859897">
        <ele>1654</ele>
      </trkpt>
      <trkpt lat="45.6767497" lon="6.9859415">
        <ele>1656</ele>
      </trkpt>
      <trkpt lat="45.6768055" lon="6.9859709">
        <ele>1658</ele>
      </trkpt>
      <trkpt lat="45.6768303" lon="6.9859598">
        <ele>1660</ele>
      </trkpt>
      <trkpt lat="45.6768958" lon="6.9858530">
        <ele>1662</ele>
      </trkpt>
      <trkpt lat="45.6769239" lon="6.9858429">
        <ele>1664</ele>
      </trkpt>
      <trkpt lat="45.6770226" lon="6.9857914">
        <ele>1666</ele>
      </trkpt>
      <trkpt lat="45.6770781" lon="6.9857226">
        <ele>1668</ele>
      </trkpt>
      <trkpt lat="45.6771171" lon="6.9857006">
        <ele>1670</ele>
      </trkpt>
      <trkpt lat="45.6771485" lon="6.9856312">
        <ele>1672</ele>
      </trkpt>
      <trkpt lat="45.6771570" lon="6.9855380">
        <ele>1674</ele>
      </trkpt>
      <trkpt lat="45.6772526" lon="6.9852992">
        <ele>1676</ele>
      </trkpt>
      <trkpt lat="45.6773241" lon="6.9851949">
        <ele>1678</ele>
      </trkpt>
      <trkpt lat="45.6773897" lon="6.9851591">
        <ele>1680</ele>
      </trkpt>
      <trkpt lat="45.6774434" lon="6.9851678">
        <ele>1682</ele>
      </trkpt>
      <trkpt lat="45.6774771" lon="6.9852286">
        <ele>1684</ele>
      </trkpt>
      <trkpt lat="45.6774945" lon="6.9852584">
        <ele>1686</ele>
      </trkpt>
      <trkpt lat="45.6775240" lon="6.9852389">
        <ele>1688</ele>
      </trkpt>
      <trkpt lat="45.6775549" lon="6.9852225">
        <ele>1690</ele>
      </trkpt>
      <trkpt lat="45.6775737" lon="6.9852253">
        <ele>1693</ele>
      </trkpt>
      <trkpt lat="45.6776043" lon="6.9852704">
        <ele>1695</ele>
      </trkpt>
      <trkpt lat="45.6776003" lon="6.9853221">
        <ele>1697</ele>
      </trkpt>
      <trkpt lat="45.6776013" lon="6.9853406">
        <ele>1699</ele>
      </trkpt>
      <trkpt lat="45.6776254" lon="6.9854065">
        <ele>1701</ele>
      </trkpt>
      <trkpt lat="45.6776447" lon="6.9854395">
        <ele>1703</ele>
      </trkpt>
      <trkpt lat="45.6776896" lon="6.9854450">
        <ele>1705</ele>
      </trkpt>
      <trkpt lat="45.6777264" lon="6.9854117">
        <ele>1707</ele>
      </trkpt>
      <trkpt lat="45.6778082" lon="6.9853182">
        <ele>1709</ele>
      </trkpt>
      <trkpt lat="45.6778190" lon="6.9853085">
        <ele>1711</ele>
      </trkpt>
      <trkpt lat="45.6779651" lon="6.9852594">
        <ele>1713</ele>
      </trkpt>
      <trkpt lat="45.6780270" lon="6.9852045">
        <ele>1715</ele>
      </trkpt>
      <trkpt lat="45.6780101" lon="6.9851703">
        <ele>1717</ele>
      </trkpt>
      <trkpt lat="45.6780023" lon="6.9850717">
        <ele>1719</ele>
      </trkpt>
      <trkpt lat="45.6781171" lon="6.9848817">
        <ele>1721</ele>
      </trkpt>
      <trkpt lat="45.6781671" lon="6.9848305">
        <ele>1723</ele>
      </trkpt>
      <trkpt lat="45.6782561" lon="6.9847953">
        <ele>1725</ele>
      </trkpt>
      <trkpt lat="45.6782921" lon="6.9847591">
        <ele>1727</ele>
      </trkpt>
      <trkpt lat="45.6780993" lon="6.9846847">
        <ele>1729</ele>
      </trkpt>
      <trkpt lat="45.6781070" lon="6.9846554">
        <ele>1731</ele>
      </trkpt>
      <trkpt lat="45.6781649" lon="6.9845894">
        <ele>1733</ele>
      </trkpt>
      <trkpt lat="45.6783317" lon="6.9845805">
        <ele>1735</ele>
      </trkpt>
      <trkpt lat="45.6786103" lon="6.9843235">
        <ele>1737</ele>
      </trkpt>
      <trkpt lat="45.6786894" lon="6.9843032">
        <ele>1740</ele>
      </trkpt>
      <trkpt lat="45.6787049" lon="6.9842561">
        <ele>1742</ele>
      </trkpt>
      <trkpt lat="45.6786161" lon="6.9841896">
        <ele>1744</ele>
      </trkpt>
      <trkpt lat="45.6785100" lon="6.9841760">
        <ele>1746</ele>
      </trkpt>
      <trkpt lat="45.6785332" lon="6.9841054">
        <ele>1748</ele>
      </trkpt>
      <trkpt lat="45.6788358" lon="6.9840597">
        <ele>1750</ele>
      </trkpt>
      <trkpt lat="45.6789593" lon="6.9840145">
        <ele>1752</ele>
      </trkpt>
      <trkpt lat="45.6789321" lon="6.9839719">
        <ele>1754</ele>
      </trkpt>
      <trkpt lat="45.6786639" lon="6.9837811">
        <ele>1756</ele>
      </trkpt>
      <trkpt lat="45.6783689" lon="6.9836842">
        <ele>1758</ele>
      </trkpt>
      <trkpt lat="45.6784285" lon="6.9835977">
        <ele>1760</ele>
      </trkpt>
      <trkpt lat="45.6785618" lon="6.9835348">
        <ele>1762</ele>
      </trkpt>
      <trkpt lat="45.6787402" lon="6.9834907">
        <ele>1764</ele>
      </trkpt>
      <trkpt lat="45.6788202" lon="6.9834867">
        <ele>1766</ele>
      </trkpt>
      <trkpt lat="45.6788425" lon="6.9835131">
        <ele>1768</ele>
      </trkpt>
      <trkpt lat="45.6788832" lon="6.9835088">
        <ele>1770</ele>
      </trkpt>
      <trkpt lat="45.6785875" lon="6.9832608">
        <ele>1772</ele>
      </trkpt>
      <trkpt lat="45.6785908" lon="6.9832200">
        <ele>1774</ele>
      </trkpt>
      <trkpt lat="45.6788428" lon="6.9831848">
        <ele>1776</ele>
      </trkpt>
      <trkpt lat="45.6787940" lon="6.9830761">
        <ele>1778</ele>
      </trkpt>
      <trkpt lat="45.6786462" lon="6.9830117">
        <ele>1780</ele>
      </trkpt>
      <trkpt lat="45.6786395" lon="6.9829741">
        <ele>1782</ele>
      </trkpt>
      <trkpt lat="45.6788336" lon="6.9828916">
        <ele>1784</ele>
      </trkpt>
      <trkpt lat="45.6789425" lon="6.9829458">
        <ele>1787</ele>
      </trkpt>
      <trkpt lat="45.6790360" lon="6.9830500">
        <ele>1789</ele>
      </trkpt>
      <trkpt lat="45.6790414" lon="6.9830091">
        <ele>1791</ele>
      </trkpt>
      <trkpt lat="45.6790011" lon="6.9829234">
        <ele>1793</ele>
      </trkpt>
      <trkpt lat="45.6789912" lon="6.9828220">
        <ele>1795</ele>
      </trkpt>
      <trkpt lat="45.6789300" lon="6.9825859">
        <ele>1797</ele>
      </trkpt>
      <trkpt lat="45.6788683" lon="6.9825473">
        <ele>1799</ele>
      </trkpt>
      <trkpt lat="45.6786676" lon="6.9824819">
        <ele>1801</ele>
      </trkpt>
      <trkpt lat="45.6787188" lon="6.9823871">
        <ele>1803</ele>
      </trkpt>
      <trkpt lat="45.6789035" lon="6.9822322">
        <ele>1805</ele>
      </trkpt>
      <trkpt lat="45.6789572" lon="6.9822106">
        <ele>1807</ele>
      </trkpt>
      <trkpt lat="45.6790028" lon="6.9821841">
        <ele>1809</ele>
      </trkpt>
      <trkpt lat="45.6790490" lon="6.9821878">
        <ele>1811</ele>
      </trkpt>
      <trkpt lat="45.6791072" lon="6.9822407">
        <ele>1813</ele>
      </trkpt>
      <trkpt lat="45.6791695" lon="6.9823131">
        <ele>1815</ele>
      </trkpt>
      <trkpt lat="45.6792367" lon="6.9823835">
        <ele>1817</ele>
      </trkpt>
      <trkpt lat="45.6793227" lon="6.9824551">
        <ele>1819</ele>
      </trkpt>
      <trkpt lat="45.6793786" lon="6.9824513">
        <ele>1821</ele>
      </trkpt>
      <trkpt lat="45.6794294" lon="6.9824352">
        <ele>1823</ele>
      </trkpt>
      <trkpt lat="45.6794562" lon="6.9823987">
        <ele>1825</ele>
      </trkpt>
      <trkpt lat="45.6794561" lon="6.9823937">
        <ele>1827</ele>
      </trkpt>
      <trkpt lat="45.6794648" lon="6.9823932">
        <ele>1829</ele>
      </trkpt>
      <trkpt lat="45.6794715" lon="6.9823520">
        <ele>1832</ele>
      </trkpt>
      <trkpt lat="45.6794966" lon="6.9822516">
        <ele>1834</ele>
      </trkpt>
      <trkpt lat="45.6795643" lon="6.9820515">
        <ele>1836</ele>
      </trkpt>
      <trkpt lat="45.6796356" lon="6.9817061">
        <ele>1838</ele>
      </trkpt>
      <trkpt lat="45.6796450" lon="6.9815459">
        <ele>1840</ele>
      </trkpt>
      <trkpt lat="45.6796149" lon="6.9815172">
        <ele>1842</ele>
      </trkpt>
      <trkpt lat="45.6795930" lon="6.9815446">
        <ele>1844</ele>
      </trkpt>
      <trkpt lat="45.6795645" lon="6.9815982">
        <ele>1846</ele>
      </trkpt>
      <trkpt lat="45.6795635" lon="6.9816381">
        <ele>1848</ele>
      </trkpt>
      <trkpt lat="45.6795445" lon="6.9816867">
        <ele>1850</ele>
      </trkpt>
      <trkpt lat="45.6794613" lon="6.9817714">
        <ele>1852</ele>
      </trkpt>
      <trkpt lat="45.6793685" lon="6.9818067">
        <ele>1854</ele>
      </trkpt>
      <trkpt lat="45.6793307" lon="6.9817797">
        <ele>1856</ele>
      </trkpt>
      <trkpt lat="45.6792959" lon="6.9817152">
        <ele>1858</ele>
      </trkpt>
      <trkpt lat="45.6792395" lon="6.9816231">
        <ele>1860</ele>
      </trkpt>
      <trkpt lat="45.6791868" lon="6.9815290">
        <ele>1862</ele>
      </trkpt>
      <trkpt lat="45.6791754" lon="6.9814513">
        <ele>1864</ele>
      </trkpt>
      <trkpt lat="45.6792181" lon="6.9814728">
        <ele>1866</ele>
      </trkpt>
      <trkpt lat="45.6792570" lon="6.9814892">
        <ele>1868</ele>
      </trkpt>
      <trkpt lat="45.6793096" lon="6.9815033">
        <ele>1870</ele>
      </trkpt>
      <trkpt lat="45.6793530" lon="6.9814928">
        <ele>1872</ele>
      </trkpt>
      <trkpt lat="45.6793869" lon="6.9814365">
        <ele>1874</ele>
      </trkpt>
      <trkpt lat="45.6794461" lon="6.9813367">
        <ele>1876</ele>
      </trkpt>
      <trkpt lat="45.6794468" lon="6.9813259">
        <ele>1879</ele>
      </trkpt>
      <trkpt lat="45.6794401" lon="6.9813182">
        <ele>1881</ele>
      </trkpt>
      <trkpt lat="45.6794312" lon="6.9813177">
        <ele>1883</ele>
      </trkpt>
      <trkpt lat="45.6793839" lon="6.9813203">
        <ele>1885</ele>
      </trkpt>
      <trkpt lat="45.6793571" lon="6.9813186">
        <ele>1887</ele>
      </trkpt>
      <trkpt lat="45.6793061" lon="6.9812858">
        <ele>1889</ele>
      </trkpt>
      <trkpt lat="45.6792897" lon="6.9812757">
        <ele>1891</ele>
      </trkpt>
      <trkpt lat="45.6792747" lon="6.9812398">
        <ele>1893</ele>
      </trkpt>
      <trkpt lat="45.6792894" lon="6.9812224">
        <ele>1895</ele>
      </trkpt>
      <trkpt lat="45.6793098" lon="6.9812137">
        <ele>1897</ele>
      </trkpt>
      <trkpt lat="45.6793349" lon="6.9811915">
        <ele>1899</ele>
      </trkpt>
      <trkpt lat="45.6793524" lon="6.9811615">
        <ele>1901</ele>
      </trkpt>
      <trkpt lat="45.6793750" lon="6.9811003">
        <ele>1903</ele>
      </trkpt>
      <trkpt lat="45.6793992" lon="6.9810266">
        <ele>1905</ele>
      </trkpt>
      <trkpt lat="45.6794238" lon="6.9809742">
        <ele>1907</ele>
      </trkpt>
      <trkpt lat="45.6794471" lon="6.9809192">
        <ele>1909</ele>
      </trkpt>
      <trkpt lat="45.6794831" lon="6.9809090">
        <ele>1911</ele>
      </trkpt>
      <trkpt lat="45.6795216" lon="6.9808668">
        <ele>1913</ele>
      </trkpt>
      <trkpt lat="45.6795236" lon="6.9808652">
        <ele>1915</ele>
      </trkpt>
      <trkpt lat="45.6795313" lon="6.9808366">
        <ele>1917</ele>
      </trkpt>
      <trkpt lat="45.6795423" lon="6.9807528">
        <ele>1919</ele>
      </trkpt>
      <trkpt lat="45.6795920" lon="6.9806763">
        <ele>1921</ele>
      </trkpt>
      <trkpt lat="45.6796934" lon="6.9805643">
        <ele>1924</ele>
      </trkpt>
      <trkpt lat="45.6797752" lon="6.9804726">
        <ele>1926</ele>
      </trkpt>
      <trkpt lat="45.6798338" lon="6.9804065">
        <ele>1928</ele>
      </trkpt>
      <trkpt lat="45.6799007" lon="6.9803899">
        <ele>1930</ele>
      </trkpt>
      <trkpt lat="45.6799031" lon="6.9803889">
        <ele>1932</ele>
      </trkpt>
      <trkpt lat="45.6800511" lon="6.9802063">
        <ele>1934</ele>
      </trkpt>
      <trkpt lat="45.6801607" lon="6.9800016">
        <ele>1936</ele>
      </trkpt>
      <trkpt lat="45.6802088" lon="6.9799426">
        <ele>1938</ele>
      </trkpt>
      <trkpt lat="45.6802424" lon="6.9798686">
        <ele>1940</ele>
      </trkpt>
      <trkpt lat="45.6802807" lon="6.9797819">
        <ele>1942</ele>
      </trkpt>
      <trkpt lat="45.6803082" lon="6.9796495">
        <ele>1944</ele>
      </trkpt>
      <trkpt lat="45.6803103" lon="6.9795535">
        <ele>1946</ele>
      </trkpt>
      <trkpt lat="45.6803033" lon="6.9794405">
        <ele>1948</ele>
      </trkpt>
      <trkpt lat="45.6803397" lon="6.9792788">
        <ele>1950</ele>
      </trkpt>
      <trkpt lat="45.6803044" lon="6.9788315">
        <ele>1952</ele>
      </trkpt>
      <trkpt lat="45.6802903" lon="6.9786765">
        <ele>1954</ele>
      </trkpt>
      <trkpt lat="45.6802481" lon="6.9787118">
        <ele>1956</ele>
      </trkpt>
      <trkpt lat="45.6800422" lon="6.9792344">
        <ele>1958</ele>
      </trkpt>
      <trkpt lat="45.6799862" lon="6.9792702">
        <ele>1960</ele>
      </trkpt>
      <trkpt lat="45.6800004" lon="6.9789828">
        <ele>1962</ele>
      </trkpt>
      <trkpt lat="45.6800044" lon="6.9781390">
        <ele>1964</ele>
      </trkpt>
      <trkpt lat="45.6798463" lon="6.9781824">
        <ele>1966</ele>
      </trkpt>
      <trkpt lat="45.6797454" lon="6.9781250">
        <ele>1968</ele>
      </trkpt>
      <trkpt lat="45.6796545" lon="6.9780400">
        <ele>1971</ele>
      </trkpt>
      <trkpt lat="45.6795970" lon="6.9780122">
        <ele>1973</ele>
      </trkpt>
      <trkpt lat="45.6794994" lon="6.9779180">
        <ele>1975</ele>
      </trkpt>
      <trkpt lat="45.6794377" lon="6.9777737">
        <ele>1977</ele>
      </trkpt>
      <trkpt lat="45.6794147" lon="6.9776697">
        <ele>1979</ele>
      </trkpt>
      <trkpt lat="45.6793551" lon="6.9774693">
        <ele>1981</ele>
      </trkpt>
      <trkpt lat="45.6793192" lon="6.9772716">
        <ele>1983</ele>
      </trkpt>
      <trkpt lat="45.6793084" lon="6.9771512">
        <ele>1985</ele>
      </trkpt>
      <trkpt lat="45.6792873" lon="6.9770827">
        <ele>1987</ele>
      </trkpt>
      <trkpt lat="45.6792694" lon="6.9770707">
        <ele>1989</ele>
      </trkpt>
      <trkpt lat="45.6792500" lon="6.9770807">
        <ele>1991</ele>
      </trkpt>
      <trkpt lat="45.6792184" lon="6.9770623">
        <ele>1993</ele>
      </trkpt>
      <trkpt lat="45.6791725" lon="6.9770744">
        <ele>1995</ele>
      </trkpt>
      <trkpt lat="45.6791184" lon="6.9770390">
        <ele>1997</ele>
      </trkpt>
      <trkpt lat="45.6790715" lon="6.9769963">
        <ele>1999</ele>
      </trkpt>
      <trkpt lat="45.6790272" lon="6.9769553">
        <ele>2001</ele>
      </trkpt>
      <trkpt lat="45.6789566" lon="6.9769081">
        <ele>2003</ele>
      </trkpt>
      <trkpt lat="45.6788305" lon="6.9768895">
        <ele>2005</ele>
      </trkpt>
      <trkpt lat="45.6788202" lon="6.9768892">
        <ele>2007</ele>
      </trkpt>
      <trkpt lat="45.6783980" lon="6.9771457">
        <ele>2009</ele>
      </trkpt>
      <trkpt lat="45.6783969" lon="6.9771456">
        <ele>2011</ele>
      </trkpt>
      <trkpt lat="45.6783780" lon="6.9771352">
        <ele>2013</ele>
      </trkpt>
      <trkpt lat="45.6783673" lon="6.9771276">
        <ele>2016</ele>
      </trkpt>
      <trkpt lat="45.6783578" lon="6.9771213">
        <ele>2018</ele>
      </trkpt>
      <trkpt lat="45.6783452" lon="6.9771257">
        <ele>2020</ele>
      </trkpt>
      <trkpt lat="45.6783387" lon="6.9771286">
        <ele>2022</ele>
      </trkpt>
      <trkpt lat="45.6783266" lon="6.9771216">
        <ele>2024</ele>
      </trkpt>
      <trkpt lat="45.6783198" lon="6.9771022">
        <ele>2026</ele>
      </trkpt>
      <trkpt lat="45.6783171" lon="6.9770721">
        <ele>2028</ele>
      </trkpt>
      <trkpt lat="45.6783146" lon="6.9770367">
        <ele>2030</ele>
      </trkpt>
      <trkpt lat="45.6783208" lon="6.9770005">
        <ele>2032</ele>
      </trkpt>
      <trkpt lat="45.6783309" lon="6.9769522">
        <ele>2034</ele>
      </trkpt>
      <trkpt lat="45.6783377" lon="6.9769333">
        <ele>2036</ele>
      </trkpt>
      <trkpt lat="45.6783485" lon="6.9768725">
        <ele>2038</ele>
      </trkpt>
      <trkpt lat="45.6783579" lon="6.9768246">
        <ele>2040</ele>
      </trkpt>
      <trkpt lat="45.6783638" lon="6.9767915">
        <ele>2042</ele>
      </trkpt>
      <trkpt lat="45.6783646" lon="6.9767480">
        <ele>2044</ele>
      </trkpt>
      <trkpt lat="45.6783592" lon="6.9767237">
        <ele>2046</ele>
      </trkpt>
      <trkpt lat="45.6783533" lon="6.9766933">
        <ele>2048</ele>
      </trkpt>
      <trkpt lat="45.6783400" lon="6.9766775">
        <ele>2050</ele>
      </trkpt>
      <trkpt lat="45.6783390" lon="6.9766774">
        <ele>2052</ele>
      </trkpt>
      <trkpt lat="45.6783195" lon="6.9766683">
        <ele>2054</ele>
      </trkpt>
      <trkpt lat="45.6782535" lon="6.9765987">
        <ele>2056</ele>
      </trkpt>
      <trkpt lat="45.6782014" lon="6.9765376">
        <ele>2058</ele>
      </trkpt>
      <trkpt lat="45.6781868" lon="6.9764875">
        <ele>2060</ele>
      </trkpt>
      <trkpt lat="45.6781785" lon="6.9764407">
        <ele>2063</ele>
      </trkpt>
      <trkpt lat="45.6781790" lon="6.9763998">
        <ele>2065</ele>
      </trkpt>
      <trkpt lat="45.6781859" lon="6.9763631">
        <ele>2067</ele>
      </trkpt>
      <trkpt lat="45.6782071" lon="6.9762927">
        <ele>2069</ele>
      </trkpt>
      <trkpt lat="45.6782377" lon="6.9760658">
        <ele>2071</ele>
      </trkpt>
      <trkpt lat="45.6782358" lon="6.9760189">
        <ele>2073</ele>
      </trkpt>
      <trkpt lat="45.6782409" lon="6.9759530">
        <ele>2075</ele>
      </trkpt>
      <trkpt lat="45.6782425" lon="6.9759041">
        <ele>2077</ele>
      </trkpt>
      <trkpt lat="45.6782555" lon="6.9758697">
        <ele>2079</ele>
      </trkpt>
      <trkpt lat="45.6782529" lon="6.9758224">
        <ele>2081</ele>
      </trkpt>
      <trkpt lat="45.6782429" lon="6.9757881">
        <ele>2083</ele>
      </trkpt>
      <trkpt lat="45.6782407" lon="6.9757669">
        <ele>2085</ele>
      </trkpt>
      <trkpt lat="45.6782337" lon="6.9757219">
        <ele>2087</ele>
      </trkpt>
      <trkpt lat="45.6782251" lon="6.9756964">
        <ele>2089</ele>
      </trkpt>
      <trkpt lat="45.6782011" lon="6.9756404">
        <ele>2091</ele>
      </trkpt>
      <trkpt lat="45.6781799" lon="6.9755728">
        <ele>2093</ele>
      </trkpt>
      <trkpt lat="45.6781577" lon="6.9755114">
        <ele>2095</ele>
      </trkpt>
      <trkpt lat="45.6781141" lon="6.9754437">
        <ele>2097</ele>
      </trkpt>
      <trkpt lat="45.6781113" lon="6.9754377">
        <ele>2099</ele>
      </trkpt>
      <trkpt lat="45.6780397" lon="6.9753659">
        <ele>2101</ele>
      </trkpt>
      <trkpt lat="45.6780340" lon="6.9753387">
        <ele>2103</ele>
      </trkpt>
      <trkpt lat="45.6780270" lon="6.9752972">
        <ele>2105</ele>
      </trkpt>
      <trkpt lat="45.6780173" lon="6.9752753">
        <ele>2107</ele>
      </trkpt>
      <trkpt lat="45.6780082" lon="6.9752561">
        <ele>2110</ele>
      </trkpt>
      <trkpt lat="45.6779997" lon="6.9752298">
        <ele>2112</ele>
      </trkpt>
      <trkpt lat="45.6779980" lon="6.9752050">
        <ele>2114</ele>
      </trkpt>
      <trkpt lat="45.6780033" lon="6.9751866">
        <ele>2116</ele>
      </trkpt>
      <trkpt lat="45.6780089" lon="6.9751855">
        <ele>2118</ele>
      </trkpt>
      <trkpt lat="45.6780232" lon="6.9751858">
        <ele>2120</ele>
      </trkpt>
      <trkpt lat="45.6780480" lon="6.9751796">
        <ele>2122</ele>
      </trkpt>
      <trkpt lat="45.6780790" lon="6.9751723">
        <ele>2124</ele>
      </trkpt>
      <trkpt lat="45.6781042" lon="6.9751554">
        <ele>2126</ele>
      </trkpt>
      <trkpt lat="45.6781325" lon="6.9751289">
        <ele>2128</ele>
      </trkpt>
      <trkpt lat="45.6781342" lon="6.9751268">
        <ele>2130</ele>
      </trkpt>
      <trkpt lat="45.6781440" lon="6.9751157">
        <ele>2132</ele>
      </trkpt>
      <trkpt lat="45.6781451" lon="6.9751086">
        <ele>2134</ele>
      </trkpt>
      <trkpt lat="45.6781431" lon="6.9750989">
        <ele>2136</ele>
      </trkpt>
      <trkpt lat="45.6781348" lon="6.9750912">
        <ele>2138</ele>
      </trkpt>
      <trkpt lat="45.6781214" lon="6.9750695">
        <ele>2140</ele>
      </trkpt>
      <trkpt lat="45.6781200" lon="6.9750651">
        <ele>2142</ele>
      </trkpt>
      <trkpt lat="45.6781210" lon="6.9750482">
        <ele>2144</ele>
      </trkpt>
      <trkpt lat="45.6781245" lon="6.9750356">
        <ele>2146</ele>
      </trkpt>
      <trkpt lat="45.6781436" lon="6.9750260">
        <ele>2148</ele>
      </trkpt>
      <trkpt lat="45.6781722" lon="6.9750311">
        <ele>2150</ele>
      </trkpt>
      <trkpt lat="45.6782016" lon="6.9750284">
        <ele>2152</ele>
      </trkpt>
      <trkpt lat="45.6782251" lon="6.9750204">
        <ele>2155</ele>
      </trkpt>
      <trkpt lat="45.6782298" lon="6.9750061">
        <ele>2157</ele>
      </trkpt>
      <trkpt lat="45.6782313" lon="6.9749847">
        <ele>2159</ele>
      </trkpt>
      <trkpt lat="45.6782261" lon="6.9749360">
        <ele>2161</ele>
      </trkpt>
      <trkpt lat="45.6782261" lon="6.9749349">
        <ele>2163</ele>
      </trkpt>
      <trkpt lat="45.6782540" lon="6.9748718">
        <ele>2165</ele>
      </trkpt>
      <trkpt lat="45.6782722" lon="6.9748583">
        <ele>2167</ele>
      </trkpt>
      <trkpt lat="45.6782759" lon="6.9748303">
        <ele>2169</ele>
      </trkpt>
      <trkpt lat="45.6782701" lon="6.9747843">
        <ele>2171</ele>
      </trkpt>
      <trkpt lat="45.6782629" lon="6.9747268">
        <ele>2173</ele>
      </trkpt>
      <trkpt lat="45.6782469" lon="6.9746706">
        <ele>2175</ele>
      </trkpt>
      <trkpt lat="45.6782270" lon="6.9746273">
        <ele>2177</ele>
      </trkpt>
      <trkpt lat="45.6781968" lon="6.9745716">
        <ele>2179</ele>
      </trkpt>
      <trkpt lat="45.6781626" lon="6.9745062">
        <ele>2181</ele>
      </trkpt>
      <trkpt lat="45.6781461" lon="6.9744881">
        <ele>2183</ele>
      </trkpt>
      <trkpt lat="45.6781233" lon="6.9744650">
        <ele>2185</ele>
      </trkpt>
      <trkpt lat="45.6780982" lon="6.9744206">
        <ele>2187</ele>
      </trkpt>
      <trkpt lat="45.6780795" lon="6.9743830">
        <ele>2189</ele>
      </trkpt>
      <trkpt lat="45.6780371" lon="6.9743117">
        <ele>2191</ele>
      </trkpt>
      <trkpt lat="45.6780088" lon="6.9742248">
        <ele>2193</ele>
      </trkpt>
      <trkpt lat="45.6779934" lon="6.9741641">
        <ele>2195</ele>
      </trkpt>
      <trkpt lat="45.6779627" lon="6.9740817">
        <ele>2197</ele>
      </trkpt>
      <trkpt lat="45.6779310" lon="6.9739813">
        <ele>2199</ele>
      </trkpt>
      <trkpt lat="45.6778784" lon="6.9739122">
        <ele>2202</ele>
      </trkpt>
      <trkpt lat="45.6778476" lon="6.9737583">
        <ele>2204</ele>
      </trkpt>
      <trkpt lat="45.6777971" lon="6.9736435">
        <ele>2206</ele>
      </trkpt>
      <trkpt lat="45.6778103" lon="6.9733188">
        <ele>2208</ele>
      </trkpt>
      <trkpt lat="45.6777990" lon="6.9731245">
        <ele>2210</ele>
      </trkpt>
      <trkpt lat="45.6777085" lon="6.9730339">
        <ele>2212</ele>
      </trkpt>
      <trkpt lat="45.6776988" lon="6.9729950">
        <ele>2214</ele>
      </trkpt>
      <trkpt lat="45.6776786" lon="6.9726935">
        <ele>2216</ele>
      </trkpt>
      <trkpt lat="45.6776447" lon="6.9725947">
        <ele>2218</ele>
      </trkpt>
      <trkpt lat="45.6776076" lon="6.9722560">
        <ele>2220</ele>
      </trkpt>
      <trkpt lat="45.6775569" lon="6.9721884">
        <ele>2222</ele>
      </trkpt>
      <trkpt lat="45.6775592" lon="6.9720332">
        <ele>2224</ele>
      </trkpt>
      <trkpt lat="45.6774680" lon="6.9719501">
        <ele>2226</ele>
      </trkpt>
      <trkpt lat="45.6774288" lon="6.9718002">
        <ele>2228</ele>
      </trkpt>
      <trkpt lat="45.6773742" lon="6.9717569">
        <ele>2230</ele>
      </trkpt>
      <trkpt lat="45.6773305" lon="6.9716386">
        <ele>2232</ele>
      </trkpt>
      <trkpt lat="45.6773281" lon="6.9715477">
        <ele>2234</ele>
      </trkpt>
      <trkpt lat="45.6772848" lon="6.9714089">
        <ele>2236</ele>
      </trkpt>
      <trkpt lat="45.6772003" lon="6.9713488">
        <ele>2238</ele>
      </trkpt>
      <trkpt lat="45.6771046" lon="6.9712403">
        <ele>2240</ele>
      </trkpt>
      <trkpt lat="45.6770540" lon="6.9710383">
        <ele>2242</ele>
      </trkpt>
      <trkpt lat="45.6770037" lon="6.9709932">
        <ele>2244</ele>
      </trkpt>
      <trkpt lat="45.6769214" lon="6.9707907">
        <ele>2247</ele>
      </trkpt>
      <trkpt lat="45.6768597" lon="6.9707121">
        <ele>2249</ele>
      </trkpt>
      <trkpt lat="45.6768326" lon="6.9706240">
        <ele>2251</ele>
      </trkpt>
      <trkpt lat="45.6767704" lon="6.9705488">
        <ele>2253</ele>
      </trkpt>
      <trkpt lat="45.6767619" lon="6.9705280">
        <ele>2255</ele>
      </trkpt>
      <trkpt lat="45.6767512" lon="6.9705212">
        <ele>2257</ele>
      </trkpt>
      <trkpt lat="45.6767128" lon="6.9704813">
        <ele>2259</ele>
      </trkpt>
      <trkpt lat="45.6766968" lon="6.9704574">
        <ele>2261</ele>
      </trkpt>
      <trkpt lat="45.6766890" lon="6.9704395">
        <ele>2263</ele>
      </trkpt>
      <trkpt lat="45.6766840" lon="6.9704219">
        <ele>2265</ele>
      </trkpt>
      <trkpt lat="45.6766773" lon="6.9704115">
        <ele>2267</ele>
      </trkpt>
      <trkpt lat="45.6766673" lon="6.9703905">
        <ele>2269</ele>
      </trkpt>
      <trkpt lat="45.6766616" lon="6.9703676">
        <ele>2271</ele>
      </trkpt>
      <trkpt lat="45.6766518" lon="6.9703405">
        <ele>2273</ele>
      </trkpt>
      <trkpt lat="45.6766347" lon="6.9702896">
        <ele>2275</ele>
      </trkpt>
      <trkpt lat="45.6766318" lon="6.9702814">
        <ele>2277</ele>
      </trkpt>
      <trkpt lat="45.6766149" lon="6.9702557">
        <ele>2279</ele>
      </trkpt>
      <trkpt lat="45.6765938" lon="6.9702495">
        <ele>2281</ele>
      </trkpt>
      <trkpt lat="45.6765453" lon="6.9701362">
        <ele>2283</ele>
      </trkpt>
      <trkpt lat="45.6764817" lon="6.9701434">
        <ele>2285</ele>
      </trkpt>
      <trkpt lat="45.6762371" lon="6.9697930">
        <ele>2287</ele>
      </trkpt>
      <trkpt lat="45.6760471" lon="6.9691730">
        <ele>2289</ele>
      </trkpt>
      <trkpt lat="45.6756771" lon="6.9688030">
        <ele>2291</ele>
      </trkpt>
      <trkpt lat="45.6753571" lon="6.9683030">
        <ele>2294</ele>
      </trkpt>
      <trkpt lat="45.6746871" lon="6.9678430">
        <ele>2296</ele>
      </trkpt>
      <trkpt lat="45.6743071" lon="6.9681130">
        <ele>2298</ele>
      </trkpt>
      <trkpt lat="45.6742671" lon="6.9683830">
        <ele>2300</ele>
      </trkpt>
      <trkpt lat="45.6740271" lon="6.9683930">
        <ele>2302</ele>
      </trkpt>
      <trkpt lat="45.6738071" lon="6.9675330">
        <ele>2304</ele>
      </trkpt>
      <trkpt lat="45.6737971" lon="6.9664530">
        <ele>2306</ele>
      </trkpt>
      <trkpt lat="45.6736471" lon="6.9661230">
        <ele>2308</ele>
      </trkpt>
      <trkpt lat="45.6735571" lon="6.9656630">
        <ele>2310</ele>
      </trkpt>
      <trkpt lat="45.6734371" lon="6.9648230">
        <ele>2312</ele>
      </trkpt>
      <trkpt lat="45.6735071" lon="6.9646130">
        <ele>2314</ele>
      </trkpt>
      <trkpt lat="45.6732471" lon="6.9641030">
        <ele>2316</ele>
      </trkpt>
      <trkpt lat="45.6728471" lon="6.9621930">
        <ele>2318</ele>
      </trkpt>
      <trkpt lat="45.6727371" lon="6.9620230">
        <ele>2320</ele>
      </trkpt>
      <trkpt lat="45.6729371" lon="6.9612130">
        <ele>2322</ele>
      </trkpt>
      <trkpt lat="45.6725471" lon="6.9599430">
        <ele>2324</ele>
      </trkpt>
      <trkpt lat="45.6727171" lon="6.9600530">
        <ele>2326</ele>
      </trkpt>
      <trkpt lat="45.6726971" lon="6.9595530">
        <ele>2328</ele>
      </trkpt>
      <trkpt lat="45.6722471" lon="6.9583330">
        <ele>2330</ele>
      </trkpt>
      <trkpt lat="45.6722271" lon="6.9569130">
        <ele>2332</ele>
      </trkpt>
      <trkpt lat="45.6717071" lon="6.9554130">
        <ele>2334</ele>
      </trkpt>
      <trkpt lat="45.6714971" lon="6.9552430">
        <ele>2336</ele>
      </trkpt>
      <trkpt lat="45.6712371" lon="6.9546030">
        <ele>2339</ele>
      </trkpt>
      <trkpt lat="45.6715171" lon="6.9545830">
        <ele>2341</ele>
      </trkpt>
      <trkpt lat="45.6717971" lon="6.9541530">
        <ele>2343</ele>
      </trkpt>
      <trkpt lat="45.6709771" lon="6.9517930">
        <ele>2345</ele>
      </trkpt>
      <trkpt lat="45.6709971" lon="6.9507430">
        <ele>2347</ele>
      </trkpt>
      <trkpt lat="45.6706971" lon="6.9496230">
        <ele>2349</ele>
      </trkpt>
      <trkpt lat="45.6709571" lon="6.9485930">
        <ele>2351</ele>
      </trkpt>
      <trkpt lat="45.6714771" lon="6.9488530">
        <ele>2353</ele>
      </trkpt>
      <trkpt lat="45.6720571" lon="6.9485930">
        <ele>2355</ele>
      </trkpt>
      <trkpt lat="45.6723571" lon="6.9487430">
        <ele>2357</ele>
      </trkpt>
      <trkpt lat="45.6725871" lon="6.9484630">
        <ele>2359</ele>
      </trkpt>
      <trkpt lat="45.6734071" lon="6.9492530">
        <ele>2361</ele>
      </trkpt>
      <trkpt lat="45.6746471" lon="6.9499830">
        <ele>2363</ele>
      </trkpt>
      <trkpt lat="45.6748981" lon="6.9503000">
        <ele>2365</ele>
      </trkpt>
      <trkpt lat="45.6749971" lon="6.9505230">
        <ele>2367</ele>
      </trkpt>
      <trkpt lat="45.6750971" lon="6.9510830">
        <ele>2369</ele>
      </trkpt>
      <trkpt lat="45.6756371" lon="6.9523230">
        <ele>2371</ele>
      </trkpt>
      <trkpt lat="45.6760671" lon="6.9526730">
        <ele>2373</ele>
      </trkpt>
      <trkpt lat="45.6767971" lon="6.9540230">
        <ele>2375</ele>
      </trkpt>
      <trkpt lat="45.6771171" lon="6.9541530">
        <ele>2377</ele>
      </trkpt>
      <trkpt lat="45.6773971" lon="6.9546230">
        <ele>2379</ele>
      </trkpt>
      <trkpt lat="45.6778271" lon="6.9547930">
        <ele>2381</ele>
      </trkpt>
      <trkpt lat="45.6777171" lon="6.9540430">
        <ele>2383</ele>
      </trkpt>
      <trkpt lat="45.6778471" lon="6.9533730">
        <ele>2386</ele>
      </trkpt>
      <trkpt lat="45.6779971" lon="6.9532530">
        <ele>2388</ele>
      </trkpt>
      <trkpt lat="45.6780571" lon="6.9535530">
        <ele>2390</ele>
      </trkpt>
      <trkpt lat="45.6781871" lon="6.9535230">
        <ele>2392</ele>
      </trkpt>
      <trkpt lat="45.6782571" lon="6.9537430">
        <ele>2394</ele>
      </trkpt>
      <trkpt lat="45.6783871" lon="6.9531430">
        <ele>2396</ele>
      </trkpt>
      <trkpt lat="45.6787671" lon="6.9527530">
        <ele>2398</ele>
      </trkpt>
      <trkpt lat="45.6801171" lon="6.9533330">
        <ele>2400</ele>
      </trkpt>
      <trkpt lat="45.6806771" lon="6.9548130">
        <ele>2402</ele>
      </trkpt>
      <trkpt lat="45.6815571" lon="6.9556930">
        <ele>2404</ele>
      </trkpt>
      <trkpt lat="45.6817271" lon="6.9555230">
        <ele>2406</ele>
      </trkpt>
      <trkpt lat="45.6817471" lon="6.9551130">
        <ele>2408</ele>
      </trkpt>
      <trkpt lat="45.6818571" lon="6.9552230">
        <ele>2410</ele>
      </trkpt>
      <trkpt lat="45.6820471" lon="6.9548130">
        <ele>2412</ele>
      </trkpt>
      <trkpt lat="45.6821571" lon="6.9549430">
        <ele>2414</ele>
      </trkpt>
      <trkpt lat="45.6823771" lon="6.9547730">
        <ele>2416</ele>
      </trkpt>
      <trkpt lat="45.6824371" lon="6.9542830">
        <ele>2418</ele>
      </trkpt>
      <trkpt lat="45.6825871" lon="6.9543230">
        <ele>2420</ele>
      </trkpt>
      <trkpt lat="45.6829771" lon="6.9531640">
        <ele>2422</ele>
      </trkpt>
      <trkpt lat="45.6839871" lon="6.9514040">
        <ele>2424</ele>
      </trkpt>
      <trkpt lat="45.6844571" lon="6.9523440">
        <ele>2426</ele>
      </trkpt>
      <trkpt lat="45.6844571" lon="6.9533540">
        <ele>2428</ele>
      </trkpt>
      <trkpt lat="45.6842371" lon="6.9544040">
        <ele>2430</ele>
      </trkpt>
      <trkpt lat="45.6850971" lon="6.9542540">
        <ele>2433</ele>
      </trkpt>
      <trkpt lat="45.6858272" lon="6.9547940">
        <ele>2435</ele>
      </trkpt>
      <trkpt lat="45.6860672" lon="6.9551840">
        <ele>2437</ele>
      </trkpt>
      <trkpt lat="45.6875872" lon="6.9561240">
        <ele>2439</ele>
      </trkpt>
      <trkpt lat="45.6877482" lon="6.9564200">
        <ele>2441</ele>
      </trkpt>
      <trkpt lat="45.6875672" lon="6.9565340">
        <ele>2443</ele>
      </trkpt>
      <trkpt lat="45.6886543" lon="6.9576245">
        <ele>2445</ele>
      </trkpt>
      <trkpt lat="45.6887053" lon="6.9577750">
        <ele>2447</ele>
      </trkpt>
      <trkpt lat="45.6887680" lon="6.9578329">
        <ele>2449</ele>
      </trkpt>
      <trkpt lat="45.6890336" lon="6.9578166">
        <ele>2451</ele>
      </trkpt>
      <trkpt lat="45.6892127" lon="6.9578967">
        <ele>2453</ele>
      </trkpt>
      <trkpt lat="45.6893333" lon="6.9580974">
        <ele>2455</ele>
      </trkpt>
      <trkpt lat="45.6896551" lon="6.9584754">
        <ele>2457</ele>
      </trkpt>
      <trkpt lat="45.6898060" lon="6.9586079">
        <ele>2459</ele>
      </trkpt>
      <trkpt lat="45.6899561" lon="6.9586992">
        <ele>2461</ele>
      </trkpt>
      <trkpt lat="45.6900612" lon="6.9587881">
        <ele>2463</ele>
      </trkpt>
      <trkpt lat="45.6903563" lon="6.9591811">
        <ele>2465</ele>
      </trkpt>
      <trkpt lat="45.6905483" lon="6.9593523">
        <ele>2467</ele>
      </trkpt>
      <trkpt lat="45.6906160" lon="6.9593635">
        <ele>2469</ele>
      </trkpt>
      <trkpt lat="45.6907190" lon="6.9593333">
        <ele>2471</ele>
      </trkpt>
      <trkpt lat="45.6908049" lon="6.9593570">
        <ele>2473</ele>
      </trkpt>
      <trkpt lat="45.6908971" lon="6.9594769">
        <ele>2475</ele>
      </trkpt>
      <trkpt lat="45.6909580" lon="6.9596123">
        <ele>2478</ele>
      </trkpt>
      <trkpt lat="45.6910460" lon="6.9597488">
        <ele>2480</ele>
      </trkpt>
      <trkpt lat="45.6911975" lon="6.9599187">
        <ele>2482</ele>
      </trkpt>
      <trkpt lat="45.6915390" lon="6.9603931">
        <ele>2484</ele>
      </trkpt>
      <trkpt lat="45.6916676" lon="6.9605389">
        <ele>2486</ele>
      </trkpt>
      <trkpt lat="45.6917379" lon="6.9606929">
        <ele>2488</ele>
      </trkpt>
      <trkpt lat="45.6917923" lon="6.9609694">
        <ele>2490</ele>
      </trkpt>
      <trkpt lat="45.6918251" lon="6.9610397">
        <ele>2492</ele>
      </trkpt>
      <trkpt lat="45.6919414" lon="6.9612530">
        <ele>2494</ele>
      </trkpt>
      <trkpt lat="45.6920012" lon="6.9613279">
        <ele>2496</ele>
      </trkpt>
      <trkpt lat="45.6921474" lon="6.9614510">
        <ele>2498</ele>
      </trkpt>
      <trkpt lat="45.6923071" lon="6.9619287">
        <ele>2500</ele>
      </trkpt>
    </trkseg>
  </trk>
</gpx>
