<?xml version="1.0" encoding="UTF-8"?>
<gpx version="1.1" creator="sentieri-vda" xmlns="http://www.topografix.com/GPX/1/1">
  <metadata>
    <name>Le Miriou - Punta Prial</name>
    <desc>Catasto Sentieri VdA — 42_S9</desc>
    <author><name>Regione Autonoma Valle d'Aosta</name></author>
  </metadata>
  <trk>
    <name>Le Miriou - Punta Prial</name>
    <src>Catasto Sentieri VdA (42_S9)</src>
    <trkseg>
      <trkpt lat="45.6359981" lon="7.8307200">
        <ele>1150</ele>
      </trkpt>
      <trkpt lat="45.6360791" lon="7.8307430">
        <ele>1155</ele>
      </trkpt>
      <trkpt lat="45.6360991" lon="7.8306430">
        <ele>1161</ele>
      </trkpt>
      <trkpt lat="45.6364991" lon="7.8304930">
        <ele>1166</ele>
      </trkpt>
      <trkpt lat="45.6367091" lon="7.8303130">
        <ele>1171</ele>
      </trkpt>
      <trkpt lat="45.6367791" lon="7.8304330">
        <ele>1176</ele>
      </trkpt>
      <trkpt lat="45.6367291" lon="7.8306030">
        <ele>1182</ele>
      </trkpt>
      <trkpt lat="45.6368491" lon="7.8305130">
        <ele>1187</ele>
      </trkpt>
      <trkpt lat="45.6368091" lon="7.8305830">
        <ele>1192</ele>
      </trkpt>
      <trkpt lat="45.6369791" lon="7.8305930">
        <ele>1197</ele>
      </trkpt>
      <trkpt lat="45.6370691" lon="7.8305430">
        <ele>1203</ele>
      </trkpt>
      <trkpt lat="45.6371891" lon="7.8305930">
        <ele>1208</ele>
      </trkpt>
      <trkpt lat="45.6371691" lon="7.8307030">
        <ele>1213</ele>
      </trkpt>
      <trkpt lat="45.6372491" lon="7.8307130">
        <ele>1219</ele>
      </trkpt>
      <trkpt lat="45.6373291" lon="7.8306230">
        <ele>1224</ele>
      </trkpt>
      <trkpt lat="45.6374891" lon="7.8305730">
        <ele>1229</ele>
      </trkpt>
      <trkpt lat="45.6374491" lon="7.8306730">
        <ele>1234</ele>
      </trkpt>
      <trkpt lat="45.6375691" lon="7.8308530">
        <ele>1240</ele>
      </trkpt>
      <trkpt lat="45.6375691" lon="7.8305830">
        <ele>1245</ele>
      </trkpt>
      <trkpt lat="45.6377091" lon="7.8305530">
        <ele>1250</ele>
      </trkpt>
      <trkpt lat="45.6378091" lon="7.8304030">
        <ele>1256</ele>
      </trkpt>
      <trkpt lat="45.6379391" lon="7.8306930">
        <ele>1261</ele>
      </trkpt>
      <trkpt lat="45.6378691" lon="7.8308830">
        <ele>1266</ele>
      </trkpt>
      <trkpt lat="45.6380491" lon="7.8310830">
        <ele>1271</ele>
      </trkpt>
      <trkpt lat="45.6381091" lon="7.8310630">
        <ele>1277</ele>
      </trkpt>
      <trkpt lat="45.6380291" lon="7.8309730">
        <ele>1282</ele>
      </trkpt>
      <trkpt lat="45.6382291" lon="7.8308030">
        <ele>1287</ele>
      </trkpt>
      <trkpt lat="45.6383891" lon="7.8307630">
        <ele>1292</ele>
      </trkpt>
      <trkpt lat="45.6384691" lon="7.8308330">
        <ele>1298</ele>
      </trkpt>
      <trkpt lat="45.6386091" lon="7.8308130">
        <ele>1303</ele>
      </trkpt>
      <trkpt lat="45.6385691" lon="7.8307030">
        <ele>1308</ele>
      </trkpt>
      <trkpt lat="45.6387591" lon="7.8306630">
        <ele>1314</ele>
      </trkpt>
      <trkpt lat="45.6387791" lon="7.8305230">
        <ele>1319</ele>
      </trkpt>
      <trkpt lat="45.6388591" lon="7.8304330">
        <ele>1324</ele>
      </trkpt>
      <trkpt lat="45.6389091" lon="7.8306430">
        <ele>1329</ele>
      </trkpt>
      <trkpt lat="45.6389691" lon="7.8305730">
        <ele>1335</ele>
      </trkpt>
      <trkpt lat="45.6391091" lon="7.8306030">
        <ele>1340</ele>
      </trkpt>
      <trkpt lat="45.6392091" lon="7.8304330">
        <ele>1345</ele>
      </trkpt>
      <trkpt lat="45.6393991" lon="7.8304230">
        <ele>1350</ele>
      </trkpt>
      <trkpt lat="45.6394691" lon="7.8302930">
        <ele>1356</ele>
      </trkpt>
      <trkpt lat="45.6396191" lon="7.8302430">
        <ele>1361</ele>
      </trkpt>
      <trkpt lat="45.6396291" lon="7.8300030">
        <ele>1366</ele>
      </trkpt>
      <trkpt lat="45.6395391" lon="7.8297730">
        <ele>1372</ele>
      </trkpt>
      <trkpt lat="45.6396991" lon="7.8297230">
        <ele>1377</ele>
      </trkpt>
      <trkpt lat="45.6397591" lon="7.8294730">
        <ele>1382</ele>
      </trkpt>
      <trkpt lat="45.6397791" lon="7.8295530">
        <ele>1387</ele>
      </trkpt>
      <trkpt lat="45.6400091" lon="7.8297030">
        <ele>1393</ele>
      </trkpt>
      <trkpt lat="45.6399791" lon="7.8298830">
        <ele>1398</ele>
      </trkpt>
      <trkpt lat="45.6398991" lon="7.8298930">
        <ele>1403</ele>
      </trkpt>
      <trkpt lat="45.6399291" lon="7.8299930">
        <ele>1408</ele>
      </trkpt>
      <trkpt lat="45.6401691" lon="7.8299530">
        <ele>1414</ele>
      </trkpt>
      <trkpt lat="45.6403191" lon="7.8301230">
        <ele>1419</ele>
      </trkpt>
      <trkpt lat="45.6405591" lon="7.8300230">
        <ele>1424</ele>
      </trkpt>
      <trkpt lat="45.6405691" lon="7.8299430">
        <ele>1430</ele>
      </trkpt>
      <trkpt lat="45.6405691" lon="7.8299730">
        <ele>1435</ele>
      </trkpt>
      <trkpt lat="45.6407091" lon="7.8298630">
        <ele>1440</ele>
      </trkpt>
      <trkpt lat="45.6408391" lon="7.8299030">
        <ele>1445</ele>
      </trkpt>
      <trkpt lat="45.6408791" lon="7.8298230">
        <ele>1451</ele>
      </trkpt>
      <trkpt lat="45.6408391" lon="7.8297330">
        <ele>1456</ele>
      </trkpt>
      <trkpt lat="45.6409191" lon="7.8295830">
        <ele>1461</ele>
      </trkpt>
      <trkpt lat="45.6410591" lon="7.8295330">
        <ele>1467</ele>
      </trkpt>
      <trkpt lat="45.6410491" lon="7.8293930">
        <ele>1472</ele>
      </trkpt>
      <trkpt lat="45.6411091" lon="7.8291430">
        <ele>1477</ele>
      </trkpt>
      <trkpt lat="45.6413191" lon="7.8290330">
        <ele>1482</ele>
      </trkpt>
      <trkpt lat="45.6415591" lon="7.8287030">
        <ele>1488</ele>
      </trkpt>
      <trkpt lat="45.6412391" lon="7.8284930">
        <ele>1493</ele>
      </trkpt>
      <trkpt lat="45.6413091" lon="7.8282530">
        <ele>1498</ele>
      </trkpt>
      <trkpt lat="45.6412691" lon="7.8281030">
        <ele>1503</ele>
      </trkpt>
      <trkpt lat="45.6414691" lon="7.8281930">
        <ele>1509</ele>
      </trkpt>
      <trkpt lat="45.6414791" lon="7.8282830">
        <ele>1514</ele>
      </trkpt>
      <trkpt lat="45.6417591" lon="7.8279230">
        <ele>1519</ele>
      </trkpt>
      <trkpt lat="45.6418591" lon="7.8279730">
        <ele>1525</ele>
      </trkpt>
      <trkpt lat="45.6419991" lon="7.8278530">
        <ele>1530</ele>
      </trkpt>
      <trkpt lat="45.6419791" lon="7.8276630">
        <ele>1535</ele>
      </trkpt>
      <trkpt lat="45.6420591" lon="7.8275930">
        <ele>1540</ele>
      </trkpt>
      <trkpt lat="45.6419491" lon="7.8274130">
        <ele>1546</ele>
      </trkpt>
      <trkpt lat="45.6419091" lon="7.8270730">
        <ele>1551</ele>
      </trkpt>
      <trkpt lat="45.6419791" lon="7.8269230">
        <ele>1556</ele>
      </trkpt>
      <trkpt lat="45.6419791" lon="7.8268330">
        <ele>1561</ele>
      </trkpt>
      <trkpt lat="45.6419191" lon="7.8268130">
        <ele>1567</ele>
      </trkpt>
      <trkpt lat="45.6419491" lon="7.8266830">
        <ele>1572</ele>
      </trkpt>
      <trkpt lat="45.6420391" lon="7.8265530">
        <ele>1577</ele>
      </trkpt>
      <trkpt lat="45.6421091" lon="7.8265730">
        <ele>1583</ele>
      </trkpt>
      <trkpt lat="45.6422591" lon="7.8267230">
        <ele>1588</ele>
      </trkpt>
      <trkpt lat="45.6423791" lon="7.8267230">
        <ele>1593</ele>
      </trkpt>
      <trkpt lat="45.6424891" lon="7.8264830">
        <ele>1598</ele>
      </trkpt>
      <trkpt lat="45.6426891" lon="7.8263830">
        <ele>1604</ele>
      </trkpt>
      <trkpt lat="45.6427991" lon="7.8264530">
        <ele>1609</ele>
      </trkpt>
      <trkpt lat="45.6429891" lon="7.8261230">
        <ele>1614</ele>
      </trkpt>
      <trkpt lat="45.6430491" lon="7.8261230">
        <ele>1620</ele>
      </trkpt>
      <trkpt lat="45.6429991" lon="7.8260530">
        <ele>1625</ele>
      </trkpt>
      <trkpt lat="45.6430791" lon="7.8259630">
        <ele>1630</ele>
      </trkpt>
      <trkpt lat="45.6433591" lon="7.8258630">
        <ele>1635</ele>
      </trkpt>
      <trkpt lat="45.6432991" lon="7.8257830">
        <ele>1641</ele>
      </trkpt>
      <trkpt lat="45.6435091" lon="7.8257530">
        <ele>1646</ele>
      </trkpt>
      <trkpt lat="45.6434091" lon="7.8257030">
        <ele>1651</ele>
      </trkpt>
      <trkpt lat="45.6435291" lon="7.8256230">
        <ele>1656</ele>
      </trkpt>
      <trkpt lat="45.6438391" lon="7.8256230">
        <ele>1662</ele>
      </trkpt>
      <trkpt lat="45.6437791" lon="7.8259430">
        <ele>1667</ele>
      </trkpt>
      <trkpt lat="45.6438191" lon="7.8260430">
        <ele>1672</ele>
      </trkpt>
      <trkpt lat="45.6438591" lon="7.8262330">
        <ele>1678</ele>
      </trkpt>
      <trkpt lat="45.6438791" lon="7.8262630">
        <ele>1683</ele>
      </trkpt>
      <trkpt lat="45.6439091" lon="7.8261730">
        <ele>1688</ele>
      </trkpt>
      <trkpt lat="45.6439691" lon="7.8261530">
        <ele>1693</ele>
      </trkpt>
      <trkpt lat="45.6440191" lon="7.8262130">
        <ele>1699</ele>
      </trkpt>
      <trkpt lat="45.6441091" lon="7.8261830">
        <ele>1704</ele>
      </trkpt>
      <trkpt lat="45.6441091" lon="7.8262130">
        <ele>1709</ele>
      </trkpt>
      <trkpt lat="45.6441191" lon="7.8260730">
        <ele>1714</ele>
      </trkpt>
      <trkpt lat="45.6441891" lon="7.8261630">
        <ele>1720</ele>
      </trkpt>
      <trkpt lat="45.6441291" lon="7.8264030">
        <ele>1725</ele>
      </trkpt>
      <trkpt lat="45.6442591" lon="7.8265630">
        <ele>1730</ele>
      </trkpt>
      <trkpt lat="45.6444291" lon="7.8265230">
        <ele>1736</ele>
      </trkpt>
      <trkpt lat="45.6444091" lon="7.8266030">
        <ele>1741</ele>
      </trkpt>
      <trkpt lat="45.6445491" lon="7.8268530">
        <ele>1746</ele>
      </trkpt>
      <trkpt lat="45.6445391" lon="7.8267130">
        <ele>1751</ele>
      </trkpt>
      <trkpt lat="45.6446991" lon="7.8268130">
        <ele>1757</ele>
      </trkpt>
      <trkpt lat="45.6449191" lon="7.8267830">
        <ele>1762</ele>
      </trkpt>
      <trkpt lat="45.6451091" lon="7.8268530">
        <ele>1767</ele>
      </trkpt>
      <trkpt lat="45.6453491" lon="7.8267030">
        <ele>1773</ele>
      </trkpt>
      <trkpt lat="45.6454091" lon="7.8265330">
        <ele>1778</ele>
      </trkpt>
      <trkpt lat="45.6456391" lon="7.8264930">
        <ele>1783</ele>
      </trkpt>
      <trkpt lat="45.6456391" lon="7.8264530">
        <ele>1788</ele>
      </trkpt>
      <trkpt lat="45.6457691" lon="7.8263830">
        <ele>1794</ele>
      </trkpt>
      <trkpt lat="45.6457491" lon="7.8262730">
        <ele>1799</ele>
      </trkpt>
      <trkpt lat="45.6458091" lon="7.8260830">
        <ele>1804</ele>
      </trkpt>
      <trkpt lat="45.6463491" lon="7.8260730">
        <ele>1809</ele>
      </trkpt>
      <trkpt lat="45.6464591" lon="7.8258930">
        <ele>1815</ele>
      </trkpt>
      <trkpt lat="45.6465791" lon="7.8258330">
        <ele>1820</ele>
      </trkpt>
      <trkpt lat="45.6466791" lon="7.8257030">
        <ele>1825</ele>
      </trkpt>
      <trkpt lat="45.6467791" lon="7.8256730">
        <ele>1831</ele>
      </trkpt>
      <trkpt lat="45.6468291" lon="7.8256830">
        <ele>1836</ele>
      </trkpt>
      <trkpt lat="45.6467891" lon="7.8255330">
        <ele>1841</ele>
      </trkpt>
      <trkpt lat="45.6470691" lon="7.8254930">
        <ele>1846</ele>
      </trkpt>
      <trkpt lat="45.6471591" lon="7.8254330">
        <ele>1852</ele>
      </trkpt>
      <trkpt lat="45.6472291" lon="7.8254430">
        <ele>1857</ele>
      </trkpt>
      <trkpt lat="45.6473091" lon="7.8253030">
        <ele>1862</ele>
      </trkpt>
      <trkpt lat="45.6474691" lon="7.8252130">
        <ele>1867</ele>
      </trkpt>
      <trkpt lat="45.6476191" lon="7.8250540">
        <ele>1873</ele>
      </trkpt>
      <trkpt lat="45.6478291" lon="7.8250240">
        <ele>1878</ele>
      </trkpt>
      <trkpt lat="45.6479291" lon="7.8249040">
        <ele>1883</ele>
      </trkpt>
      <trkpt lat="45.6485991" lon="7.8247640">
        <ele>1889</ele>
      </trkpt>
      <trkpt lat="45.6487891" lon="7.8246540">
        <ele>1894</ele>
      </trkpt>
      <trkpt lat="45.6489391" lon="7.8252140">
        <ele>1899</ele>
      </trkpt>
      <trkpt lat="45.6490491" lon="7.8253640">
        <ele>1904</ele>
      </trkpt>
      <trkpt lat="45.6492691" lon="7.8254840">
        <ele>1910</ele>
      </trkpt>
      <trkpt lat="45.6493091" lon="7.8256640">
        <ele>1915</ele>
      </trkpt>
      <trkpt lat="45.6494881" lon="7.8258500">
        <ele>1920</ele>
      </trkpt>
      <trkpt lat="45.6496191" lon="7.8260540">
        <ele>1925</ele>
      </trkpt>
      <trkpt lat="45.6497791" lon="7.8259340">
        <ele>1931</ele>
      </trkpt>
      <trkpt lat="45.6498391" lon="7.8259540">
        <ele>1936</ele>
      </trkpt>
      <trkpt lat="45.6498691" lon="7.8258640">
        <ele>1941</ele>
      </trkpt>
      <trkpt lat="45.6498891" lon="7.8259040">
        <ele>1947</ele>
      </trkpt>
      <trkpt lat="45.6499391" lon="7.8258740">
        <ele>1952</ele>
      </trkpt>
      <trkpt lat="45.6499791" lon="7.8259640">
        <ele>1957</ele>
      </trkpt>
      <trkpt lat="45.6500391" lon="7.8258840">
        <ele>1962</ele>
      </trkpt>
      <trkpt lat="45.6500691" lon="7.8257040">
        <ele>1968</ele>
      </trkpt>
      <trkpt lat="45.6502191" lon="7.8254440">
        <ele>1973</ele>
      </trkpt>
      <trkpt lat="45.6504391" lon="7.8245340">
        <ele>1978</ele>
      </trkpt>
      <trkpt lat="45.6506091" lon="7.8246440">
        <ele>1984</ele>
      </trkpt>
      <trkpt lat="45.6507391" lon="7.8244540">
        <ele>1989</ele>
      </trkpt>
      <trkpt lat="45.6509591" lon="7.8243340">
        <ele>1994</ele>
      </trkpt>
      <trkpt lat="45.6511191" lon="7.8241540">
        <ele>1999</ele>
      </trkpt>
      <trkpt lat="45.6512291" lon="7.8240940">
        <ele>2005</ele>
      </trkpt>
      <trkpt lat="45.6513291" lon="7.8239540">
        <ele>2010</ele>
      </trkpt>
      <trkpt lat="45.6514491" lon="7.8238940">
        <ele>2015</ele>
      </trkpt>
      <trkpt lat="45.6517291" lon="7.8235440">
        <ele>2020</ele>
      </trkpt>
      <trkpt lat="45.6519191" lon="7.8231940">
        <ele>2026</ele>
      </trkpt>
      <trkpt lat="45.6522491" lon="7.8228440">
        <ele>2031</ele>
      </trkpt>
      <trkpt lat="45.6524691" lon="7.8224940">
        <ele>2036</ele>
      </trkpt>
      <trkpt lat="45.6527591" lon="7.8218740">
        <ele>2042</ele>
      </trkpt>
      <trkpt lat="45.6529291" lon="7.8212340">
        <ele>2047</ele>
      </trkpt>
      <trkpt lat="45.6530991" lon="7.8211240">
        <ele>2052</ele>
      </trkpt>
      <trkpt lat="45.6533291" lon="7.8210940">
        <ele>2057</ele>
      </trkpt>
      <trkpt lat="45.6534891" lon="7.8212340">
        <ele>2063</ele>
      </trkpt>
      <trkpt lat="45.6536991" lon="7.8212740">
        <ele>2068</ele>
      </trkpt>
      <trkpt lat="45.6539991" lon="7.8214540">
        <ele>2073</ele>
      </trkpt>
      <trkpt lat="45.6541091" lon="7.8214340">
        <ele>2078</ele>
      </trkpt>
      <trkpt lat="45.6545891" lon="7.8212040">
        <ele>2084</ele>
      </trkpt>
      <trkpt lat="45.6551891" lon="7.8208540">
        <ele>2089</ele>
      </trkpt>
      <trkpt lat="45.6554391" lon="7.8205440">
        <ele>2094</ele>
      </trkpt>
      <trkpt lat="45.6555391" lon="7.8203140">
        <ele>2100</ele>
      </trkpt>
      <trkpt lat="45.6557191" lon="7.8201840">
        <ele>2105</ele>
      </trkpt>
      <trkpt lat="45.6559291" lon="7.8201140">
        <ele>2110</ele>
      </trkpt>
      <trkpt lat="45.6565591" lon="7.8201240">
        <ele>2115</ele>
      </trkpt>
      <trkpt lat="45.6571591" lon="7.8200440">
        <ele>2121</ele>
      </trkpt>
      <trkpt lat="45.6573291" lon="7.8200840">
        <ele>2126</ele>
      </trkpt>
      <trkpt lat="45.6578791" lon="7.8200540">
        <ele>2131</ele>
      </trkpt>
      <trkpt lat="45.6585491" lon="7.8194340">
        <ele>2137</ele>
      </trkpt>
      <trkpt lat="45.6585891" lon="7.8192640">
        <ele>2142</ele>
      </trkpt>
      <trkpt lat="45.6590991" lon="7.8189640">
        <ele>2147</ele>
      </trkpt>
      <trkpt lat="45.6593591" lon="7.8190240">
        <ele>2152</ele>
      </trkpt>
      <trkpt lat="45.6597091" lon="7.8190440">
        <ele>2158</ele>
      </trkpt>
      <trkpt lat="45.6600691" lon="7.8192740">
        <ele>2163</ele>
      </trkpt>
      <trkpt lat="45.6601781" lon="7.8192500">
        <ele>2168</ele>
      </trkpt>
      <trkpt lat="45.6600291" lon="7.8187340">
        <ele>2173</ele>
      </trkpt>
      <trkpt lat="45.6596591" lon="7.8181140">
        <ele>2179</ele>
      </trkpt>
      <trkpt lat="45.6595991" lon="7.8180740">
        <ele>2184</ele>
      </trkpt>
      <trkpt lat="45.6594691" lon="7.8180440">
        <ele>2189</ele>
      </trkpt>
      <trkpt lat="45.6594991" lon="7.8179640">
        <ele>2195</ele>
      </trkpt>
      <trkpt lat="45.6594891" lon="7.8178540">
        <ele>2200</ele>
      </trkpt>
      <trkpt lat="45.6590091" lon="7.8176940">
        <ele>2205</ele>
      </trkpt>
      <trkpt lat="45.6589391" lon="7.8176240">
        <ele>2210</ele>
      </trkpt>
      <trkpt lat="45.6587991" lon="7.8175640">
        <ele>2216</ele>
      </trkpt>
      <trkpt lat="45.6587491" lon="7.8174840">
        <ele>2221</ele>
      </trkpt>
      <trkpt lat="45.6586191" lon="7.8175140">
        <ele>2226</ele>
      </trkpt>
      <trkpt lat="45.6585891" lon="7.8173240">
        <ele>2231</ele>
      </trkpt>
      <trkpt lat="45.6586491" lon="7.8172740">
        <ele>2237</ele>
      </trkpt>
      <trkpt lat="45.6586391" lon="7.8172340">
        <ele>2242</ele>
      </trkpt>
      <trkpt lat="45.6585891" lon="7.8172140">
        <ele>2247</ele>
      </trkpt>
      <trkpt lat="45.6584891" lon="7.8172540">
        <ele>2253</ele>
      </trkpt>
      <trkpt lat="45.6583391" lon="7.8172240">
        <ele>2258</ele>
      </trkpt>
      <trkpt lat="45.6583791" lon="7.8171040">
        <ele>2263</ele>
      </trkpt>
      <trkpt lat="45.6583291" lon="7.8170640">
        <ele>2268</ele>
      </trkpt>
      <trkpt lat="45.6584091" lon="7.8169040">
        <ele>2274</ele>
      </trkpt>
      <trkpt lat="45.6582891" lon="7.8168140">
        <ele>2279</ele>
      </trkpt>
      <trkpt lat="45.6582791" lon="7.8167640">
        <ele>2284</ele>
      </trkpt>
      <trkpt lat="45.6583191" lon="7.8166640">
        <ele>2289</ele>
      </trkpt>
      <trkpt lat="45.6584391" lon="7.8165840">
        <ele>2295</ele>
      </trkpt>
      <trkpt lat="45.6583891" lon="7.8165340">
        <ele>2300</ele>
      </trkpt>
      <trkpt lat="45.6583491" lon="7.8164140">
        <ele>2305</ele>
      </trkpt>
      <trkpt lat="45.6585291" lon="7.8160640">
        <ele>2311</ele>
      </trkpt>
      <trkpt lat="45.6586391" lon="7.8159740">
        <ele>2316</ele>
      </trkpt>
      <trkpt lat="45.6583891" lon="7.8155240">
        <ele>2321</ele>
      </trkpt>
      <trkpt lat="45.6581581" lon="7.8152100">
        <ele>2326</ele>
      </trkpt>
      <trkpt lat="45.6582191" lon="7.8151340">
        <ele>2332</ele>
      </trkpt>
      <trkpt lat="45.6583591" lon="7.8150840">
        <ele>2337</ele>
      </trkpt>
      <trkpt lat="45.6589391" lon="7.8149440">
        <ele>2342</ele>
      </trkpt>
      <trkpt lat="45.6591391" lon="7.8148440">
        <ele>2348</ele>
      </trkpt>
      <trkpt lat="45.6592691" lon="7.8147440">
        <ele>2353</ele>
      </trkpt>
      <trkpt lat="45.6593391" lon="7.8146040">
        <ele>2358</ele>
      </trkpt>
      <trkpt lat="45.6595091" lon="7.8144440">
        <ele>2363</ele>
      </trkpt>
      <trkpt lat="45.6595691" lon="7.8143240">
        <ele>2369</ele>
      </trkpt>
      <trkpt lat="45.6597191" lon="7.8138640">
        <ele>2374</ele>
      </trkpt>
      <trkpt lat="45.6598991" lon="7.8137240">
        <ele>2379</ele>
      </trkpt>
      <trkpt lat="45.6599091" lon="7.8134940">
        <ele>2384</ele>
      </trkpt>
      <trkpt lat="45.6598591" lon="7.8133840">
        <ele>2390</ele>
      </trkpt>
      <trkpt lat="45.6597291" lon="7.8133340">
        <ele>2395</ele>
      </trkpt>
    </trkseg>
  </trk>
</gpx>
