<?xml version="1.0" encoding="UTF-8"?>
<gpx version="1.1" creator="sentieri-vda" xmlns="http://www.topografix.com/GPX/1/1">
  <metadata>
    <name>Strada regionale per Arpy - Mont-Charvet</name>
    <desc>Catasto Sentieri VdA — 44_S18</desc>
    <author><name>Regione Autonoma Valle d'Aosta</name></author>
  </metadata>
  <trk>
    <name>Strada regionale per Arpy - Mont-Charvet</name>
    <src>Catasto Sentieri VdA (44_S18)</src>
    <trkseg>
      <trkpt lat="45.7317782" lon="7.0146100">
        <ele>1228</ele>
      </trkpt>
      <trkpt lat="45.7317252" lon="7.0153730">
        <ele>1234</ele>
      </trkpt>
      <trkpt lat="45.7314452" lon="7.0154130">
        <ele>1240</ele>
      </trkpt>
      <trkpt lat="45.7311852" lon="7.0167030">
        <ele>1246</ele>
      </trkpt>
      <trkpt lat="45.7305852" lon="7.0174030">
        <ele>1252</ele>
      </trkpt>
      <trkpt lat="45.7305252" lon="7.0181630">
        <ele>1258</ele>
      </trkpt>
      <trkpt lat="45.7302852" lon="7.0175830">
        <ele>1264</ele>
      </trkpt>
      <trkpt lat="45.7301752" lon="7.0177930">
        <ele>1270</ele>
      </trkpt>
      <trkpt lat="45.7295552" lon="7.0170830">
        <ele>1276</ele>
      </trkpt>
      <trkpt lat="45.7288752" lon="7.0168730">
        <ele>1282</ele>
      </trkpt>
      <trkpt lat="45.7286352" lon="7.0173230">
        <ele>1288</ele>
      </trkpt>
      <trkpt lat="45.7288252" lon="7.0201530">
        <ele>1294</ele>
      </trkpt>
      <trkpt lat="45.7293852" lon="7.0218730">
        <ele>1300</ele>
      </trkpt>
      <trkpt lat="45.7286352" lon="7.0215030">
        <ele>1306</ele>
      </trkpt>
      <trkpt lat="45.7286352" lon="7.0221030">
        <ele>1312</ele>
      </trkpt>
      <trkpt lat="45.7271552" lon="7.0232030">
        <ele>1318</ele>
      </trkpt>
      <trkpt lat="45.7269352" lon="7.0249830">
        <ele>1324</ele>
      </trkpt>
      <trkpt lat="45.7279052" lon="7.0302630">
        <ele>1330</ele>
      </trkpt>
      <trkpt lat="45.7278682" lon="7.0312300">
        <ele>1336</ele>
      </trkpt>
      <trkpt lat="45.7279952" lon="7.0313130">
        <ele>1342</ele>
      </trkpt>
      <trkpt lat="45.7280652" lon="7.0315530">
        <ele>1348</ele>
      </trkpt>
      <trkpt lat="45.7283452" lon="7.0317030">
        <ele>1354</ele>
      </trkpt>
      <trkpt lat="45.7287952" lon="7.0326330">
        <ele>1360</ele>
      </trkpt>
      <trkpt lat="45.7286852" lon="7.0334230">
        <ele>1366</ele>
      </trkpt>
      <trkpt lat="45.7288452" lon="7.0338930">
        <ele>1372</ele>
      </trkpt>
      <trkpt lat="45.7286052" lon="7.0342430">
        <ele>1378</ele>
      </trkpt>
      <trkpt lat="45.7286182" lon="7.0342300">
        <ele>1384</ele>
      </trkpt>
      <trkpt lat="45.7297952" lon="7.0352830">
        <ele>1390</ele>
      </trkpt>
      <trkpt lat="45.7303782" lon="7.0346200">
        <ele>1396</ele>
      </trkpt>
      <trkpt lat="45.7306682" lon="7.0348400">
        <ele>1402</ele>
      </trkpt>
      <trkpt lat="45.7318552" lon="7.0351730">
        <ele>1408</ele>
      </trkpt>
      <trkpt lat="45.7323052" lon="7.0350030">
        <ele>1414</ele>
      </trkpt>
      <trkpt lat="45.7326052" lon="7.0342530">
        <ele>1420</ele>
      </trkpt>
      <trkpt lat="45.7333952" lon="7.0335830">
        <ele>1426</ele>
      </trkpt>
      <trkpt lat="45.7336552" lon="7.0324030">
        <ele>1432</ele>
      </trkpt>
      <trkpt lat="45.7344052" lon="7.0312930">
        <ele>1438</ele>
      </trkpt>
      <trkpt lat="45.7347952" lon="7.0305630">
        <ele>1444</ele>
      </trkpt>
      <trkpt lat="45.7347052" lon="7.0289730">
        <ele>1450</ele>
      </trkpt>
      <trkpt lat="45.7352252" lon="7.0282830">
        <ele>1456</ele>
      </trkpt>
      <trkpt lat="45.7363152" lon="7.0281330">
        <ele>1462</ele>
      </trkpt>
      <trkpt lat="45.7365052" lon="7.0309930">
        <ele>1468</ele>
      </trkpt>
      <trkpt lat="45.7372352" lon="7.0322530">
        <ele>1474</ele>
      </trkpt>
      <trkpt lat="45.7374782" lon="7.0335100">
        <ele>1480</ele>
      </trkpt>
      <trkpt lat="45.7377542" lon="7.0340930">
        <ele>1486</ele>
      </trkpt>
      <trkpt lat="45.7378642" lon="7.0340030">
        <ele>1492</ele>
      </trkpt>
      <trkpt lat="45.7379442" lon="7.0338930">
        <ele>1498</ele>
      </trkpt>
      <trkpt lat="45.7381742" lon="7.0339930">
        <ele>1504</ele>
      </trkpt>
      <trkpt lat="45.7385542" lon="7.0340830">
        <ele>1510</ele>
      </trkpt>
      <trkpt lat="45.7386542" lon="7.0342530">
        <ele>1516</ele>
      </trkpt>
      <trkpt lat="45.7387142" lon="7.0343230">
        <ele>1522</ele>
      </trkpt>
      <trkpt lat="45.7390242" lon="7.0345930">
        <ele>1528</ele>
      </trkpt>
      <trkpt lat="45.7390842" lon="7.0345730">
        <ele>1534</ele>
      </trkpt>
      <trkpt lat="45.7392042" lon="7.0348130">
        <ele>1540</ele>
      </trkpt>
      <trkpt lat="45.7394582" lon="7.0350900">
        <ele>1546</ele>
      </trkpt>
      <trkpt lat="45.7394642" lon="7.0352230">
        <ele>1552</ele>
      </trkpt>
      <trkpt lat="45.7396742" lon="7.0355930">
        <ele>1558</ele>
      </trkpt>
      <trkpt lat="45.7400142" lon="7.0359130">
        <ele>1564</ele>
      </trkpt>
      <trkpt lat="45.7402442" lon="7.0362530">
        <ele>1571</ele>
      </trkpt>
      <trkpt lat="45.7405042" lon="7.0360230">
        <ele>1577</ele>
      </trkpt>
      <trkpt lat="45.7406542" lon="7.0359830">
        <ele>1583</ele>
      </trkpt>
      <trkpt lat="45.7407742" lon="7.0358530">
        <ele>1589</ele>
      </trkpt>
      <trkpt lat="45.7408242" lon="7.0359530">
        <ele>1595</ele>
      </trkpt>
      <trkpt lat="45.7406542" lon="7.0362230">
        <ele>1601</ele>
      </trkpt>
      <trkpt lat="45.7406742" lon="7.0363830">
        <ele>1607</ele>
      </trkpt>
      <trkpt lat="45.7407442" lon="7.0363930">
        <ele>1613</ele>
      </trkpt>
      <trkpt lat="45.7409642" lon="7.0366230">
        <ele>1619</ele>
      </trkpt>
      <trkpt lat="45.7411442" lon="7.0365430">
        <ele>1625</ele>
      </trkpt>
      <trkpt lat="45.7411833" lon="7.0365501">
        <ele>1631</ele>
      </trkpt>
      <trkpt lat="45.7414742" lon="7.0366030">
        <ele>1637</ele>
      </trkpt>
      <trkpt lat="45.7415042" lon="7.0367930">
        <ele>1643</ele>
      </trkpt>
      <trkpt lat="45.7417542" lon="7.0365930">
        <ele>1649</ele>
      </trkpt>
      <trkpt lat="45.7418042" lon="7.0364830">
        <ele>1655</ele>
      </trkpt>
      <trkpt lat="45.7419142" lon="7.0364630">
        <ele>1661</ele>
      </trkpt>
      <trkpt lat="45.7420942" lon="7.0362930">
        <ele>1667</ele>
      </trkpt>
      <trkpt lat="45.7421542" lon="7.0363230">
        <ele>1673</ele>
      </trkpt>
      <trkpt lat="45.7422242" lon="7.0367530">
        <ele>1679</ele>
      </trkpt>
      <trkpt lat="45.7421942" lon="7.0368730">
        <ele>1685</ele>
      </trkpt>
      <trkpt lat="45.7421242" lon="7.0369530">
        <ele>1691</ele>
      </trkpt>
      <trkpt lat="45.7422190" lon="7.0372969">
        <ele>1697</ele>
      </trkpt>
      <trkpt lat="45.7422942" lon="7.0374330">
        <ele>1703</ele>
      </trkpt>
      <trkpt lat="45.7423042" lon="7.0376930">
        <ele>1709</ele>
      </trkpt>
      <trkpt lat="45.7424542" lon="7.0378730">
        <ele>1715</ele>
      </trkpt>
      <trkpt lat="45.7426742" lon="7.0376330">
        <ele>1721</ele>
      </trkpt>
      <trkpt lat="45.7429142" lon="7.0375130">
        <ele>1727</ele>
      </trkpt>
      <trkpt lat="45.7432482" lon="7.0373900">
        <ele>1733</ele>
      </trkpt>
      <trkpt lat="45.7432742" lon="7.0375630">
        <ele>1739</ele>
      </trkpt>
      <trkpt lat="45.7434842" lon="7.0377530">
        <ele>1745</ele>
      </trkpt>
      <trkpt lat="45.7435642" lon="7.0377330">
        <ele>1751</ele>
      </trkpt>
      <trkpt lat="45.7436942" lon="7.0377930">
        <ele>1757</ele>
      </trkpt>
      <trkpt lat="45.7435642" lon="7.0380030">
        <ele>1763</ele>
      </trkpt>
      <trkpt lat="45.7436742" lon="7.0381530">
        <ele>1769</ele>
      </trkpt>
      <trkpt lat="45.7439142" lon="7.0380930">
        <ele>1775</ele>
      </trkpt>
      <trkpt lat="45.7439542" lon="7.0379730">
        <ele>1781</ele>
      </trkpt>
      <trkpt lat="45.7441142" lon="7.0378730">
        <ele>1787</ele>
      </trkpt>
      <trkpt lat="45.7443842" lon="7.0376130">
        <ele>1793</ele>
      </trkpt>
      <trkpt lat="45.7445042" lon="7.0375930">
        <ele>1799</ele>
      </trkpt>
      <trkpt lat="45.7447842" lon="7.0372830">
        <ele>1805</ele>
      </trkpt>
      <trkpt lat="45.7447742" lon="7.0371830">
        <ele>1811</ele>
      </trkpt>
      <trkpt lat="45.7448685" lon="7.0370660">
        <ele>1817</ele>
      </trkpt>
      <trkpt lat="45.7450242" lon="7.0368730">
        <ele>1823</ele>
      </trkpt>
      <trkpt lat="45.7451342" lon="7.0367730">
        <ele>1829</ele>
      </trkpt>
      <trkpt lat="45.7452042" lon="7.0367530">
        <ele>1835</ele>
      </trkpt>
      <trkpt lat="45.7452942" lon="7.0366530">
        <ele>1841</ele>
      </trkpt>
      <trkpt lat="45.7453542" lon="7.0366330">
        <ele>1847</ele>
      </trkpt>
      <trkpt lat="45.7454742" lon="7.0364830">
        <ele>1853</ele>
      </trkpt>
      <trkpt lat="45.7455742" lon="7.0364230">
        <ele>1859</ele>
      </trkpt>
      <trkpt lat="45.7457142" lon="7.0364030">
        <ele>1865</ele>
      </trkpt>
      <trkpt lat="45.7459942" lon="7.0359730">
        <ele>1871</ele>
      </trkpt>
      <trkpt lat="45.7461842" lon="7.0358330">
        <ele>1877</ele>
      </trkpt>
      <trkpt lat="45.7462942" lon="7.0355530">
        <ele>1883</ele>
      </trkpt>
      <trkpt lat="45.7463042" lon="7.0354430">
        <ele>1889</ele>
      </trkpt>
      <trkpt lat="45.7463542" lon="7.0353930">
        <ele>1895</ele>
      </trkpt>
      <trkpt lat="45.7464142" lon="7.0350030">
        <ele>1901</ele>
      </trkpt>
      <trkpt lat="45.7467567" lon="7.0347595">
        <ele>1907</ele>
      </trkpt>
    </trkseg>
  </trk>
</gpx>
