<?xml version="1.0" encoding="UTF-8"?>
<gpx version="1.1" creator="sentieri-vda" xmlns="http://www.topografix.com/GPX/1/1">
  <metadata>
    <name>Lac d'Arpy - Col de la Croix</name>
    <desc>Catasto Sentieri VdA — 44_S24</desc>
    <author><name>Regione Autonoma Valle d'Aosta</name></author>
  </metadata>
  <trk>
    <name>Lac d'Arpy - Col de la Croix</name>
    <src>Catasto Sentieri VdA (44_S24)</src>
    <trkseg>
      <trkpt lat="45.7194052" lon="6.9833440">
        <ele>2071</ele>
      </trkpt>
      <trkpt lat="45.7201252" lon="6.9840740">
        <ele>2078</ele>
      </trkpt>
      <trkpt lat="45.7202152" lon="6.9846240">
        <ele>2086</ele>
      </trkpt>
      <trkpt lat="45.7203852" lon="6.9850140">
        <ele>2093</ele>
      </trkpt>
      <trkpt lat="45.7198552" lon="6.9845940">
        <ele>2101</ele>
      </trkpt>
      <trkpt lat="45.7197952" lon="6.9846640">
        <ele>2108</ele>
      </trkpt>
      <trkpt lat="45.7201352" lon="6.9854940">
        <ele>2116</ele>
      </trkpt>
      <trkpt lat="45.7202052" lon="6.9863640">
        <ele>2123</ele>
      </trkpt>
      <trkpt lat="45.7206152" lon="6.9873130">
        <ele>2130</ele>
      </trkpt>
      <trkpt lat="45.7207852" lon="6.9883830">
        <ele>2138</ele>
      </trkpt>
      <trkpt lat="45.7211352" lon="6.9889330">
        <ele>2145</ele>
      </trkpt>
      <trkpt lat="45.7213552" lon="6.9896030">
        <ele>2153</ele>
      </trkpt>
      <trkpt lat="45.7209652" lon="6.9893530">
        <ele>2160</ele>
      </trkpt>
      <trkpt lat="45.7214452" lon="6.9908730">
        <ele>2168</ele>
      </trkpt>
      <trkpt lat="45.7214352" lon="6.9910130">
        <ele>2175</ele>
      </trkpt>
      <trkpt lat="45.7210852" lon="6.9910430">
        <ele>2182</ele>
      </trkpt>
      <trkpt lat="45.7211852" lon="6.9914130">
        <ele>2190</ele>
      </trkpt>
      <trkpt lat="45.7209252" lon="6.9915030">
        <ele>2197</ele>
      </trkpt>
      <trkpt lat="45.7209952" lon="6.9918930">
        <ele>2205</ele>
      </trkpt>
      <trkpt lat="45.7207852" lon="6.9919030">
        <ele>2212</ele>
      </trkpt>
      <trkpt lat="45.7207452" lon="6.9921730">
        <ele>2220</ele>
      </trkpt>
      <trkpt lat="45.7210452" lon="6.9930230">
        <ele>2227</ele>
      </trkpt>
      <trkpt lat="45.7208652" lon="6.9934230">
        <ele>2234</ele>
      </trkpt>
      <trkpt lat="45.7206152" lon="6.9933530">
        <ele>2242</ele>
      </trkpt>
      <trkpt lat="45.7206852" lon="6.9937630">
        <ele>2249</ele>
      </trkpt>
      <trkpt lat="45.7205552" lon="6.9937030">
        <ele>2257</ele>
      </trkpt>
      <trkpt lat="45.7204052" lon="6.9944530">
        <ele>2264</ele>
      </trkpt>
      <trkpt lat="45.7205952" lon="6.9949130">
        <ele>2272</ele>
      </trkpt>
      <trkpt lat="45.7204252" lon="6.9949030">
        <ele>2279</ele>
      </trkpt>
      <trkpt lat="45.7202652" lon="6.9950930">
        <ele>2286</ele>
      </trkpt>
      <trkpt lat="45.7208052" lon="6.9956530">
        <ele>2294</ele>
      </trkpt>
      <trkpt lat="45.7216152" lon="6.9970130">
        <ele>2301</ele>
      </trkpt>
      <trkpt lat="45.7219352" lon="6.9971430">
        <ele>2309</ele>
      </trkpt>
      <trkpt lat="45.7223052" lon="6.9978430">
        <ele>2316</ele>
      </trkpt>
      <trkpt lat="45.7225670" lon="6.9981883">
        <ele>2324</ele>
      </trkpt>
      <trkpt lat="45.7226767" lon="6.9982872">
        <ele>2331</ele>
      </trkpt>
      <trkpt lat="45.7228422" lon="6.9984869">
        <ele>2338</ele>
      </trkpt>
      <trkpt lat="45.7229151" lon="6.9985357">
        <ele>2346</ele>
      </trkpt>
      <trkpt lat="45.7232281" lon="6.9989357">
        <ele>2353</ele>
      </trkpt>
      <trkpt lat="45.7232967" lon="6.9992546">
        <ele>2361</ele>
      </trkpt>
      <trkpt lat="45.7233682" lon="6.9997403">
        <ele>2368</ele>
      </trkpt>
      <trkpt lat="45.7234698" lon="6.9998909">
        <ele>2376</ele>
      </trkpt>
      <trkpt lat="45.7237428" lon="7.0000611">
        <ele>2383</ele>
      </trkpt>
    </trkseg>
  </trk>
</gpx>
