<?xml version="1.0" encoding="UTF-8"?>
<gpx version="1.1" creator="sentieri-vda" xmlns="http://www.topografix.com/GPX/1/1">
  <metadata>
    <name>Strada regionale per Arpy - Croix du Folliet</name>
    <desc>Catasto Sentieri VdA — 44_S17</desc>
    <author><name>Regione Autonoma Valle d'Aosta</name></author>
  </metadata>
  <trk>
    <name>Strada regionale per Arpy - Croix du Folliet</name>
    <src>Catasto Sentieri VdA (44_S17)</src>
    <trkseg>
      <trkpt lat="45.7230052" lon="7.0395020">
        <ele>1228</ele>
      </trkpt>
      <trkpt lat="45.7225652" lon="7.0387720">
        <ele>1235</ele>
      </trkpt>
      <trkpt lat="45.7223752" lon="7.0388520">
        <ele>1242</ele>
      </trkpt>
      <trkpt lat="45.7223052" lon="7.0387020">
        <ele>1249</ele>
      </trkpt>
      <trkpt lat="45.7221452" lon="7.0387920">
        <ele>1256</ele>
      </trkpt>
      <trkpt lat="45.7219252" lon="7.0380720">
        <ele>1263</ele>
      </trkpt>
      <trkpt lat="45.7219752" lon="7.0377220">
        <ele>1270</ele>
      </trkpt>
      <trkpt lat="45.7219152" lon="7.0376020">
        <ele>1277</ele>
      </trkpt>
      <trkpt lat="45.7217652" lon="7.0377720">
        <ele>1284</ele>
      </trkpt>
      <trkpt lat="45.7211252" lon="7.0376320">
        <ele>1291</ele>
      </trkpt>
      <trkpt lat="45.7207352" lon="7.0372820">
        <ele>1298</ele>
      </trkpt>
      <trkpt lat="45.7203782" lon="7.0367100">
        <ele>1305</ele>
      </trkpt>
      <trkpt lat="45.7200852" lon="7.0353020">
        <ele>1312</ele>
      </trkpt>
      <trkpt lat="45.7199052" lon="7.0349720">
        <ele>1318</ele>
      </trkpt>
      <trkpt lat="45.7202752" lon="7.0346620">
        <ele>1325</ele>
      </trkpt>
      <trkpt lat="45.7204952" lon="7.0349220">
        <ele>1332</ele>
      </trkpt>
      <trkpt lat="45.7208352" lon="7.0349520">
        <ele>1339</ele>
      </trkpt>
      <trkpt lat="45.7208852" lon="7.0350820">
        <ele>1346</ele>
      </trkpt>
      <trkpt lat="45.7212352" lon="7.0347720">
        <ele>1353</ele>
      </trkpt>
      <trkpt lat="45.7213352" lon="7.0344620">
        <ele>1360</ele>
      </trkpt>
      <trkpt lat="45.7214452" lon="7.0345020">
        <ele>1367</ele>
      </trkpt>
      <trkpt lat="45.7219252" lon="7.0340320">
        <ele>1374</ele>
      </trkpt>
      <trkpt lat="45.7219752" lon="7.0341020">
        <ele>1381</ele>
      </trkpt>
      <trkpt lat="45.7221252" lon="7.0339330">
        <ele>1388</ele>
      </trkpt>
      <trkpt lat="45.7220952" lon="7.0338530">
        <ele>1395</ele>
      </trkpt>
      <trkpt lat="45.7220952" lon="7.0337930">
        <ele>1402</ele>
      </trkpt>
      <trkpt lat="45.7223752" lon="7.0337030">
        <ele>1409</ele>
      </trkpt>
      <trkpt lat="45.7221552" lon="7.0334830">
        <ele>1416</ele>
      </trkpt>
      <trkpt lat="45.7224052" lon="7.0332930">
        <ele>1423</ele>
      </trkpt>
      <trkpt lat="45.7224952" lon="7.0329930">
        <ele>1430</ele>
      </trkpt>
      <trkpt lat="45.7223352" lon="7.0327230">
        <ele>1437</ele>
      </trkpt>
      <trkpt lat="45.7225252" lon="7.0321530">
        <ele>1444</ele>
      </trkpt>
      <trkpt lat="45.7229252" lon="7.0321330">
        <ele>1451</ele>
      </trkpt>
      <trkpt lat="45.7229252" lon="7.0318730">
        <ele>1458</ele>
      </trkpt>
      <trkpt lat="45.7232852" lon="7.0315730">
        <ele>1465</ele>
      </trkpt>
      <trkpt lat="45.7232852" lon="7.0313030">
        <ele>1472</ele>
      </trkpt>
      <trkpt lat="45.7234552" lon="7.0310730">
        <ele>1479</ele>
      </trkpt>
      <trkpt lat="45.7234582" lon="7.0303100">
        <ele>1486</ele>
      </trkpt>
      <trkpt lat="45.7237352" lon="7.0296730">
        <ele>1493</ele>
      </trkpt>
      <trkpt lat="45.7241652" lon="7.0295930">
        <ele>1499</ele>
      </trkpt>
      <trkpt lat="45.7242452" lon="7.0294330">
        <ele>1506</ele>
      </trkpt>
      <trkpt lat="45.7244052" lon="7.0295230">
        <ele>1513</ele>
      </trkpt>
      <trkpt lat="45.7243652" lon="7.0294630">
        <ele>1520</ele>
      </trkpt>
      <trkpt lat="45.7244952" lon="7.0294530">
        <ele>1527</ele>
      </trkpt>
      <trkpt lat="45.7245352" lon="7.0296330">
        <ele>1534</ele>
      </trkpt>
      <trkpt lat="45.7248052" lon="7.0298230">
        <ele>1541</ele>
      </trkpt>
      <trkpt lat="45.7249652" lon="7.0302930">
        <ele>1548</ele>
      </trkpt>
      <trkpt lat="45.7248452" lon="7.0304830">
        <ele>1555</ele>
      </trkpt>
      <trkpt lat="45.7251652" lon="7.0310330">
        <ele>1562</ele>
      </trkpt>
      <trkpt lat="45.7250952" lon="7.0313730">
        <ele>1569</ele>
      </trkpt>
      <trkpt lat="45.7256652" lon="7.0311930">
        <ele>1576</ele>
      </trkpt>
      <trkpt lat="45.7259452" lon="7.0309830">
        <ele>1583</ele>
      </trkpt>
      <trkpt lat="45.7263352" lon="7.0312330">
        <ele>1590</ele>
      </trkpt>
      <trkpt lat="45.7264952" lon="7.0315430">
        <ele>1597</ele>
      </trkpt>
      <trkpt lat="45.7266252" lon="7.0313630">
        <ele>1604</ele>
      </trkpt>
      <trkpt lat="45.7272352" lon="7.0316530">
        <ele>1611</ele>
      </trkpt>
      <trkpt lat="45.7273152" lon="7.0315130">
        <ele>1618</ele>
      </trkpt>
      <trkpt lat="45.7275952" lon="7.0315830">
        <ele>1625</ele>
      </trkpt>
      <trkpt lat="45.7274952" lon="7.0310030">
        <ele>1632</ele>
      </trkpt>
      <trkpt lat="45.7278682" lon="7.0312300">
        <ele>1639</ele>
      </trkpt>
      <trkpt lat="45.7279952" lon="7.0313130">
        <ele>1646</ele>
      </trkpt>
      <trkpt lat="45.7280652" lon="7.0315530">
        <ele>1653</ele>
      </trkpt>
      <trkpt lat="45.7283452" lon="7.0317030">
        <ele>1660</ele>
      </trkpt>
      <trkpt lat="45.7287952" lon="7.0326330">
        <ele>1667</ele>
      </trkpt>
      <trkpt lat="45.7286852" lon="7.0334230">
        <ele>1674</ele>
      </trkpt>
      <trkpt lat="45.7288452" lon="7.0338930">
        <ele>1680</ele>
      </trkpt>
      <trkpt lat="45.7286052" lon="7.0342430">
        <ele>1687</ele>
      </trkpt>
      <trkpt lat="45.7286182" lon="7.0342300">
        <ele>1694</ele>
      </trkpt>
      <trkpt lat="45.7297952" lon="7.0352830">
        <ele>1701</ele>
      </trkpt>
      <trkpt lat="45.7303782" lon="7.0346200">
        <ele>1708</ele>
      </trkpt>
      <trkpt lat="45.7306682" lon="7.0348400">
        <ele>1715</ele>
      </trkpt>
      <trkpt lat="45.7318552" lon="7.0351730">
        <ele>1722</ele>
      </trkpt>
      <trkpt lat="45.7323052" lon="7.0350030">
        <ele>1729</ele>
      </trkpt>
      <trkpt lat="45.7326052" lon="7.0342530">
        <ele>1736</ele>
      </trkpt>
      <trkpt lat="45.7333952" lon="7.0335830">
        <ele>1743</ele>
      </trkpt>
      <trkpt lat="45.7336552" lon="7.0324030">
        <ele>1750</ele>
      </trkpt>
      <trkpt lat="45.7344052" lon="7.0312930">
        <ele>1757</ele>
      </trkpt>
      <trkpt lat="45.7347952" lon="7.0305630">
        <ele>1764</ele>
      </trkpt>
      <trkpt lat="45.7347052" lon="7.0289730">
        <ele>1771</ele>
      </trkpt>
      <trkpt lat="45.7352252" lon="7.0282830">
        <ele>1778</ele>
      </trkpt>
      <trkpt lat="45.7363152" lon="7.0281330">
        <ele>1785</ele>
      </trkpt>
      <trkpt lat="45.7365052" lon="7.0309930">
        <ele>1792</ele>
      </trkpt>
      <trkpt lat="45.7372352" lon="7.0322530">
        <ele>1799</ele>
      </trkpt>
      <trkpt lat="45.7374782" lon="7.0335100">
        <ele>1806</ele>
      </trkpt>
      <trkpt lat="45.7377542" lon="7.0340930">
        <ele>1813</ele>
      </trkpt>
      <trkpt lat="45.7378642" lon="7.0340030">
        <ele>1820</ele>
      </trkpt>
      <trkpt lat="45.7379442" lon="7.0338930">
        <ele>1827</ele>
      </trkpt>
      <trkpt lat="45.7381742" lon="7.0339930">
        <ele>1834</ele>
      </trkpt>
      <trkpt lat="45.7385542" lon="7.0340830">
        <ele>1841</ele>
      </trkpt>
      <trkpt lat="45.7386542" lon="7.0342530">
        <ele>1848</ele>
      </trkpt>
      <trkpt lat="45.7387142" lon="7.0343230">
        <ele>1854</ele>
      </trkpt>
      <trkpt lat="45.7390242" lon="7.0345930">
        <ele>1861</ele>
      </trkpt>
      <trkpt lat="45.7390842" lon="7.0345730">
        <ele>1868</ele>
      </trkpt>
      <trkpt lat="45.7392042" lon="7.0348130">
        <ele>1875</ele>
      </trkpt>
      <trkpt lat="45.7394582" lon="7.0350900">
        <ele>1882</ele>
      </trkpt>
      <trkpt lat="45.7394642" lon="7.0352230">
        <ele>1889</ele>
      </trkpt>
      <trkpt lat="45.7396742" lon="7.0355930">
        <ele>1896</ele>
      </trkpt>
      <trkpt lat="45.7400142" lon="7.0359130">
        <ele>1903</ele>
      </trkpt>
      <trkpt lat="45.7402442" lon="7.0362530">
        <ele>1910</ele>
      </trkpt>
      <trkpt lat="45.7405042" lon="7.0360230">
        <ele>1917</ele>
      </trkpt>
      <trkpt lat="45.7406542" lon="7.0359830">
        <ele>1924</ele>
      </trkpt>
      <trkpt lat="45.7407742" lon="7.0358530">
        <ele>1931</ele>
      </trkpt>
      <trkpt lat="45.7408242" lon="7.0359530">
        <ele>1938</ele>
      </trkpt>
      <trkpt lat="45.7406542" lon="7.0362230">
        <ele>1945</ele>
      </trkpt>
      <trkpt lat="45.7406742" lon="7.0363830">
        <ele>1952</ele>
      </trkpt>
      <trkpt lat="45.7407442" lon="7.0363930">
        <ele>1959</ele>
      </trkpt>
      <trkpt lat="45.7409642" lon="7.0366230">
        <ele>1966</ele>
      </trkpt>
      <trkpt lat="45.7411442" lon="7.0365430">
        <ele>1973</ele>
      </trkpt>
      <trkpt lat="45.7411833" lon="7.0365501">
        <ele>1980</ele>
      </trkpt>
      <trkpt lat="45.7414742" lon="7.0366030">
        <ele>1987</ele>
      </trkpt>
      <trkpt lat="45.7415042" lon="7.0367930">
        <ele>1994</ele>
      </trkpt>
      <trkpt lat="45.7417542" lon="7.0365930">
        <ele>2001</ele>
      </trkpt>
      <trkpt lat="45.7418042" lon="7.0364830">
        <ele>2008</ele>
      </trkpt>
      <trkpt lat="45.7419142" lon="7.0364630">
        <ele>2015</ele>
      </trkpt>
      <trkpt lat="45.7420942" lon="7.0362930">
        <ele>2022</ele>
      </trkpt>
      <trkpt lat="45.7421542" lon="7.0363230">
        <ele>2029</ele>
      </trkpt>
      <trkpt lat="45.7422242" lon="7.0367530">
        <ele>2035</ele>
      </trkpt>
      <trkpt lat="45.7421942" lon="7.0368730">
        <ele>2042</ele>
      </trkpt>
      <trkpt lat="45.7421242" lon="7.0369530">
        <ele>2049</ele>
      </trkpt>
      <trkpt lat="45.7422190" lon="7.0372969">
        <ele>2056</ele>
      </trkpt>
      <trkpt lat="45.7422942" lon="7.0374330">
        <ele>2063</ele>
      </trkpt>
      <trkpt lat="45.7423042" lon="7.0376930">
        <ele>2070</ele>
      </trkpt>
      <trkpt lat="45.7424542" lon="7.0378730">
        <ele>2077</ele>
      </trkpt>
      <trkpt lat="45.7426742" lon="7.0376330">
        <ele>2084</ele>
      </trkpt>
      <trkpt lat="45.7429142" lon="7.0375130">
        <ele>2091</ele>
      </trkpt>
      <trkpt lat="45.7432482" lon="7.0373900">
        <ele>2098</ele>
      </trkpt>
      <trkpt lat="45.7432742" lon="7.0375630">
        <ele>2105</ele>
      </trkpt>
      <trkpt lat="45.7434842" lon="7.0377530">
        <ele>2112</ele>
      </trkpt>
      <trkpt lat="45.7435642" lon="7.0377330">
        <ele>2119</ele>
      </trkpt>
      <trkpt lat="45.7436942" lon="7.0377930">
        <ele>2126</ele>
      </trkpt>
      <trkpt lat="45.7435642" lon="7.0380030">
        <ele>2133</ele>
      </trkpt>
      <trkpt lat="45.7436742" lon="7.0381530">
        <ele>2140</ele>
      </trkpt>
      <trkpt lat="45.7439142" lon="7.0380930">
        <ele>2147</ele>
      </trkpt>
      <trkpt lat="45.7439542" lon="7.0379730">
        <ele>2154</ele>
      </trkpt>
      <trkpt lat="45.7441142" lon="7.0378730">
        <ele>2161</ele>
      </trkpt>
      <trkpt lat="45.7443842" lon="7.0376130">
        <ele>2168</ele>
      </trkpt>
      <trkpt lat="45.7445042" lon="7.0375930">
        <ele>2175</ele>
      </trkpt>
      <trkpt lat="45.7447842" lon="7.0372830">
        <ele>2182</ele>
      </trkpt>
      <trkpt lat="45.7447742" lon="7.0371830">
        <ele>2189</ele>
      </trkpt>
      <trkpt lat="45.7448685" lon="7.0370660">
        <ele>2196</ele>
      </trkpt>
      <trkpt lat="45.7450242" lon="7.0368730">
        <ele>2203</ele>
      </trkpt>
      <trkpt lat="45.7451342" lon="7.0367730">
        <ele>2210</ele>
      </trkpt>
      <trkpt lat="45.7452042" lon="7.0367530">
        <ele>2216</ele>
      </trkpt>
      <trkpt lat="45.7452942" lon="7.0366530">
        <ele>2223</ele>
      </trkpt>
      <trkpt lat="45.7453542" lon="7.0366330">
        <ele>2230</ele>
      </trkpt>
      <trkpt lat="45.7454742" lon="7.0364830">
        <ele>2237</ele>
      </trkpt>
      <trkpt lat="45.7455742" lon="7.0364230">
        <ele>2244</ele>
      </trkpt>
      <trkpt lat="45.7457142" lon="7.0364030">
        <ele>2251</ele>
      </trkpt>
      <trkpt lat="45.7459942" lon="7.0359730">
        <ele>2258</ele>
      </trkpt>
      <trkpt lat="45.7461842" lon="7.0358330">
        <ele>2265</ele>
      </trkpt>
      <trkpt lat="45.7462942" lon="7.0355530">
        <ele>2272</ele>
      </trkpt>
      <trkpt lat="45.7463042" lon="7.0354430">
        <ele>2279</ele>
      </trkpt>
      <trkpt lat="45.7463542" lon="7.0353930">
        <ele>2286</ele>
      </trkpt>
      <trkpt lat="45.7464142" lon="7.0350030">
        <ele>2293</ele>
      </trkpt>
      <trkpt lat="45.7467567" lon="7.0347595">
        <ele>2300</ele>
      </trkpt>
    </trkseg>
  </trk>
</gpx>
