<?xml version="1.0" encoding="UTF-8"?>
<gpx version="1.1" creator="sentieri-vda" xmlns="http://www.topografix.com/GPX/1/1">
  <metadata>
    <name>Blavy - Ru Joux</name>
    <desc>Catasto Sentieri VdA — 45_S11</desc>
    <author><name>Regione Autonoma Valle d'Aosta</name></author>
  </metadata>
  <trk>
    <name>Blavy - Ru Joux</name>
    <src>Catasto Sentieri VdA (45_S11)</src>
    <trkseg>
      <trkpt lat="45.7554218" lon="7.4679427">
        <ele>1074</ele>
      </trkpt>
      <trkpt lat="45.7555312" lon="7.4679093">
        <ele>1081</ele>
      </trkpt>
      <trkpt lat="45.7557352" lon="7.4679074">
        <ele>1088</ele>
      </trkpt>
      <trkpt lat="45.7557715" lon="7.4678878">
        <ele>1095</ele>
      </trkpt>
      <trkpt lat="45.7558265" lon="7.4678937">
        <ele>1102</ele>
      </trkpt>
      <trkpt lat="45.7559369" lon="7.4679355">
        <ele>1108</ele>
      </trkpt>
      <trkpt lat="45.7561002" lon="7.4684140">
        <ele>1115</ele>
      </trkpt>
      <trkpt lat="45.7567202" lon="7.4695540">
        <ele>1122</ele>
      </trkpt>
      <trkpt lat="45.7571502" lon="7.4698740">
        <ele>1129</ele>
      </trkpt>
      <trkpt lat="45.7576602" lon="7.4705640">
        <ele>1136</ele>
      </trkpt>
      <trkpt lat="45.7578714" lon="7.4707276">
        <ele>1143</ele>
      </trkpt>
      <trkpt lat="45.7587981" lon="7.4714452">
        <ele>1150</ele>
      </trkpt>
      <trkpt lat="45.7589902" lon="7.4715940">
        <ele>1157</ele>
      </trkpt>
      <trkpt lat="45.7595902" lon="7.4716340">
        <ele>1164</ele>
      </trkpt>
      <trkpt lat="45.7600762" lon="7.4715271">
        <ele>1170</ele>
      </trkpt>
      <trkpt lat="45.7600902" lon="7.4715240">
        <ele>1177</ele>
      </trkpt>
      <trkpt lat="45.7601302" lon="7.4713740">
        <ele>1184</ele>
      </trkpt>
      <trkpt lat="45.7605602" lon="7.4716340">
        <ele>1191</ele>
      </trkpt>
      <trkpt lat="45.7613730" lon="7.4713693">
        <ele>1198</ele>
      </trkpt>
      <trkpt lat="45.7614348" lon="7.4713363">
        <ele>1205</ele>
      </trkpt>
      <trkpt lat="45.7614764" lon="7.4712692">
        <ele>1212</ele>
      </trkpt>
      <trkpt lat="45.7615550" lon="7.4711909">
        <ele>1219</ele>
      </trkpt>
      <trkpt lat="45.7617085" lon="7.4711150">
        <ele>1226</ele>
      </trkpt>
      <trkpt lat="45.7617781" lon="7.4711158">
        <ele>1232</ele>
      </trkpt>
      <trkpt lat="45.7622502" lon="7.4707340">
        <ele>1239</ele>
      </trkpt>
      <trkpt lat="45.7624894" lon="7.4709390">
        <ele>1246</ele>
      </trkpt>
      <trkpt lat="45.7625302" lon="7.4709740">
        <ele>1253</ele>
      </trkpt>
      <trkpt lat="45.7642302" lon="7.4706440">
        <ele>1260</ele>
      </trkpt>
      <trkpt lat="45.7643624" lon="7.4707913">
        <ele>1267</ele>
      </trkpt>
      <trkpt lat="45.7645602" lon="7.4707730">
        <ele>1274</ele>
      </trkpt>
      <trkpt lat="45.7647161" lon="7.4708234">
        <ele>1281</ele>
      </trkpt>
      <trkpt lat="45.7648773" lon="7.4709315">
        <ele>1288</ele>
      </trkpt>
      <trkpt lat="45.7653143" lon="7.4712990">
        <ele>1294</ele>
      </trkpt>
      <trkpt lat="45.7657902" lon="7.4721740">
        <ele>1301</ele>
      </trkpt>
      <trkpt lat="45.7664202" lon="7.4729440">
        <ele>1308</ele>
      </trkpt>
      <trkpt lat="45.7671892" lon="7.4747040">
        <ele>1315</ele>
      </trkpt>
      <trkpt lat="45.7673512" lon="7.4748730">
        <ele>1322</ele>
      </trkpt>
      <trkpt lat="45.7675342" lon="7.4750740">
        <ele>1329</ele>
      </trkpt>
      <trkpt lat="45.7679082" lon="7.4761440">
        <ele>1336</ele>
      </trkpt>
      <trkpt lat="45.7679222" lon="7.4772240">
        <ele>1343</ele>
      </trkpt>
      <trkpt lat="45.7678792" lon="7.4776440">
        <ele>1350</ele>
      </trkpt>
      <trkpt lat="45.7678292" lon="7.4784340">
        <ele>1356</ele>
      </trkpt>
      <trkpt lat="45.7679592" lon="7.4789740">
        <ele>1363</ele>
      </trkpt>
      <trkpt lat="45.7685192" lon="7.4802840">
        <ele>1370</ele>
      </trkpt>
      <trkpt lat="45.7689292" lon="7.4817440">
        <ele>1377</ele>
      </trkpt>
      <trkpt lat="45.7696992" lon="7.4828540">
        <ele>1384</ele>
      </trkpt>
      <trkpt lat="45.7700192" lon="7.4842330">
        <ele>1391</ele>
      </trkpt>
      <trkpt lat="45.7708056" lon="7.4846944">
        <ele>1398</ele>
      </trkpt>
      <trkpt lat="45.7712256" lon="7.4853244">
        <ele>1405</ele>
      </trkpt>
      <trkpt lat="45.7722292" lon="7.4859730">
        <ele>1412</ele>
      </trkpt>
      <trkpt lat="45.7723592" lon="7.4861630">
        <ele>1418</ele>
      </trkpt>
      <trkpt lat="45.7722951" lon="7.4862346">
        <ele>1425</ele>
      </trkpt>
      <trkpt lat="45.7725431" lon="7.4862725">
        <ele>1432</ele>
      </trkpt>
      <trkpt lat="45.7727943" lon="7.4864038">
        <ele>1439</ele>
      </trkpt>
      <trkpt lat="45.7730192" lon="7.4865050">
        <ele>1446</ele>
      </trkpt>
      <trkpt lat="45.7732376" lon="7.4865808">
        <ele>1453</ele>
      </trkpt>
      <trkpt lat="45.7734203" lon="7.4865900">
        <ele>1460</ele>
      </trkpt>
      <trkpt lat="45.7736117" lon="7.4867701">
        <ele>1467</ele>
      </trkpt>
      <trkpt lat="45.7739224" lon="7.4871235">
        <ele>1474</ele>
      </trkpt>
      <trkpt lat="45.7739859" lon="7.4871587">
        <ele>1480</ele>
      </trkpt>
      <trkpt lat="45.7741075" lon="7.4871695">
        <ele>1487</ele>
      </trkpt>
      <trkpt lat="45.7743850" lon="7.4873915">
        <ele>1494</ele>
      </trkpt>
      <trkpt lat="45.7745661" lon="7.4874710">
        <ele>1501</ele>
      </trkpt>
      <trkpt lat="45.7746209" lon="7.4875326">
        <ele>1508</ele>
      </trkpt>
      <trkpt lat="45.7747011" lon="7.4878126">
        <ele>1515</ele>
      </trkpt>
      <trkpt lat="45.7748071" lon="7.4879991">
        <ele>1522</ele>
      </trkpt>
      <trkpt lat="45.7749444" lon="7.4881762">
        <ele>1529</ele>
      </trkpt>
      <trkpt lat="45.7751667" lon="7.4886477">
        <ele>1535</ele>
      </trkpt>
      <trkpt lat="45.7753318" lon="7.4889008">
        <ele>1542</ele>
      </trkpt>
      <trkpt lat="45.7754651" lon="7.4890955">
        <ele>1549</ele>
      </trkpt>
      <trkpt lat="45.7757282" lon="7.4895916">
        <ele>1556</ele>
      </trkpt>
      <trkpt lat="45.7759441" lon="7.4899230">
        <ele>1563</ele>
      </trkpt>
      <trkpt lat="45.7761222" lon="7.4901232">
        <ele>1570</ele>
      </trkpt>
      <trkpt lat="45.7763317" lon="7.4903105">
        <ele>1577</ele>
      </trkpt>
      <trkpt lat="45.7764087" lon="7.4903438">
        <ele>1584</ele>
      </trkpt>
      <trkpt lat="45.7765028" lon="7.4903167">
        <ele>1591</ele>
      </trkpt>
      <trkpt lat="45.7766994" lon="7.4902093">
        <ele>1597</ele>
      </trkpt>
      <trkpt lat="45.7765395" lon="7.4905291">
        <ele>1604</ele>
      </trkpt>
      <trkpt lat="45.7767392" lon="7.4906030">
        <ele>1611</ele>
      </trkpt>
      <trkpt lat="45.7771892" lon="7.4920630">
        <ele>1618</ele>
      </trkpt>
      <trkpt lat="45.7775992" lon="7.4924530">
        <ele>1625</ele>
      </trkpt>
      <trkpt lat="45.7780192" lon="7.4931130">
        <ele>1632</ele>
      </trkpt>
      <trkpt lat="45.7785992" lon="7.4932630">
        <ele>1639</ele>
      </trkpt>
      <trkpt lat="45.7786492" lon="7.4936330">
        <ele>1646</ele>
      </trkpt>
      <trkpt lat="45.7790992" lon="7.4943630">
        <ele>1653</ele>
      </trkpt>
      <trkpt lat="45.7797392" lon="7.4948730">
        <ele>1659</ele>
      </trkpt>
      <trkpt lat="45.7801892" lon="7.4958430">
        <ele>1666</ele>
      </trkpt>
      <trkpt lat="45.7808992" lon="7.4964830">
        <ele>1673</ele>
      </trkpt>
      <trkpt lat="45.7810142" lon="7.4979640">
        <ele>1680</ele>
      </trkpt>
      <trkpt lat="45.7811952" lon="7.4980100">
        <ele>1687</ele>
      </trkpt>
      <trkpt lat="45.7817592" lon="7.4982630">
        <ele>1694</ele>
      </trkpt>
      <trkpt lat="45.7823792" lon="7.4982630">
        <ele>1701</ele>
      </trkpt>
      <trkpt lat="45.7827422" lon="7.4979690">
        <ele>1708</ele>
      </trkpt>
      <trkpt lat="45.7830079" lon="7.4978266">
        <ele>1715</ele>
      </trkpt>
      <trkpt lat="45.7830694" lon="7.4978828">
        <ele>1721</ele>
      </trkpt>
      <trkpt lat="45.7830994" lon="7.4979431">
        <ele>1728</ele>
      </trkpt>
      <trkpt lat="45.7830147" lon="7.4980000">
        <ele>1735</ele>
      </trkpt>
      <trkpt lat="45.7828815" lon="7.4983091">
        <ele>1742</ele>
      </trkpt>
      <trkpt lat="45.7827579" lon="7.4984926">
        <ele>1749</ele>
      </trkpt>
      <trkpt lat="45.7825697" lon="7.4987259">
        <ele>1756</ele>
      </trkpt>
      <trkpt lat="45.7823798" lon="7.4988275">
        <ele>1763</ele>
      </trkpt>
      <trkpt lat="45.7814019" lon="7.4987283">
        <ele>1770</ele>
      </trkpt>
      <trkpt lat="45.7813099" lon="7.4987437">
        <ele>1777</ele>
      </trkpt>
      <trkpt lat="45.7812117" lon="7.4988074">
        <ele>1783</ele>
      </trkpt>
      <trkpt lat="45.7810771" lon="7.4988400">
        <ele>1790</ele>
      </trkpt>
      <trkpt lat="45.7810170" lon="7.4988866">
        <ele>1797</ele>
      </trkpt>
      <trkpt lat="45.7809751" lon="7.4989521">
        <ele>1804</ele>
      </trkpt>
      <trkpt lat="45.7808771" lon="7.4991991">
        <ele>1811</ele>
      </trkpt>
      <trkpt lat="45.7807998" lon="7.4993137">
        <ele>1818</ele>
      </trkpt>
      <trkpt lat="45.7806929" lon="7.4993938">
        <ele>1825</ele>
      </trkpt>
      <trkpt lat="45.7805698" lon="7.4994421">
        <ele>1832</ele>
      </trkpt>
      <trkpt lat="45.7804965" lon="7.4995148">
        <ele>1839</ele>
      </trkpt>
      <trkpt lat="45.7803571" lon="7.4995282">
        <ele>1845</ele>
      </trkpt>
      <trkpt lat="45.7802743" lon="7.4995626">
        <ele>1852</ele>
      </trkpt>
      <trkpt lat="45.7801655" lon="7.4996716">
        <ele>1859</ele>
      </trkpt>
      <trkpt lat="45.7797592" lon="7.5007330">
        <ele>1866</ele>
      </trkpt>
      <trkpt lat="45.7795062" lon="7.5009890">
        <ele>1873</ele>
      </trkpt>
    </trkseg>
  </trk>
</gpx>
