<?xml version="1.0" encoding="UTF-8"?>
<gpx version="1.1" creator="sentieri-vda" xmlns="http://www.topografix.com/GPX/1/1">
  <metadata>
    <name>Praz - Fenetre de Tsan</name>
    <desc>Catasto Sentieri VdA — 45_S36</desc>
    <author><name>Regione Autonoma Valle d'Aosta</name></author>
  </metadata>
  <trk>
    <name>Praz - Fenetre de Tsan</name>
    <src>Catasto Sentieri VdA (45_S36)</src>
    <trkseg>
      <trkpt lat="45.8089422" lon="7.5201956">
        <ele>1761</ele>
      </trkpt>
      <trkpt lat="45.8089443" lon="7.5203597">
        <ele>1765</ele>
      </trkpt>
      <trkpt lat="45.8089736" lon="7.5205391">
        <ele>1769</ele>
      </trkpt>
      <trkpt lat="45.8090438" lon="7.5207464">
        <ele>1774</ele>
      </trkpt>
      <trkpt lat="45.8091477" lon="7.5209463">
        <ele>1778</ele>
      </trkpt>
      <trkpt lat="45.8093193" lon="7.5211670">
        <ele>1782</ele>
      </trkpt>
      <trkpt lat="45.8095521" lon="7.5214215">
        <ele>1786</ele>
      </trkpt>
      <trkpt lat="45.8097020" lon="7.5215301">
        <ele>1791</ele>
      </trkpt>
      <trkpt lat="45.8099076" lon="7.5215954">
        <ele>1795</ele>
      </trkpt>
      <trkpt lat="45.8108005" lon="7.5217359">
        <ele>1799</ele>
      </trkpt>
      <trkpt lat="45.8109974" lon="7.5218272">
        <ele>1803</ele>
      </trkpt>
      <trkpt lat="45.8114751" lon="7.5220527">
        <ele>1808</ele>
      </trkpt>
      <trkpt lat="45.8116410" lon="7.5221770">
        <ele>1812</ele>
      </trkpt>
      <trkpt lat="45.8118561" lon="7.5222872">
        <ele>1816</ele>
      </trkpt>
      <trkpt lat="45.8121683" lon="7.5225878">
        <ele>1820</ele>
      </trkpt>
      <trkpt lat="45.8127775" lon="7.5230672">
        <ele>1824</ele>
      </trkpt>
      <trkpt lat="45.8130968" lon="7.5232197">
        <ele>1829</ele>
      </trkpt>
      <trkpt lat="45.8134329" lon="7.5232848">
        <ele>1833</ele>
      </trkpt>
      <trkpt lat="45.8139278" lon="7.5234551">
        <ele>1837</ele>
      </trkpt>
      <trkpt lat="45.8142273" lon="7.5236435">
        <ele>1841</ele>
      </trkpt>
      <trkpt lat="45.8143424" lon="7.5236694">
        <ele>1846</ele>
      </trkpt>
      <trkpt lat="45.8148528" lon="7.5236430">
        <ele>1850</ele>
      </trkpt>
      <trkpt lat="45.8151600" lon="7.5235609">
        <ele>1854</ele>
      </trkpt>
      <trkpt lat="45.8152583" lon="7.5235068">
        <ele>1858</ele>
      </trkpt>
      <trkpt lat="45.8158523" lon="7.5233990">
        <ele>1863</ele>
      </trkpt>
      <trkpt lat="45.8166943" lon="7.5236490">
        <ele>1867</ele>
      </trkpt>
      <trkpt lat="45.8172313" lon="7.5239620">
        <ele>1871</ele>
      </trkpt>
      <trkpt lat="45.8181823" lon="7.5238550">
        <ele>1875</ele>
      </trkpt>
      <trkpt lat="45.8189043" lon="7.5236450">
        <ele>1879</ele>
      </trkpt>
      <trkpt lat="45.8190153" lon="7.5233960">
        <ele>1884</ele>
      </trkpt>
      <trkpt lat="45.8191473" lon="7.5233380">
        <ele>1888</ele>
      </trkpt>
      <trkpt lat="45.8192623" lon="7.5233620">
        <ele>1892</ele>
      </trkpt>
      <trkpt lat="45.8196093" lon="7.5236800">
        <ele>1896</ele>
      </trkpt>
      <trkpt lat="45.8197993" lon="7.5236480">
        <ele>1901</ele>
      </trkpt>
      <trkpt lat="45.8199123" lon="7.5235360">
        <ele>1905</ele>
      </trkpt>
      <trkpt lat="45.8199493" lon="7.5234260">
        <ele>1909</ele>
      </trkpt>
      <trkpt lat="45.8201813" lon="7.5237470">
        <ele>1913</ele>
      </trkpt>
      <trkpt lat="45.8210573" lon="7.5236960">
        <ele>1917</ele>
      </trkpt>
      <trkpt lat="45.8215093" lon="7.5232750">
        <ele>1922</ele>
      </trkpt>
      <trkpt lat="45.8220023" lon="7.5231250">
        <ele>1926</ele>
      </trkpt>
      <trkpt lat="45.8222133" lon="7.5231740">
        <ele>1930</ele>
      </trkpt>
      <trkpt lat="45.8225003" lon="7.5232760">
        <ele>1934</ele>
      </trkpt>
      <trkpt lat="45.8230323" lon="7.5231520">
        <ele>1939</ele>
      </trkpt>
      <trkpt lat="45.8231663" lon="7.5232030">
        <ele>1943</ele>
      </trkpt>
      <trkpt lat="45.8233204" lon="7.5232963">
        <ele>1947</ele>
      </trkpt>
      <trkpt lat="45.8234801" lon="7.5235019">
        <ele>1951</ele>
      </trkpt>
      <trkpt lat="45.8238611" lon="7.5240775">
        <ele>1956</ele>
      </trkpt>
      <trkpt lat="45.8238960" lon="7.5241635">
        <ele>1960</ele>
      </trkpt>
      <trkpt lat="45.8239444" lon="7.5244326">
        <ele>1964</ele>
      </trkpt>
      <trkpt lat="45.8240043" lon="7.5245372">
        <ele>1968</ele>
      </trkpt>
      <trkpt lat="45.8241233" lon="7.5246885">
        <ele>1972</ele>
      </trkpt>
      <trkpt lat="45.8241801" lon="7.5247353">
        <ele>1977</ele>
      </trkpt>
      <trkpt lat="45.8242343" lon="7.5247500">
        <ele>1981</ele>
      </trkpt>
      <trkpt lat="45.8242814" lon="7.5247358">
        <ele>1985</ele>
      </trkpt>
      <trkpt lat="45.8243773" lon="7.5246722">
        <ele>1989</ele>
      </trkpt>
      <trkpt lat="45.8246723" lon="7.5247440">
        <ele>1994</ele>
      </trkpt>
      <trkpt lat="45.8253463" lon="7.5253260">
        <ele>1998</ele>
      </trkpt>
      <trkpt lat="45.8256393" lon="7.5258630">
        <ele>2002</ele>
      </trkpt>
      <trkpt lat="45.8261563" lon="7.5260950">
        <ele>2006</ele>
      </trkpt>
      <trkpt lat="45.8265823" lon="7.5266290">
        <ele>2011</ele>
      </trkpt>
      <trkpt lat="45.8274473" lon="7.5272330">
        <ele>2015</ele>
      </trkpt>
      <trkpt lat="45.8287223" lon="7.5270890">
        <ele>2019</ele>
      </trkpt>
      <trkpt lat="45.8290803" lon="7.5268070">
        <ele>2023</ele>
      </trkpt>
      <trkpt lat="45.8296243" lon="7.5261110">
        <ele>2027</ele>
      </trkpt>
      <trkpt lat="45.8299813" lon="7.5257200">
        <ele>2032</ele>
      </trkpt>
      <trkpt lat="45.8305503" lon="7.5256195">
        <ele>2036</ele>
      </trkpt>
      <trkpt lat="45.8307095" lon="7.5259243">
        <ele>2040</ele>
      </trkpt>
      <trkpt lat="45.8307485" lon="7.5259812">
        <ele>2044</ele>
      </trkpt>
      <trkpt lat="45.8308531" lon="7.5260686">
        <ele>2049</ele>
      </trkpt>
      <trkpt lat="45.8310103" lon="7.5257200">
        <ele>2053</ele>
      </trkpt>
      <trkpt lat="45.8311983" lon="7.5255780">
        <ele>2057</ele>
      </trkpt>
      <trkpt lat="45.8314643" lon="7.5254890">
        <ele>2061</ele>
      </trkpt>
      <trkpt lat="45.8316913" lon="7.5253740">
        <ele>2066</ele>
      </trkpt>
      <trkpt lat="45.8318193" lon="7.5249890">
        <ele>2070</ele>
      </trkpt>
      <trkpt lat="45.8320053" lon="7.5245750">
        <ele>2074</ele>
      </trkpt>
      <trkpt lat="45.8320963" lon="7.5242730">
        <ele>2078</ele>
      </trkpt>
      <trkpt lat="45.8320543" lon="7.5239470">
        <ele>2082</ele>
      </trkpt>
      <trkpt lat="45.8321093" lon="7.5237820">
        <ele>2087</ele>
      </trkpt>
      <trkpt lat="45.8321053" lon="7.5234820">
        <ele>2091</ele>
      </trkpt>
      <trkpt lat="45.8323083" lon="7.5229860">
        <ele>2095</ele>
      </trkpt>
      <trkpt lat="45.8326303" lon="7.5228410">
        <ele>2099</ele>
      </trkpt>
      <trkpt lat="45.8329113" lon="7.5225060">
        <ele>2104</ele>
      </trkpt>
      <trkpt lat="45.8331193" lon="7.5223920">
        <ele>2108</ele>
      </trkpt>
      <trkpt lat="45.8332683" lon="7.5221150">
        <ele>2112</ele>
      </trkpt>
      <trkpt lat="45.8335693" lon="7.5218340">
        <ele>2116</ele>
      </trkpt>
      <trkpt lat="45.8338523" lon="7.5216090">
        <ele>2121</ele>
      </trkpt>
      <trkpt lat="45.8348793" lon="7.5214170">
        <ele>2125</ele>
      </trkpt>
      <trkpt lat="45.8354093" lon="7.5211850">
        <ele>2129</ele>
      </trkpt>
      <trkpt lat="45.8358763" lon="7.5204360">
        <ele>2133</ele>
      </trkpt>
      <trkpt lat="45.8375593" lon="7.5180190">
        <ele>2137</ele>
      </trkpt>
      <trkpt lat="45.8378883" lon="7.5169200">
        <ele>2142</ele>
      </trkpt>
      <trkpt lat="45.8387093" lon="7.5156430">
        <ele>2146</ele>
      </trkpt>
      <trkpt lat="45.8387179" lon="7.5156149">
        <ele>2150</ele>
      </trkpt>
      <trkpt lat="45.8394593" lon="7.5131960">
        <ele>2154</ele>
      </trkpt>
      <trkpt lat="45.8406226" lon="7.5112818">
        <ele>2159</ele>
      </trkpt>
      <trkpt lat="45.8406812" lon="7.5109486">
        <ele>2163</ele>
      </trkpt>
      <trkpt lat="45.8406905" lon="7.5106264">
        <ele>2167</ele>
      </trkpt>
      <trkpt lat="45.8406799" lon="7.5105012">
        <ele>2171</ele>
      </trkpt>
      <trkpt lat="45.8406005" lon="7.5101073">
        <ele>2175</ele>
      </trkpt>
      <trkpt lat="45.8405969" lon="7.5100044">
        <ele>2180</ele>
      </trkpt>
      <trkpt lat="45.8406872" lon="7.5096832">
        <ele>2184</ele>
      </trkpt>
      <trkpt lat="45.8407231" lon="7.5095849">
        <ele>2188</ele>
      </trkpt>
      <trkpt lat="45.8408011" lon="7.5094388">
        <ele>2192</ele>
      </trkpt>
      <trkpt lat="45.8408614" lon="7.5094050">
        <ele>2197</ele>
      </trkpt>
      <trkpt lat="45.8420812" lon="7.5094271">
        <ele>2201</ele>
      </trkpt>
      <trkpt lat="45.8423949" lon="7.5093254">
        <ele>2205</ele>
      </trkpt>
      <trkpt lat="45.8425768" lon="7.5092980">
        <ele>2209</ele>
      </trkpt>
      <trkpt lat="45.8431018" lon="7.5093516">
        <ele>2214</ele>
      </trkpt>
      <trkpt lat="45.8434636" lon="7.5093193">
        <ele>2218</ele>
      </trkpt>
      <trkpt lat="45.8437454" lon="7.5093633">
        <ele>2222</ele>
      </trkpt>
      <trkpt lat="45.8440313" lon="7.5093686">
        <ele>2226</ele>
      </trkpt>
      <trkpt lat="45.8442465" lon="7.5094819">
        <ele>2230</ele>
      </trkpt>
      <trkpt lat="45.8444138" lon="7.5095419">
        <ele>2235</ele>
      </trkpt>
      <trkpt lat="45.8445670" lon="7.5095571">
        <ele>2239</ele>
      </trkpt>
      <trkpt lat="45.8446385" lon="7.5095166">
        <ele>2243</ele>
      </trkpt>
      <trkpt lat="45.8446503" lon="7.5095380">
        <ele>2247</ele>
      </trkpt>
      <trkpt lat="45.8452443" lon="7.5097950">
        <ele>2252</ele>
      </trkpt>
      <trkpt lat="45.8457563" lon="7.5095630">
        <ele>2256</ele>
      </trkpt>
      <trkpt lat="45.8464823" lon="7.5097610">
        <ele>2260</ele>
      </trkpt>
      <trkpt lat="45.8473643" lon="7.5101740">
        <ele>2264</ele>
      </trkpt>
      <trkpt lat="45.8480333" lon="7.5103200">
        <ele>2269</ele>
      </trkpt>
      <trkpt lat="45.8484913" lon="7.5103890">
        <ele>2273</ele>
      </trkpt>
      <trkpt lat="45.8494133" lon="7.5109370">
        <ele>2277</ele>
      </trkpt>
      <trkpt lat="45.8501763" lon="7.5110250">
        <ele>2281</ele>
      </trkpt>
      <trkpt lat="45.8514873" lon="7.5121900">
        <ele>2285</ele>
      </trkpt>
      <trkpt lat="45.8524773" lon="7.5140540">
        <ele>2290</ele>
      </trkpt>
      <trkpt lat="45.8537673" lon="7.5155340">
        <ele>2294</ele>
      </trkpt>
      <trkpt lat="45.8542563" lon="7.5156610">
        <ele>2298</ele>
      </trkpt>
      <trkpt lat="45.8547443" lon="7.5165480">
        <ele>2302</ele>
      </trkpt>
      <trkpt lat="45.8551863" lon="7.5168360">
        <ele>2307</ele>
      </trkpt>
      <trkpt lat="45.8557043" lon="7.5170950">
        <ele>2311</ele>
      </trkpt>
      <trkpt lat="45.8558603" lon="7.5173910">
        <ele>2315</ele>
      </trkpt>
      <trkpt lat="45.8560873" lon="7.5175740">
        <ele>2319</ele>
      </trkpt>
      <trkpt lat="45.8572473" lon="7.5179440">
        <ele>2324</ele>
      </trkpt>
      <trkpt lat="45.8580483" lon="7.5186410">
        <ele>2328</ele>
      </trkpt>
      <trkpt lat="45.8583573" lon="7.5190340">
        <ele>2332</ele>
      </trkpt>
      <trkpt lat="45.8587073" lon="7.5192040">
        <ele>2336</ele>
      </trkpt>
      <trkpt lat="45.8596713" lon="7.5189250">
        <ele>2340</ele>
      </trkpt>
      <trkpt lat="45.8599423" lon="7.5192170">
        <ele>2345</ele>
      </trkpt>
      <trkpt lat="45.8604943" lon="7.5191750">
        <ele>2349</ele>
      </trkpt>
      <trkpt lat="45.8612153" lon="7.5189650">
        <ele>2353</ele>
      </trkpt>
      <trkpt lat="45.8615183" lon="7.5188480">
        <ele>2357</ele>
      </trkpt>
      <trkpt lat="45.8618423" lon="7.5188120">
        <ele>2362</ele>
      </trkpt>
      <trkpt lat="45.8615893" lon="7.5198820">
        <ele>2366</ele>
      </trkpt>
      <trkpt lat="45.8615243" lon="7.5207840">
        <ele>2370</ele>
      </trkpt>
      <trkpt lat="45.8615903" lon="7.5214370">
        <ele>2374</ele>
      </trkpt>
      <trkpt lat="45.8618683" lon="7.5223300">
        <ele>2378</ele>
      </trkpt>
      <trkpt lat="45.8623323" lon="7.5228090">
        <ele>2383</ele>
      </trkpt>
      <trkpt lat="45.8624883" lon="7.5230150">
        <ele>2387</ele>
      </trkpt>
      <trkpt lat="45.8624183" lon="7.5231100">
        <ele>2391</ele>
      </trkpt>
      <trkpt lat="45.8623883" lon="7.5232000">
        <ele>2395</ele>
      </trkpt>
      <trkpt lat="45.8622783" lon="7.5237100">
        <ele>2400</ele>
      </trkpt>
      <trkpt lat="45.8622083" lon="7.5237800">
        <ele>2404</ele>
      </trkpt>
      <trkpt lat="45.8622083" lon="7.5238400">
        <ele>2408</ele>
      </trkpt>
      <trkpt lat="45.8622283" lon="7.5239000">
        <ele>2412</ele>
      </trkpt>
      <trkpt lat="45.8622083" lon="7.5239200">
        <ele>2417</ele>
      </trkpt>
      <trkpt lat="45.8621883" lon="7.5240300">
        <ele>2421</ele>
      </trkpt>
      <trkpt lat="45.8621283" lon="7.5241000">
        <ele>2425</ele>
      </trkpt>
      <trkpt lat="45.8620483" lon="7.5243000">
        <ele>2429</ele>
      </trkpt>
      <trkpt lat="45.8619983" lon="7.5243600">
        <ele>2433</ele>
      </trkpt>
      <trkpt lat="45.8619883" lon="7.5244100">
        <ele>2438</ele>
      </trkpt>
      <trkpt lat="45.8619183" lon="7.5244900">
        <ele>2442</ele>
      </trkpt>
      <trkpt lat="45.8618883" lon="7.5245500">
        <ele>2446</ele>
      </trkpt>
      <trkpt lat="45.8618783" lon="7.5246400">
        <ele>2450</ele>
      </trkpt>
      <trkpt lat="45.8618383" lon="7.5246600">
        <ele>2455</ele>
      </trkpt>
      <trkpt lat="45.8618083" lon="7.5247200">
        <ele>2459</ele>
      </trkpt>
      <trkpt lat="45.8618583" lon="7.5247600">
        <ele>2463</ele>
      </trkpt>
      <trkpt lat="45.8618483" lon="7.5247900">
        <ele>2467</ele>
      </trkpt>
      <trkpt lat="45.8618083" lon="7.5248200">
        <ele>2472</ele>
      </trkpt>
      <trkpt lat="45.8618683" lon="7.5248700">
        <ele>2476</ele>
      </trkpt>
      <trkpt lat="45.8618183" lon="7.5249000">
        <ele>2480</ele>
      </trkpt>
      <trkpt lat="45.8617983" lon="7.5249400">
        <ele>2484</ele>
      </trkpt>
      <trkpt lat="45.8618583" lon="7.5250000">
        <ele>2488</ele>
      </trkpt>
      <trkpt lat="45.8618183" lon="7.5250800">
        <ele>2493</ele>
      </trkpt>
      <trkpt lat="45.8618683" lon="7.5251300">
        <ele>2497</ele>
      </trkpt>
      <trkpt lat="45.8618483" lon="7.5251600">
        <ele>2501</ele>
      </trkpt>
      <trkpt lat="45.8618483" lon="7.5252000">
        <ele>2505</ele>
      </trkpt>
      <trkpt lat="45.8618683" lon="7.5252200">
        <ele>2510</ele>
      </trkpt>
      <trkpt lat="45.8618383" lon="7.5252600">
        <ele>2514</ele>
      </trkpt>
      <trkpt lat="45.8618483" lon="7.5253000">
        <ele>2518</ele>
      </trkpt>
      <trkpt lat="45.8618983" lon="7.5253400">
        <ele>2522</ele>
      </trkpt>
      <trkpt lat="45.8618883" lon="7.5253900">
        <ele>2527</ele>
      </trkpt>
      <trkpt lat="45.8618283" lon="7.5255100">
        <ele>2531</ele>
      </trkpt>
      <trkpt lat="45.8617483" lon="7.5256300">
        <ele>2535</ele>
      </trkpt>
      <trkpt lat="45.8617883" lon="7.5256800">
        <ele>2539</ele>
      </trkpt>
      <trkpt lat="45.8617683" lon="7.5257100">
        <ele>2543</ele>
      </trkpt>
      <trkpt lat="45.8617783" lon="7.5257900">
        <ele>2548</ele>
      </trkpt>
      <trkpt lat="45.8619383" lon="7.5258200">
        <ele>2552</ele>
      </trkpt>
      <trkpt lat="45.8620083" lon="7.5258000">
        <ele>2556</ele>
      </trkpt>
      <trkpt lat="45.8620283" lon="7.5258200">
        <ele>2560</ele>
      </trkpt>
      <trkpt lat="45.8620083" lon="7.5258500">
        <ele>2565</ele>
      </trkpt>
      <trkpt lat="45.8620183" lon="7.5259000">
        <ele>2569</ele>
      </trkpt>
      <trkpt lat="45.8619483" lon="7.5260600">
        <ele>2573</ele>
      </trkpt>
      <trkpt lat="45.8619383" lon="7.5261200">
        <ele>2577</ele>
      </trkpt>
      <trkpt lat="45.8618883" lon="7.5261700">
        <ele>2582</ele>
      </trkpt>
      <trkpt lat="45.8618883" lon="7.5262300">
        <ele>2586</ele>
      </trkpt>
      <trkpt lat="45.8618383" lon="7.5263600">
        <ele>2590</ele>
      </trkpt>
      <trkpt lat="45.8617583" lon="7.5263700">
        <ele>2594</ele>
      </trkpt>
      <trkpt lat="45.8617483" lon="7.5264301">
        <ele>2598</ele>
      </trkpt>
      <trkpt lat="45.8617683" lon="7.5264701">
        <ele>2603</ele>
      </trkpt>
      <trkpt lat="45.8619083" lon="7.5266501">
        <ele>2607</ele>
      </trkpt>
      <trkpt lat="45.8618283" lon="7.5267601">
        <ele>2611</ele>
      </trkpt>
      <trkpt lat="45.8617483" lon="7.5267801">
        <ele>2615</ele>
      </trkpt>
      <trkpt lat="45.8617583" lon="7.5268600">
        <ele>2620</ele>
      </trkpt>
      <trkpt lat="45.8617283" lon="7.5268700">
        <ele>2624</ele>
      </trkpt>
      <trkpt lat="45.8617983" lon="7.5270600">
        <ele>2628</ele>
      </trkpt>
      <trkpt lat="45.8617983" lon="7.5271000">
        <ele>2632</ele>
      </trkpt>
      <trkpt lat="45.8617583" lon="7.5271000">
        <ele>2636</ele>
      </trkpt>
      <trkpt lat="45.8617383" lon="7.5271400">
        <ele>2641</ele>
      </trkpt>
      <trkpt lat="45.8617383" lon="7.5272000">
        <ele>2645</ele>
      </trkpt>
      <trkpt lat="45.8617083" lon="7.5272500">
        <ele>2649</ele>
      </trkpt>
      <trkpt lat="45.8617283" lon="7.5273000">
        <ele>2653</ele>
      </trkpt>
      <trkpt lat="45.8617383" lon="7.5274100">
        <ele>2658</ele>
      </trkpt>
      <trkpt lat="45.8616483" lon="7.5275300">
        <ele>2662</ele>
      </trkpt>
      <trkpt lat="45.8616283" lon="7.5276000">
        <ele>2666</ele>
      </trkpt>
      <trkpt lat="45.8615883" lon="7.5276200">
        <ele>2670</ele>
      </trkpt>
      <trkpt lat="45.8615683" lon="7.5276700">
        <ele>2675</ele>
      </trkpt>
      <trkpt lat="45.8615783" lon="7.5277200">
        <ele>2679</ele>
      </trkpt>
      <trkpt lat="45.8616583" lon="7.5277800">
        <ele>2683</ele>
      </trkpt>
      <trkpt lat="45.8617283" lon="7.5278000">
        <ele>2687</ele>
      </trkpt>
      <trkpt lat="45.8618283" lon="7.5279400">
        <ele>2691</ele>
      </trkpt>
      <trkpt lat="45.8619083" lon="7.5280200">
        <ele>2696</ele>
      </trkpt>
      <trkpt lat="45.8619483" lon="7.5280000">
        <ele>2700</ele>
      </trkpt>
      <trkpt lat="45.8619683" lon="7.5280100">
        <ele>2704</ele>
      </trkpt>
      <trkpt lat="45.8619783" lon="7.5279800">
        <ele>2708</ele>
      </trkpt>
      <trkpt lat="45.8619883" lon="7.5280000">
        <ele>2713</ele>
      </trkpt>
      <trkpt lat="45.8619983" lon="7.5280500">
        <ele>2717</ele>
      </trkpt>
      <trkpt lat="45.8619883" lon="7.5280500">
        <ele>2721</ele>
      </trkpt>
      <trkpt lat="45.8619783" lon="7.5281100">
        <ele>2725</ele>
      </trkpt>
      <trkpt lat="45.8619783" lon="7.5281900">
        <ele>2730</ele>
      </trkpt>
      <trkpt lat="45.8619383" lon="7.5282900">
        <ele>2734</ele>
      </trkpt>
      <trkpt lat="45.8619183" lon="7.5283900">
        <ele>2738</ele>
      </trkpt>
    </trkseg>
  </trk>
</gpx>
