<?xml version="1.0" encoding="UTF-8"?>
<gpx version="1.1" creator="sentieri-vda" xmlns="http://www.topografix.com/GPX/1/1">
  <metadata>
    <name>Lignan - Arlod</name>
    <desc>Catasto Sentieri VdA — 45_S16</desc>
    <author><name>Regione Autonoma Valle d'Aosta</name></author>
  </metadata>
  <trk>
    <name>Lignan - Arlod</name>
    <src>Catasto Sentieri VdA (45_S16)</src>
    <trkseg>
      <trkpt lat="45.7823021" lon="7.4702462">
        <ele>1627</ele>
      </trkpt>
      <trkpt lat="45.7821892" lon="7.4706440">
        <ele>1626</ele>
      </trkpt>
      <trkpt lat="45.7836492" lon="7.4710340">
        <ele>1625</ele>
      </trkpt>
      <trkpt lat="45.7840492" lon="7.4709740">
        <ele>1624</ele>
      </trkpt>
      <trkpt lat="45.7848492" lon="7.4702440">
        <ele>1623</ele>
      </trkpt>
      <trkpt lat="45.7861092" lon="7.4700440">
        <ele>1622</ele>
      </trkpt>
      <trkpt lat="45.7872492" lon="7.4692740">
        <ele>1621</ele>
      </trkpt>
      <trkpt lat="45.7876592" lon="7.4691940">
        <ele>1620</ele>
      </trkpt>
      <trkpt lat="45.7879592" lon="7.4685840">
        <ele>1618</ele>
      </trkpt>
      <trkpt lat="45.7882592" lon="7.4690140">
        <ele>1617</ele>
      </trkpt>
      <trkpt lat="45.7883492" lon="7.4695540">
        <ele>1616</ele>
      </trkpt>
      <trkpt lat="45.7887492" lon="7.4699140">
        <ele>1615</ele>
      </trkpt>
      <trkpt lat="45.7896092" lon="7.4699140">
        <ele>1614</ele>
      </trkpt>
      <trkpt lat="45.7899092" lon="7.4703040">
        <ele>1613</ele>
      </trkpt>
      <trkpt lat="45.7901092" lon="7.4703240">
        <ele>1612</ele>
      </trkpt>
      <trkpt lat="45.7908592" lon="7.4700740">
        <ele>1611</ele>
      </trkpt>
      <trkpt lat="45.7911592" lon="7.4704740">
        <ele>1610</ele>
      </trkpt>
      <trkpt lat="45.7920592" lon="7.4706940">
        <ele>1609</ele>
      </trkpt>
      <trkpt lat="45.7919492" lon="7.4711640">
        <ele>1608</ele>
      </trkpt>
      <trkpt lat="45.7912192" lon="7.4722340">
        <ele>1607</ele>
      </trkpt>
      <trkpt lat="45.7899592" lon="7.4733340">
        <ele>1606</ele>
      </trkpt>
      <trkpt lat="45.7892892" lon="7.4727340">
        <ele>1605</ele>
      </trkpt>
      <trkpt lat="45.7888592" lon="7.4729640">
        <ele>1603</ele>
      </trkpt>
      <trkpt lat="45.7887092" lon="7.4733140">
        <ele>1602</ele>
      </trkpt>
      <trkpt lat="45.7885792" lon="7.4736740">
        <ele>1601</ele>
      </trkpt>
      <trkpt lat="45.7886892" lon="7.4741240">
        <ele>1600</ele>
      </trkpt>
      <trkpt lat="45.7885192" lon="7.4746640">
        <ele>1599</ele>
      </trkpt>
      <trkpt lat="45.7888392" lon="7.4754940">
        <ele>1598</ele>
      </trkpt>
      <trkpt lat="45.7888392" lon="7.4760940">
        <ele>1597</ele>
      </trkpt>
      <trkpt lat="45.7893792" lon="7.4765040">
        <ele>1596</ele>
      </trkpt>
      <trkpt lat="45.7898292" lon="7.4765540">
        <ele>1595</ele>
      </trkpt>
      <trkpt lat="45.7899761" lon="7.4764724">
        <ele>1594</ele>
      </trkpt>
      <trkpt lat="45.7899869" lon="7.4764886">
        <ele>1593</ele>
      </trkpt>
      <trkpt lat="45.7904092" lon="7.4767440">
        <ele>1592</ele>
      </trkpt>
      <trkpt lat="45.7900392" lon="7.4775840">
        <ele>1591</ele>
      </trkpt>
      <trkpt lat="45.7900792" lon="7.4785640">
        <ele>1590</ele>
      </trkpt>
      <trkpt lat="45.7904292" lon="7.4786140">
        <ele>1588</ele>
      </trkpt>
      <trkpt lat="45.7904092" lon="7.4790140">
        <ele>1587</ele>
      </trkpt>
      <trkpt lat="45.7901104" lon="7.4798022">
        <ele>1586</ele>
      </trkpt>
      <trkpt lat="45.7899605" lon="7.4799495">
        <ele>1585</ele>
      </trkpt>
      <trkpt lat="45.7898306" lon="7.4799905">
        <ele>1584</ele>
      </trkpt>
      <trkpt lat="45.7897317" lon="7.4799980">
        <ele>1583</ele>
      </trkpt>
      <trkpt lat="45.7890226" lon="7.4798038">
        <ele>1582</ele>
      </trkpt>
      <trkpt lat="45.7887883" lon="7.4797844">
        <ele>1581</ele>
      </trkpt>
      <trkpt lat="45.7885285" lon="7.4798743">
        <ele>1580</ele>
      </trkpt>
      <trkpt lat="45.7882677" lon="7.4798894">
        <ele>1579</ele>
      </trkpt>
      <trkpt lat="45.7881511" lon="7.4799248">
        <ele>1578</ele>
      </trkpt>
      <trkpt lat="45.7880171" lon="7.4799980">
        <ele>1577</ele>
      </trkpt>
      <trkpt lat="45.7878035" lon="7.4801835">
        <ele>1576</ele>
      </trkpt>
      <trkpt lat="45.7875138" lon="7.4803306">
        <ele>1575</ele>
      </trkpt>
      <trkpt lat="45.7875122" lon="7.4804992">
        <ele>1573</ele>
      </trkpt>
      <trkpt lat="45.7873806" lon="7.4805918">
        <ele>1572</ele>
      </trkpt>
      <trkpt lat="45.7871784" lon="7.4805816">
        <ele>1571</ele>
      </trkpt>
      <trkpt lat="45.7869783" lon="7.4808079">
        <ele>1570</ele>
      </trkpt>
      <trkpt lat="45.7869243" lon="7.4807791">
        <ele>1569</ele>
      </trkpt>
      <trkpt lat="45.7868851" lon="7.4807303">
        <ele>1568</ele>
      </trkpt>
      <trkpt lat="45.7868207" lon="7.4808548">
        <ele>1567</ele>
      </trkpt>
    </trkseg>
  </trk>
</gpx>
