<?xml version="1.0" encoding="UTF-8"?>
<gpx version="1.1" creator="sentieri-vda" xmlns="http://www.topografix.com/GPX/1/1">
  <metadata>
    <name>Lignan - Rifugio Oratorio Cunéy</name>
    <desc>Catasto Sentieri VdA — 45_S19</desc>
    <author><name>Regione Autonoma Valle d'Aosta</name></author>
  </metadata>
  <trk>
    <name>Lignan - Rifugio Oratorio Cunéy</name>
    <src>Catasto Sentieri VdA (45_S19)</src>
    <trkseg>
      <trkpt lat="45.7868207" lon="7.4808548">
        <ele>1627</ele>
      </trkpt>
      <trkpt lat="45.7868851" lon="7.4807303">
        <ele>1629</ele>
      </trkpt>
      <trkpt lat="45.7869243" lon="7.4807791">
        <ele>1631</ele>
      </trkpt>
      <trkpt lat="45.7869783" lon="7.4808079">
        <ele>1634</ele>
      </trkpt>
      <trkpt lat="45.7871784" lon="7.4805816">
        <ele>1636</ele>
      </trkpt>
      <trkpt lat="45.7873806" lon="7.4805918">
        <ele>1638</ele>
      </trkpt>
      <trkpt lat="45.7875122" lon="7.4804992">
        <ele>1640</ele>
      </trkpt>
      <trkpt lat="45.7875138" lon="7.4803306">
        <ele>1642</ele>
      </trkpt>
      <trkpt lat="45.7878035" lon="7.4801835">
        <ele>1645</ele>
      </trkpt>
      <trkpt lat="45.7880171" lon="7.4799980">
        <ele>1647</ele>
      </trkpt>
      <trkpt lat="45.7881511" lon="7.4799248">
        <ele>1649</ele>
      </trkpt>
      <trkpt lat="45.7882677" lon="7.4798894">
        <ele>1651</ele>
      </trkpt>
      <trkpt lat="45.7885285" lon="7.4798743">
        <ele>1653</ele>
      </trkpt>
      <trkpt lat="45.7887883" lon="7.4797844">
        <ele>1656</ele>
      </trkpt>
      <trkpt lat="45.7890226" lon="7.4798038">
        <ele>1658</ele>
      </trkpt>
      <trkpt lat="45.7897317" lon="7.4799980">
        <ele>1660</ele>
      </trkpt>
      <trkpt lat="45.7898306" lon="7.4799905">
        <ele>1662</ele>
      </trkpt>
      <trkpt lat="45.7899605" lon="7.4799495">
        <ele>1664</ele>
      </trkpt>
      <trkpt lat="45.7900791" lon="7.4798948">
        <ele>1667</ele>
      </trkpt>
      <trkpt lat="45.7903528" lon="7.4798327">
        <ele>1669</ele>
      </trkpt>
      <trkpt lat="45.7908498" lon="7.4798128">
        <ele>1671</ele>
      </trkpt>
      <trkpt lat="45.7910607" lon="7.4797684">
        <ele>1673</ele>
      </trkpt>
      <trkpt lat="45.7911659" lon="7.4797238">
        <ele>1675</ele>
      </trkpt>
      <trkpt lat="45.7913953" lon="7.4795503">
        <ele>1678</ele>
      </trkpt>
      <trkpt lat="45.7916052" lon="7.4794320">
        <ele>1680</ele>
      </trkpt>
      <trkpt lat="45.7916987" lon="7.4793555">
        <ele>1682</ele>
      </trkpt>
      <trkpt lat="45.7920565" lon="7.4791881">
        <ele>1684</ele>
      </trkpt>
      <trkpt lat="45.7921711" lon="7.4791721">
        <ele>1686</ele>
      </trkpt>
      <trkpt lat="45.7923112" lon="7.4790493">
        <ele>1689</ele>
      </trkpt>
      <trkpt lat="45.7925794" lon="7.4789134">
        <ele>1691</ele>
      </trkpt>
      <trkpt lat="45.7927701" lon="7.4788728">
        <ele>1693</ele>
      </trkpt>
      <trkpt lat="45.7928640" lon="7.4788284">
        <ele>1695</ele>
      </trkpt>
      <trkpt lat="45.7934866" lon="7.4787761">
        <ele>1698</ele>
      </trkpt>
      <trkpt lat="45.7938268" lon="7.4786414">
        <ele>1700</ele>
      </trkpt>
      <trkpt lat="45.7942244" lon="7.4785887">
        <ele>1702</ele>
      </trkpt>
      <trkpt lat="45.7943385" lon="7.4785374">
        <ele>1704</ele>
      </trkpt>
      <trkpt lat="45.7945676" lon="7.4783414">
        <ele>1706</ele>
      </trkpt>
      <trkpt lat="45.7950516" lon="7.4781899">
        <ele>1709</ele>
      </trkpt>
      <trkpt lat="45.7953156" lon="7.4780765">
        <ele>1711</ele>
      </trkpt>
      <trkpt lat="45.7956944" lon="7.4776255">
        <ele>1713</ele>
      </trkpt>
      <trkpt lat="45.7958122" lon="7.4775162">
        <ele>1715</ele>
      </trkpt>
      <trkpt lat="45.7961045" lon="7.4773313">
        <ele>1717</ele>
      </trkpt>
      <trkpt lat="45.7962883" lon="7.4772780">
        <ele>1720</ele>
      </trkpt>
      <trkpt lat="45.7965317" lon="7.4771363">
        <ele>1722</ele>
      </trkpt>
      <trkpt lat="45.7966393" lon="7.4771076">
        <ele>1724</ele>
      </trkpt>
      <trkpt lat="45.7974033" lon="7.4770289">
        <ele>1726</ele>
      </trkpt>
      <trkpt lat="45.7980207" lon="7.4769284">
        <ele>1728</ele>
      </trkpt>
      <trkpt lat="45.7982187" lon="7.4769230">
        <ele>1731</ele>
      </trkpt>
      <trkpt lat="45.7986094" lon="7.4768641">
        <ele>1733</ele>
      </trkpt>
      <trkpt lat="45.7987056" lon="7.4768261">
        <ele>1735</ele>
      </trkpt>
      <trkpt lat="45.7988460" lon="7.4767226">
        <ele>1737</ele>
      </trkpt>
      <trkpt lat="45.7990431" lon="7.4766497">
        <ele>1739</ele>
      </trkpt>
      <trkpt lat="45.7995390" lon="7.4767166">
        <ele>1742</ele>
      </trkpt>
      <trkpt lat="45.7996946" lon="7.4767413">
        <ele>1744</ele>
      </trkpt>
      <trkpt lat="45.7999185" lon="7.4768285">
        <ele>1746</ele>
      </trkpt>
      <trkpt lat="45.7999889" lon="7.4768748">
        <ele>1748</ele>
      </trkpt>
      <trkpt lat="45.8000595" lon="7.4769404">
        <ele>1750</ele>
      </trkpt>
      <trkpt lat="45.8001801" lon="7.4772138">
        <ele>1753</ele>
      </trkpt>
      <trkpt lat="45.8002421" lon="7.4773022">
        <ele>1755</ele>
      </trkpt>
      <trkpt lat="45.8002941" lon="7.4773233">
        <ele>1757</ele>
      </trkpt>
      <trkpt lat="45.8003571" lon="7.4773248">
        <ele>1759</ele>
      </trkpt>
      <trkpt lat="45.8004084" lon="7.4772912">
        <ele>1761</ele>
      </trkpt>
      <trkpt lat="45.8004409" lon="7.4771971">
        <ele>1764</ele>
      </trkpt>
      <trkpt lat="45.8004529" lon="7.4770809">
        <ele>1766</ele>
      </trkpt>
      <trkpt lat="45.8004539" lon="7.4768235">
        <ele>1768</ele>
      </trkpt>
      <trkpt lat="45.8005119" lon="7.4766128">
        <ele>1770</ele>
      </trkpt>
      <trkpt lat="45.8006326" lon="7.4763844">
        <ele>1772</ele>
      </trkpt>
      <trkpt lat="45.8007425" lon="7.4763588">
        <ele>1775</ele>
      </trkpt>
      <trkpt lat="45.8009268" lon="7.4765115">
        <ele>1777</ele>
      </trkpt>
      <trkpt lat="45.8010507" lon="7.4766882">
        <ele>1779</ele>
      </trkpt>
      <trkpt lat="45.8011066" lon="7.4768347">
        <ele>1781</ele>
      </trkpt>
      <trkpt lat="45.8011921" lon="7.4769996">
        <ele>1783</ele>
      </trkpt>
      <trkpt lat="45.8012238" lon="7.4770181">
        <ele>1786</ele>
      </trkpt>
      <trkpt lat="45.8012529" lon="7.4770044">
        <ele>1788</ele>
      </trkpt>
      <trkpt lat="45.8012986" lon="7.4768906">
        <ele>1790</ele>
      </trkpt>
      <trkpt lat="45.8013937" lon="7.4767625">
        <ele>1792</ele>
      </trkpt>
      <trkpt lat="45.8015124" lon="7.4767239">
        <ele>1794</ele>
      </trkpt>
      <trkpt lat="45.8016587" lon="7.4767231">
        <ele>1797</ele>
      </trkpt>
      <trkpt lat="45.8016999" lon="7.4767799">
        <ele>1799</ele>
      </trkpt>
      <trkpt lat="45.8017278" lon="7.4770140">
        <ele>1801</ele>
      </trkpt>
      <trkpt lat="45.8017586" lon="7.4771322">
        <ele>1803</ele>
      </trkpt>
      <trkpt lat="45.8018166" lon="7.4772625">
        <ele>1805</ele>
      </trkpt>
      <trkpt lat="45.8019391" lon="7.4775069">
        <ele>1808</ele>
      </trkpt>
      <trkpt lat="45.8020398" lon="7.4776296">
        <ele>1810</ele>
      </trkpt>
      <trkpt lat="45.8023214" lon="7.4778246">
        <ele>1812</ele>
      </trkpt>
      <trkpt lat="45.8025861" lon="7.4779332">
        <ele>1814</ele>
      </trkpt>
      <trkpt lat="45.8029061" lon="7.4779728">
        <ele>1816</ele>
      </trkpt>
      <trkpt lat="45.8029831" lon="7.4780061">
        <ele>1819</ele>
      </trkpt>
      <trkpt lat="45.8031161" lon="7.4780250">
        <ele>1821</ele>
      </trkpt>
      <trkpt lat="45.8032274" lon="7.4781056">
        <ele>1823</ele>
      </trkpt>
      <trkpt lat="45.8035171" lon="7.4782296">
        <ele>1825</ele>
      </trkpt>
      <trkpt lat="45.8041696" lon="7.4782279">
        <ele>1828</ele>
      </trkpt>
      <trkpt lat="45.8043534" lon="7.4783419">
        <ele>1830</ele>
      </trkpt>
      <trkpt lat="45.8045717" lon="7.4783489">
        <ele>1832</ele>
      </trkpt>
      <trkpt lat="45.8047409" lon="7.4783829">
        <ele>1834</ele>
      </trkpt>
      <trkpt lat="45.8049768" lon="7.4785244">
        <ele>1836</ele>
      </trkpt>
      <trkpt lat="45.8053891" lon="7.4788993">
        <ele>1839</ele>
      </trkpt>
      <trkpt lat="45.8055252" lon="7.4789824">
        <ele>1841</ele>
      </trkpt>
      <trkpt lat="45.8060635" lon="7.4791930">
        <ele>1843</ele>
      </trkpt>
      <trkpt lat="45.8061276" lon="7.4792749">
        <ele>1845</ele>
      </trkpt>
      <trkpt lat="45.8063485" lon="7.4796421">
        <ele>1847</ele>
      </trkpt>
      <trkpt lat="45.8064836" lon="7.4798154">
        <ele>1850</ele>
      </trkpt>
      <trkpt lat="45.8066330" lon="7.4800494">
        <ele>1852</ele>
      </trkpt>
      <trkpt lat="45.8068411" lon="7.4803044">
        <ele>1854</ele>
      </trkpt>
      <trkpt lat="45.8070253" lon="7.4806146">
        <ele>1856</ele>
      </trkpt>
      <trkpt lat="45.8071686" lon="7.4809003">
        <ele>1858</ele>
      </trkpt>
      <trkpt lat="45.8074510" lon="7.4813270">
        <ele>1861</ele>
      </trkpt>
      <trkpt lat="45.8076010" lon="7.4816093">
        <ele>1863</ele>
      </trkpt>
      <trkpt lat="45.8076858" lon="7.4817260">
        <ele>1865</ele>
      </trkpt>
      <trkpt lat="45.8077950" lon="7.4819869">
        <ele>1867</ele>
      </trkpt>
      <trkpt lat="45.8080925" lon="7.4823584">
        <ele>1869</ele>
      </trkpt>
      <trkpt lat="45.8082096" lon="7.4825387">
        <ele>1872</ele>
      </trkpt>
      <trkpt lat="45.8081804" lon="7.4828773">
        <ele>1874</ele>
      </trkpt>
      <trkpt lat="45.8082002" lon="7.4831792">
        <ele>1876</ele>
      </trkpt>
      <trkpt lat="45.8082535" lon="7.4834673">
        <ele>1878</ele>
      </trkpt>
      <trkpt lat="45.8083425" lon="7.4837319">
        <ele>1880</ele>
      </trkpt>
      <trkpt lat="45.8083835" lon="7.4839400">
        <ele>1883</ele>
      </trkpt>
      <trkpt lat="45.8083632" lon="7.4841014">
        <ele>1885</ele>
      </trkpt>
      <trkpt lat="45.8083714" lon="7.4843875">
        <ele>1887</ele>
      </trkpt>
      <trkpt lat="45.8083570" lon="7.4848287">
        <ele>1889</ele>
      </trkpt>
      <trkpt lat="45.8083062" lon="7.4854092">
        <ele>1891</ele>
      </trkpt>
      <trkpt lat="45.8083016" lon="7.4859081">
        <ele>1894</ele>
      </trkpt>
      <trkpt lat="45.8082816" lon="7.4860984">
        <ele>1896</ele>
      </trkpt>
      <trkpt lat="45.8082394" lon="7.4863055">
        <ele>1898</ele>
      </trkpt>
      <trkpt lat="45.8082132" lon="7.4863673">
        <ele>1900</ele>
      </trkpt>
      <trkpt lat="45.8082582" lon="7.4870640">
        <ele>1902</ele>
      </trkpt>
      <trkpt lat="45.8086182" lon="7.4875740">
        <ele>1905</ele>
      </trkpt>
      <trkpt lat="45.8108983" lon="7.4881840">
        <ele>1907</ele>
      </trkpt>
      <trkpt lat="45.8113893" lon="7.4880890">
        <ele>1909</ele>
      </trkpt>
      <trkpt lat="45.8115223" lon="7.4881120">
        <ele>1911</ele>
      </trkpt>
      <trkpt lat="45.8120533" lon="7.4879340">
        <ele>1913</ele>
      </trkpt>
      <trkpt lat="45.8122233" lon="7.4878200">
        <ele>1916</ele>
      </trkpt>
      <trkpt lat="45.8123713" lon="7.4874620">
        <ele>1918</ele>
      </trkpt>
      <trkpt lat="45.8127843" lon="7.4869600">
        <ele>1920</ele>
      </trkpt>
      <trkpt lat="45.8131043" lon="7.4867060">
        <ele>1922</ele>
      </trkpt>
      <trkpt lat="45.8132163" lon="7.4865120">
        <ele>1924</ele>
      </trkpt>
      <trkpt lat="45.8135363" lon="7.4862040">
        <ele>1927</ele>
      </trkpt>
      <trkpt lat="45.8137203" lon="7.4857620">
        <ele>1929</ele>
      </trkpt>
      <trkpt lat="45.8140322" lon="7.4852828">
        <ele>1931</ele>
      </trkpt>
      <trkpt lat="45.8142179" lon="7.4850843">
        <ele>1933</ele>
      </trkpt>
      <trkpt lat="45.8143438" lon="7.4849804">
        <ele>1935</ele>
      </trkpt>
      <trkpt lat="45.8146613" lon="7.4848650">
        <ele>1938</ele>
      </trkpt>
      <trkpt lat="45.8151193" lon="7.4849340">
        <ele>1940</ele>
      </trkpt>
      <trkpt lat="45.8152723" lon="7.4849300">
        <ele>1942</ele>
      </trkpt>
      <trkpt lat="45.8154453" lon="7.4850610">
        <ele>1944</ele>
      </trkpt>
      <trkpt lat="45.8156193" lon="7.4853020">
        <ele>1946</ele>
      </trkpt>
      <trkpt lat="45.8157933" lon="7.4854600">
        <ele>1949</ele>
      </trkpt>
      <trkpt lat="45.8160603" lon="7.4854530">
        <ele>1951</ele>
      </trkpt>
      <trkpt lat="45.8164193" lon="7.4852800">
        <ele>1953</ele>
      </trkpt>
      <trkpt lat="45.8166683" lon="7.4853820">
        <ele>1955</ele>
      </trkpt>
      <trkpt lat="45.8168233" lon="7.4855140">
        <ele>1958</ele>
      </trkpt>
      <trkpt lat="45.8170133" lon="7.4855360">
        <ele>1960</ele>
      </trkpt>
      <trkpt lat="45.8172063" lon="7.4856670">
        <ele>1962</ele>
      </trkpt>
      <trkpt lat="45.8174953" lon="7.4859320">
        <ele>1964</ele>
      </trkpt>
      <trkpt lat="45.8176923" lon="7.4864170">
        <ele>1966</ele>
      </trkpt>
      <trkpt lat="45.8178873" lon="7.4867930">
        <ele>1969</ele>
      </trkpt>
      <trkpt lat="45.8179453" lon="7.4868460">
        <ele>1971</ele>
      </trkpt>
      <trkpt lat="45.8181403" lon="7.4871400">
        <ele>1973</ele>
      </trkpt>
      <trkpt lat="45.8183533" lon="7.4874070">
        <ele>1975</ele>
      </trkpt>
      <trkpt lat="45.8187943" lon="7.4876400">
        <ele>1977</ele>
      </trkpt>
      <trkpt lat="45.8188913" lon="7.4877470">
        <ele>1980</ele>
      </trkpt>
      <trkpt lat="45.8192943" lon="7.4879810">
        <ele>1982</ele>
      </trkpt>
      <trkpt lat="45.8194473" lon="7.4880040">
        <ele>1984</ele>
      </trkpt>
      <trkpt lat="45.8196213" lon="7.4882170">
        <ele>1986</ele>
      </trkpt>
      <trkpt lat="45.8197943" lon="7.4883220">
        <ele>1988</ele>
      </trkpt>
      <trkpt lat="45.8202733" lon="7.4885540">
        <ele>1991</ele>
      </trkpt>
      <trkpt lat="45.8209953" lon="7.4884250">
        <ele>1993</ele>
      </trkpt>
      <trkpt lat="45.8213023" lon="7.4885800">
        <ele>1995</ele>
      </trkpt>
      <trkpt lat="45.8224673" lon="7.4887940">
        <ele>1997</ele>
      </trkpt>
      <trkpt lat="45.8226983" lon="7.4889780">
        <ele>1999</ele>
      </trkpt>
      <trkpt lat="45.8230053" lon="7.4891330">
        <ele>2002</ele>
      </trkpt>
      <trkpt lat="45.8233733" lon="7.4895590">
        <ele>2004</ele>
      </trkpt>
      <trkpt lat="45.8234863" lon="7.4894740">
        <ele>2006</ele>
      </trkpt>
      <trkpt lat="45.8235443" lon="7.4895270">
        <ele>2008</ele>
      </trkpt>
      <trkpt lat="45.8235843" lon="7.4896350">
        <ele>2010</ele>
      </trkpt>
      <trkpt lat="45.8236593" lon="7.4895790">
        <ele>2013</ele>
      </trkpt>
      <trkpt lat="45.8237173" lon="7.4896590">
        <ele>2015</ele>
      </trkpt>
      <trkpt lat="45.8237743" lon="7.4896570">
        <ele>2017</ele>
      </trkpt>
      <trkpt lat="45.8238333" lon="7.4897650">
        <ele>2019</ele>
      </trkpt>
      <trkpt lat="45.8239483" lon="7.4898430">
        <ele>2021</ele>
      </trkpt>
      <trkpt lat="45.8240993" lon="7.4897300">
        <ele>2024</ele>
      </trkpt>
      <trkpt lat="45.8241943" lon="7.4897000">
        <ele>2026</ele>
      </trkpt>
      <trkpt lat="45.8242503" lon="7.4896170">
        <ele>2028</ele>
      </trkpt>
      <trkpt lat="45.8242853" lon="7.4893710">
        <ele>2030</ele>
      </trkpt>
      <trkpt lat="45.8242823" lon="7.4891260">
        <ele>2032</ele>
      </trkpt>
      <trkpt lat="45.8243363" lon="7.4889060">
        <ele>2035</ele>
      </trkpt>
      <trkpt lat="45.8243133" lon="7.4886070">
        <ele>2037</ele>
      </trkpt>
      <trkpt lat="45.8242733" lon="7.4884990">
        <ele>2039</ele>
      </trkpt>
      <trkpt lat="45.8243093" lon="7.4883070">
        <ele>2041</ele>
      </trkpt>
      <trkpt lat="45.8244583" lon="7.4880580">
        <ele>2043</ele>
      </trkpt>
      <trkpt lat="45.8246463" lon="7.4878340">
        <ele>2046</ele>
      </trkpt>
      <trkpt lat="45.8247423" lon="7.4878860">
        <ele>2048</ele>
      </trkpt>
      <trkpt lat="45.8248393" lon="7.4880200">
        <ele>2050</ele>
      </trkpt>
      <trkpt lat="45.8253353" lon="7.4881150">
        <ele>2052</ele>
      </trkpt>
      <trkpt lat="45.8256043" lon="7.4882990">
        <ele>2054</ele>
      </trkpt>
      <trkpt lat="45.8258523" lon="7.4882650">
        <ele>2057</ele>
      </trkpt>
      <trkpt lat="45.8261003" lon="7.4883400">
        <ele>2059</ele>
      </trkpt>
      <trkpt lat="45.8261783" lon="7.4884470">
        <ele>2061</ele>
      </trkpt>
      <trkpt lat="45.8261433" lon="7.4886660">
        <ele>2063</ele>
      </trkpt>
      <trkpt lat="45.8262023" lon="7.4888550">
        <ele>2065</ele>
      </trkpt>
      <trkpt lat="45.8265913" lon="7.4894440">
        <ele>2068</ele>
      </trkpt>
      <trkpt lat="45.8267263" lon="7.4895770">
        <ele>2070</ele>
      </trkpt>
      <trkpt lat="45.8268033" lon="7.4896020">
        <ele>2072</ele>
      </trkpt>
      <trkpt lat="45.8269153" lon="7.4894620">
        <ele>2074</ele>
      </trkpt>
      <trkpt lat="45.8269543" lon="7.4894890">
        <ele>2076</ele>
      </trkpt>
      <trkpt lat="45.8269953" lon="7.4897330">
        <ele>2079</ele>
      </trkpt>
      <trkpt lat="45.8269613" lon="7.4900060">
        <ele>2081</ele>
      </trkpt>
      <trkpt lat="45.8270023" lon="7.4902230">
        <ele>2083</ele>
      </trkpt>
      <trkpt lat="45.8270813" lon="7.4904390">
        <ele>2085</ele>
      </trkpt>
      <trkpt lat="45.8271963" lon="7.4905450">
        <ele>2088</ele>
      </trkpt>
      <trkpt lat="45.8272713" lon="7.4904340">
        <ele>2090</ele>
      </trkpt>
      <trkpt lat="45.8274013" lon="7.4901850">
        <ele>2092</ele>
      </trkpt>
      <trkpt lat="45.8275303" lon="7.4898270">
        <ele>2094</ele>
      </trkpt>
      <trkpt lat="45.8276813" lon="7.4897140">
        <ele>2096</ele>
      </trkpt>
      <trkpt lat="45.8277173" lon="7.4896040">
        <ele>2099</ele>
      </trkpt>
      <trkpt lat="45.8278123" lon="7.4895470">
        <ele>2101</ele>
      </trkpt>
      <trkpt lat="45.8278093" lon="7.4893020">
        <ele>2103</ele>
      </trkpt>
      <trkpt lat="45.8279013" lon="7.4890810">
        <ele>2105</ele>
      </trkpt>
      <trkpt lat="45.8280523" lon="7.4889410">
        <ele>2107</ele>
      </trkpt>
      <trkpt lat="45.8283373" lon="7.4889330">
        <ele>2110</ele>
      </trkpt>
      <trkpt lat="45.8286563" lon="7.4885700">
        <ele>2112</ele>
      </trkpt>
      <trkpt lat="45.8290193" lon="7.4885870">
        <ele>2114</ele>
      </trkpt>
      <trkpt lat="45.8292653" lon="7.4884980">
        <ele>2116</ele>
      </trkpt>
      <trkpt lat="45.8295733" lon="7.4887080">
        <ele>2118</ele>
      </trkpt>
      <trkpt lat="45.8297643" lon="7.4887300">
        <ele>2121</ele>
      </trkpt>
      <trkpt lat="45.8300303" lon="7.4887230">
        <ele>2123</ele>
      </trkpt>
      <trkpt lat="45.8302203" lon="7.4886630">
        <ele>2125</ele>
      </trkpt>
      <trkpt lat="45.8307823" lon="7.4879390">
        <ele>2127</ele>
      </trkpt>
      <trkpt lat="45.8308096" lon="7.4878783">
        <ele>2129</ele>
      </trkpt>
      <trkpt lat="45.8308834" lon="7.4878387">
        <ele>2132</ele>
      </trkpt>
      <trkpt lat="45.8309636" lon="7.4878067">
        <ele>2134</ele>
      </trkpt>
      <trkpt lat="45.8310257" lon="7.4877817">
        <ele>2136</ele>
      </trkpt>
      <trkpt lat="45.8310791" lon="7.4877751">
        <ele>2138</ele>
      </trkpt>
      <trkpt lat="45.8312056" lon="7.4877370">
        <ele>2140</ele>
      </trkpt>
      <trkpt lat="45.8313683" lon="7.4876230">
        <ele>2143</ele>
      </trkpt>
      <trkpt lat="45.8313889" lon="7.4875915">
        <ele>2145</ele>
      </trkpt>
      <trkpt lat="45.8315458" lon="7.4874654">
        <ele>2147</ele>
      </trkpt>
      <trkpt lat="45.8316986" lon="7.4873676">
        <ele>2149</ele>
      </trkpt>
      <trkpt lat="45.8318085" lon="7.4872976">
        <ele>2151</ele>
      </trkpt>
      <trkpt lat="45.8318374" lon="7.4872885">
        <ele>2154</ele>
      </trkpt>
      <trkpt lat="45.8319774" lon="7.4872385">
        <ele>2156</ele>
      </trkpt>
      <trkpt lat="45.8321783" lon="7.4871000">
        <ele>2158</ele>
      </trkpt>
      <trkpt lat="45.8322983" lon="7.4870701">
        <ele>2160</ele>
      </trkpt>
      <trkpt lat="45.8323883" lon="7.4869601">
        <ele>2162</ele>
      </trkpt>
      <trkpt lat="45.8324551" lon="7.4869244">
        <ele>2165</ele>
      </trkpt>
      <trkpt lat="45.8325212" lon="7.4868604">
        <ele>2167</ele>
      </trkpt>
      <trkpt lat="45.8325980" lon="7.4868427">
        <ele>2169</ele>
      </trkpt>
      <trkpt lat="45.8326691" lon="7.4868058">
        <ele>2171</ele>
      </trkpt>
      <trkpt lat="45.8326915" lon="7.4867884">
        <ele>2173</ele>
      </trkpt>
      <trkpt lat="45.8327682" lon="7.4867642">
        <ele>2176</ele>
      </trkpt>
      <trkpt lat="45.8328184" lon="7.4867253">
        <ele>2178</ele>
      </trkpt>
      <trkpt lat="45.8328573" lon="7.4866893">
        <ele>2180</ele>
      </trkpt>
      <trkpt lat="45.8329406" lon="7.4866131">
        <ele>2182</ele>
      </trkpt>
      <trkpt lat="45.8330298" lon="7.4865835">
        <ele>2184</ele>
      </trkpt>
      <trkpt lat="45.8330687" lon="7.4865449">
        <ele>2187</ele>
      </trkpt>
      <trkpt lat="45.8331108" lon="7.4865036">
        <ele>2189</ele>
      </trkpt>
      <trkpt lat="45.8331860" lon="7.4865054">
        <ele>2191</ele>
      </trkpt>
      <trkpt lat="45.8332492" lon="7.4864946">
        <ele>2193</ele>
      </trkpt>
      <trkpt lat="45.8333271" lon="7.4864899">
        <ele>2195</ele>
      </trkpt>
      <trkpt lat="45.8333535" lon="7.4864983">
        <ele>2198</ele>
      </trkpt>
      <trkpt lat="45.8333958" lon="7.4864803">
        <ele>2200</ele>
      </trkpt>
      <trkpt lat="45.8334177" lon="7.4864732">
        <ele>2202</ele>
      </trkpt>
      <trkpt lat="45.8334308" lon="7.4864600">
        <ele>2204</ele>
      </trkpt>
      <trkpt lat="45.8335283" lon="7.4864700">
        <ele>2207</ele>
      </trkpt>
      <trkpt lat="45.8336476" lon="7.4865292">
        <ele>2209</ele>
      </trkpt>
      <trkpt lat="45.8337089" lon="7.4865729">
        <ele>2211</ele>
      </trkpt>
      <trkpt lat="45.8337513" lon="7.4865963">
        <ele>2213</ele>
      </trkpt>
      <trkpt lat="45.8338118" lon="7.4866491">
        <ele>2215</ele>
      </trkpt>
      <trkpt lat="45.8338815" lon="7.4867146">
        <ele>2218</ele>
      </trkpt>
      <trkpt lat="45.8339435" lon="7.4867466">
        <ele>2220</ele>
      </trkpt>
      <trkpt lat="45.8339946" lon="7.4867686">
        <ele>2222</ele>
      </trkpt>
      <trkpt lat="45.8340589" lon="7.4867694">
        <ele>2224</ele>
      </trkpt>
      <trkpt lat="45.8341054" lon="7.4867604">
        <ele>2226</ele>
      </trkpt>
      <trkpt lat="45.8341884" lon="7.4867374">
        <ele>2229</ele>
      </trkpt>
      <trkpt lat="45.8342939" lon="7.4866957">
        <ele>2231</ele>
      </trkpt>
      <trkpt lat="45.8344020" lon="7.4866487">
        <ele>2233</ele>
      </trkpt>
      <trkpt lat="45.8344371" lon="7.4866361">
        <ele>2235</ele>
      </trkpt>
      <trkpt lat="45.8346682" lon="7.4865400">
        <ele>2237</ele>
      </trkpt>
      <trkpt lat="45.8347782" lon="7.4865300">
        <ele>2240</ele>
      </trkpt>
      <trkpt lat="45.8348682" lon="7.4865500">
        <ele>2242</ele>
      </trkpt>
      <trkpt lat="45.8351082" lon="7.4865500">
        <ele>2244</ele>
      </trkpt>
      <trkpt lat="45.8352282" lon="7.4866100">
        <ele>2246</ele>
      </trkpt>
      <trkpt lat="45.8353482" lon="7.4867200">
        <ele>2248</ele>
      </trkpt>
      <trkpt lat="45.8353807" lon="7.4867466">
        <ele>2251</ele>
      </trkpt>
      <trkpt lat="45.8354599" lon="7.4867794">
        <ele>2253</ele>
      </trkpt>
      <trkpt lat="45.8356158" lon="7.4868218">
        <ele>2255</ele>
      </trkpt>
      <trkpt lat="45.8356822" lon="7.4868395">
        <ele>2257</ele>
      </trkpt>
      <trkpt lat="45.8357465" lon="7.4868403">
        <ele>2259</ele>
      </trkpt>
      <trkpt lat="45.8358235" lon="7.4868343">
        <ele>2262</ele>
      </trkpt>
      <trkpt lat="45.8359308" lon="7.4867964">
        <ele>2264</ele>
      </trkpt>
      <trkpt lat="45.8359751" lon="7.4867901">
        <ele>2266</ele>
      </trkpt>
      <trkpt lat="45.8360390" lon="7.4867598">
        <ele>2268</ele>
      </trkpt>
      <trkpt lat="45.8360883" lon="7.4867500">
        <ele>2270</ele>
      </trkpt>
      <trkpt lat="45.8361062" lon="7.4867488">
        <ele>2273</ele>
      </trkpt>
      <trkpt lat="45.8362006" lon="7.4867736">
        <ele>2275</ele>
      </trkpt>
      <trkpt lat="45.8362551" lon="7.4867838">
        <ele>2277</ele>
      </trkpt>
      <trkpt lat="45.8363424" lon="7.4868073">
        <ele>2279</ele>
      </trkpt>
      <trkpt lat="45.8364268" lon="7.4868232">
        <ele>2281</ele>
      </trkpt>
      <trkpt lat="45.8365594" lon="7.4868442">
        <ele>2284</ele>
      </trkpt>
      <trkpt lat="45.8366536" lon="7.4868416">
        <ele>2286</ele>
      </trkpt>
      <trkpt lat="45.8367832" lon="7.4868161">
        <ele>2288</ele>
      </trkpt>
      <trkpt lat="45.8368096" lon="7.4868283">
        <ele>2290</ele>
      </trkpt>
      <trkpt lat="45.8368729" lon="7.4868201">
        <ele>2292</ele>
      </trkpt>
      <trkpt lat="45.8369752" lon="7.4868122">
        <ele>2295</ele>
      </trkpt>
      <trkpt lat="45.8370302" lon="7.4867951">
        <ele>2297</ele>
      </trkpt>
      <trkpt lat="45.8370958" lon="7.4867908">
        <ele>2299</ele>
      </trkpt>
      <trkpt lat="45.8371895" lon="7.4867494">
        <ele>2301</ele>
      </trkpt>
      <trkpt lat="45.8372201" lon="7.4867330">
        <ele>2303</ele>
      </trkpt>
      <trkpt lat="45.8372583" lon="7.4867101">
        <ele>2306</ele>
      </trkpt>
      <trkpt lat="45.8372887" lon="7.4866650">
        <ele>2308</ele>
      </trkpt>
      <trkpt lat="45.8373483" lon="7.4866500">
        <ele>2310</ele>
      </trkpt>
      <trkpt lat="45.8373856" lon="7.4866805">
        <ele>2312</ele>
      </trkpt>
      <trkpt lat="45.8374553" lon="7.4867409">
        <ele>2314</ele>
      </trkpt>
      <trkpt lat="45.8374977" lon="7.4867967">
        <ele>2317</ele>
      </trkpt>
      <trkpt lat="45.8375414" lon="7.4868189">
        <ele>2319</ele>
      </trkpt>
      <trkpt lat="45.8376183" lon="7.4868200">
        <ele>2321</ele>
      </trkpt>
      <trkpt lat="45.8378783" lon="7.4867800">
        <ele>2323</ele>
      </trkpt>
      <trkpt lat="45.8380082" lon="7.4868000">
        <ele>2325</ele>
      </trkpt>
      <trkpt lat="45.8381151" lon="7.4868182">
        <ele>2328</ele>
      </trkpt>
      <trkpt lat="45.8381821" lon="7.4868177">
        <ele>2330</ele>
      </trkpt>
      <trkpt lat="45.8382663" lon="7.4868128">
        <ele>2332</ele>
      </trkpt>
      <trkpt lat="45.8383267" lon="7.4867917">
        <ele>2334</ele>
      </trkpt>
      <trkpt lat="45.8384269" lon="7.4867294">
        <ele>2337</ele>
      </trkpt>
      <trkpt lat="45.8384898" lon="7.4866953">
        <ele>2339</ele>
      </trkpt>
      <trkpt lat="45.8385208" lon="7.4867048">
        <ele>2341</ele>
      </trkpt>
      <trkpt lat="45.8385734" lon="7.4867125">
        <ele>2343</ele>
      </trkpt>
      <trkpt lat="45.8386421" lon="7.4867041">
        <ele>2345</ele>
      </trkpt>
      <trkpt lat="45.8387419" lon="7.4867455">
        <ele>2348</ele>
      </trkpt>
      <trkpt lat="45.8387964" lon="7.4867596">
        <ele>2350</ele>
      </trkpt>
      <trkpt lat="45.8388791" lon="7.4867755">
        <ele>2352</ele>
      </trkpt>
      <trkpt lat="45.8389418" lon="7.4867919">
        <ele>2354</ele>
      </trkpt>
      <trkpt lat="45.8390172" lon="7.4868067">
        <ele>2356</ele>
      </trkpt>
      <trkpt lat="45.8391028" lon="7.4868070">
        <ele>2359</ele>
      </trkpt>
      <trkpt lat="45.8391880" lon="7.4868138">
        <ele>2361</ele>
      </trkpt>
      <trkpt lat="45.8392545" lon="7.4868443">
        <ele>2363</ele>
      </trkpt>
      <trkpt lat="45.8393112" lon="7.4868778">
        <ele>2365</ele>
      </trkpt>
      <trkpt lat="45.8393991" lon="7.4868832">
        <ele>2367</ele>
      </trkpt>
      <trkpt lat="45.8394571" lon="7.4869221">
        <ele>2370</ele>
      </trkpt>
      <trkpt lat="45.8395245" lon="7.4869501">
        <ele>2372</ele>
      </trkpt>
      <trkpt lat="45.8395561" lon="7.4870050">
        <ele>2374</ele>
      </trkpt>
      <trkpt lat="45.8395846" lon="7.4870431">
        <ele>2376</ele>
      </trkpt>
      <trkpt lat="45.8396174" lon="7.4870552">
        <ele>2378</ele>
      </trkpt>
      <trkpt lat="45.8396771" lon="7.4870471">
        <ele>2381</ele>
      </trkpt>
      <trkpt lat="45.8397173" lon="7.4870693">
        <ele>2383</ele>
      </trkpt>
      <trkpt lat="45.8397385" lon="7.4871011">
        <ele>2385</ele>
      </trkpt>
      <trkpt lat="45.8397629" lon="7.4871614">
        <ele>2387</ele>
      </trkpt>
      <trkpt lat="45.8398003" lon="7.4872524">
        <ele>2389</ele>
      </trkpt>
      <trkpt lat="45.8398651" lon="7.4873023">
        <ele>2392</ele>
      </trkpt>
      <trkpt lat="45.8398683" lon="7.4873100">
        <ele>2394</ele>
      </trkpt>
      <trkpt lat="45.8399348" lon="7.4873735">
        <ele>2396</ele>
      </trkpt>
      <trkpt lat="45.8399545" lon="7.4874896">
        <ele>2398</ele>
      </trkpt>
      <trkpt lat="45.8400119" lon="7.4876037">
        <ele>2400</ele>
      </trkpt>
      <trkpt lat="45.8400781" lon="7.4878806">
        <ele>2403</ele>
      </trkpt>
      <trkpt lat="45.8401283" lon="7.4879900">
        <ele>2405</ele>
      </trkpt>
      <trkpt lat="45.8401844" lon="7.4881456">
        <ele>2407</ele>
      </trkpt>
      <trkpt lat="45.8402267" lon="7.4882624">
        <ele>2409</ele>
      </trkpt>
      <trkpt lat="45.8403061" lon="7.4883705">
        <ele>2411</ele>
      </trkpt>
      <trkpt lat="45.8403427" lon="7.4884177">
        <ele>2414</ele>
      </trkpt>
      <trkpt lat="45.8403971" lon="7.4884888">
        <ele>2416</ele>
      </trkpt>
      <trkpt lat="45.8404796" lon="7.4885618">
        <ele>2418</ele>
      </trkpt>
      <trkpt lat="45.8405637" lon="7.4886230">
        <ele>2420</ele>
      </trkpt>
      <trkpt lat="45.8406028" lon="7.4886336">
        <ele>2422</ele>
      </trkpt>
      <trkpt lat="45.8406252" lon="7.4886499">
        <ele>2425</ele>
      </trkpt>
      <trkpt lat="45.8406678" lon="7.4887174">
        <ele>2427</ele>
      </trkpt>
      <trkpt lat="45.8407127" lon="7.4887551">
        <ele>2429</ele>
      </trkpt>
      <trkpt lat="45.8407229" lon="7.4888390">
        <ele>2431</ele>
      </trkpt>
      <trkpt lat="45.8407533" lon="7.4889458">
        <ele>2433</ele>
      </trkpt>
      <trkpt lat="45.8407984" lon="7.4890677">
        <ele>2436</ele>
      </trkpt>
      <trkpt lat="45.8408391" lon="7.4891486">
        <ele>2438</ele>
      </trkpt>
      <trkpt lat="45.8408706" lon="7.4892047">
        <ele>2440</ele>
      </trkpt>
      <trkpt lat="45.8408983" lon="7.4892429">
        <ele>2442</ele>
      </trkpt>
      <trkpt lat="45.8409385" lon="7.4892742">
        <ele>2444</ele>
      </trkpt>
      <trkpt lat="45.8409915" lon="7.4893026">
        <ele>2447</ele>
      </trkpt>
      <trkpt lat="45.8410315" lon="7.4893144">
        <ele>2449</ele>
      </trkpt>
      <trkpt lat="45.8410670" lon="7.4893329">
        <ele>2451</ele>
      </trkpt>
      <trkpt lat="45.8411099" lon="7.4893525">
        <ele>2453</ele>
      </trkpt>
      <trkpt lat="45.8411311" lon="7.4893830">
        <ele>2455</ele>
      </trkpt>
      <trkpt lat="45.8411484" lon="7.4893903">
        <ele>2458</ele>
      </trkpt>
      <trkpt lat="45.8411554" lon="7.4893720">
        <ele>2460</ele>
      </trkpt>
      <trkpt lat="45.8411658" lon="7.4893328">
        <ele>2462</ele>
      </trkpt>
      <trkpt lat="45.8411785" lon="7.4893014">
        <ele>2464</ele>
      </trkpt>
      <trkpt lat="45.8412230" lon="7.4893080">
        <ele>2467</ele>
      </trkpt>
      <trkpt lat="45.8412655" lon="7.4893068">
        <ele>2469</ele>
      </trkpt>
      <trkpt lat="45.8412880" lon="7.4892893">
        <ele>2471</ele>
      </trkpt>
      <trkpt lat="45.8413608" lon="7.4892485">
        <ele>2473</ele>
      </trkpt>
      <trkpt lat="45.8413982" lon="7.4892000">
        <ele>2475</ele>
      </trkpt>
      <trkpt lat="45.8414339" lon="7.4891791">
        <ele>2478</ele>
      </trkpt>
      <trkpt lat="45.8414735" lon="7.4891599">
        <ele>2480</ele>
      </trkpt>
      <trkpt lat="45.8415114" lon="7.4891433">
        <ele>2482</ele>
      </trkpt>
      <trkpt lat="45.8415682" lon="7.4891223">
        <ele>2484</ele>
      </trkpt>
      <trkpt lat="45.8415926" lon="7.4891191">
        <ele>2486</ele>
      </trkpt>
      <trkpt lat="45.8416162" lon="7.4891262">
        <ele>2489</ele>
      </trkpt>
      <trkpt lat="45.8416288" lon="7.4891155">
        <ele>2491</ele>
      </trkpt>
      <trkpt lat="45.8416502" lon="7.4890903">
        <ele>2493</ele>
      </trkpt>
      <trkpt lat="45.8416826" lon="7.4890752">
        <ele>2495</ele>
      </trkpt>
      <trkpt lat="45.8417095" lon="7.4890576">
        <ele>2497</ele>
      </trkpt>
      <trkpt lat="45.8417379" lon="7.4890154">
        <ele>2500</ele>
      </trkpt>
      <trkpt lat="45.8418182" lon="7.4889700">
        <ele>2502</ele>
      </trkpt>
      <trkpt lat="45.8419182" lon="7.4888700">
        <ele>2504</ele>
      </trkpt>
      <trkpt lat="45.8418782" lon="7.4888000">
        <ele>2506</ele>
      </trkpt>
      <trkpt lat="45.8418882" lon="7.4887800">
        <ele>2508</ele>
      </trkpt>
      <trkpt lat="45.8418582" lon="7.4887200">
        <ele>2511</ele>
      </trkpt>
      <trkpt lat="45.8418082" lon="7.4885400">
        <ele>2513</ele>
      </trkpt>
      <trkpt lat="45.8418582" lon="7.4883300">
        <ele>2515</ele>
      </trkpt>
      <trkpt lat="45.8418682" lon="7.4882200">
        <ele>2517</ele>
      </trkpt>
      <trkpt lat="45.8418982" lon="7.4881500">
        <ele>2519</ele>
      </trkpt>
      <trkpt lat="45.8418682" lon="7.4880200">
        <ele>2522</ele>
      </trkpt>
      <trkpt lat="45.8418682" lon="7.4878600">
        <ele>2524</ele>
      </trkpt>
      <trkpt lat="45.8418982" lon="7.4877400">
        <ele>2526</ele>
      </trkpt>
      <trkpt lat="45.8419282" lon="7.4877100">
        <ele>2528</ele>
      </trkpt>
      <trkpt lat="45.8419082" lon="7.4876700">
        <ele>2530</ele>
      </trkpt>
      <trkpt lat="45.8417882" lon="7.4876100">
        <ele>2533</ele>
      </trkpt>
      <trkpt lat="45.8417083" lon="7.4876100">
        <ele>2535</ele>
      </trkpt>
      <trkpt lat="45.8417382" lon="7.4877100">
        <ele>2537</ele>
      </trkpt>
      <trkpt lat="45.8416683" lon="7.4876700">
        <ele>2539</ele>
      </trkpt>
      <trkpt lat="45.8416283" lon="7.4876800">
        <ele>2541</ele>
      </trkpt>
      <trkpt lat="45.8415883" lon="7.4876765">
        <ele>2544</ele>
      </trkpt>
      <trkpt lat="45.8415335" lon="7.4876417">
        <ele>2546</ele>
      </trkpt>
      <trkpt lat="45.8414818" lon="7.4875718">
        <ele>2548</ele>
      </trkpt>
      <trkpt lat="45.8414686" lon="7.4875281">
        <ele>2550</ele>
      </trkpt>
      <trkpt lat="45.8414524" lon="7.4874715">
        <ele>2552</ele>
      </trkpt>
      <trkpt lat="45.8414338" lon="7.4873631">
        <ele>2555</ele>
      </trkpt>
      <trkpt lat="45.8414284" lon="7.4872946">
        <ele>2557</ele>
      </trkpt>
      <trkpt lat="45.8414126" lon="7.4872477">
        <ele>2559</ele>
      </trkpt>
      <trkpt lat="45.8413751" lon="7.4872202">
        <ele>2561</ele>
      </trkpt>
      <trkpt lat="45.8413482" lon="7.4871756">
        <ele>2563</ele>
      </trkpt>
      <trkpt lat="45.8413103" lon="7.4871222">
        <ele>2566</ele>
      </trkpt>
      <trkpt lat="45.8412758" lon="7.4870415">
        <ele>2568</ele>
      </trkpt>
      <trkpt lat="45.8412840" lon="7.4869829">
        <ele>2570</ele>
      </trkpt>
      <trkpt lat="45.8412819" lon="7.4869545">
        <ele>2572</ele>
      </trkpt>
      <trkpt lat="45.8412847" lon="7.4868987">
        <ele>2574</ele>
      </trkpt>
      <trkpt lat="45.8412882" lon="7.4868699">
        <ele>2577</ele>
      </trkpt>
      <trkpt lat="45.8412953" lon="7.4868102">
        <ele>2579</ele>
      </trkpt>
      <trkpt lat="45.8412931" lon="7.4867805">
        <ele>2581</ele>
      </trkpt>
      <trkpt lat="45.8412806" lon="7.4867212">
        <ele>2583</ele>
      </trkpt>
      <trkpt lat="45.8412629" lon="7.4866206">
        <ele>2585</ele>
      </trkpt>
      <trkpt lat="45.8412420" lon="7.4865447">
        <ele>2588</ele>
      </trkpt>
      <trkpt lat="45.8412076" lon="7.4865307">
        <ele>2590</ele>
      </trkpt>
      <trkpt lat="45.8411975" lon="7.4864506">
        <ele>2592</ele>
      </trkpt>
      <trkpt lat="45.8412040" lon="7.4863947">
        <ele>2594</ele>
      </trkpt>
      <trkpt lat="45.8411989" lon="7.4863482">
        <ele>2597</ele>
      </trkpt>
      <trkpt lat="45.8411897" lon="7.4862694">
        <ele>2599</ele>
      </trkpt>
      <trkpt lat="45.8411836" lon="7.4862229">
        <ele>2601</ele>
      </trkpt>
      <trkpt lat="45.8411848" lon="7.4861736">
        <ele>2603</ele>
      </trkpt>
      <trkpt lat="45.8411849" lon="7.4861114">
        <ele>2605</ele>
      </trkpt>
      <trkpt lat="45.8411813" lon="7.4860519">
        <ele>2608</ele>
      </trkpt>
      <trkpt lat="45.8411664" lon="7.4860186">
        <ele>2610</ele>
      </trkpt>
      <trkpt lat="45.8411551" lon="7.4859852">
        <ele>2612</ele>
      </trkpt>
      <trkpt lat="45.8411643" lon="7.4859253">
        <ele>2614</ele>
      </trkpt>
      <trkpt lat="45.8411524" lon="7.4858466">
        <ele>2616</ele>
      </trkpt>
      <trkpt lat="45.8411487" lon="7.4857793">
        <ele>2619</ele>
      </trkpt>
      <trkpt lat="45.8411451" lon="7.4857068">
        <ele>2621</ele>
      </trkpt>
      <trkpt lat="45.8411465" lon="7.4856744">
        <ele>2623</ele>
      </trkpt>
      <trkpt lat="45.8411558" lon="7.4856231">
        <ele>2625</ele>
      </trkpt>
      <trkpt lat="45.8412031" lon="7.4855667">
        <ele>2627</ele>
      </trkpt>
      <trkpt lat="45.8412592" lon="7.4855540">
        <ele>2630</ele>
      </trkpt>
      <trkpt lat="45.8412521" lon="7.4856307">
        <ele>2632</ele>
      </trkpt>
      <trkpt lat="45.8412842" lon="7.4857499">
        <ele>2634</ele>
      </trkpt>
      <trkpt lat="45.8413347" lon="7.4857880">
        <ele>2636</ele>
      </trkpt>
      <trkpt lat="45.8413598" lon="7.4857685">
        <ele>2638</ele>
      </trkpt>
      <trkpt lat="45.8414062" lon="7.4857873">
        <ele>2641</ele>
      </trkpt>
      <trkpt lat="45.8414562" lon="7.4857573">
        <ele>2643</ele>
      </trkpt>
      <trkpt lat="45.8414771" lon="7.4856954">
        <ele>2645</ele>
      </trkpt>
      <trkpt lat="45.8415128" lon="7.4856607">
        <ele>2647</ele>
      </trkpt>
      <trkpt lat="45.8416391" lon="7.4855970">
        <ele>2649</ele>
      </trkpt>
      <trkpt lat="45.8416710" lon="7.4854904">
        <ele>2652</ele>
      </trkpt>
      <trkpt lat="45.8417077" lon="7.4854932">
        <ele>2654</ele>
      </trkpt>
      <trkpt lat="45.8417283" lon="7.4855000">
        <ele>2656</ele>
      </trkpt>
    </trkseg>
  </trk>
</gpx>
