<?xml version="1.0" encoding="UTF-8"?>
<gpx version="1.1" creator="sentieri-vda" xmlns="http://www.topografix.com/GPX/1/1">
  <metadata>
    <name>Oyace - Valpelline</name>
    <desc>Catasto Sentieri VdA — 47_S1</desc>
    <author><name>Regione Autonoma Valle d'Aosta</name></author>
  </metadata>
  <trk>
    <name>Oyace - Valpelline</name>
    <src>Catasto Sentieri VdA (47_S1)</src>
    <trkseg>
      <trkpt lat="45.8317351" lon="7.3516999">
        <ele>1305</ele>
      </trkpt>
      <trkpt lat="45.8323493" lon="7.3505080">
        <ele>1300</ele>
      </trkpt>
      <trkpt lat="45.8328093" lon="7.3510780">
        <ele>1296</ele>
      </trkpt>
      <trkpt lat="45.8331193" lon="7.3507780">
        <ele>1291</ele>
      </trkpt>
      <trkpt lat="45.8331693" lon="7.3509180">
        <ele>1286</ele>
      </trkpt>
      <trkpt lat="45.8335793" lon="7.3509780">
        <ele>1282</ele>
      </trkpt>
      <trkpt lat="45.8336393" lon="7.3522480">
        <ele>1277</ele>
      </trkpt>
      <trkpt lat="45.8342693" lon="7.3529580">
        <ele>1272</ele>
      </trkpt>
      <trkpt lat="45.8343093" lon="7.3540480">
        <ele>1267</ele>
      </trkpt>
      <trkpt lat="45.8347393" lon="7.3543280">
        <ele>1263</ele>
      </trkpt>
      <trkpt lat="45.8354493" lon="7.3555280">
        <ele>1258</ele>
      </trkpt>
      <trkpt lat="45.8361293" lon="7.3559580">
        <ele>1253</ele>
      </trkpt>
      <trkpt lat="45.8364493" lon="7.3566680">
        <ele>1249</ele>
      </trkpt>
      <trkpt lat="45.8369293" lon="7.3571180">
        <ele>1244</ele>
      </trkpt>
      <trkpt lat="45.8376893" lon="7.3585880">
        <ele>1239</ele>
      </trkpt>
      <trkpt lat="45.8379683" lon="7.3592900">
        <ele>1235</ele>
      </trkpt>
      <trkpt lat="45.8379883" lon="7.3598100">
        <ele>1230</ele>
      </trkpt>
      <trkpt lat="45.8397583" lon="7.3632500">
        <ele>1225</ele>
      </trkpt>
      <trkpt lat="45.8404783" lon="7.3651200">
        <ele>1221</ele>
      </trkpt>
      <trkpt lat="45.8401283" lon="7.3661500">
        <ele>1216</ele>
      </trkpt>
      <trkpt lat="45.8400283" lon="7.3672300">
        <ele>1211</ele>
      </trkpt>
      <trkpt lat="45.8401183" lon="7.3682000">
        <ele>1206</ele>
      </trkpt>
      <trkpt lat="45.8416683" lon="7.3705000">
        <ele>1202</ele>
      </trkpt>
      <trkpt lat="45.8419687" lon="7.3706766">
        <ele>1197</ele>
      </trkpt>
      <trkpt lat="45.8427204" lon="7.3713247">
        <ele>1192</ele>
      </trkpt>
      <trkpt lat="45.8428298" lon="7.3717368">
        <ele>1188</ele>
      </trkpt>
      <trkpt lat="45.8430984" lon="7.3722699">
        <ele>1183</ele>
      </trkpt>
      <trkpt lat="45.8431394" lon="7.3723041">
        <ele>1178</ele>
      </trkpt>
      <trkpt lat="45.8433133" lon="7.3723505">
        <ele>1174</ele>
      </trkpt>
      <trkpt lat="45.8436217" lon="7.3725218">
        <ele>1169</ele>
      </trkpt>
      <trkpt lat="45.8436562" lon="7.3725723">
        <ele>1164</ele>
      </trkpt>
      <trkpt lat="45.8438125" lon="7.3729638">
        <ele>1160</ele>
      </trkpt>
      <trkpt lat="45.8439075" lon="7.3731510">
        <ele>1155</ele>
      </trkpt>
      <trkpt lat="45.8440074" lon="7.3732189">
        <ele>1150</ele>
      </trkpt>
      <trkpt lat="45.8442041" lon="7.3732808">
        <ele>1145</ele>
      </trkpt>
      <trkpt lat="45.8442567" lon="7.3733404">
        <ele>1141</ele>
      </trkpt>
      <trkpt lat="45.8443180" lon="7.3735414">
        <ele>1136</ele>
      </trkpt>
      <trkpt lat="45.8444019" lon="7.3737418">
        <ele>1131</ele>
      </trkpt>
      <trkpt lat="45.8446708" lon="7.3741396">
        <ele>1127</ele>
      </trkpt>
      <trkpt lat="45.8448421" lon="7.3743150">
        <ele>1122</ele>
      </trkpt>
      <trkpt lat="45.8450831" lon="7.3744914">
        <ele>1117</ele>
      </trkpt>
      <trkpt lat="45.8453571" lon="7.3747732">
        <ele>1113</ele>
      </trkpt>
      <trkpt lat="45.8459634" lon="7.3754800">
        <ele>1108</ele>
      </trkpt>
      <trkpt lat="45.8462365" lon="7.3758520">
        <ele>1103</ele>
      </trkpt>
      <trkpt lat="45.8463819" lon="7.3761085">
        <ele>1099</ele>
      </trkpt>
      <trkpt lat="45.8464983" lon="7.3763820">
        <ele>1094</ele>
      </trkpt>
      <trkpt lat="45.8465025" lon="7.3765203">
        <ele>1089</ele>
      </trkpt>
      <trkpt lat="45.8464240" lon="7.3770120">
        <ele>1084</ele>
      </trkpt>
      <trkpt lat="45.8464369" lon="7.3771275">
        <ele>1080</ele>
      </trkpt>
      <trkpt lat="45.8464834" lon="7.3772324">
        <ele>1075</ele>
      </trkpt>
      <trkpt lat="45.8465751" lon="7.3773521">
        <ele>1070</ele>
      </trkpt>
      <trkpt lat="45.8466679" lon="7.3773913">
        <ele>1066</ele>
      </trkpt>
      <trkpt lat="45.8467145" lon="7.3773877">
        <ele>1061</ele>
      </trkpt>
    </trkseg>
  </trk>
</gpx>
