<?xml version="1.0" encoding="UTF-8"?>
<gpx version="1.1" creator="sentieri-vda" xmlns="http://www.topografix.com/GPX/1/1">
  <metadata>
    <name>Marine - Col Fênetre</name>
    <desc>Catasto Sentieri VdA — 48_S5</desc>
    <author><name>Regione Autonoma Valle d'Aosta</name></author>
  </metadata>
  <trk>
    <name>Marine - Col Fênetre</name>
    <src>Catasto Sentieri VdA (48_S5)</src>
    <trkseg>
      <trkpt lat="45.6313397" lon="7.7835726">
        <ele>860</ele>
      </trkpt>
      <trkpt lat="45.6313526" lon="7.7836440">
        <ele>865</ele>
      </trkpt>
      <trkpt lat="45.6314248" lon="7.7837728">
        <ele>870</ele>
      </trkpt>
      <trkpt lat="45.6314748" lon="7.7838328">
        <ele>874</ele>
      </trkpt>
      <trkpt lat="45.6315748" lon="7.7838728">
        <ele>879</ele>
      </trkpt>
      <trkpt lat="45.6316301" lon="7.7839840">
        <ele>884</ele>
      </trkpt>
      <trkpt lat="45.6314301" lon="7.7841540">
        <ele>889</ele>
      </trkpt>
      <trkpt lat="45.6315201" lon="7.7842340">
        <ele>894</ele>
      </trkpt>
      <trkpt lat="45.6313701" lon="7.7844040">
        <ele>899</ele>
      </trkpt>
      <trkpt lat="45.6313701" lon="7.7845640">
        <ele>903</ele>
      </trkpt>
      <trkpt lat="45.6314201" lon="7.7847740">
        <ele>908</ele>
      </trkpt>
      <trkpt lat="45.6314701" lon="7.7848440">
        <ele>913</ele>
      </trkpt>
      <trkpt lat="45.6316301" lon="7.7849040">
        <ele>918</ele>
      </trkpt>
      <trkpt lat="45.6316401" lon="7.7849740">
        <ele>923</ele>
      </trkpt>
      <trkpt lat="45.6317001" lon="7.7850540">
        <ele>927</ele>
      </trkpt>
      <trkpt lat="45.6316601" lon="7.7851240">
        <ele>932</ele>
      </trkpt>
      <trkpt lat="45.6317301" lon="7.7852840">
        <ele>937</ele>
      </trkpt>
      <trkpt lat="45.6316301" lon="7.7853040">
        <ele>942</ele>
      </trkpt>
      <trkpt lat="45.6317201" lon="7.7854840">
        <ele>947</ele>
      </trkpt>
      <trkpt lat="45.6316101" lon="7.7855140">
        <ele>951</ele>
      </trkpt>
      <trkpt lat="45.6316501" lon="7.7855940">
        <ele>956</ele>
      </trkpt>
      <trkpt lat="45.6316701" lon="7.7857140">
        <ele>961</ele>
      </trkpt>
      <trkpt lat="45.6316401" lon="7.7857440">
        <ele>966</ele>
      </trkpt>
      <trkpt lat="45.6317301" lon="7.7858340">
        <ele>971</ele>
      </trkpt>
      <trkpt lat="45.6316701" lon="7.7859240">
        <ele>976</ele>
      </trkpt>
      <trkpt lat="45.6316601" lon="7.7859940">
        <ele>980</ele>
      </trkpt>
      <trkpt lat="45.6317301" lon="7.7860540">
        <ele>985</ele>
      </trkpt>
      <trkpt lat="45.6317201" lon="7.7861840">
        <ele>990</ele>
      </trkpt>
      <trkpt lat="45.6317901" lon="7.7862240">
        <ele>995</ele>
      </trkpt>
      <trkpt lat="45.6317701" lon="7.7863240">
        <ele>1000</ele>
      </trkpt>
      <trkpt lat="45.6318801" lon="7.7864740">
        <ele>1004</ele>
      </trkpt>
      <trkpt lat="45.6318501" lon="7.7865840">
        <ele>1009</ele>
      </trkpt>
      <trkpt lat="45.6319501" lon="7.7865940">
        <ele>1014</ele>
      </trkpt>
      <trkpt lat="45.6320201" lon="7.7867740">
        <ele>1019</ele>
      </trkpt>
      <trkpt lat="45.6321501" lon="7.7868740">
        <ele>1024</ele>
      </trkpt>
      <trkpt lat="45.6320401" lon="7.7868740">
        <ele>1028</ele>
      </trkpt>
      <trkpt lat="45.6319101" lon="7.7868440">
        <ele>1033</ele>
      </trkpt>
      <trkpt lat="45.6318201" lon="7.7868940">
        <ele>1038</ele>
      </trkpt>
      <trkpt lat="45.6318001" lon="7.7868740">
        <ele>1043</ele>
      </trkpt>
      <trkpt lat="45.6317501" lon="7.7870240">
        <ele>1048</ele>
      </trkpt>
      <trkpt lat="45.6317401" lon="7.7871040">
        <ele>1053</ele>
      </trkpt>
      <trkpt lat="45.6316501" lon="7.7872240">
        <ele>1057</ele>
      </trkpt>
      <trkpt lat="45.6315601" lon="7.7872740">
        <ele>1062</ele>
      </trkpt>
      <trkpt lat="45.6315374" lon="7.7873416">
        <ele>1067</ele>
      </trkpt>
      <trkpt lat="45.6313801" lon="7.7876940">
        <ele>1072</ele>
      </trkpt>
      <trkpt lat="45.6315801" lon="7.7881240">
        <ele>1077</ele>
      </trkpt>
      <trkpt lat="45.6314101" lon="7.7892840">
        <ele>1081</ele>
      </trkpt>
      <trkpt lat="45.6314601" lon="7.7896040">
        <ele>1086</ele>
      </trkpt>
      <trkpt lat="45.6315501" lon="7.7894640">
        <ele>1091</ele>
      </trkpt>
      <trkpt lat="45.6316001" lon="7.7899340">
        <ele>1096</ele>
      </trkpt>
      <trkpt lat="45.6318301" lon="7.7896440">
        <ele>1101</ele>
      </trkpt>
      <trkpt lat="45.6318601" lon="7.7898340">
        <ele>1105</ele>
      </trkpt>
      <trkpt lat="45.6322701" lon="7.7897640">
        <ele>1110</ele>
      </trkpt>
      <trkpt lat="45.6321001" lon="7.7903240">
        <ele>1115</ele>
      </trkpt>
      <trkpt lat="45.6322601" lon="7.7904240">
        <ele>1120</ele>
      </trkpt>
      <trkpt lat="45.6325701" lon="7.7914940">
        <ele>1125</ele>
      </trkpt>
      <trkpt lat="45.6325101" lon="7.7916740">
        <ele>1130</ele>
      </trkpt>
      <trkpt lat="45.6328164" lon="7.7920532">
        <ele>1134</ele>
      </trkpt>
      <trkpt lat="45.6329301" lon="7.7921940">
        <ele>1139</ele>
      </trkpt>
      <trkpt lat="45.6330634" lon="7.7921337">
        <ele>1144</ele>
      </trkpt>
      <trkpt lat="45.6331201" lon="7.7920340">
        <ele>1149</ele>
      </trkpt>
      <trkpt lat="45.6331381" lon="7.7920300">
        <ele>1154</ele>
      </trkpt>
      <trkpt lat="45.6330781" lon="7.7921900">
        <ele>1158</ele>
      </trkpt>
      <trkpt lat="45.6330201" lon="7.7924140">
        <ele>1163</ele>
      </trkpt>
      <trkpt lat="45.6330301" lon="7.7927740">
        <ele>1168</ele>
      </trkpt>
      <trkpt lat="45.6330901" lon="7.7929140">
        <ele>1173</ele>
      </trkpt>
      <trkpt lat="45.6331101" lon="7.7930440">
        <ele>1178</ele>
      </trkpt>
      <trkpt lat="45.6331501" lon="7.7931240">
        <ele>1182</ele>
      </trkpt>
      <trkpt lat="45.6331777" lon="7.7932344">
        <ele>1187</ele>
      </trkpt>
      <trkpt lat="45.6332395" lon="7.7933154">
        <ele>1192</ele>
      </trkpt>
      <trkpt lat="45.6333201" lon="7.7933740">
        <ele>1197</ele>
      </trkpt>
      <trkpt lat="45.6335501" lon="7.7934840">
        <ele>1202</ele>
      </trkpt>
      <trkpt lat="45.6336701" lon="7.7935740">
        <ele>1207</ele>
      </trkpt>
      <trkpt lat="45.6337301" lon="7.7936640">
        <ele>1211</ele>
      </trkpt>
      <trkpt lat="45.6337401" lon="7.7939040">
        <ele>1216</ele>
      </trkpt>
      <trkpt lat="45.6338201" lon="7.7941340">
        <ele>1221</ele>
      </trkpt>
      <trkpt lat="45.6338201" lon="7.7942909">
        <ele>1226</ele>
      </trkpt>
      <trkpt lat="45.6338201" lon="7.7942940">
        <ele>1231</ele>
      </trkpt>
      <trkpt lat="45.6338151" lon="7.7943230">
        <ele>1235</ele>
      </trkpt>
      <trkpt lat="45.6340001" lon="7.7946840">
        <ele>1240</ele>
      </trkpt>
      <trkpt lat="45.6339301" lon="7.7948040">
        <ele>1245</ele>
      </trkpt>
      <trkpt lat="45.6339001" lon="7.7949340">
        <ele>1250</ele>
      </trkpt>
      <trkpt lat="45.6339001" lon="7.7950540">
        <ele>1255</ele>
      </trkpt>
      <trkpt lat="45.6338001" lon="7.7950140">
        <ele>1259</ele>
      </trkpt>
      <trkpt lat="45.6337901" lon="7.7950640">
        <ele>1264</ele>
      </trkpt>
      <trkpt lat="45.6337101" lon="7.7950940">
        <ele>1269</ele>
      </trkpt>
      <trkpt lat="45.6336401" lon="7.7950940">
        <ele>1274</ele>
      </trkpt>
      <trkpt lat="45.6335001" lon="7.7951540">
        <ele>1279</ele>
      </trkpt>
      <trkpt lat="45.6333801" lon="7.7950640">
        <ele>1284</ele>
      </trkpt>
      <trkpt lat="45.6332001" lon="7.7951640">
        <ele>1288</ele>
      </trkpt>
      <trkpt lat="45.6328301" lon="7.7955440">
        <ele>1293</ele>
      </trkpt>
      <trkpt lat="45.6327901" lon="7.7956040">
        <ele>1298</ele>
      </trkpt>
      <trkpt lat="45.6327301" lon="7.7957540">
        <ele>1303</ele>
      </trkpt>
      <trkpt lat="45.6326001" lon="7.7959440">
        <ele>1308</ele>
      </trkpt>
      <trkpt lat="45.6324401" lon="7.7962940">
        <ele>1312</ele>
      </trkpt>
      <trkpt lat="45.6323501" lon="7.7965740">
        <ele>1317</ele>
      </trkpt>
      <trkpt lat="45.6321485" lon="7.7966428">
        <ele>1322</ele>
      </trkpt>
      <trkpt lat="45.6320613" lon="7.7973359">
        <ele>1327</ele>
      </trkpt>
      <trkpt lat="45.6319595" lon="7.7979246">
        <ele>1332</ele>
      </trkpt>
      <trkpt lat="45.6323711" lon="7.7973820">
        <ele>1336</ele>
      </trkpt>
      <trkpt lat="45.6325141" lon="7.7973280">
        <ele>1341</ele>
      </trkpt>
      <trkpt lat="45.6324441" lon="7.7975340">
        <ele>1346</ele>
      </trkpt>
      <trkpt lat="45.6327021" lon="7.7980420">
        <ele>1351</ele>
      </trkpt>
      <trkpt lat="45.6323811" lon="7.7983570">
        <ele>1356</ele>
      </trkpt>
      <trkpt lat="45.6326001" lon="7.7986090">
        <ele>1361</ele>
      </trkpt>
      <trkpt lat="45.6324591" lon="7.7989200">
        <ele>1365</ele>
      </trkpt>
      <trkpt lat="45.6325341" lon="7.7992260">
        <ele>1370</ele>
      </trkpt>
      <trkpt lat="45.6323221" lon="7.7995900">
        <ele>1375</ele>
      </trkpt>
      <trkpt lat="45.6323611" lon="7.7998450">
        <ele>1380</ele>
      </trkpt>
      <trkpt lat="45.6322211" lon="7.8002590">
        <ele>1385</ele>
      </trkpt>
      <trkpt lat="45.6322601" lon="7.8005660">
        <ele>1389</ele>
      </trkpt>
      <trkpt lat="45.6321181" lon="7.8007740">
        <ele>1394</ele>
      </trkpt>
      <trkpt lat="45.6319391" lon="7.8008290">
        <ele>1399</ele>
      </trkpt>
      <trkpt lat="45.6316481" lon="7.8005280">
        <ele>1404</ele>
      </trkpt>
      <trkpt lat="45.6314681" lon="7.8005830">
        <ele>1409</ele>
      </trkpt>
      <trkpt lat="45.6314461" lon="7.8018660">
        <ele>1413</ele>
      </trkpt>
      <trkpt lat="45.6315601" lon="7.8024280">
        <ele>1418</ele>
      </trkpt>
      <trkpt lat="45.6312771" lon="7.8029480">
        <ele>1423</ele>
      </trkpt>
      <trkpt lat="45.6313161" lon="7.8032030">
        <ele>1428</ele>
      </trkpt>
      <trkpt lat="45.6310681" lon="7.8035680">
        <ele>1433</ele>
      </trkpt>
      <trkpt lat="45.6314361" lon="7.8043810">
        <ele>1438</ele>
      </trkpt>
      <trkpt lat="45.6313130" lon="7.8054930">
        <ele>1442</ele>
      </trkpt>
      <trkpt lat="45.6313051" lon="7.8055640">
        <ele>1447</ele>
      </trkpt>
      <trkpt lat="45.6312501" lon="7.8057740">
        <ele>1452</ele>
      </trkpt>
      <trkpt lat="45.6312301" lon="7.8058040">
        <ele>1457</ele>
      </trkpt>
      <trkpt lat="45.6311001" lon="7.8063340">
        <ele>1462</ele>
      </trkpt>
      <trkpt lat="45.6310301" lon="7.8065040">
        <ele>1466</ele>
      </trkpt>
      <trkpt lat="45.6309601" lon="7.8066140">
        <ele>1471</ele>
      </trkpt>
      <trkpt lat="45.6310028" lon="7.8066869">
        <ele>1476</ele>
      </trkpt>
      <trkpt lat="45.6309765" lon="7.8067564">
        <ele>1481</ele>
      </trkpt>
      <trkpt lat="45.6309598" lon="7.8068823">
        <ele>1486</ele>
      </trkpt>
      <trkpt lat="45.6309981" lon="7.8071028">
        <ele>1490</ele>
      </trkpt>
      <trkpt lat="45.6309945" lon="7.8071890">
        <ele>1495</ele>
      </trkpt>
      <trkpt lat="45.6307940" lon="7.8078059">
        <ele>1500</ele>
      </trkpt>
      <trkpt lat="45.6305616" lon="7.8083965">
        <ele>1505</ele>
      </trkpt>
      <trkpt lat="45.6304104" lon="7.8090051">
        <ele>1510</ele>
      </trkpt>
      <trkpt lat="45.6303447" lon="7.8091693">
        <ele>1515</ele>
      </trkpt>
      <trkpt lat="45.6302959" lon="7.8092429">
        <ele>1519</ele>
      </trkpt>
      <trkpt lat="45.6300556" lon="7.8094981">
        <ele>1524</ele>
      </trkpt>
      <trkpt lat="45.6299854" lon="7.8096720">
        <ele>1529</ele>
      </trkpt>
      <trkpt lat="45.6298998" lon="7.8100967">
        <ele>1534</ele>
      </trkpt>
      <trkpt lat="45.6297990" lon="7.8103567">
        <ele>1539</ele>
      </trkpt>
      <trkpt lat="45.6296129" lon="7.8106336">
        <ele>1543</ele>
      </trkpt>
      <trkpt lat="45.6294301" lon="7.8111530">
        <ele>1548</ele>
      </trkpt>
      <trkpt lat="45.6294401" lon="7.8113430">
        <ele>1553</ele>
      </trkpt>
      <trkpt lat="45.6284513" lon="7.8118034">
        <ele>1558</ele>
      </trkpt>
      <trkpt lat="45.6282184" lon="7.8115643">
        <ele>1563</ele>
      </trkpt>
      <trkpt lat="45.6281301" lon="7.8116530">
        <ele>1567</ele>
      </trkpt>
      <trkpt lat="45.6280601" lon="7.8115630">
        <ele>1572</ele>
      </trkpt>
      <trkpt lat="45.6278701" lon="7.8115530">
        <ele>1577</ele>
      </trkpt>
      <trkpt lat="45.6277301" lon="7.8113330">
        <ele>1582</ele>
      </trkpt>
      <trkpt lat="45.6275501" lon="7.8113430">
        <ele>1587</ele>
      </trkpt>
      <trkpt lat="45.6274901" lon="7.8112630">
        <ele>1592</ele>
      </trkpt>
      <trkpt lat="45.6270001" lon="7.8113130">
        <ele>1596</ele>
      </trkpt>
      <trkpt lat="45.6267901" lon="7.8114530">
        <ele>1601</ele>
      </trkpt>
      <trkpt lat="45.6266801" lon="7.8113430">
        <ele>1606</ele>
      </trkpt>
      <trkpt lat="45.6264322" lon="7.8115989">
        <ele>1611</ele>
      </trkpt>
      <trkpt lat="45.6263701" lon="7.8116630">
        <ele>1616</ele>
      </trkpt>
      <trkpt lat="45.6263446" lon="7.8115547">
        <ele>1620</ele>
      </trkpt>
      <trkpt lat="45.6263301" lon="7.8114930">
        <ele>1625</ele>
      </trkpt>
      <trkpt lat="45.6263043" lon="7.8115332">
        <ele>1630</ele>
      </trkpt>
      <trkpt lat="45.6262401" lon="7.8116330">
        <ele>1635</ele>
      </trkpt>
      <trkpt lat="45.6261801" lon="7.8115630">
        <ele>1640</ele>
      </trkpt>
      <trkpt lat="45.6260701" lon="7.8116730">
        <ele>1644</ele>
      </trkpt>
      <trkpt lat="45.6260501" lon="7.8116030">
        <ele>1649</ele>
      </trkpt>
      <trkpt lat="45.6258201" lon="7.8116230">
        <ele>1654</ele>
      </trkpt>
      <trkpt lat="45.6254501" lon="7.8121530">
        <ele>1659</ele>
      </trkpt>
      <trkpt lat="45.6254001" lon="7.8120630">
        <ele>1664</ele>
      </trkpt>
      <trkpt lat="45.6252301" lon="7.8122030">
        <ele>1669</ele>
      </trkpt>
      <trkpt lat="45.6251201" lon="7.8121330">
        <ele>1673</ele>
      </trkpt>
      <trkpt lat="45.6249201" lon="7.8125030">
        <ele>1678</ele>
      </trkpt>
      <trkpt lat="45.6240681" lon="7.8127668">
        <ele>1683</ele>
      </trkpt>
    </trkseg>
  </trk>
</gpx>
