<?xml version="1.0" encoding="UTF-8"?>
<gpx version="1.1" creator="sentieri-vda" xmlns="http://www.topografix.com/GPX/1/1">
  <metadata>
    <name>Chenière -  Arpisson</name>
    <desc>Catasto Sentieri VdA — 49_S2</desc>
    <author><name>Regione Autonoma Valle d'Aosta</name></author>
  </metadata>
  <trk>
    <name>Chenière -  Arpisson</name>
    <src>Catasto Sentieri VdA (49_S2)</src>
    <trkseg>
      <trkpt lat="45.7010862" lon="7.3734250">
        <ele>621</ele>
      </trkpt>
      <trkpt lat="45.7013922" lon="7.3734650">
        <ele>626</ele>
      </trkpt>
      <trkpt lat="45.7016922" lon="7.3725650">
        <ele>631</ele>
      </trkpt>
      <trkpt lat="45.7019522" lon="7.3722450">
        <ele>637</ele>
      </trkpt>
      <trkpt lat="45.7026722" lon="7.3719950">
        <ele>642</ele>
      </trkpt>
      <trkpt lat="45.7026622" lon="7.3721450">
        <ele>647</ele>
      </trkpt>
      <trkpt lat="45.7027722" lon="7.3721250">
        <ele>652</ele>
      </trkpt>
      <trkpt lat="45.7028522" lon="7.3722550">
        <ele>657</ele>
      </trkpt>
      <trkpt lat="45.7031262" lon="7.3722510">
        <ele>662</ele>
      </trkpt>
      <trkpt lat="45.7032022" lon="7.3715950">
        <ele>668</ele>
      </trkpt>
      <trkpt lat="45.7033122" lon="7.3713250">
        <ele>673</ele>
      </trkpt>
      <trkpt lat="45.7036422" lon="7.3709350">
        <ele>678</ele>
      </trkpt>
      <trkpt lat="45.7036892" lon="7.3703040">
        <ele>683</ele>
      </trkpt>
      <trkpt lat="45.7038422" lon="7.3702650">
        <ele>688</ele>
      </trkpt>
      <trkpt lat="45.7042392" lon="7.3688200">
        <ele>693</ele>
      </trkpt>
      <trkpt lat="45.7045922" lon="7.3685350">
        <ele>699</ele>
      </trkpt>
      <trkpt lat="45.7062222" lon="7.3657750">
        <ele>704</ele>
      </trkpt>
      <trkpt lat="45.7064222" lon="7.3644450">
        <ele>709</ele>
      </trkpt>
      <trkpt lat="45.7064822" lon="7.3641650">
        <ele>714</ele>
      </trkpt>
      <trkpt lat="45.7067922" lon="7.3637550">
        <ele>719</ele>
      </trkpt>
      <trkpt lat="45.7067122" lon="7.3629550">
        <ele>724</ele>
      </trkpt>
      <trkpt lat="45.7067722" lon="7.3630050">
        <ele>730</ele>
      </trkpt>
      <trkpt lat="45.7069622" lon="7.3623750">
        <ele>735</ele>
      </trkpt>
      <trkpt lat="45.7067022" lon="7.3616750">
        <ele>740</ele>
      </trkpt>
      <trkpt lat="45.7069922" lon="7.3615450">
        <ele>745</ele>
      </trkpt>
      <trkpt lat="45.7068922" lon="7.3615350">
        <ele>750</ele>
      </trkpt>
      <trkpt lat="45.7064122" lon="7.3608750">
        <ele>755</ele>
      </trkpt>
      <trkpt lat="45.7066122" lon="7.3606650">
        <ele>761</ele>
      </trkpt>
      <trkpt lat="45.7070522" lon="7.3608050">
        <ele>766</ele>
      </trkpt>
      <trkpt lat="45.7072922" lon="7.3607150">
        <ele>771</ele>
      </trkpt>
      <trkpt lat="45.7077422" lon="7.3611050">
        <ele>776</ele>
      </trkpt>
      <trkpt lat="45.7079822" lon="7.3614950">
        <ele>781</ele>
      </trkpt>
      <trkpt lat="45.7080322" lon="7.3613850">
        <ele>786</ele>
      </trkpt>
      <trkpt lat="45.7081322" lon="7.3615550">
        <ele>792</ele>
      </trkpt>
      <trkpt lat="45.7088422" lon="7.3621550">
        <ele>797</ele>
      </trkpt>
      <trkpt lat="45.7089822" lon="7.3621450">
        <ele>802</ele>
      </trkpt>
      <trkpt lat="45.7090522" lon="7.3616950">
        <ele>807</ele>
      </trkpt>
      <trkpt lat="45.7092422" lon="7.3619250">
        <ele>812</ele>
      </trkpt>
      <trkpt lat="45.7093622" lon="7.3619250">
        <ele>817</ele>
      </trkpt>
      <trkpt lat="45.7093422" lon="7.3604850">
        <ele>823</ele>
      </trkpt>
      <trkpt lat="45.7093772" lon="7.3604850">
        <ele>828</ele>
      </trkpt>
      <trkpt lat="45.7095322" lon="7.3606550">
        <ele>833</ele>
      </trkpt>
      <trkpt lat="45.7096522" lon="7.3608750">
        <ele>838</ele>
      </trkpt>
      <trkpt lat="45.7098722" lon="7.3609250">
        <ele>843</ele>
      </trkpt>
      <trkpt lat="45.7102522" lon="7.3617650">
        <ele>848</ele>
      </trkpt>
      <trkpt lat="45.7104022" lon="7.3619150">
        <ele>854</ele>
      </trkpt>
      <trkpt lat="45.7108722" lon="7.3627650">
        <ele>859</ele>
      </trkpt>
      <trkpt lat="45.7113422" lon="7.3631850">
        <ele>864</ele>
      </trkpt>
      <trkpt lat="45.7115222" lon="7.3643350">
        <ele>869</ele>
      </trkpt>
      <trkpt lat="45.7114542" lon="7.3645300">
        <ele>874</ele>
      </trkpt>
      <trkpt lat="45.7118609" lon="7.3660155">
        <ele>879</ele>
      </trkpt>
      <trkpt lat="45.7119758" lon="7.3658303">
        <ele>885</ele>
      </trkpt>
      <trkpt lat="45.7120886" lon="7.3659457">
        <ele>890</ele>
      </trkpt>
      <trkpt lat="45.7120773" lon="7.3657787">
        <ele>895</ele>
      </trkpt>
      <trkpt lat="45.7122215" lon="7.3657745">
        <ele>900</ele>
      </trkpt>
      <trkpt lat="45.7121411" lon="7.3654999">
        <ele>905</ele>
      </trkpt>
      <trkpt lat="45.7121817" lon="7.3655019">
        <ele>910</ele>
      </trkpt>
      <trkpt lat="45.7122079" lon="7.3654465">
        <ele>916</ele>
      </trkpt>
      <trkpt lat="45.7122417" lon="7.3652914">
        <ele>921</ele>
      </trkpt>
      <trkpt lat="45.7122852" lon="7.3651905">
        <ele>926</ele>
      </trkpt>
      <trkpt lat="45.7123251" lon="7.3651476">
        <ele>931</ele>
      </trkpt>
      <trkpt lat="45.7123878" lon="7.3651233">
        <ele>936</ele>
      </trkpt>
      <trkpt lat="45.7124866" lon="7.3651140">
        <ele>941</ele>
      </trkpt>
      <trkpt lat="45.7126491" lon="7.3651478">
        <ele>947</ele>
      </trkpt>
      <trkpt lat="45.7127267" lon="7.3652226">
        <ele>952</ele>
      </trkpt>
      <trkpt lat="45.7127868" lon="7.3653333">
        <ele>957</ele>
      </trkpt>
      <trkpt lat="45.7128279" lon="7.3653771">
        <ele>962</ele>
      </trkpt>
      <trkpt lat="45.7129232" lon="7.3654321">
        <ele>967</ele>
      </trkpt>
      <trkpt lat="45.7130223" lon="7.3654356">
        <ele>972</ele>
      </trkpt>
      <trkpt lat="45.7131967" lon="7.3653599">
        <ele>978</ele>
      </trkpt>
      <trkpt lat="45.7132723" lon="7.3652934">
        <ele>983</ele>
      </trkpt>
      <trkpt lat="45.7133910" lon="7.3650973">
        <ele>988</ele>
      </trkpt>
      <trkpt lat="45.7135908" lon="7.3649084">
        <ele>993</ele>
      </trkpt>
      <trkpt lat="45.7137582" lon="7.3646561">
        <ele>998</ele>
      </trkpt>
      <trkpt lat="45.7139111" lon="7.3643337">
        <ele>1003</ele>
      </trkpt>
      <trkpt lat="45.7140300" lon="7.3638388">
        <ele>1009</ele>
      </trkpt>
      <trkpt lat="45.7140377" lon="7.3637454">
        <ele>1014</ele>
      </trkpt>
      <trkpt lat="45.7140085" lon="7.3635953">
        <ele>1019</ele>
      </trkpt>
      <trkpt lat="45.7139480" lon="7.3634589">
        <ele>1024</ele>
      </trkpt>
      <trkpt lat="45.7138679" lon="7.3632043">
        <ele>1029</ele>
      </trkpt>
      <trkpt lat="45.7138125" lon="7.3627916">
        <ele>1034</ele>
      </trkpt>
      <trkpt lat="45.7137471" lon="7.3626233">
        <ele>1040</ele>
      </trkpt>
      <trkpt lat="45.7137388" lon="7.3625207">
        <ele>1045</ele>
      </trkpt>
      <trkpt lat="45.7137584" lon="7.3624720">
        <ele>1050</ele>
      </trkpt>
      <trkpt lat="45.7138431" lon="7.3624181">
        <ele>1055</ele>
      </trkpt>
      <trkpt lat="45.7139693" lon="7.3624273">
        <ele>1060</ele>
      </trkpt>
      <trkpt lat="45.7142791" lon="7.3626944">
        <ele>1065</ele>
      </trkpt>
      <trkpt lat="45.7145880" lon="7.3628974">
        <ele>1071</ele>
      </trkpt>
      <trkpt lat="45.7146386" lon="7.3629730">
        <ele>1076</ele>
      </trkpt>
      <trkpt lat="45.7147206" lon="7.3630381">
        <ele>1081</ele>
      </trkpt>
      <trkpt lat="45.7147257" lon="7.3627681">
        <ele>1086</ele>
      </trkpt>
      <trkpt lat="45.7146437" lon="7.3623883">
        <ele>1091</ele>
      </trkpt>
      <trkpt lat="45.7144398" lon="7.3619767">
        <ele>1096</ele>
      </trkpt>
      <trkpt lat="45.7139191" lon="7.3605015">
        <ele>1102</ele>
      </trkpt>
      <trkpt lat="45.7138021" lon="7.3598754">
        <ele>1107</ele>
      </trkpt>
      <trkpt lat="45.7137814" lon="7.3596832">
        <ele>1112</ele>
      </trkpt>
      <trkpt lat="45.7137805" lon="7.3593107">
        <ele>1117</ele>
      </trkpt>
      <trkpt lat="45.7137644" lon="7.3591248">
        <ele>1122</ele>
      </trkpt>
      <trkpt lat="45.7136875" lon="7.3587898">
        <ele>1127</ele>
      </trkpt>
      <trkpt lat="45.7136677" lon="7.3585078">
        <ele>1133</ele>
      </trkpt>
      <trkpt lat="45.7136142" lon="7.3577609">
        <ele>1138</ele>
      </trkpt>
      <trkpt lat="45.7135558" lon="7.3574543">
        <ele>1143</ele>
      </trkpt>
      <trkpt lat="45.7134820" lon="7.3573247">
        <ele>1148</ele>
      </trkpt>
      <trkpt lat="45.7134053" lon="7.3570026">
        <ele>1153</ele>
      </trkpt>
      <trkpt lat="45.7133840" lon="7.3567719">
        <ele>1158</ele>
      </trkpt>
      <trkpt lat="45.7133881" lon="7.3564313">
        <ele>1164</ele>
      </trkpt>
      <trkpt lat="45.7133649" lon="7.3562265">
        <ele>1169</ele>
      </trkpt>
      <trkpt lat="45.7132737" lon="7.3558241">
        <ele>1174</ele>
      </trkpt>
      <trkpt lat="45.7132897" lon="7.3557475">
        <ele>1179</ele>
      </trkpt>
      <trkpt lat="45.7133414" lon="7.3556345">
        <ele>1184</ele>
      </trkpt>
      <trkpt lat="45.7134377" lon="7.3554984">
        <ele>1189</ele>
      </trkpt>
      <trkpt lat="45.7133620" lon="7.3552543">
        <ele>1195</ele>
      </trkpt>
      <trkpt lat="45.7133991" lon="7.3551885">
        <ele>1200</ele>
      </trkpt>
      <trkpt lat="45.7135143" lon="7.3551942">
        <ele>1205</ele>
      </trkpt>
      <trkpt lat="45.7135607" lon="7.3552924">
        <ele>1210</ele>
      </trkpt>
      <trkpt lat="45.7136313" lon="7.3555024">
        <ele>1215</ele>
      </trkpt>
      <trkpt lat="45.7136491" lon="7.3558038">
        <ele>1220</ele>
      </trkpt>
      <trkpt lat="45.7136835" lon="7.3560083">
        <ele>1226</ele>
      </trkpt>
      <trkpt lat="45.7137878" lon="7.3563714">
        <ele>1231</ele>
      </trkpt>
      <trkpt lat="45.7138947" lon="7.3566092">
        <ele>1236</ele>
      </trkpt>
      <trkpt lat="45.7139497" lon="7.3566815">
        <ele>1241</ele>
      </trkpt>
      <trkpt lat="45.7139435" lon="7.3565628">
        <ele>1246</ele>
      </trkpt>
      <trkpt lat="45.7138890" lon="7.3563685">
        <ele>1251</ele>
      </trkpt>
      <trkpt lat="45.7138523" lon="7.3561672">
        <ele>1257</ele>
      </trkpt>
      <trkpt lat="45.7138733" lon="7.3560638">
        <ele>1262</ele>
      </trkpt>
      <trkpt lat="45.7138999" lon="7.3560309">
        <ele>1267</ele>
      </trkpt>
      <trkpt lat="45.7140714" lon="7.3559070">
        <ele>1272</ele>
      </trkpt>
      <trkpt lat="45.7142062" lon="7.3558840">
        <ele>1277</ele>
      </trkpt>
      <trkpt lat="45.7143192" lon="7.3557720">
        <ele>1282</ele>
      </trkpt>
      <trkpt lat="45.7144322" lon="7.3561650">
        <ele>1288</ele>
      </trkpt>
      <trkpt lat="45.7146522" lon="7.3563350">
        <ele>1293</ele>
      </trkpt>
      <trkpt lat="45.7150322" lon="7.3562550">
        <ele>1298</ele>
      </trkpt>
      <trkpt lat="45.7152382" lon="7.3560980">
        <ele>1303</ele>
      </trkpt>
      <trkpt lat="45.7152932" lon="7.3559330">
        <ele>1308</ele>
      </trkpt>
      <trkpt lat="45.7155802" lon="7.3560340">
        <ele>1313</ele>
      </trkpt>
      <trkpt lat="45.7158572" lon="7.3567050">
        <ele>1319</ele>
      </trkpt>
      <trkpt lat="45.7161292" lon="7.3571050">
        <ele>1324</ele>
      </trkpt>
      <trkpt lat="45.7164622" lon="7.3567550">
        <ele>1329</ele>
      </trkpt>
      <trkpt lat="45.7166022" lon="7.3569150">
        <ele>1334</ele>
      </trkpt>
      <trkpt lat="45.7166822" lon="7.3566950">
        <ele>1339</ele>
      </trkpt>
      <trkpt lat="45.7173222" lon="7.3572950">
        <ele>1344</ele>
      </trkpt>
      <trkpt lat="45.7176522" lon="7.3574450">
        <ele>1350</ele>
      </trkpt>
      <trkpt lat="45.7179522" lon="7.3574650">
        <ele>1355</ele>
      </trkpt>
      <trkpt lat="45.7181572" lon="7.3576980">
        <ele>1360</ele>
      </trkpt>
      <trkpt lat="45.7181922" lon="7.3584050">
        <ele>1365</ele>
      </trkpt>
      <trkpt lat="45.7184108" lon="7.3587005">
        <ele>1370</ele>
      </trkpt>
      <trkpt lat="45.7184780" lon="7.3589419">
        <ele>1375</ele>
      </trkpt>
      <trkpt lat="45.7185572" lon="7.3594407">
        <ele>1381</ele>
      </trkpt>
      <trkpt lat="45.7187299" lon="7.3598693">
        <ele>1386</ele>
      </trkpt>
      <trkpt lat="45.7187631" lon="7.3603052">
        <ele>1391</ele>
      </trkpt>
      <trkpt lat="45.7189222" lon="7.3605590">
        <ele>1396</ele>
      </trkpt>
      <trkpt lat="45.7190122" lon="7.3606850">
        <ele>1401</ele>
      </trkpt>
      <trkpt lat="45.7191022" lon="7.3607150">
        <ele>1406</ele>
      </trkpt>
      <trkpt lat="45.7191222" lon="7.3607550">
        <ele>1412</ele>
      </trkpt>
      <trkpt lat="45.7193722" lon="7.3609750">
        <ele>1417</ele>
      </trkpt>
      <trkpt lat="45.7195022" lon="7.3611450">
        <ele>1422</ele>
      </trkpt>
      <trkpt lat="45.7197022" lon="7.3612250">
        <ele>1427</ele>
      </trkpt>
      <trkpt lat="45.7199122" lon="7.3614050">
        <ele>1432</ele>
      </trkpt>
      <trkpt lat="45.7200656" lon="7.3614781">
        <ele>1437</ele>
      </trkpt>
      <trkpt lat="45.7201295" lon="7.3619054">
        <ele>1443</ele>
      </trkpt>
      <trkpt lat="45.7201722" lon="7.3630250">
        <ele>1448</ele>
      </trkpt>
      <trkpt lat="45.7204022" lon="7.3633350">
        <ele>1453</ele>
      </trkpt>
      <trkpt lat="45.7204822" lon="7.3635750">
        <ele>1458</ele>
      </trkpt>
      <trkpt lat="45.7207022" lon="7.3640650">
        <ele>1463</ele>
      </trkpt>
      <trkpt lat="45.7206922" lon="7.3641950">
        <ele>1468</ele>
      </trkpt>
      <trkpt lat="45.7207422" lon="7.3642050">
        <ele>1474</ele>
      </trkpt>
      <trkpt lat="45.7207322" lon="7.3644650">
        <ele>1479</ele>
      </trkpt>
      <trkpt lat="45.7207522" lon="7.3645350">
        <ele>1484</ele>
      </trkpt>
      <trkpt lat="45.7208422" lon="7.3646450">
        <ele>1489</ele>
      </trkpt>
      <trkpt lat="45.7208922" lon="7.3647550">
        <ele>1494</ele>
      </trkpt>
      <trkpt lat="45.7209642" lon="7.3648240">
        <ele>1499</ele>
      </trkpt>
      <trkpt lat="45.7211622" lon="7.3647850">
        <ele>1505</ele>
      </trkpt>
      <trkpt lat="45.7213922" lon="7.3648350">
        <ele>1510</ele>
      </trkpt>
      <trkpt lat="45.7214722" lon="7.3645950">
        <ele>1515</ele>
      </trkpt>
      <trkpt lat="45.7215422" lon="7.3644450">
        <ele>1520</ele>
      </trkpt>
      <trkpt lat="45.7215522" lon="7.3641050">
        <ele>1525</ele>
      </trkpt>
      <trkpt lat="45.7216222" lon="7.3641050">
        <ele>1530</ele>
      </trkpt>
      <trkpt lat="45.7217622" lon="7.3641950">
        <ele>1536</ele>
      </trkpt>
      <trkpt lat="45.7218222" lon="7.3641850">
        <ele>1541</ele>
      </trkpt>
      <trkpt lat="45.7219322" lon="7.3642350">
        <ele>1546</ele>
      </trkpt>
      <trkpt lat="45.7220622" lon="7.3641650">
        <ele>1551</ele>
      </trkpt>
      <trkpt lat="45.7220822" lon="7.3640950">
        <ele>1556</ele>
      </trkpt>
      <trkpt lat="45.7220322" lon="7.3640350">
        <ele>1561</ele>
      </trkpt>
      <trkpt lat="45.7220322" lon="7.3639250">
        <ele>1567</ele>
      </trkpt>
      <trkpt lat="45.7220522" lon="7.3639050">
        <ele>1572</ele>
      </trkpt>
      <trkpt lat="45.7220922" lon="7.3639650">
        <ele>1577</ele>
      </trkpt>
      <trkpt lat="45.7221522" lon="7.3639250">
        <ele>1582</ele>
      </trkpt>
      <trkpt lat="45.7221022" lon="7.3633650">
        <ele>1587</ele>
      </trkpt>
      <trkpt lat="45.7218422" lon="7.3632050">
        <ele>1592</ele>
      </trkpt>
      <trkpt lat="45.7219122" lon="7.3631850">
        <ele>1598</ele>
      </trkpt>
      <trkpt lat="45.7219622" lon="7.3632050">
        <ele>1603</ele>
      </trkpt>
      <trkpt lat="45.7220022" lon="7.3631050">
        <ele>1608</ele>
      </trkpt>
      <trkpt lat="45.7220122" lon="7.3629650">
        <ele>1613</ele>
      </trkpt>
      <trkpt lat="45.7219622" lon="7.3628150">
        <ele>1618</ele>
      </trkpt>
      <trkpt lat="45.7218822" lon="7.3627750">
        <ele>1623</ele>
      </trkpt>
      <trkpt lat="45.7219222" lon="7.3626350">
        <ele>1629</ele>
      </trkpt>
      <trkpt lat="45.7220022" lon="7.3626250">
        <ele>1634</ele>
      </trkpt>
      <trkpt lat="45.7220622" lon="7.3625650">
        <ele>1639</ele>
      </trkpt>
      <trkpt lat="45.7220222" lon="7.3625150">
        <ele>1644</ele>
      </trkpt>
      <trkpt lat="45.7220222" lon="7.3622050">
        <ele>1649</ele>
      </trkpt>
      <trkpt lat="45.7221922" lon="7.3622150">
        <ele>1654</ele>
      </trkpt>
      <trkpt lat="45.7222722" lon="7.3622750">
        <ele>1660</ele>
      </trkpt>
      <trkpt lat="45.7224022" lon="7.3622050">
        <ele>1665</ele>
      </trkpt>
      <trkpt lat="45.7224122" lon="7.3619550">
        <ele>1670</ele>
      </trkpt>
      <trkpt lat="45.7225212" lon="7.3618130">
        <ele>1675</ele>
      </trkpt>
      <trkpt lat="45.7225802" lon="7.3617240">
        <ele>1680</ele>
      </trkpt>
      <trkpt lat="45.7226132" lon="7.3615170">
        <ele>1685</ele>
      </trkpt>
      <trkpt lat="45.7226102" lon="7.3613760">
        <ele>1691</ele>
      </trkpt>
      <trkpt lat="45.7226222" lon="7.3612550">
        <ele>1696</ele>
      </trkpt>
      <trkpt lat="45.7225922" lon="7.3610750">
        <ele>1701</ele>
      </trkpt>
      <trkpt lat="45.7226722" lon="7.3608250">
        <ele>1706</ele>
      </trkpt>
      <trkpt lat="45.7227222" lon="7.3602850">
        <ele>1711</ele>
      </trkpt>
      <trkpt lat="45.7227822" lon="7.3601950">
        <ele>1716</ele>
      </trkpt>
      <trkpt lat="45.7228322" lon="7.3598650">
        <ele>1722</ele>
      </trkpt>
      <trkpt lat="45.7228922" lon="7.3598250">
        <ele>1727</ele>
      </trkpt>
      <trkpt lat="45.7229522" lon="7.3598250">
        <ele>1732</ele>
      </trkpt>
      <trkpt lat="45.7230722" lon="7.3595750">
        <ele>1737</ele>
      </trkpt>
      <trkpt lat="45.7231022" lon="7.3594450">
        <ele>1742</ele>
      </trkpt>
      <trkpt lat="45.7230722" lon="7.3591750">
        <ele>1747</ele>
      </trkpt>
      <trkpt lat="45.7231722" lon="7.3588750">
        <ele>1753</ele>
      </trkpt>
      <trkpt lat="45.7232222" lon="7.3582950">
        <ele>1758</ele>
      </trkpt>
      <trkpt lat="45.7233822" lon="7.3580250">
        <ele>1763</ele>
      </trkpt>
      <trkpt lat="45.7233722" lon="7.3577750">
        <ele>1768</ele>
      </trkpt>
      <trkpt lat="45.7234322" lon="7.3574350">
        <ele>1773</ele>
      </trkpt>
      <trkpt lat="45.7234022" lon="7.3571050">
        <ele>1778</ele>
      </trkpt>
      <trkpt lat="45.7232922" lon="7.3567150">
        <ele>1784</ele>
      </trkpt>
      <trkpt lat="45.7233322" lon="7.3564450">
        <ele>1789</ele>
      </trkpt>
      <trkpt lat="45.7232822" lon="7.3561750">
        <ele>1794</ele>
      </trkpt>
      <trkpt lat="45.7233022" lon="7.3560550">
        <ele>1799</ele>
      </trkpt>
      <trkpt lat="45.7232822" lon="7.3558350">
        <ele>1804</ele>
      </trkpt>
      <trkpt lat="45.7233422" lon="7.3557850">
        <ele>1809</ele>
      </trkpt>
      <trkpt lat="45.7234322" lon="7.3555650">
        <ele>1815</ele>
      </trkpt>
      <trkpt lat="45.7234022" lon="7.3554650">
        <ele>1820</ele>
      </trkpt>
      <trkpt lat="45.7234422" lon="7.3553850">
        <ele>1825</ele>
      </trkpt>
      <trkpt lat="45.7235342" lon="7.3554190">
        <ele>1830</ele>
      </trkpt>
      <trkpt lat="45.7236102" lon="7.3554170">
        <ele>1835</ele>
      </trkpt>
      <trkpt lat="45.7237222" lon="7.3552770">
        <ele>1840</ele>
      </trkpt>
      <trkpt lat="45.7238322" lon="7.3553650">
        <ele>1846</ele>
      </trkpt>
      <trkpt lat="45.7238922" lon="7.3553850">
        <ele>1851</ele>
      </trkpt>
      <trkpt lat="45.7241022" lon="7.3553850">
        <ele>1856</ele>
      </trkpt>
      <trkpt lat="45.7241822" lon="7.3554050">
        <ele>1861</ele>
      </trkpt>
      <trkpt lat="45.7243332" lon="7.3553680">
        <ele>1866</ele>
      </trkpt>
      <trkpt lat="45.7243972" lon="7.3554000">
        <ele>1871</ele>
      </trkpt>
      <trkpt lat="45.7244692" lon="7.3553980">
        <ele>1877</ele>
      </trkpt>
      <trkpt lat="45.7245322" lon="7.3553350">
        <ele>1882</ele>
      </trkpt>
      <trkpt lat="45.7246822" lon="7.3548950">
        <ele>1887</ele>
      </trkpt>
      <trkpt lat="45.7249522" lon="7.3546450">
        <ele>1892</ele>
      </trkpt>
      <trkpt lat="45.7250722" lon="7.3543950">
        <ele>1897</ele>
      </trkpt>
      <trkpt lat="45.7251422" lon="7.3543350">
        <ele>1902</ele>
      </trkpt>
      <trkpt lat="45.7251922" lon="7.3541730">
        <ele>1908</ele>
      </trkpt>
      <trkpt lat="45.7251122" lon="7.3541850">
        <ele>1913</ele>
      </trkpt>
      <trkpt lat="45.7250522" lon="7.3541150">
        <ele>1918</ele>
      </trkpt>
      <trkpt lat="45.7248456" lon="7.3537679">
        <ele>1923</ele>
      </trkpt>
      <trkpt lat="45.7248456" lon="7.3536179">
        <ele>1928</ele>
      </trkpt>
      <trkpt lat="45.7250101" lon="7.3534625">
        <ele>1933</ele>
      </trkpt>
      <trkpt lat="45.7252947" lon="7.3530436">
        <ele>1939</ele>
      </trkpt>
      <trkpt lat="45.7253201" lon="7.3530171">
        <ele>1944</ele>
      </trkpt>
      <trkpt lat="45.7253633" lon="7.3529878">
        <ele>1949</ele>
      </trkpt>
    </trkseg>
  </trk>
</gpx>
