<?xml version="1.0" encoding="UTF-8"?>
<gpx version="1.1" creator="sentieri-vda" xmlns="http://www.topografix.com/GPX/1/1">
  <metadata>
    <name>Cappella Sant'Erasmo - Reserve Naturelle de Holay</name>
    <desc>Catasto Sentieri VdA — 52_S4</desc>
    <author><name>Regione Autonoma Valle d'Aosta</name></author>
  </metadata>
  <trk>
    <name>Cappella Sant'Erasmo - Reserve Naturelle de Holay</name>
    <src>Catasto Sentieri VdA (52_S4)</src>
    <trkseg>
      <trkpt lat="45.5967092" lon="7.8113427">
        <ele>320</ele>
      </trkpt>
      <trkpt lat="45.5968111" lon="7.8113330">
        <ele>322</ele>
      </trkpt>
      <trkpt lat="45.5969411" lon="7.8113530">
        <ele>324</ele>
      </trkpt>
      <trkpt lat="45.5970911" lon="7.8111430">
        <ele>327</ele>
      </trkpt>
      <trkpt lat="45.5971711" lon="7.8111130">
        <ele>329</ele>
      </trkpt>
      <trkpt lat="45.5973111" lon="7.8113030">
        <ele>331</ele>
      </trkpt>
      <trkpt lat="45.5974211" lon="7.8113730">
        <ele>333</ele>
      </trkpt>
      <trkpt lat="45.5976811" lon="7.8113930">
        <ele>335</ele>
      </trkpt>
      <trkpt lat="45.5977411" lon="7.8113530">
        <ele>338</ele>
      </trkpt>
      <trkpt lat="45.5977711" lon="7.8112930">
        <ele>340</ele>
      </trkpt>
      <trkpt lat="45.5977911" lon="7.8112230">
        <ele>342</ele>
      </trkpt>
      <trkpt lat="45.5977811" lon="7.8111630">
        <ele>344</ele>
      </trkpt>
      <trkpt lat="45.5977911" lon="7.8111630">
        <ele>347</ele>
      </trkpt>
      <trkpt lat="45.5977411" lon="7.8107730">
        <ele>349</ele>
      </trkpt>
      <trkpt lat="45.5974711" lon="7.8102830">
        <ele>351</ele>
      </trkpt>
      <trkpt lat="45.5974111" lon="7.8102230">
        <ele>353</ele>
      </trkpt>
      <trkpt lat="45.5973611" lon="7.8101130">
        <ele>355</ele>
      </trkpt>
      <trkpt lat="45.5973411" lon="7.8100030">
        <ele>358</ele>
      </trkpt>
      <trkpt lat="45.5973611" lon="7.8100930">
        <ele>360</ele>
      </trkpt>
      <trkpt lat="45.5973611" lon="7.8099730">
        <ele>362</ele>
      </trkpt>
      <trkpt lat="45.5974711" lon="7.8099430">
        <ele>364</ele>
      </trkpt>
      <trkpt lat="45.5976211" lon="7.8097430">
        <ele>366</ele>
      </trkpt>
      <trkpt lat="45.5976011" lon="7.8096030">
        <ele>369</ele>
      </trkpt>
      <trkpt lat="45.5975711" lon="7.8095430">
        <ele>371</ele>
      </trkpt>
      <trkpt lat="45.5975211" lon="7.8095230">
        <ele>373</ele>
      </trkpt>
      <trkpt lat="45.5975311" lon="7.8094730">
        <ele>375</ele>
      </trkpt>
      <trkpt lat="45.5974811" lon="7.8094730">
        <ele>377</ele>
      </trkpt>
      <trkpt lat="45.5974611" lon="7.8094530">
        <ele>380</ele>
      </trkpt>
      <trkpt lat="45.5974711" lon="7.8093530">
        <ele>382</ele>
      </trkpt>
      <trkpt lat="45.5974611" lon="7.8093430">
        <ele>384</ele>
      </trkpt>
      <trkpt lat="45.5974211" lon="7.8094030">
        <ele>386</ele>
      </trkpt>
      <trkpt lat="45.5973511" lon="7.8093330">
        <ele>388</ele>
      </trkpt>
      <trkpt lat="45.5973111" lon="7.8093530">
        <ele>391</ele>
      </trkpt>
      <trkpt lat="45.5972711" lon="7.8094330">
        <ele>393</ele>
      </trkpt>
      <trkpt lat="45.5971911" lon="7.8094730">
        <ele>395</ele>
      </trkpt>
      <trkpt lat="45.5971411" lon="7.8095330">
        <ele>397</ele>
      </trkpt>
      <trkpt lat="45.5970711" lon="7.8095330">
        <ele>400</ele>
      </trkpt>
      <trkpt lat="45.5970011" lon="7.8096330">
        <ele>402</ele>
      </trkpt>
      <trkpt lat="45.5968811" lon="7.8095830">
        <ele>404</ele>
      </trkpt>
      <trkpt lat="45.5968611" lon="7.8095930">
        <ele>406</ele>
      </trkpt>
      <trkpt lat="45.5968411" lon="7.8096430">
        <ele>408</ele>
      </trkpt>
      <trkpt lat="45.5967611" lon="7.8096830">
        <ele>411</ele>
      </trkpt>
      <trkpt lat="45.5966611" lon="7.8095630">
        <ele>413</ele>
      </trkpt>
      <trkpt lat="45.5966811" lon="7.8095030">
        <ele>415</ele>
      </trkpt>
      <trkpt lat="45.5965111" lon="7.8092430">
        <ele>417</ele>
      </trkpt>
      <trkpt lat="45.5965211" lon="7.8092030">
        <ele>419</ele>
      </trkpt>
      <trkpt lat="45.5965111" lon="7.8091030">
        <ele>422</ele>
      </trkpt>
      <trkpt lat="45.5964611" lon="7.8089430">
        <ele>424</ele>
      </trkpt>
      <trkpt lat="45.5962211" lon="7.8087930">
        <ele>426</ele>
      </trkpt>
      <trkpt lat="45.5961911" lon="7.8087830">
        <ele>428</ele>
      </trkpt>
      <trkpt lat="45.5960411" lon="7.8088930">
        <ele>430</ele>
      </trkpt>
      <trkpt lat="45.5960311" lon="7.8089230">
        <ele>433</ele>
      </trkpt>
      <trkpt lat="45.5958511" lon="7.8089030">
        <ele>435</ele>
      </trkpt>
      <trkpt lat="45.5957511" lon="7.8089430">
        <ele>437</ele>
      </trkpt>
      <trkpt lat="45.5956411" lon="7.8090230">
        <ele>439</ele>
      </trkpt>
      <trkpt lat="45.5954011" lon="7.8091130">
        <ele>441</ele>
      </trkpt>
      <trkpt lat="45.5953011" lon="7.8090530">
        <ele>444</ele>
      </trkpt>
      <trkpt lat="45.5949911" lon="7.8090730">
        <ele>446</ele>
      </trkpt>
      <trkpt lat="45.5949374" lon="7.8090514">
        <ele>448</ele>
      </trkpt>
      <trkpt lat="45.5948350" lon="7.8089972">
        <ele>450</ele>
      </trkpt>
      <trkpt lat="45.5946716" lon="7.8090490">
        <ele>453</ele>
      </trkpt>
      <trkpt lat="45.5944664" lon="7.8090338">
        <ele>455</ele>
      </trkpt>
      <trkpt lat="45.5944299" lon="7.8089833">
        <ele>457</ele>
      </trkpt>
      <trkpt lat="45.5942696" lon="7.8091449">
        <ele>459</ele>
      </trkpt>
      <trkpt lat="45.5941652" lon="7.8090586">
        <ele>461</ele>
      </trkpt>
      <trkpt lat="45.5941322" lon="7.8089155">
        <ele>464</ele>
      </trkpt>
      <trkpt lat="45.5941675" lon="7.8088534">
        <ele>466</ele>
      </trkpt>
      <trkpt lat="45.5943140" lon="7.8086568">
        <ele>468</ele>
      </trkpt>
      <trkpt lat="45.5944618" lon="7.8085940">
        <ele>470</ele>
      </trkpt>
      <trkpt lat="45.5946594" lon="7.8085505">
        <ele>472</ele>
      </trkpt>
      <trkpt lat="45.5947358" lon="7.8085361">
        <ele>475</ele>
      </trkpt>
      <trkpt lat="45.5947965" lon="7.8085228">
        <ele>477</ele>
      </trkpt>
      <trkpt lat="45.5948229" lon="7.8084544">
        <ele>479</ele>
      </trkpt>
      <trkpt lat="45.5947911" lon="7.8083830">
        <ele>481</ele>
      </trkpt>
      <trkpt lat="45.5948011" lon="7.8083830">
        <ele>483</ele>
      </trkpt>
      <trkpt lat="45.5947911" lon="7.8083430">
        <ele>486</ele>
      </trkpt>
      <trkpt lat="45.5947511" lon="7.8083030">
        <ele>488</ele>
      </trkpt>
      <trkpt lat="45.5947411" lon="7.8082330">
        <ele>490</ele>
      </trkpt>
      <trkpt lat="45.5947511" lon="7.8081830">
        <ele>492</ele>
      </trkpt>
      <trkpt lat="45.5950711" lon="7.8081430">
        <ele>494</ele>
      </trkpt>
      <trkpt lat="45.5951711" lon="7.8081530">
        <ele>497</ele>
      </trkpt>
      <trkpt lat="45.5952357" lon="7.8081961">
        <ele>499</ele>
      </trkpt>
      <trkpt lat="45.5952511" lon="7.8081430">
        <ele>501</ele>
      </trkpt>
      <trkpt lat="45.5952811" lon="7.8081230">
        <ele>503</ele>
      </trkpt>
      <trkpt lat="45.5953611" lon="7.8081730">
        <ele>506</ele>
      </trkpt>
      <trkpt lat="45.5953811" lon="7.8081430">
        <ele>508</ele>
      </trkpt>
      <trkpt lat="45.5954411" lon="7.8081830">
        <ele>510</ele>
      </trkpt>
      <trkpt lat="45.5955611" lon="7.8082030">
        <ele>512</ele>
      </trkpt>
      <trkpt lat="45.5955611" lon="7.8081630">
        <ele>514</ele>
      </trkpt>
      <trkpt lat="45.5955311" lon="7.8081030">
        <ele>517</ele>
      </trkpt>
      <trkpt lat="45.5956111" lon="7.8081330">
        <ele>519</ele>
      </trkpt>
      <trkpt lat="45.5957611" lon="7.8081330">
        <ele>521</ele>
      </trkpt>
      <trkpt lat="45.5957411" lon="7.8080930">
        <ele>523</ele>
      </trkpt>
      <trkpt lat="45.5957611" lon="7.8080630">
        <ele>525</ele>
      </trkpt>
      <trkpt lat="45.5958611" lon="7.8080230">
        <ele>528</ele>
      </trkpt>
      <trkpt lat="45.5959411" lon="7.8079530">
        <ele>530</ele>
      </trkpt>
      <trkpt lat="45.5958811" lon="7.8078930">
        <ele>532</ele>
      </trkpt>
      <trkpt lat="45.5958811" lon="7.8078430">
        <ele>534</ele>
      </trkpt>
      <trkpt lat="45.5959611" lon="7.8077830">
        <ele>536</ele>
      </trkpt>
      <trkpt lat="45.5959211" lon="7.8077330">
        <ele>539</ele>
      </trkpt>
      <trkpt lat="45.5961011" lon="7.8076430">
        <ele>541</ele>
      </trkpt>
      <trkpt lat="45.5960811" lon="7.8075930">
        <ele>543</ele>
      </trkpt>
      <trkpt lat="45.5959411" lon="7.8075030">
        <ele>545</ele>
      </trkpt>
      <trkpt lat="45.5959211" lon="7.8074530">
        <ele>547</ele>
      </trkpt>
      <trkpt lat="45.5960611" lon="7.8073930">
        <ele>550</ele>
      </trkpt>
      <trkpt lat="45.5961311" lon="7.8073830">
        <ele>552</ele>
      </trkpt>
      <trkpt lat="45.5963411" lon="7.8074030">
        <ele>554</ele>
      </trkpt>
      <trkpt lat="45.5963711" lon="7.8073630">
        <ele>556</ele>
      </trkpt>
      <trkpt lat="45.5963111" lon="7.8073030">
        <ele>559</ele>
      </trkpt>
      <trkpt lat="45.5963311" lon="7.8072530">
        <ele>561</ele>
      </trkpt>
      <trkpt lat="45.5963811" lon="7.8072330">
        <ele>563</ele>
      </trkpt>
      <trkpt lat="45.5963611" lon="7.8072230">
        <ele>565</ele>
      </trkpt>
      <trkpt lat="45.5963111" lon="7.8071330">
        <ele>567</ele>
      </trkpt>
      <trkpt lat="45.5965011" lon="7.8070330">
        <ele>570</ele>
      </trkpt>
      <trkpt lat="45.5965011" lon="7.8070030">
        <ele>572</ele>
      </trkpt>
      <trkpt lat="45.5963811" lon="7.8069530">
        <ele>574</ele>
      </trkpt>
      <trkpt lat="45.5964111" lon="7.8069030">
        <ele>576</ele>
      </trkpt>
      <trkpt lat="45.5965411" lon="7.8068430">
        <ele>578</ele>
      </trkpt>
      <trkpt lat="45.5968711" lon="7.8063730">
        <ele>581</ele>
      </trkpt>
      <trkpt lat="45.5971011" lon="7.8061430">
        <ele>583</ele>
      </trkpt>
      <trkpt lat="45.5971111" lon="7.8060930">
        <ele>585</ele>
      </trkpt>
      <trkpt lat="45.5970711" lon="7.8061130">
        <ele>587</ele>
      </trkpt>
      <trkpt lat="45.5971611" lon="7.8059030">
        <ele>589</ele>
      </trkpt>
      <trkpt lat="45.5971911" lon="7.8057330">
        <ele>592</ele>
      </trkpt>
      <trkpt lat="45.5972911" lon="7.8056430">
        <ele>594</ele>
      </trkpt>
      <trkpt lat="45.5974111" lon="7.8055730">
        <ele>596</ele>
      </trkpt>
      <trkpt lat="45.5975611" lon="7.8055230">
        <ele>598</ele>
      </trkpt>
      <trkpt lat="45.5976811" lon="7.8054530">
        <ele>600</ele>
      </trkpt>
      <trkpt lat="45.5978611" lon="7.8052430">
        <ele>603</ele>
      </trkpt>
      <trkpt lat="45.5980311" lon="7.8051130">
        <ele>605</ele>
      </trkpt>
      <trkpt lat="45.5979811" lon="7.8050930">
        <ele>607</ele>
      </trkpt>
      <trkpt lat="45.5979611" lon="7.8050530">
        <ele>609</ele>
      </trkpt>
      <trkpt lat="45.5980111" lon="7.8049930">
        <ele>612</ele>
      </trkpt>
      <trkpt lat="45.5979111" lon="7.8049230">
        <ele>614</ele>
      </trkpt>
      <trkpt lat="45.5978811" lon="7.8048730">
        <ele>616</ele>
      </trkpt>
      <trkpt lat="45.5978058" lon="7.8047384">
        <ele>618</ele>
      </trkpt>
      <trkpt lat="45.5976011" lon="7.8048330">
        <ele>620</ele>
      </trkpt>
      <trkpt lat="45.5974911" lon="7.8049130">
        <ele>623</ele>
      </trkpt>
      <trkpt lat="45.5974411" lon="7.8049730">
        <ele>625</ele>
      </trkpt>
      <trkpt lat="45.5974611" lon="7.8048630">
        <ele>627</ele>
      </trkpt>
      <trkpt lat="45.5973311" lon="7.8049330">
        <ele>629</ele>
      </trkpt>
      <trkpt lat="45.5972311" lon="7.8048830">
        <ele>631</ele>
      </trkpt>
      <trkpt lat="45.5970911" lon="7.8048630">
        <ele>634</ele>
      </trkpt>
      <trkpt lat="45.5968511" lon="7.8047230">
        <ele>636</ele>
      </trkpt>
      <trkpt lat="45.5967911" lon="7.8046530">
        <ele>638</ele>
      </trkpt>
      <trkpt lat="45.5968011" lon="7.8045830">
        <ele>640</ele>
      </trkpt>
      <trkpt lat="45.5967711" lon="7.8044530">
        <ele>642</ele>
      </trkpt>
      <trkpt lat="45.5967411" lon="7.8044130">
        <ele>645</ele>
      </trkpt>
      <trkpt lat="45.5965211" lon="7.8043830">
        <ele>647</ele>
      </trkpt>
      <trkpt lat="45.5962211" lon="7.8045030">
        <ele>649</ele>
      </trkpt>
      <trkpt lat="45.5961011" lon="7.8044630">
        <ele>651</ele>
      </trkpt>
      <trkpt lat="45.5959311" lon="7.8046630">
        <ele>653</ele>
      </trkpt>
      <trkpt lat="45.5956611" lon="7.8046630">
        <ele>656</ele>
      </trkpt>
      <trkpt lat="45.5954158" lon="7.8046326">
        <ele>658</ele>
      </trkpt>
      <trkpt lat="45.5951081" lon="7.8046422">
        <ele>660</ele>
      </trkpt>
      <trkpt lat="45.5949798" lon="7.8046113">
        <ele>662</ele>
      </trkpt>
      <trkpt lat="45.5949706" lon="7.8045872">
        <ele>665</ele>
      </trkpt>
      <trkpt lat="45.5949623" lon="7.8044951">
        <ele>667</ele>
      </trkpt>
      <trkpt lat="45.5949023" lon="7.8044301">
        <ele>669</ele>
      </trkpt>
      <trkpt lat="45.5947011" lon="7.8043930">
        <ele>671</ele>
      </trkpt>
      <trkpt lat="45.5946111" lon="7.8043430">
        <ele>673</ele>
      </trkpt>
      <trkpt lat="45.5945999" lon="7.8043081">
        <ele>676</ele>
      </trkpt>
      <trkpt lat="45.5941823" lon="7.8042701">
        <ele>678</ele>
      </trkpt>
      <trkpt lat="45.5940394" lon="7.8042714">
        <ele>680</ele>
      </trkpt>
      <trkpt lat="45.5940122" lon="7.8042276">
        <ele>682</ele>
      </trkpt>
      <trkpt lat="45.5939811" lon="7.8042130">
        <ele>684</ele>
      </trkpt>
      <trkpt lat="45.5939111" lon="7.8041030">
        <ele>687</ele>
      </trkpt>
      <trkpt lat="45.5936911" lon="7.8039130">
        <ele>689</ele>
      </trkpt>
      <trkpt lat="45.5934911" lon="7.8037730">
        <ele>691</ele>
      </trkpt>
      <trkpt lat="45.5934311" lon="7.8037730">
        <ele>693</ele>
      </trkpt>
      <trkpt lat="45.5934211" lon="7.8037130">
        <ele>695</ele>
      </trkpt>
      <trkpt lat="45.5935611" lon="7.8037430">
        <ele>698</ele>
      </trkpt>
      <trkpt lat="45.5935911" lon="7.8037330">
        <ele>700</ele>
      </trkpt>
      <trkpt lat="45.5936011" lon="7.8036530">
        <ele>702</ele>
      </trkpt>
      <trkpt lat="45.5936311" lon="7.8035930">
        <ele>704</ele>
      </trkpt>
      <trkpt lat="45.5936111" lon="7.8035530">
        <ele>706</ele>
      </trkpt>
      <trkpt lat="45.5936211" lon="7.8034930">
        <ele>709</ele>
      </trkpt>
      <trkpt lat="45.5935911" lon="7.8033530">
        <ele>711</ele>
      </trkpt>
      <trkpt lat="45.5934811" lon="7.8030830">
        <ele>713</ele>
      </trkpt>
      <trkpt lat="45.5934311" lon="7.8028430">
        <ele>715</ele>
      </trkpt>
      <trkpt lat="45.5930011" lon="7.8024130">
        <ele>718</ele>
      </trkpt>
      <trkpt lat="45.5929811" lon="7.8021930">
        <ele>720</ele>
      </trkpt>
      <trkpt lat="45.5929511" lon="7.8021330">
        <ele>722</ele>
      </trkpt>
      <trkpt lat="45.5929211" lon="7.8021430">
        <ele>724</ele>
      </trkpt>
      <trkpt lat="45.5928711" lon="7.8020730">
        <ele>726</ele>
      </trkpt>
      <trkpt lat="45.5929220" lon="7.8019598">
        <ele>729</ele>
      </trkpt>
      <trkpt lat="45.5928838" lon="7.8018485">
        <ele>731</ele>
      </trkpt>
      <trkpt lat="45.5929546" lon="7.8017441">
        <ele>733</ele>
      </trkpt>
    </trkseg>
  </trk>
</gpx>
