<?xml version="1.0" encoding="UTF-8"?>
<gpx version="1.1" creator="sentieri-vda" xmlns="http://www.topografix.com/GPX/1/1">
  <metadata>
    <name>Fonteil - Col de Saint-Barthélemy</name>
    <desc>Catasto Sentieri VdA — 54_S3</desc>
    <author><name>Regione Autonoma Valle d'Aosta</name></author>
  </metadata>
  <trk>
    <name>Fonteil - Col de Saint-Barthélemy</name>
    <src>Catasto Sentieri VdA (54_S3)</src>
    <trkseg>
      <trkpt lat="45.7637201" lon="7.4381365">
        <ele>1445</ele>
      </trkpt>
      <trkpt lat="45.7637616" lon="7.4381762">
        <ele>1449</ele>
      </trkpt>
      <trkpt lat="45.7638085" lon="7.4383966">
        <ele>1452</ele>
      </trkpt>
      <trkpt lat="45.7638076" lon="7.4385551">
        <ele>1456</ele>
      </trkpt>
      <trkpt lat="45.7638428" lon="7.4387835">
        <ele>1459</ele>
      </trkpt>
      <trkpt lat="45.7644202" lon="7.4401340">
        <ele>1463</ele>
      </trkpt>
      <trkpt lat="45.7650749" lon="7.4399467">
        <ele>1466</ele>
      </trkpt>
      <trkpt lat="45.7650558" lon="7.4398700">
        <ele>1470</ele>
      </trkpt>
      <trkpt lat="45.7650683" lon="7.4397925">
        <ele>1473</ele>
      </trkpt>
      <trkpt lat="45.7651083" lon="7.4397528">
        <ele>1477</ele>
      </trkpt>
      <trkpt lat="45.7652837" lon="7.4397511">
        <ele>1480</ele>
      </trkpt>
      <trkpt lat="45.7653240" lon="7.4397339">
        <ele>1484</ele>
      </trkpt>
      <trkpt lat="45.7655198" lon="7.4395710">
        <ele>1488</ele>
      </trkpt>
      <trkpt lat="45.7656038" lon="7.4394625">
        <ele>1491</ele>
      </trkpt>
      <trkpt lat="45.7656878" lon="7.4393509">
        <ele>1495</ele>
      </trkpt>
      <trkpt lat="45.7657548" lon="7.4393136">
        <ele>1498</ele>
      </trkpt>
      <trkpt lat="45.7658044" lon="7.4393187">
        <ele>1502</ele>
      </trkpt>
      <trkpt lat="45.7658821" lon="7.4394065">
        <ele>1505</ele>
      </trkpt>
      <trkpt lat="45.7659773" lon="7.4397865">
        <ele>1509</ele>
      </trkpt>
      <trkpt lat="45.7660176" lon="7.4401036">
        <ele>1512</ele>
      </trkpt>
      <trkpt lat="45.7660651" lon="7.4402888">
        <ele>1516</ele>
      </trkpt>
      <trkpt lat="45.7660886" lon="7.4403621">
        <ele>1519</ele>
      </trkpt>
      <trkpt lat="45.7661528" lon="7.4404503">
        <ele>1523</ele>
      </trkpt>
      <trkpt lat="45.7662120" lon="7.4405001">
        <ele>1526</ele>
      </trkpt>
      <trkpt lat="45.7663339" lon="7.4405256">
        <ele>1530</ele>
      </trkpt>
      <trkpt lat="45.7666076" lon="7.4404666">
        <ele>1534</ele>
      </trkpt>
      <trkpt lat="45.7669565" lon="7.4403154">
        <ele>1537</ele>
      </trkpt>
      <trkpt lat="45.7673523" lon="7.4399700">
        <ele>1541</ele>
      </trkpt>
      <trkpt lat="45.7677669" lon="7.4396787">
        <ele>1544</ele>
      </trkpt>
      <trkpt lat="45.7679814" lon="7.4395698">
        <ele>1548</ele>
      </trkpt>
      <trkpt lat="45.7682546" lon="7.4394722">
        <ele>1551</ele>
      </trkpt>
      <trkpt lat="45.7685266" lon="7.4392878">
        <ele>1555</ele>
      </trkpt>
      <trkpt lat="45.7685931" lon="7.4392184">
        <ele>1558</ele>
      </trkpt>
      <trkpt lat="45.7687719" lon="7.4391298">
        <ele>1562</ele>
      </trkpt>
      <trkpt lat="45.7689185" lon="7.4389875">
        <ele>1565</ele>
      </trkpt>
      <trkpt lat="45.7689803" lon="7.4388957">
        <ele>1569</ele>
      </trkpt>
      <trkpt lat="45.7690940" lon="7.4386578">
        <ele>1573</ele>
      </trkpt>
      <trkpt lat="45.7691339" lon="7.4386117">
        <ele>1576</ele>
      </trkpt>
      <trkpt lat="45.7693485" lon="7.4385092">
        <ele>1580</ele>
      </trkpt>
      <trkpt lat="45.7695345" lon="7.4382919">
        <ele>1583</ele>
      </trkpt>
      <trkpt lat="45.7698571" lon="7.4381832">
        <ele>1587</ele>
      </trkpt>
      <trkpt lat="45.7699240" lon="7.4381427">
        <ele>1590</ele>
      </trkpt>
      <trkpt lat="45.7700617" lon="7.4380103">
        <ele>1594</ele>
      </trkpt>
      <trkpt lat="45.7703847" lon="7.4376058">
        <ele>1597</ele>
      </trkpt>
      <trkpt lat="45.7706517" lon="7.4373829">
        <ele>1601</ele>
      </trkpt>
      <trkpt lat="45.7708592" lon="7.4370909">
        <ele>1604</ele>
      </trkpt>
      <trkpt lat="45.7710056" lon="7.4369357">
        <ele>1608</ele>
      </trkpt>
      <trkpt lat="45.7710536" lon="7.4368315">
        <ele>1612</ele>
      </trkpt>
      <trkpt lat="45.7710743" lon="7.4366991">
        <ele>1615</ele>
      </trkpt>
      <trkpt lat="45.7710777" lon="7.4362842">
        <ele>1619</ele>
      </trkpt>
      <trkpt lat="45.7710942" lon="7.4361744">
        <ele>1622</ele>
      </trkpt>
      <trkpt lat="45.7711741" lon="7.4360982">
        <ele>1626</ele>
      </trkpt>
      <trkpt lat="45.7712770" lon="7.4360504">
        <ele>1629</ele>
      </trkpt>
      <trkpt lat="45.7714455" lon="7.4358720">
        <ele>1633</ele>
      </trkpt>
      <trkpt lat="45.7715213" lon="7.4358152">
        <ele>1636</ele>
      </trkpt>
      <trkpt lat="45.7716380" lon="7.4357959">
        <ele>1640</ele>
      </trkpt>
      <trkpt lat="45.7717147" lon="7.4358066">
        <ele>1643</ele>
      </trkpt>
      <trkpt lat="45.7719099" lon="7.4359298">
        <ele>1647</ele>
      </trkpt>
      <trkpt lat="45.7722160" lon="7.4359405">
        <ele>1650</ele>
      </trkpt>
      <trkpt lat="45.7724480" lon="7.4361237">
        <ele>1654</ele>
      </trkpt>
      <trkpt lat="45.7725655" lon="7.4361590">
        <ele>1658</ele>
      </trkpt>
      <trkpt lat="45.7727095" lon="7.4361550">
        <ele>1661</ele>
      </trkpt>
      <trkpt lat="45.7728524" lon="7.4360770">
        <ele>1665</ele>
      </trkpt>
      <trkpt lat="45.7729848" lon="7.4358836">
        <ele>1668</ele>
      </trkpt>
      <trkpt lat="45.7731799" lon="7.4356692">
        <ele>1672</ele>
      </trkpt>
      <trkpt lat="45.7732893" lon="7.4354443">
        <ele>1675</ele>
      </trkpt>
      <trkpt lat="45.7734897" lon="7.4352939">
        <ele>1679</ele>
      </trkpt>
      <trkpt lat="45.7737275" lon="7.4352359">
        <ele>1682</ele>
      </trkpt>
      <trkpt lat="45.7738122" lon="7.4351788">
        <ele>1686</ele>
      </trkpt>
      <trkpt lat="45.7740850" lon="7.4350554">
        <ele>1689</ele>
      </trkpt>
      <trkpt lat="45.7744153" lon="7.4348597">
        <ele>1693</ele>
      </trkpt>
      <trkpt lat="45.7744993" lon="7.4347480">
        <ele>1697</ele>
      </trkpt>
      <trkpt lat="45.7746625" lon="7.4341807">
        <ele>1700</ele>
      </trkpt>
      <trkpt lat="45.7747461" lon="7.4340369">
        <ele>1704</ele>
      </trkpt>
      <trkpt lat="45.7748394" lon="7.4339475">
        <ele>1707</ele>
      </trkpt>
      <trkpt lat="45.7749378" lon="7.4339061">
        <ele>1711</ele>
      </trkpt>
      <trkpt lat="45.7754823" lon="7.4339070">
        <ele>1714</ele>
      </trkpt>
      <trkpt lat="45.7757287" lon="7.4338229">
        <ele>1718</ele>
      </trkpt>
      <trkpt lat="45.7760534" lon="7.4335469">
        <ele>1721</ele>
      </trkpt>
      <trkpt lat="45.7763742" lon="7.4333128">
        <ele>1725</ele>
      </trkpt>
      <trkpt lat="45.7765708" lon="7.4332044">
        <ele>1728</ele>
      </trkpt>
      <trkpt lat="45.7768527" lon="7.4330872">
        <ele>1732</ele>
      </trkpt>
      <trkpt lat="45.7770208" lon="7.4332079">
        <ele>1736</ele>
      </trkpt>
      <trkpt lat="45.7771061" lon="7.4331894">
        <ele>1739</ele>
      </trkpt>
      <trkpt lat="45.7772032" lon="7.4330549">
        <ele>1743</ele>
      </trkpt>
      <trkpt lat="45.7772833" lon="7.4329819">
        <ele>1746</ele>
      </trkpt>
      <trkpt lat="45.7776301" lon="7.4330043">
        <ele>1750</ele>
      </trkpt>
      <trkpt lat="45.7778315" lon="7.4329215">
        <ele>1753</ele>
      </trkpt>
      <trkpt lat="45.7780209" lon="7.4329548">
        <ele>1757</ele>
      </trkpt>
      <trkpt lat="45.7781017" lon="7.4329364">
        <ele>1760</ele>
      </trkpt>
      <trkpt lat="45.7783476" lon="7.4328202">
        <ele>1764</ele>
      </trkpt>
      <trkpt lat="45.7785435" lon="7.4326668">
        <ele>1767</ele>
      </trkpt>
      <trkpt lat="45.7787339" lon="7.4324428">
        <ele>1771</ele>
      </trkpt>
      <trkpt lat="45.7789700" lon="7.4322625">
        <ele>1774</ele>
      </trkpt>
      <trkpt lat="45.7791560" lon="7.4320483">
        <ele>1778</ele>
      </trkpt>
      <trkpt lat="45.7795803" lon="7.4314800">
        <ele>1782</ele>
      </trkpt>
      <trkpt lat="45.7797830" lon="7.4311721">
        <ele>1785</ele>
      </trkpt>
      <trkpt lat="45.7798747" lon="7.4309637">
        <ele>1789</ele>
      </trkpt>
      <trkpt lat="45.7799309" lon="7.4304701">
        <ele>1792</ele>
      </trkpt>
      <trkpt lat="45.7799610" lon="7.4303695">
        <ele>1796</ele>
      </trkpt>
      <trkpt lat="45.7800632" lon="7.4302734">
        <ele>1799</ele>
      </trkpt>
      <trkpt lat="45.7802334" lon="7.4302140">
        <ele>1803</ele>
      </trkpt>
      <trkpt lat="45.7803726" lon="7.4301940">
        <ele>1806</ele>
      </trkpt>
      <trkpt lat="45.7805262" lon="7.4302347">
        <ele>1810</ele>
      </trkpt>
      <trkpt lat="45.7808483" lon="7.4304218">
        <ele>1813</ele>
      </trkpt>
      <trkpt lat="45.7809567" lon="7.4304509">
        <ele>1817</ele>
      </trkpt>
      <trkpt lat="45.7810375" lon="7.4304326">
        <ele>1821</ele>
      </trkpt>
      <trkpt lat="45.7810629" lon="7.4303225">
        <ele>1824</ele>
      </trkpt>
      <trkpt lat="45.7810214" lon="7.4302465">
        <ele>1828</ele>
      </trkpt>
      <trkpt lat="45.7807083" lon="7.4300591">
        <ele>1831</ele>
      </trkpt>
      <trkpt lat="45.7805760" lon="7.4299310">
        <ele>1835</ele>
      </trkpt>
      <trkpt lat="45.7803903" lon="7.4298430">
        <ele>1838</ele>
      </trkpt>
      <trkpt lat="45.7801740" lon="7.4298169">
        <ele>1842</ele>
      </trkpt>
      <trkpt lat="45.7798792" lon="7.4296515">
        <ele>1845</ele>
      </trkpt>
      <trkpt lat="45.7798297" lon="7.4296529">
        <ele>1849</ele>
      </trkpt>
      <trkpt lat="45.7797271" lon="7.4297201">
        <ele>1852</ele>
      </trkpt>
      <trkpt lat="45.7795854" lon="7.4298881">
        <ele>1856</ele>
      </trkpt>
      <trkpt lat="45.7794858" lon="7.4301706">
        <ele>1860</ele>
      </trkpt>
      <trkpt lat="45.7794328" lon="7.4302429">
        <ele>1863</ele>
      </trkpt>
      <trkpt lat="45.7793878" lon="7.4302441">
        <ele>1867</ele>
      </trkpt>
      <trkpt lat="45.7793737" lon="7.4301995">
        <ele>1870</ele>
      </trkpt>
      <trkpt lat="45.7793891" lon="7.4300094">
        <ele>1874</ele>
      </trkpt>
      <trkpt lat="45.7794537" lon="7.4298049">
        <ele>1877</ele>
      </trkpt>
      <trkpt lat="45.7794912" lon="7.4295852">
        <ele>1881</ele>
      </trkpt>
      <trkpt lat="45.7795427" lon="7.4294037">
        <ele>1884</ele>
      </trkpt>
      <trkpt lat="45.7796519" lon="7.4291594">
        <ele>1888</ele>
      </trkpt>
      <trkpt lat="45.7798062" lon="7.4289300">
        <ele>1891</ele>
      </trkpt>
      <trkpt lat="45.7799486" lon="7.4288070">
        <ele>1895</ele>
      </trkpt>
      <trkpt lat="45.7803530" lon="7.4287635">
        <ele>1898</ele>
      </trkpt>
      <trkpt lat="45.7806130" lon="7.4286886">
        <ele>1902</ele>
      </trkpt>
      <trkpt lat="45.7811835" lon="7.4282899">
        <ele>1906</ele>
      </trkpt>
      <trkpt lat="45.7814736" lon="7.4277865">
        <ele>1909</ele>
      </trkpt>
      <trkpt lat="45.7816829" lon="7.4276263">
        <ele>1913</ele>
      </trkpt>
      <trkpt lat="45.7818796" lon="7.4275275">
        <ele>1916</ele>
      </trkpt>
      <trkpt lat="45.7827285" lon="7.4270667">
        <ele>1920</ele>
      </trkpt>
      <trkpt lat="45.7827998" lon="7.4269884">
        <ele>1923</ele>
      </trkpt>
      <trkpt lat="45.7830090" lon="7.4265523">
        <ele>1927</ele>
      </trkpt>
      <trkpt lat="45.7832159" lon="7.4263586">
        <ele>1930</ele>
      </trkpt>
      <trkpt lat="45.7833763" lon="7.4261036">
        <ele>1934</ele>
      </trkpt>
      <trkpt lat="45.7835286" lon="7.4259604">
        <ele>1937</ele>
      </trkpt>
      <trkpt lat="45.7836541" lon="7.4256656">
        <ele>1941</ele>
      </trkpt>
      <trkpt lat="45.7838741" lon="7.4255940">
        <ele>1945</ele>
      </trkpt>
      <trkpt lat="45.7840781" lon="7.4255778">
        <ele>1948</ele>
      </trkpt>
      <trkpt lat="45.7841397" lon="7.4256436">
        <ele>1952</ele>
      </trkpt>
      <trkpt lat="45.7843030" lon="7.4257323">
        <ele>1955</ele>
      </trkpt>
      <trkpt lat="45.7845606" lon="7.4258151">
        <ele>1959</ele>
      </trkpt>
      <trkpt lat="45.7847230" lon="7.4258427">
        <ele>1962</ele>
      </trkpt>
      <trkpt lat="45.7849587" lon="7.4259615">
        <ele>1966</ele>
      </trkpt>
      <trkpt lat="45.7850938" lon="7.4259737">
        <ele>1969</ele>
      </trkpt>
      <trkpt lat="45.7856380" lon="7.4259488">
        <ele>1973</ele>
      </trkpt>
      <trkpt lat="45.7863572" lon="7.4258899">
        <ele>1976</ele>
      </trkpt>
      <trkpt lat="45.7867691" lon="7.4257304">
        <ele>1980</ele>
      </trkpt>
      <trkpt lat="45.7869831" lon="7.4255893">
        <ele>1984</ele>
      </trkpt>
      <trkpt lat="45.7871878" lon="7.4254195">
        <ele>1987</ele>
      </trkpt>
      <trkpt lat="45.7876731" lon="7.4247111">
        <ele>1991</ele>
      </trkpt>
      <trkpt lat="45.7879280" lon="7.4245978">
        <ele>1994</ele>
      </trkpt>
      <trkpt lat="45.7879808" lon="7.4245063">
        <ele>1998</ele>
      </trkpt>
      <trkpt lat="45.7879686" lon="7.4244423">
        <ele>2001</ele>
      </trkpt>
      <trkpt lat="45.7878801" lon="7.4243837">
        <ele>2005</ele>
      </trkpt>
      <trkpt lat="45.7876916" lon="7.4244243">
        <ele>2008</ele>
      </trkpt>
      <trkpt lat="45.7876469" lon="7.4244481">
        <ele>2012</ele>
      </trkpt>
      <trkpt lat="45.7874917" lon="7.4246101">
        <ele>2015</ele>
      </trkpt>
      <trkpt lat="45.7873633" lon="7.4247681">
        <ele>2019</ele>
      </trkpt>
      <trkpt lat="45.7870604" lon="7.4249953">
        <ele>2022</ele>
      </trkpt>
      <trkpt lat="45.7869842" lon="7.4250103">
        <ele>2026</ele>
      </trkpt>
      <trkpt lat="45.7866208" lon="7.4249305">
        <ele>2030</ele>
      </trkpt>
      <trkpt lat="45.7862133" lon="7.4249163">
        <ele>2033</ele>
      </trkpt>
      <trkpt lat="45.7860459" lon="7.4248502">
        <ele>2037</ele>
      </trkpt>
      <trkpt lat="45.7856604" lon="7.4246360">
        <ele>2040</ele>
      </trkpt>
      <trkpt lat="45.7854477" lon="7.4245519">
        <ele>2044</ele>
      </trkpt>
      <trkpt lat="45.7849169" lon="7.4242356">
        <ele>2047</ele>
      </trkpt>
      <trkpt lat="45.7847360" lon="7.4241764">
        <ele>2051</ele>
      </trkpt>
      <trkpt lat="45.7846633" lon="7.4241205">
        <ele>2054</ele>
      </trkpt>
      <trkpt lat="45.7846489" lon="7.4240566">
        <ele>2058</ele>
      </trkpt>
      <trkpt lat="45.7846710" lon="7.4240270">
        <ele>2061</ele>
      </trkpt>
      <trkpt lat="45.7847291" lon="7.4240029">
        <ele>2065</ele>
      </trkpt>
      <trkpt lat="45.7849781" lon="7.4241052">
        <ele>2069</ele>
      </trkpt>
      <trkpt lat="45.7853932" lon="7.4241836">
        <ele>2072</ele>
      </trkpt>
      <trkpt lat="45.7857480" lon="7.4241318">
        <ele>2076</ele>
      </trkpt>
      <trkpt lat="45.7867695" lon="7.4241287">
        <ele>2079</ele>
      </trkpt>
      <trkpt lat="45.7868762" lon="7.4240324">
        <ele>2083</ele>
      </trkpt>
      <trkpt lat="45.7869778" lon="7.4238977">
        <ele>2086</ele>
      </trkpt>
      <trkpt lat="45.7871969" lon="7.4237918">
        <ele>2090</ele>
      </trkpt>
      <trkpt lat="45.7874766" lon="7.4235202">
        <ele>2093</ele>
      </trkpt>
      <trkpt lat="45.7876356" lon="7.4233034">
        <ele>2097</ele>
      </trkpt>
      <trkpt lat="45.7877332" lon="7.4232010">
        <ele>2100</ele>
      </trkpt>
      <trkpt lat="45.7878316" lon="7.4231532">
        <ele>2104</ele>
      </trkpt>
      <trkpt lat="45.7879578" lon="7.4231689">
        <ele>2107</ele>
      </trkpt>
      <trkpt lat="45.7882763" lon="7.4232596">
        <ele>2111</ele>
      </trkpt>
      <trkpt lat="45.7890401" lon="7.4233346">
        <ele>2115</ele>
      </trkpt>
      <trkpt lat="45.7891747" lon="7.4233051">
        <ele>2118</ele>
      </trkpt>
      <trkpt lat="45.7893758" lon="7.4231965">
        <ele>2122</ele>
      </trkpt>
      <trkpt lat="45.7895281" lon="7.4231504">
        <ele>2125</ele>
      </trkpt>
      <trkpt lat="45.7899733" lon="7.4231217">
        <ele>2129</ele>
      </trkpt>
      <trkpt lat="45.7900904" lon="7.4231345">
        <ele>2132</ele>
      </trkpt>
      <trkpt lat="45.7904032" lon="7.4232962">
        <ele>2136</ele>
      </trkpt>
      <trkpt lat="45.7906150" lon="7.4233159">
        <ele>2139</ele>
      </trkpt>
      <trkpt lat="45.7907183" lon="7.4233033">
        <ele>2143</ele>
      </trkpt>
      <trkpt lat="45.7909418" lon="7.4231909">
        <ele>2146</ele>
      </trkpt>
      <trkpt lat="45.7909957" lon="7.4231894">
        <ele>2150</ele>
      </trkpt>
      <trkpt lat="45.7912268" lon="7.4232987">
        <ele>2154</ele>
      </trkpt>
      <trkpt lat="45.7914272" lon="7.4234763">
        <ele>2157</ele>
      </trkpt>
      <trkpt lat="45.7916356" lon="7.4235766">
        <ele>2161</ele>
      </trkpt>
      <trkpt lat="45.7920462" lon="7.4239767">
        <ele>2164</ele>
      </trkpt>
      <trkpt lat="45.7925434" lon="7.4247894">
        <ele>2168</ele>
      </trkpt>
      <trkpt lat="45.7925731" lon="7.4248239">
        <ele>2171</ele>
      </trkpt>
      <trkpt lat="45.7925954" lon="7.4248072">
        <ele>2175</ele>
      </trkpt>
      <trkpt lat="45.7926176" lon="7.4247873">
        <ele>2178</ele>
      </trkpt>
      <trkpt lat="45.7926182" lon="7.4246650">
        <ele>2182</ele>
      </trkpt>
      <trkpt lat="45.7926112" lon="7.4244819">
        <ele>2185</ele>
      </trkpt>
      <trkpt lat="45.7925812" lon="7.4242672">
        <ele>2189</ele>
      </trkpt>
      <trkpt lat="45.7925121" lon="7.4239893">
        <ele>2193</ele>
      </trkpt>
      <trkpt lat="45.7923819" lon="7.4236510">
        <ele>2196</ele>
      </trkpt>
      <trkpt lat="45.7923572" lon="7.4235273">
        <ele>2200</ele>
      </trkpt>
      <trkpt lat="45.7923953" lon="7.4235134">
        <ele>2203</ele>
      </trkpt>
      <trkpt lat="45.7926725" lon="7.4237114">
        <ele>2207</ele>
      </trkpt>
      <trkpt lat="45.7929010" lon="7.4239623">
        <ele>2210</ele>
      </trkpt>
      <trkpt lat="45.7930421" lon="7.4240805">
        <ele>2214</ele>
      </trkpt>
      <trkpt lat="45.7937413" lon="7.4245240">
        <ele>2217</ele>
      </trkpt>
      <trkpt lat="45.7939452" lon="7.4246244">
        <ele>2221</ele>
      </trkpt>
      <trkpt lat="45.7941707" lon="7.4246735">
        <ele>2224</ele>
      </trkpt>
      <trkpt lat="45.7945259" lon="7.4246402">
        <ele>2228</ele>
      </trkpt>
      <trkpt lat="45.7958557" lon="7.4241492">
        <ele>2231</ele>
      </trkpt>
      <trkpt lat="45.7961191" lon="7.4239938">
        <ele>2235</ele>
      </trkpt>
      <trkpt lat="45.7964639" lon="7.4238683">
        <ele>2239</ele>
      </trkpt>
      <trkpt lat="45.7967725" lon="7.4237277">
        <ele>2242</ele>
      </trkpt>
      <trkpt lat="45.7971699" lon="7.4235042">
        <ele>2246</ele>
      </trkpt>
      <trkpt lat="45.7973090" lon="7.4234745">
        <ele>2249</ele>
      </trkpt>
      <trkpt lat="45.7977003" lon="7.4234570">
        <ele>2253</ele>
      </trkpt>
      <trkpt lat="45.7980334" lon="7.4234605">
        <ele>2256</ele>
      </trkpt>
      <trkpt lat="45.7982183" lon="7.4234907">
        <ele>2260</ele>
      </trkpt>
      <trkpt lat="45.7983935" lon="7.4234696">
        <ele>2263</ele>
      </trkpt>
      <trkpt lat="45.7989182" lon="7.4233390">
        <ele>2267</ele>
      </trkpt>
      <trkpt lat="45.7990584" lon="7.4233898">
        <ele>2270</ele>
      </trkpt>
      <trkpt lat="45.7991904" lon="7.4234954">
        <ele>2274</ele>
      </trkpt>
      <trkpt lat="45.7992814" lon="7.4235668">
        <ele>2278</ele>
      </trkpt>
      <trkpt lat="45.7993444" lon="7.4235683">
        <ele>2281</ele>
      </trkpt>
      <trkpt lat="45.7993710" lon="7.4235418">
        <ele>2285</ele>
      </trkpt>
      <trkpt lat="45.7993923" lon="7.4234511">
        <ele>2288</ele>
      </trkpt>
      <trkpt lat="45.7993863" lon="7.4230202">
        <ele>2292</ele>
      </trkpt>
      <trkpt lat="45.7993619" lon="7.4228794">
        <ele>2295</ele>
      </trkpt>
      <trkpt lat="45.7993112" lon="7.4227907">
        <ele>2299</ele>
      </trkpt>
      <trkpt lat="45.7991609" lon="7.4226631">
        <ele>2302</ele>
      </trkpt>
      <trkpt lat="45.7991602" lon="7.4226148">
        <ele>2306</ele>
      </trkpt>
      <trkpt lat="45.7991822" lon="7.4225724">
        <ele>2309</ele>
      </trkpt>
      <trkpt lat="45.7993313" lon="7.4226164">
        <ele>2313</ele>
      </trkpt>
      <trkpt lat="45.7994302" lon="7.4226136">
        <ele>2317</ele>
      </trkpt>
      <trkpt lat="45.7995778" lon="7.4225419">
        <ele>2320</ele>
      </trkpt>
      <trkpt lat="45.7996854" lon="7.4225164">
        <ele>2324</ele>
      </trkpt>
      <trkpt lat="45.7997937" lon="7.4225390">
        <ele>2327</ele>
      </trkpt>
      <trkpt lat="45.7999527" lon="7.4226471">
        <ele>2331</ele>
      </trkpt>
      <trkpt lat="45.8001171" lon="7.4228194">
        <ele>2334</ele>
      </trkpt>
      <trkpt lat="45.8002137" lon="7.4229711">
        <ele>2338</ele>
      </trkpt>
      <trkpt lat="45.8004646" lon="7.4232182">
        <ele>2341</ele>
      </trkpt>
      <trkpt lat="45.8006744" lon="7.4234149">
        <ele>2345</ele>
      </trkpt>
      <trkpt lat="45.8009489" lon="7.4235917">
        <ele>2348</ele>
      </trkpt>
      <trkpt lat="45.8012705" lon="7.4236798">
        <ele>2352</ele>
      </trkpt>
      <trkpt lat="45.8015618" lon="7.4236789">
        <ele>2355</ele>
      </trkpt>
      <trkpt lat="45.8018066" lon="7.4237524">
        <ele>2359</ele>
      </trkpt>
      <trkpt lat="45.8022194" lon="7.4237454">
        <ele>2363</ele>
      </trkpt>
      <trkpt lat="45.8023023" lon="7.4237111">
        <ele>2366</ele>
      </trkpt>
      <trkpt lat="45.8024225" lon="7.4236177">
        <ele>2370</ele>
      </trkpt>
      <trkpt lat="45.8026396" lon="7.4233707">
        <ele>2373</ele>
      </trkpt>
      <trkpt lat="45.8027613" lon="7.4231909">
        <ele>2377</ele>
      </trkpt>
      <trkpt lat="45.8028096" lon="7.4231733">
        <ele>2380</ele>
      </trkpt>
      <trkpt lat="45.8028550" lon="7.4231767">
        <ele>2384</ele>
      </trkpt>
      <trkpt lat="45.8029254" lon="7.4232394">
        <ele>2387</ele>
      </trkpt>
      <trkpt lat="45.8030076" lon="7.4234522">
        <ele>2391</ele>
      </trkpt>
      <trkpt lat="45.8030778" lon="7.4235570">
        <ele>2394</ele>
      </trkpt>
      <trkpt lat="45.8033581" lon="7.4238821">
        <ele>2398</ele>
      </trkpt>
      <trkpt lat="45.8034992" lon="7.4240801">
        <ele>2402</ele>
      </trkpt>
      <trkpt lat="45.8041543" lon="7.4247125">
        <ele>2405</ele>
      </trkpt>
      <trkpt lat="45.8044948" lon="7.4249249">
        <ele>2409</ele>
      </trkpt>
      <trkpt lat="45.8049065" lon="7.4250840">
        <ele>2412</ele>
      </trkpt>
      <trkpt lat="45.8051607" lon="7.4252441">
        <ele>2416</ele>
      </trkpt>
      <trkpt lat="45.8053067" lon="7.4253869">
        <ele>2419</ele>
      </trkpt>
      <trkpt lat="45.8055634" lon="7.4257272">
        <ele>2423</ele>
      </trkpt>
      <trkpt lat="45.8057992" lon="7.4261216">
        <ele>2426</ele>
      </trkpt>
      <trkpt lat="45.8058472" lon="7.4261782">
        <ele>2430</ele>
      </trkpt>
      <trkpt lat="45.8060017" lon="7.4262915">
        <ele>2433</ele>
      </trkpt>
      <trkpt lat="45.8062522" lon="7.4263963">
        <ele>2437</ele>
      </trkpt>
      <trkpt lat="45.8062906" lon="7.4264523">
        <ele>2441</ele>
      </trkpt>
      <trkpt lat="45.8064550" lon="7.4269528">
        <ele>2444</ele>
      </trkpt>
      <trkpt lat="45.8064999" lon="7.4271693">
        <ele>2448</ele>
      </trkpt>
      <trkpt lat="45.8064915" lon="7.4275427">
        <ele>2451</ele>
      </trkpt>
      <trkpt lat="45.8064574" lon="7.4276917">
        <ele>2455</ele>
      </trkpt>
      <trkpt lat="45.8063659" lon="7.4279020">
        <ele>2458</ele>
      </trkpt>
      <trkpt lat="45.8063683" lon="7.4279650">
        <ele>2462</ele>
      </trkpt>
      <trkpt lat="45.8064048" lon="7.4279846">
        <ele>2465</ele>
      </trkpt>
      <trkpt lat="45.8064857" lon="7.4279823">
        <ele>2469</ele>
      </trkpt>
      <trkpt lat="45.8065925" lon="7.4278956">
        <ele>2472</ele>
      </trkpt>
      <trkpt lat="45.8070203" lon="7.4273767">
        <ele>2476</ele>
      </trkpt>
      <trkpt lat="45.8070831" lon="7.4275521">
        <ele>2479</ele>
      </trkpt>
      <trkpt lat="45.8070797" lon="7.4278155">
        <ele>2483</ele>
      </trkpt>
      <trkpt lat="45.8074299" lon="7.4281522">
        <ele>2487</ele>
      </trkpt>
      <trkpt lat="45.8074894" lon="7.4284066">
        <ele>2490</ele>
      </trkpt>
      <trkpt lat="45.8077757" lon="7.4289193">
        <ele>2494</ele>
      </trkpt>
      <trkpt lat="45.8079992" lon="7.4292350">
        <ele>2497</ele>
      </trkpt>
      <trkpt lat="45.8080392" lon="7.4297050">
        <ele>2501</ele>
      </trkpt>
      <trkpt lat="45.8082392" lon="7.4298350">
        <ele>2504</ele>
      </trkpt>
      <trkpt lat="45.8084402" lon="7.4295117">
        <ele>2508</ele>
      </trkpt>
      <trkpt lat="45.8084299" lon="7.4297437">
        <ele>2511</ele>
      </trkpt>
      <trkpt lat="45.8084676" lon="7.4298649">
        <ele>2515</ele>
      </trkpt>
      <trkpt lat="45.8085030" lon="7.4301470">
        <ele>2518</ele>
      </trkpt>
      <trkpt lat="45.8085346" lon="7.4301590">
        <ele>2522</ele>
      </trkpt>
      <trkpt lat="45.8087251" lon="7.4296099">
        <ele>2526</ele>
      </trkpt>
      <trkpt lat="45.8088262" lon="7.4294365">
        <ele>2529</ele>
      </trkpt>
      <trkpt lat="45.8088689" lon="7.4292712">
        <ele>2533</ele>
      </trkpt>
      <trkpt lat="45.8088852" lon="7.4291421">
        <ele>2536</ele>
      </trkpt>
      <trkpt lat="45.8088824" lon="7.4289394">
        <ele>2540</ele>
      </trkpt>
      <trkpt lat="45.8089041" lon="7.4288809">
        <ele>2543</ele>
      </trkpt>
      <trkpt lat="45.8089403" lon="7.4288960">
        <ele>2547</ele>
      </trkpt>
      <trkpt lat="45.8089683" lon="7.4289660">
        <ele>2550</ele>
      </trkpt>
      <trkpt lat="45.8090481" lon="7.4292115">
        <ele>2554</ele>
      </trkpt>
      <trkpt lat="45.8090773" lon="7.4293683">
        <ele>2557</ele>
      </trkpt>
      <trkpt lat="45.8092492" lon="7.4291750">
        <ele>2561</ele>
      </trkpt>
      <trkpt lat="45.8102992" lon="7.4293650">
        <ele>2565</ele>
      </trkpt>
      <trkpt lat="45.8105092" lon="7.4292160">
        <ele>2568</ele>
      </trkpt>
      <trkpt lat="45.8116693" lon="7.4293260">
        <ele>2572</ele>
      </trkpt>
      <trkpt lat="45.8120793" lon="7.4295560">
        <ele>2575</ele>
      </trkpt>
      <trkpt lat="45.8126993" lon="7.4296060">
        <ele>2579</ele>
      </trkpt>
      <trkpt lat="45.8127901" lon="7.4297080">
        <ele>2582</ele>
      </trkpt>
      <trkpt lat="45.8128246" lon="7.4295944">
        <ele>2586</ele>
      </trkpt>
      <trkpt lat="45.8128172" lon="7.4290572">
        <ele>2589</ele>
      </trkpt>
      <trkpt lat="45.8123993" lon="7.4277960">
        <ele>2593</ele>
      </trkpt>
      <trkpt lat="45.8128083" lon="7.4266200">
        <ele>2596</ele>
      </trkpt>
      <trkpt lat="45.8126093" lon="7.4247560">
        <ele>2600</ele>
      </trkpt>
      <trkpt lat="45.8128693" lon="7.4229960">
        <ele>2603</ele>
      </trkpt>
      <trkpt lat="45.8133393" lon="7.4223960">
        <ele>2607</ele>
      </trkpt>
      <trkpt lat="45.8134293" lon="7.4220960">
        <ele>2611</ele>
      </trkpt>
      <trkpt lat="45.8134893" lon="7.4205260">
        <ele>2614</ele>
      </trkpt>
      <trkpt lat="45.8131693" lon="7.4187260">
        <ele>2618</ele>
      </trkpt>
      <trkpt lat="45.8133693" lon="7.4175660">
        <ele>2621</ele>
      </trkpt>
      <trkpt lat="45.8142693" lon="7.4175860">
        <ele>2625</ele>
      </trkpt>
      <trkpt lat="45.8145193" lon="7.4179960">
        <ele>2628</ele>
      </trkpt>
      <trkpt lat="45.8149993" lon="7.4180560">
        <ele>2632</ele>
      </trkpt>
      <trkpt lat="45.8151693" lon="7.4187260">
        <ele>2635</ele>
      </trkpt>
      <trkpt lat="45.8155293" lon="7.4182460">
        <ele>2639</ele>
      </trkpt>
      <trkpt lat="45.8156393" lon="7.4173760">
        <ele>2642</ele>
      </trkpt>
      <trkpt lat="45.8157493" lon="7.4172160">
        <ele>2646</ele>
      </trkpt>
    </trkseg>
  </trk>
</gpx>
