<?xml version="1.0" encoding="UTF-8"?>
<gpx version="1.1" creator="sentieri-vda" xmlns="http://www.topografix.com/GPX/1/1">
  <metadata>
    <name>Chateau de Quart - Beato Emerico</name>
    <desc>Catasto Sentieri VdA — 54_S7</desc>
    <author><name>Regione Autonoma Valle d'Aosta</name></author>
  </metadata>
  <trk>
    <name>Chateau de Quart - Beato Emerico</name>
    <src>Catasto Sentieri VdA (54_S7)</src>
    <trkseg>
      <trkpt lat="45.7522190" lon="7.3981630">
        <ele>750</ele>
      </trkpt>
      <trkpt lat="45.7522549" lon="7.3981984">
        <ele>758</ele>
      </trkpt>
      <trkpt lat="45.7520321" lon="7.3992364">
        <ele>765</ele>
      </trkpt>
      <trkpt lat="45.7526012" lon="7.3986850">
        <ele>773</ele>
      </trkpt>
      <trkpt lat="45.7527012" lon="7.3978850">
        <ele>781</ele>
      </trkpt>
      <trkpt lat="45.7528612" lon="7.3978650">
        <ele>788</ele>
      </trkpt>
      <trkpt lat="45.7529412" lon="7.3987850">
        <ele>796</ele>
      </trkpt>
      <trkpt lat="45.7533312" lon="7.3988050">
        <ele>804</ele>
      </trkpt>
      <trkpt lat="45.7532612" lon="7.3991050">
        <ele>811</ele>
      </trkpt>
      <trkpt lat="45.7539512" lon="7.3987650">
        <ele>819</ele>
      </trkpt>
      <trkpt lat="45.7541412" lon="7.3989150">
        <ele>827</ele>
      </trkpt>
      <trkpt lat="45.7536912" lon="7.3996450">
        <ele>834</ele>
      </trkpt>
      <trkpt lat="45.7534812" lon="7.3997350">
        <ele>842</ele>
      </trkpt>
      <trkpt lat="45.7536512" lon="7.3997750">
        <ele>850</ele>
      </trkpt>
      <trkpt lat="45.7534312" lon="7.4000750">
        <ele>857</ele>
      </trkpt>
      <trkpt lat="45.7537312" lon="7.4008450">
        <ele>865</ele>
      </trkpt>
      <trkpt lat="45.7536312" lon="7.4013450">
        <ele>873</ele>
      </trkpt>
      <trkpt lat="45.7541012" lon="7.4010850">
        <ele>880</ele>
      </trkpt>
      <trkpt lat="45.7544212" lon="7.4007450">
        <ele>888</ele>
      </trkpt>
      <trkpt lat="45.7544412" lon="7.4005450">
        <ele>896</ele>
      </trkpt>
      <trkpt lat="45.7547912" lon="7.4008950">
        <ele>903</ele>
      </trkpt>
      <trkpt lat="45.7546612" lon="7.4012950">
        <ele>911</ele>
      </trkpt>
      <trkpt lat="45.7541012" lon="7.4016850">
        <ele>919</ele>
      </trkpt>
      <trkpt lat="45.7538612" lon="7.4023050">
        <ele>926</ele>
      </trkpt>
      <trkpt lat="45.7536712" lon="7.4026250">
        <ele>934</ele>
      </trkpt>
      <trkpt lat="45.7533312" lon="7.4028650">
        <ele>942</ele>
      </trkpt>
      <trkpt lat="45.7533512" lon="7.4029750">
        <ele>949</ele>
      </trkpt>
      <trkpt lat="45.7545112" lon="7.4026250">
        <ele>957</ele>
      </trkpt>
      <trkpt lat="45.7544912" lon="7.4028050">
        <ele>965</ele>
      </trkpt>
      <trkpt lat="45.7547002" lon="7.4028850">
        <ele>972</ele>
      </trkpt>
      <trkpt lat="45.7548302" lon="7.4028450">
        <ele>980</ele>
      </trkpt>
      <trkpt lat="45.7548502" lon="7.4025850">
        <ele>988</ele>
      </trkpt>
      <trkpt lat="45.7553402" lon="7.4027350">
        <ele>995</ele>
      </trkpt>
      <trkpt lat="45.7552602" lon="7.4030750">
        <ele>1003</ele>
      </trkpt>
      <trkpt lat="45.7555402" lon="7.4037250">
        <ele>1011</ele>
      </trkpt>
      <trkpt lat="45.7553202" lon="7.4046250">
        <ele>1018</ele>
      </trkpt>
      <trkpt lat="45.7555602" lon="7.4048150">
        <ele>1026</ele>
      </trkpt>
      <trkpt lat="45.7555402" lon="7.4049650">
        <ele>1034</ele>
      </trkpt>
      <trkpt lat="45.7557302" lon="7.4050350">
        <ele>1041</ele>
      </trkpt>
      <trkpt lat="45.7558202" lon="7.4055650">
        <ele>1049</ele>
      </trkpt>
      <trkpt lat="45.7563502" lon="7.4053950">
        <ele>1057</ele>
      </trkpt>
      <trkpt lat="45.7564002" lon="7.4058950">
        <ele>1064</ele>
      </trkpt>
      <trkpt lat="45.7565502" lon="7.4059350">
        <ele>1072</ele>
      </trkpt>
      <trkpt lat="45.7566951" lon="7.4056739">
        <ele>1080</ele>
      </trkpt>
      <trkpt lat="45.7566882" lon="7.4058453">
        <ele>1087</ele>
      </trkpt>
      <trkpt lat="45.7567076" lon="7.4059552">
        <ele>1095</ele>
      </trkpt>
      <trkpt lat="45.7566591" lon="7.4061171">
        <ele>1103</ele>
      </trkpt>
      <trkpt lat="45.7566664" lon="7.4061859">
        <ele>1110</ele>
      </trkpt>
      <trkpt lat="45.7567497" lon="7.4063911">
        <ele>1118</ele>
      </trkpt>
      <trkpt lat="45.7568219" lon="7.4067234">
        <ele>1126</ele>
      </trkpt>
      <trkpt lat="45.7568721" lon="7.4067734">
        <ele>1133</ele>
      </trkpt>
      <trkpt lat="45.7569615" lon="7.4067323">
        <ele>1141</ele>
      </trkpt>
    </trkseg>
  </trk>
</gpx>
