<?xml version="1.0" encoding="UTF-8"?>
<gpx version="1.1" creator="sentieri-vda" xmlns="http://www.topografix.com/GPX/1/1">
  <metadata>
    <name>Rifugio Benevolo - Col Bassac Déré</name>
    <desc>Catasto Sentieri VdA — 55_S18</desc>
    <author><name>Regione Autonoma Valle d'Aosta</name></author>
  </metadata>
  <trk>
    <name>Rifugio Benevolo - Col Bassac Déré</name>
    <src>Catasto Sentieri VdA (55_S18)</src>
    <trkseg>
      <trkpt lat="45.5046826" lon="7.0445589">
        <ele>2296</ele>
      </trkpt>
      <trkpt lat="45.5046600" lon="7.0445480">
        <ele>2303</ele>
      </trkpt>
      <trkpt lat="45.5048000" lon="7.0449280">
        <ele>2309</ele>
      </trkpt>
      <trkpt lat="45.5041700" lon="7.0454180">
        <ele>2316</ele>
      </trkpt>
      <trkpt lat="45.5045900" lon="7.0455680">
        <ele>2323</ele>
      </trkpt>
      <trkpt lat="45.5050300" lon="7.0459080">
        <ele>2329</ele>
      </trkpt>
      <trkpt lat="45.5056200" lon="7.0475680">
        <ele>2336</ele>
      </trkpt>
      <trkpt lat="45.5063400" lon="7.0471680">
        <ele>2343</ele>
      </trkpt>
      <trkpt lat="45.5071600" lon="7.0482280">
        <ele>2349</ele>
      </trkpt>
      <trkpt lat="45.5078400" lon="7.0489480">
        <ele>2356</ele>
      </trkpt>
      <trkpt lat="45.5080300" lon="7.0495780">
        <ele>2363</ele>
      </trkpt>
      <trkpt lat="45.5079800" lon="7.0500780">
        <ele>2369</ele>
      </trkpt>
      <trkpt lat="45.5084500" lon="7.0526680">
        <ele>2376</ele>
      </trkpt>
      <trkpt lat="45.5085200" lon="7.0548780">
        <ele>2383</ele>
      </trkpt>
      <trkpt lat="45.5089800" lon="7.0546780">
        <ele>2389</ele>
      </trkpt>
      <trkpt lat="45.5088000" lon="7.0553480">
        <ele>2396</ele>
      </trkpt>
      <trkpt lat="45.5092600" lon="7.0563580">
        <ele>2403</ele>
      </trkpt>
      <trkpt lat="45.5091800" lon="7.0563880">
        <ele>2409</ele>
      </trkpt>
      <trkpt lat="45.5091800" lon="7.0564780">
        <ele>2416</ele>
      </trkpt>
      <trkpt lat="45.5091500" lon="7.0566580">
        <ele>2423</ele>
      </trkpt>
      <trkpt lat="45.5090900" lon="7.0569080">
        <ele>2429</ele>
      </trkpt>
      <trkpt lat="45.5091600" lon="7.0575180">
        <ele>2436</ele>
      </trkpt>
      <trkpt lat="45.5094000" lon="7.0582380">
        <ele>2443</ele>
      </trkpt>
      <trkpt lat="45.5095800" lon="7.0585280">
        <ele>2449</ele>
      </trkpt>
      <trkpt lat="45.5095600" lon="7.0588080">
        <ele>2456</ele>
      </trkpt>
      <trkpt lat="45.5098000" lon="7.0591380">
        <ele>2463</ele>
      </trkpt>
      <trkpt lat="45.5098000" lon="7.0592680">
        <ele>2469</ele>
      </trkpt>
      <trkpt lat="45.5100100" lon="7.0595680">
        <ele>2476</ele>
      </trkpt>
      <trkpt lat="45.5108500" lon="7.0603180">
        <ele>2483</ele>
      </trkpt>
      <trkpt lat="45.5114600" lon="7.0611680">
        <ele>2489</ele>
      </trkpt>
      <trkpt lat="45.5115700" lon="7.0618180">
        <ele>2496</ele>
      </trkpt>
      <trkpt lat="45.5119400" lon="7.0625380">
        <ele>2503</ele>
      </trkpt>
      <trkpt lat="45.5120600" lon="7.0633680">
        <ele>2509</ele>
      </trkpt>
      <trkpt lat="45.5117900" lon="7.0636580">
        <ele>2516</ele>
      </trkpt>
      <trkpt lat="45.5116700" lon="7.0639580">
        <ele>2523</ele>
      </trkpt>
      <trkpt lat="45.5117600" lon="7.0648980">
        <ele>2529</ele>
      </trkpt>
      <trkpt lat="45.5116800" lon="7.0650580">
        <ele>2536</ele>
      </trkpt>
      <trkpt lat="45.5119500" lon="7.0652880">
        <ele>2543</ele>
      </trkpt>
      <trkpt lat="45.5126000" lon="7.0661880">
        <ele>2549</ele>
      </trkpt>
      <trkpt lat="45.5130700" lon="7.0666080">
        <ele>2556</ele>
      </trkpt>
      <trkpt lat="45.5136500" lon="7.0676480">
        <ele>2563</ele>
      </trkpt>
      <trkpt lat="45.5137800" lon="7.0681680">
        <ele>2569</ele>
      </trkpt>
      <trkpt lat="45.5140800" lon="7.0687680">
        <ele>2576</ele>
      </trkpt>
      <trkpt lat="45.5141800" lon="7.0700980">
        <ele>2583</ele>
      </trkpt>
      <trkpt lat="45.5148200" lon="7.0710780">
        <ele>2589</ele>
      </trkpt>
      <trkpt lat="45.5148900" lon="7.0713080">
        <ele>2596</ele>
      </trkpt>
      <trkpt lat="45.5148500" lon="7.0718080">
        <ele>2603</ele>
      </trkpt>
      <trkpt lat="45.5149800" lon="7.0721680">
        <ele>2609</ele>
      </trkpt>
      <trkpt lat="45.5151500" lon="7.0723680">
        <ele>2616</ele>
      </trkpt>
      <trkpt lat="45.5152200" lon="7.0730780">
        <ele>2623</ele>
      </trkpt>
      <trkpt lat="45.5155700" lon="7.0737980">
        <ele>2629</ele>
      </trkpt>
      <trkpt lat="45.5157900" lon="7.0741180">
        <ele>2636</ele>
      </trkpt>
      <trkpt lat="45.5159100" lon="7.0750980">
        <ele>2643</ele>
      </trkpt>
      <trkpt lat="45.5161400" lon="7.0756180">
        <ele>2649</ele>
      </trkpt>
      <trkpt lat="45.5164100" lon="7.0758280">
        <ele>2656</ele>
      </trkpt>
      <trkpt lat="45.5164700" lon="7.0757580">
        <ele>2663</ele>
      </trkpt>
      <trkpt lat="45.5171300" lon="7.0763380">
        <ele>2669</ele>
      </trkpt>
      <trkpt lat="45.5172000" lon="7.0765180">
        <ele>2676</ele>
      </trkpt>
      <trkpt lat="45.5173880" lon="7.0766100">
        <ele>2683</ele>
      </trkpt>
      <trkpt lat="45.5175300" lon="7.0766880">
        <ele>2689</ele>
      </trkpt>
      <trkpt lat="45.5175900" lon="7.0768280">
        <ele>2696</ele>
      </trkpt>
      <trkpt lat="45.5174900" lon="7.0770080">
        <ele>2703</ele>
      </trkpt>
      <trkpt lat="45.5168000" lon="7.0770280">
        <ele>2709</ele>
      </trkpt>
      <trkpt lat="45.5167300" lon="7.0772170">
        <ele>2716</ele>
      </trkpt>
      <trkpt lat="45.5164800" lon="7.0769470">
        <ele>2723</ele>
      </trkpt>
      <trkpt lat="45.5163600" lon="7.0769370">
        <ele>2729</ele>
      </trkpt>
      <trkpt lat="45.5163300" lon="7.0770270">
        <ele>2736</ele>
      </trkpt>
      <trkpt lat="45.5162300" lon="7.0770470">
        <ele>2743</ele>
      </trkpt>
      <trkpt lat="45.5162800" lon="7.0771370">
        <ele>2749</ele>
      </trkpt>
      <trkpt lat="45.5162100" lon="7.0771770">
        <ele>2756</ele>
      </trkpt>
      <trkpt lat="45.5161900" lon="7.0773670">
        <ele>2763</ele>
      </trkpt>
      <trkpt lat="45.5160500" lon="7.0773570">
        <ele>2769</ele>
      </trkpt>
      <trkpt lat="45.5160000" lon="7.0774370">
        <ele>2776</ele>
      </trkpt>
      <trkpt lat="45.5152900" lon="7.0776370">
        <ele>2783</ele>
      </trkpt>
      <trkpt lat="45.5151300" lon="7.0775370">
        <ele>2789</ele>
      </trkpt>
      <trkpt lat="45.5147400" lon="7.0775170">
        <ele>2796</ele>
      </trkpt>
      <trkpt lat="45.5145800" lon="7.0777070">
        <ele>2803</ele>
      </trkpt>
      <trkpt lat="45.5145600" lon="7.0778470">
        <ele>2809</ele>
      </trkpt>
      <trkpt lat="45.5149100" lon="7.0780170">
        <ele>2816</ele>
      </trkpt>
      <trkpt lat="45.5146500" lon="7.0782170">
        <ele>2823</ele>
      </trkpt>
      <trkpt lat="45.5147300" lon="7.0782970">
        <ele>2829</ele>
      </trkpt>
      <trkpt lat="45.5146500" lon="7.0784370">
        <ele>2836</ele>
      </trkpt>
      <trkpt lat="45.5146900" lon="7.0784870">
        <ele>2843</ele>
      </trkpt>
      <trkpt lat="45.5146100" lon="7.0785370">
        <ele>2849</ele>
      </trkpt>
      <trkpt lat="45.5146200" lon="7.0786770">
        <ele>2856</ele>
      </trkpt>
      <trkpt lat="45.5143300" lon="7.0787370">
        <ele>2863</ele>
      </trkpt>
      <trkpt lat="45.5142100" lon="7.0788470">
        <ele>2869</ele>
      </trkpt>
      <trkpt lat="45.5142800" lon="7.0791170">
        <ele>2876</ele>
      </trkpt>
      <trkpt lat="45.5142700" lon="7.0793670">
        <ele>2883</ele>
      </trkpt>
      <trkpt lat="45.5147000" lon="7.0795870">
        <ele>2889</ele>
      </trkpt>
      <trkpt lat="45.5150000" lon="7.0795170">
        <ele>2896</ele>
      </trkpt>
      <trkpt lat="45.5153200" lon="7.0796070">
        <ele>2903</ele>
      </trkpt>
      <trkpt lat="45.5158500" lon="7.0795670">
        <ele>2909</ele>
      </trkpt>
      <trkpt lat="45.5160100" lon="7.0796570">
        <ele>2916</ele>
      </trkpt>
      <trkpt lat="45.5159800" lon="7.0797070">
        <ele>2923</ele>
      </trkpt>
      <trkpt lat="45.5164800" lon="7.0798870">
        <ele>2929</ele>
      </trkpt>
      <trkpt lat="45.5166500" lon="7.0800670">
        <ele>2936</ele>
      </trkpt>
      <trkpt lat="45.5168300" lon="7.0800670">
        <ele>2943</ele>
      </trkpt>
      <trkpt lat="45.5175400" lon="7.0808770">
        <ele>2949</ele>
      </trkpt>
      <trkpt lat="45.5172400" lon="7.0812370">
        <ele>2956</ele>
      </trkpt>
      <trkpt lat="45.5170600" lon="7.0812670">
        <ele>2963</ele>
      </trkpt>
      <trkpt lat="45.5170000" lon="7.0813770">
        <ele>2969</ele>
      </trkpt>
      <trkpt lat="45.5166000" lon="7.0815870">
        <ele>2976</ele>
      </trkpt>
      <trkpt lat="45.5161300" lon="7.0816770">
        <ele>2983</ele>
      </trkpt>
      <trkpt lat="45.5156600" lon="7.0818970">
        <ele>2989</ele>
      </trkpt>
      <trkpt lat="45.5151200" lon="7.0824170">
        <ele>2996</ele>
      </trkpt>
      <trkpt lat="45.5151600" lon="7.0826470">
        <ele>3003</ele>
      </trkpt>
      <trkpt lat="45.5150600" lon="7.0827770">
        <ele>3009</ele>
      </trkpt>
      <trkpt lat="45.5150900" lon="7.0829470">
        <ele>3016</ele>
      </trkpt>
      <trkpt lat="45.5148940" lon="7.0833695">
        <ele>3023</ele>
      </trkpt>
      <trkpt lat="45.5148926" lon="7.0835133">
        <ele>3029</ele>
      </trkpt>
      <trkpt lat="45.5150957" lon="7.0836573">
        <ele>3036</ele>
      </trkpt>
      <trkpt lat="45.5151600" lon="7.0838670">
        <ele>3043</ele>
      </trkpt>
      <trkpt lat="45.5151852" lon="7.0845382">
        <ele>3049</ele>
      </trkpt>
      <trkpt lat="45.5152124" lon="7.0845501">
        <ele>3056</ele>
      </trkpt>
      <trkpt lat="45.5152403" lon="7.0846003">
        <ele>3063</ele>
      </trkpt>
      <trkpt lat="45.5152501" lon="7.0846512">
        <ele>3069</ele>
      </trkpt>
      <trkpt lat="45.5152357" lon="7.0847285">
        <ele>3076</ele>
      </trkpt>
      <trkpt lat="45.5153800" lon="7.0848970">
        <ele>3083</ele>
      </trkpt>
      <trkpt lat="45.5157580" lon="7.0854700">
        <ele>3089</ele>
      </trkpt>
      <trkpt lat="45.5157605" lon="7.0855095">
        <ele>3096</ele>
      </trkpt>
    </trkseg>
  </trk>
</gpx>
