<?xml version="1.0" encoding="UTF-8"?>
<gpx version="1.1" creator="sentieri-vda" xmlns="http://www.topografix.com/GPX/1/1">
  <metadata>
    <name>Chanavey - Bruil - Chaudane - Thumel (sentiero natura)</name>
    <desc>Catasto Sentieri VdA — 55_S10</desc>
    <author><name>Regione Autonoma Valle d'Aosta</name></author>
  </metadata>
  <trk>
    <name>Chanavey - Bruil - Chaudane - Thumel (sentiero natura)</name>
    <src>Catasto Sentieri VdA (55_S10)</src>
    <trkseg>
      <trkpt lat="45.5389150" lon="7.1025372">
        <ele>1701</ele>
      </trkpt>
      <trkpt lat="45.5388388" lon="7.1027026">
        <ele>1702</ele>
      </trkpt>
      <trkpt lat="45.5388180" lon="7.1029261">
        <ele>1703</ele>
      </trkpt>
      <trkpt lat="45.5387840" lon="7.1030914">
        <ele>1704</ele>
      </trkpt>
      <trkpt lat="45.5387581" lon="7.1031400">
        <ele>1705</ele>
      </trkpt>
      <trkpt lat="45.5386254" lon="7.1032328">
        <ele>1706</ele>
      </trkpt>
      <trkpt lat="45.5384037" lon="7.1032941">
        <ele>1706</ele>
      </trkpt>
      <trkpt lat="45.5379723" lon="7.1035377">
        <ele>1707</ele>
      </trkpt>
      <trkpt lat="45.5371981" lon="7.1033300">
        <ele>1708</ele>
      </trkpt>
      <trkpt lat="45.5368981" lon="7.1035400">
        <ele>1709</ele>
      </trkpt>
      <trkpt lat="45.5366191" lon="7.1038970">
        <ele>1710</ele>
      </trkpt>
      <trkpt lat="45.5367381" lon="7.1042800">
        <ele>1711</ele>
      </trkpt>
      <trkpt lat="45.5367481" lon="7.1047800">
        <ele>1712</ele>
      </trkpt>
      <trkpt lat="45.5365581" lon="7.1052800">
        <ele>1713</ele>
      </trkpt>
      <trkpt lat="45.5366481" lon="7.1054100">
        <ele>1714</ele>
      </trkpt>
      <trkpt lat="45.5369981" lon="7.1056100">
        <ele>1715</ele>
      </trkpt>
      <trkpt lat="45.5374581" lon="7.1059200">
        <ele>1716</ele>
      </trkpt>
      <trkpt lat="45.5382581" lon="7.1065900">
        <ele>1716</ele>
      </trkpt>
      <trkpt lat="45.5385881" lon="7.1066100">
        <ele>1717</ele>
      </trkpt>
      <trkpt lat="45.5389381" lon="7.1065800">
        <ele>1718</ele>
      </trkpt>
      <trkpt lat="45.5398681" lon="7.1066600">
        <ele>1719</ele>
      </trkpt>
      <trkpt lat="45.5402481" lon="7.1066400">
        <ele>1720</ele>
      </trkpt>
      <trkpt lat="45.5409781" lon="7.1064600">
        <ele>1721</ele>
      </trkpt>
      <trkpt lat="45.5424681" lon="7.1073500">
        <ele>1722</ele>
      </trkpt>
      <trkpt lat="45.5443181" lon="7.1076400">
        <ele>1723</ele>
      </trkpt>
      <trkpt lat="45.5453381" lon="7.1073300">
        <ele>1724</ele>
      </trkpt>
      <trkpt lat="45.5458281" lon="7.1077600">
        <ele>1725</ele>
      </trkpt>
      <trkpt lat="45.5462081" lon="7.1077900">
        <ele>1726</ele>
      </trkpt>
      <trkpt lat="45.5465281" lon="7.1076300">
        <ele>1727</ele>
      </trkpt>
      <trkpt lat="45.5475581" lon="7.1081000">
        <ele>1727</ele>
      </trkpt>
      <trkpt lat="45.5482691" lon="7.1089770">
        <ele>1728</ele>
      </trkpt>
      <trkpt lat="45.5484991" lon="7.1091470">
        <ele>1729</ele>
      </trkpt>
      <trkpt lat="45.5494081" lon="7.1093070">
        <ele>1730</ele>
      </trkpt>
      <trkpt lat="45.5496681" lon="7.1094170">
        <ele>1731</ele>
      </trkpt>
      <trkpt lat="45.5508481" lon="7.1096970">
        <ele>1732</ele>
      </trkpt>
      <trkpt lat="45.5513181" lon="7.1098970">
        <ele>1733</ele>
      </trkpt>
      <trkpt lat="45.5518381" lon="7.1103170">
        <ele>1734</ele>
      </trkpt>
      <trkpt lat="45.5519681" lon="7.1103370">
        <ele>1735</ele>
      </trkpt>
      <trkpt lat="45.5521881" lon="7.1101770">
        <ele>1736</ele>
      </trkpt>
      <trkpt lat="45.5525381" lon="7.1102470">
        <ele>1737</ele>
      </trkpt>
      <trkpt lat="45.5528481" lon="7.1103770">
        <ele>1737</ele>
      </trkpt>
      <trkpt lat="45.5529981" lon="7.1103470">
        <ele>1738</ele>
      </trkpt>
      <trkpt lat="45.5531381" lon="7.1104270">
        <ele>1739</ele>
      </trkpt>
      <trkpt lat="45.5531481" lon="7.1104970">
        <ele>1740</ele>
      </trkpt>
      <trkpt lat="45.5533181" lon="7.1106270">
        <ele>1741</ele>
      </trkpt>
      <trkpt lat="45.5535681" lon="7.1107470">
        <ele>1742</ele>
      </trkpt>
      <trkpt lat="45.5538881" lon="7.1111770">
        <ele>1743</ele>
      </trkpt>
      <trkpt lat="45.5540781" lon="7.1119800">
        <ele>1744</ele>
      </trkpt>
      <trkpt lat="45.5540481" lon="7.1125170">
        <ele>1745</ele>
      </trkpt>
      <trkpt lat="45.5541381" lon="7.1129500">
        <ele>1746</ele>
      </trkpt>
      <trkpt lat="45.5544281" lon="7.1134070">
        <ele>1747</ele>
      </trkpt>
      <trkpt lat="45.5547181" lon="7.1135170">
        <ele>1747</ele>
      </trkpt>
      <trkpt lat="45.5556081" lon="7.1133500">
        <ele>1748</ele>
      </trkpt>
      <trkpt lat="45.5562881" lon="7.1131000">
        <ele>1749</ele>
      </trkpt>
      <trkpt lat="45.5571381" lon="7.1122680">
        <ele>1750</ele>
      </trkpt>
      <trkpt lat="45.5574381" lon="7.1120680">
        <ele>1751</ele>
      </trkpt>
      <trkpt lat="45.5576381" lon="7.1119100">
        <ele>1752</ele>
      </trkpt>
      <trkpt lat="45.5576612" lon="7.1120665">
        <ele>1753</ele>
      </trkpt>
      <trkpt lat="45.5577176" lon="7.1124564">
        <ele>1754</ele>
      </trkpt>
      <trkpt lat="45.5576181" lon="7.1138770">
        <ele>1755</ele>
      </trkpt>
      <trkpt lat="45.5575481" lon="7.1141370">
        <ele>1756</ele>
      </trkpt>
      <trkpt lat="45.5573981" lon="7.1143170">
        <ele>1757</ele>
      </trkpt>
      <trkpt lat="45.5575181" lon="7.1145170">
        <ele>1758</ele>
      </trkpt>
      <trkpt lat="45.5574881" lon="7.1147870">
        <ele>1758</ele>
      </trkpt>
      <trkpt lat="45.5571981" lon="7.1146570">
        <ele>1759</ele>
      </trkpt>
      <trkpt lat="45.5570081" lon="7.1149570">
        <ele>1760</ele>
      </trkpt>
      <trkpt lat="45.5570681" lon="7.1150370">
        <ele>1761</ele>
      </trkpt>
      <trkpt lat="45.5567981" lon="7.1163870">
        <ele>1762</ele>
      </trkpt>
      <trkpt lat="45.5569281" lon="7.1165670">
        <ele>1763</ele>
      </trkpt>
      <trkpt lat="45.5569081" lon="7.1167170">
        <ele>1764</ele>
      </trkpt>
      <trkpt lat="45.5566581" lon="7.1170570">
        <ele>1765</ele>
      </trkpt>
      <trkpt lat="45.5567881" lon="7.1171970">
        <ele>1766</ele>
      </trkpt>
      <trkpt lat="45.5570881" lon="7.1173770">
        <ele>1767</ele>
      </trkpt>
      <trkpt lat="45.5572981" lon="7.1173670">
        <ele>1768</ele>
      </trkpt>
      <trkpt lat="45.5574181" lon="7.1174570">
        <ele>1768</ele>
      </trkpt>
      <trkpt lat="45.5576181" lon="7.1169070">
        <ele>1769</ele>
      </trkpt>
      <trkpt lat="45.5576481" lon="7.1166170">
        <ele>1770</ele>
      </trkpt>
      <trkpt lat="45.5577881" lon="7.1164170">
        <ele>1771</ele>
      </trkpt>
      <trkpt lat="45.5577981" lon="7.1162470">
        <ele>1772</ele>
      </trkpt>
      <trkpt lat="45.5580981" lon="7.1160870">
        <ele>1773</ele>
      </trkpt>
      <trkpt lat="45.5583681" lon="7.1158170">
        <ele>1774</ele>
      </trkpt>
      <trkpt lat="45.5584881" lon="7.1159070">
        <ele>1775</ele>
      </trkpt>
      <trkpt lat="45.5586481" lon="7.1159170">
        <ele>1776</ele>
      </trkpt>
      <trkpt lat="45.5588044" lon="7.1159721">
        <ele>1777</ele>
      </trkpt>
      <trkpt lat="45.5590266" lon="7.1160736">
        <ele>1778</ele>
      </trkpt>
      <trkpt lat="45.5590320" lon="7.1161292">
        <ele>1778</ele>
      </trkpt>
      <trkpt lat="45.5590293" lon="7.1162413">
        <ele>1779</ele>
      </trkpt>
      <trkpt lat="45.5591782" lon="7.1162639">
        <ele>1780</ele>
      </trkpt>
      <trkpt lat="45.5592181" lon="7.1161770">
        <ele>1781</ele>
      </trkpt>
      <trkpt lat="45.5594044" lon="7.1160618">
        <ele>1782</ele>
      </trkpt>
      <trkpt lat="45.5594087" lon="7.1161618">
        <ele>1783</ele>
      </trkpt>
      <trkpt lat="45.5594211" lon="7.1162594">
        <ele>1784</ele>
      </trkpt>
      <trkpt lat="45.5594572" lon="7.1163653">
        <ele>1785</ele>
      </trkpt>
      <trkpt lat="45.5594852" lon="7.1164348">
        <ele>1786</ele>
      </trkpt>
      <trkpt lat="45.5595088" lon="7.1165117">
        <ele>1787</ele>
      </trkpt>
      <trkpt lat="45.5595184" lon="7.1165680">
        <ele>1788</ele>
      </trkpt>
      <trkpt lat="45.5595168" lon="7.1166025">
        <ele>1789</ele>
      </trkpt>
      <trkpt lat="45.5595061" lon="7.1166741">
        <ele>1789</ele>
      </trkpt>
      <trkpt lat="45.5595020" lon="7.1167163">
        <ele>1790</ele>
      </trkpt>
      <trkpt lat="45.5595032" lon="7.1167576">
        <ele>1791</ele>
      </trkpt>
      <trkpt lat="45.5595156" lon="7.1167939">
        <ele>1792</ele>
      </trkpt>
      <trkpt lat="45.5595324" lon="7.1168347">
        <ele>1793</ele>
      </trkpt>
      <trkpt lat="45.5595911" lon="7.1169518">
        <ele>1794</ele>
      </trkpt>
      <trkpt lat="45.5596361" lon="7.1170383">
        <ele>1795</ele>
      </trkpt>
      <trkpt lat="45.5596801" lon="7.1171302">
        <ele>1796</ele>
      </trkpt>
      <trkpt lat="45.5597199" lon="7.1172129">
        <ele>1797</ele>
      </trkpt>
      <trkpt lat="45.5597710" lon="7.1173174">
        <ele>1798</ele>
      </trkpt>
      <trkpt lat="45.5599924" lon="7.1170824">
        <ele>1799</ele>
      </trkpt>
      <trkpt lat="45.5601445" lon="7.1170839">
        <ele>1799</ele>
      </trkpt>
      <trkpt lat="45.5602533" lon="7.1172226">
        <ele>1800</ele>
      </trkpt>
      <trkpt lat="45.5603794" lon="7.1175474">
        <ele>1801</ele>
      </trkpt>
      <trkpt lat="45.5615967" lon="7.1169686">
        <ele>1802</ele>
      </trkpt>
      <trkpt lat="45.5625500" lon="7.1171409">
        <ele>1803</ele>
      </trkpt>
      <trkpt lat="45.5646681" lon="7.1186180">
        <ele>1804</ele>
      </trkpt>
      <trkpt lat="45.5649217" lon="7.1185353">
        <ele>1805</ele>
      </trkpt>
      <trkpt lat="45.5652036" lon="7.1186798">
        <ele>1806</ele>
      </trkpt>
      <trkpt lat="45.5653852" lon="7.1187762">
        <ele>1807</ele>
      </trkpt>
      <trkpt lat="45.5660317" lon="7.1192288">
        <ele>1808</ele>
      </trkpt>
      <trkpt lat="45.5663851" lon="7.1193707">
        <ele>1809</ele>
      </trkpt>
      <trkpt lat="45.5664930" lon="7.1193671">
        <ele>1809</ele>
      </trkpt>
      <trkpt lat="45.5666828" lon="7.1194121">
        <ele>1810</ele>
      </trkpt>
      <trkpt lat="45.5669640" lon="7.1195436">
        <ele>1811</ele>
      </trkpt>
      <trkpt lat="45.5673718" lon="7.1197098">
        <ele>1812</ele>
      </trkpt>
      <trkpt lat="45.5675811" lon="7.1198530">
        <ele>1813</ele>
      </trkpt>
      <trkpt lat="45.5680987" lon="7.1201297">
        <ele>1814</ele>
      </trkpt>
      <trkpt lat="45.5682858" lon="7.1202816">
        <ele>1815</ele>
      </trkpt>
      <trkpt lat="45.5684495" lon="7.1203847">
        <ele>1816</ele>
      </trkpt>
      <trkpt lat="45.5685944" lon="7.1204411">
        <ele>1817</ele>
      </trkpt>
      <trkpt lat="45.5686979" lon="7.1204409">
        <ele>1818</ele>
      </trkpt>
      <trkpt lat="45.5687907" lon="7.1203912">
        <ele>1819</ele>
      </trkpt>
      <trkpt lat="45.5688600" lon="7.1202880">
        <ele>1820</ele>
      </trkpt>
      <trkpt lat="45.5689991" lon="7.1203834">
        <ele>1820</ele>
      </trkpt>
      <trkpt lat="45.5692201" lon="7.1205540">
        <ele>1821</ele>
      </trkpt>
      <trkpt lat="45.5694469" lon="7.1207072">
        <ele>1822</ele>
      </trkpt>
      <trkpt lat="45.5696416" lon="7.1207963">
        <ele>1823</ele>
      </trkpt>
      <trkpt lat="45.5697677" lon="7.1208476">
        <ele>1824</ele>
      </trkpt>
      <trkpt lat="45.5698373" lon="7.1208790">
        <ele>1825</ele>
      </trkpt>
      <trkpt lat="45.5699259" lon="7.1209178">
        <ele>1826</ele>
      </trkpt>
      <trkpt lat="45.5699905" lon="7.1209318">
        <ele>1827</ele>
      </trkpt>
      <trkpt lat="45.5700500" lon="7.1209271">
        <ele>1828</ele>
      </trkpt>
      <trkpt lat="45.5701384" lon="7.1209353">
        <ele>1829</ele>
      </trkpt>
      <trkpt lat="45.5702206" lon="7.1209675">
        <ele>1830</ele>
      </trkpt>
      <trkpt lat="45.5703674" lon="7.1210381">
        <ele>1830</ele>
      </trkpt>
      <trkpt lat="45.5704716" lon="7.1210838">
        <ele>1831</ele>
      </trkpt>
      <trkpt lat="45.5705055" lon="7.1210793">
        <ele>1832</ele>
      </trkpt>
      <trkpt lat="45.5705935" lon="7.1213650">
        <ele>1833</ele>
      </trkpt>
      <trkpt lat="45.5706327" lon="7.1214260">
        <ele>1834</ele>
      </trkpt>
      <trkpt lat="45.5706878" lon="7.1214740">
        <ele>1835</ele>
      </trkpt>
      <trkpt lat="45.5708266" lon="7.1215357">
        <ele>1836</ele>
      </trkpt>
      <trkpt lat="45.5708535" lon="7.1215314">
        <ele>1837</ele>
      </trkpt>
      <trkpt lat="45.5708859" lon="7.1215135">
        <ele>1838</ele>
      </trkpt>
      <trkpt lat="45.5709167" lon="7.1214956">
        <ele>1839</ele>
      </trkpt>
      <trkpt lat="45.5709491" lon="7.1214821">
        <ele>1840</ele>
      </trkpt>
      <trkpt lat="45.5710236" lon="7.1214756">
        <ele>1840</ele>
      </trkpt>
      <trkpt lat="45.5710919" lon="7.1214847">
        <ele>1841</ele>
      </trkpt>
      <trkpt lat="45.5711404" lon="7.1215062">
        <ele>1842</ele>
      </trkpt>
      <trkpt lat="45.5712040" lon="7.1215425">
        <ele>1843</ele>
      </trkpt>
      <trkpt lat="45.5712504" lon="7.1215872">
        <ele>1844</ele>
      </trkpt>
      <trkpt lat="45.5712891" lon="7.1216412">
        <ele>1845</ele>
      </trkpt>
      <trkpt lat="45.5713674" lon="7.1217756">
        <ele>1846</ele>
      </trkpt>
      <trkpt lat="45.5714892" lon="7.1220052">
        <ele>1847</ele>
      </trkpt>
      <trkpt lat="45.5716148" lon="7.1221181">
        <ele>1848</ele>
      </trkpt>
      <trkpt lat="45.5719062" lon="7.1223263">
        <ele>1849</ele>
      </trkpt>
      <trkpt lat="45.5726943" lon="7.1223259">
        <ele>1850</ele>
      </trkpt>
      <trkpt lat="45.5730279" lon="7.1223719">
        <ele>1851</ele>
      </trkpt>
      <trkpt lat="45.5731215" lon="7.1224211">
        <ele>1851</ele>
      </trkpt>
      <trkpt lat="45.5740533" lon="7.1232063">
        <ele>1852</ele>
      </trkpt>
      <trkpt lat="45.5742779" lon="7.1233766">
        <ele>1853</ele>
      </trkpt>
      <trkpt lat="45.5745392" lon="7.1235381">
        <ele>1854</ele>
      </trkpt>
      <trkpt lat="45.5747468" lon="7.1237018">
        <ele>1855</ele>
      </trkpt>
      <trkpt lat="45.5754681" lon="7.1243280">
        <ele>1856</ele>
      </trkpt>
      <trkpt lat="45.5757481" lon="7.1243380">
        <ele>1857</ele>
      </trkpt>
      <trkpt lat="45.5758981" lon="7.1242380">
        <ele>1858</ele>
      </trkpt>
      <trkpt lat="45.5762281" lon="7.1242180">
        <ele>1859</ele>
      </trkpt>
      <trkpt lat="45.5763287" lon="7.1241598">
        <ele>1860</ele>
      </trkpt>
      <trkpt lat="45.5764716" lon="7.1240169">
        <ele>1861</ele>
      </trkpt>
      <trkpt lat="45.5766320" lon="7.1238094">
        <ele>1861</ele>
      </trkpt>
      <trkpt lat="45.5767781" lon="7.1236580">
        <ele>1862</ele>
      </trkpt>
      <trkpt lat="45.5773606" lon="7.1236681">
        <ele>1863</ele>
      </trkpt>
      <trkpt lat="45.5775875" lon="7.1238031">
        <ele>1864</ele>
      </trkpt>
      <trkpt lat="45.5780732" lon="7.1242756">
        <ele>1865</ele>
      </trkpt>
      <trkpt lat="45.5787515" lon="7.1246770">
        <ele>1866</ele>
      </trkpt>
    </trkseg>
  </trk>
</gpx>
