<?xml version="1.0" encoding="UTF-8"?>
<gpx version="1.1" creator="sentieri-vda" xmlns="http://www.topografix.com/GPX/1/1">
  <metadata>
    <name>Bruil  - Chaussettaz</name>
    <desc>Catasto Sentieri VdA — 55_S5</desc>
    <author><name>Regione Autonoma Valle d'Aosta</name></author>
  </metadata>
  <trk>
    <name>Bruil  - Chaussettaz</name>
    <src>Catasto Sentieri VdA (55_S5)</src>
    <trkseg>
      <trkpt lat="45.5795581" lon="7.1441300">
        <ele>1738</ele>
      </trkpt>
      <trkpt lat="45.5794971" lon="7.1440270">
        <ele>1744</ele>
      </trkpt>
      <trkpt lat="45.5795171" lon="7.1438270">
        <ele>1750</ele>
      </trkpt>
      <trkpt lat="45.5793771" lon="7.1438770">
        <ele>1756</ele>
      </trkpt>
      <trkpt lat="45.5792471" lon="7.1437970">
        <ele>1762</ele>
      </trkpt>
      <trkpt lat="45.5792271" lon="7.1435970">
        <ele>1769</ele>
      </trkpt>
      <trkpt lat="45.5790871" lon="7.1435170">
        <ele>1775</ele>
      </trkpt>
      <trkpt lat="45.5789471" lon="7.1430570">
        <ele>1781</ele>
      </trkpt>
      <trkpt lat="45.5790171" lon="7.1426870">
        <ele>1787</ele>
      </trkpt>
      <trkpt lat="45.5789971" lon="7.1415570">
        <ele>1793</ele>
      </trkpt>
      <trkpt lat="45.5791371" lon="7.1406070">
        <ele>1799</ele>
      </trkpt>
      <trkpt lat="45.5789471" lon="7.1402770">
        <ele>1805</ele>
      </trkpt>
      <trkpt lat="45.5788671" lon="7.1396270">
        <ele>1811</ele>
      </trkpt>
      <trkpt lat="45.5788171" lon="7.1393870">
        <ele>1818</ele>
      </trkpt>
      <trkpt lat="45.5787371" lon="7.1393370">
        <ele>1824</ele>
      </trkpt>
      <trkpt lat="45.5787371" lon="7.1391970">
        <ele>1830</ele>
      </trkpt>
      <trkpt lat="45.5787171" lon="7.1391070">
        <ele>1836</ele>
      </trkpt>
      <trkpt lat="45.5788471" lon="7.1390270">
        <ele>1842</ele>
      </trkpt>
      <trkpt lat="45.5789171" lon="7.1385070">
        <ele>1848</ele>
      </trkpt>
      <trkpt lat="45.5788071" lon="7.1383470">
        <ele>1854</ele>
      </trkpt>
      <trkpt lat="45.5788271" lon="7.1377770">
        <ele>1860</ele>
      </trkpt>
      <trkpt lat="45.5786571" lon="7.1378770">
        <ele>1866</ele>
      </trkpt>
      <trkpt lat="45.5784771" lon="7.1378170">
        <ele>1873</ele>
      </trkpt>
      <trkpt lat="45.5780571" lon="7.1371970">
        <ele>1879</ele>
      </trkpt>
      <trkpt lat="45.5780371" lon="7.1370970">
        <ele>1885</ele>
      </trkpt>
      <trkpt lat="45.5779281" lon="7.1369470">
        <ele>1891</ele>
      </trkpt>
      <trkpt lat="45.5775981" lon="7.1356270">
        <ele>1897</ele>
      </trkpt>
      <trkpt lat="45.5776481" lon="7.1355870">
        <ele>1903</ele>
      </trkpt>
      <trkpt lat="45.5775981" lon="7.1353070">
        <ele>1909</ele>
      </trkpt>
      <trkpt lat="45.5772381" lon="7.1348970">
        <ele>1915</ele>
      </trkpt>
      <trkpt lat="45.5771381" lon="7.1344070">
        <ele>1922</ele>
      </trkpt>
      <trkpt lat="45.5766281" lon="7.1337270">
        <ele>1928</ele>
      </trkpt>
      <trkpt lat="45.5765981" lon="7.1335470">
        <ele>1934</ele>
      </trkpt>
      <trkpt lat="45.5764281" lon="7.1331870">
        <ele>1940</ele>
      </trkpt>
      <trkpt lat="45.5764481" lon="7.1328400">
        <ele>1946</ele>
      </trkpt>
      <trkpt lat="45.5764081" lon="7.1328670">
        <ele>1952</ele>
      </trkpt>
      <trkpt lat="45.5761281" lon="7.1323670">
        <ele>1958</ele>
      </trkpt>
      <trkpt lat="45.5759581" lon="7.1323070">
        <ele>1964</ele>
      </trkpt>
      <trkpt lat="45.5754681" lon="7.1318470">
        <ele>1971</ele>
      </trkpt>
      <trkpt lat="45.5747481" lon="7.1316970">
        <ele>1977</ele>
      </trkpt>
      <trkpt lat="45.5746681" lon="7.1315370">
        <ele>1983</ele>
      </trkpt>
      <trkpt lat="45.5744581" lon="7.1313470">
        <ele>1989</ele>
      </trkpt>
      <trkpt lat="45.5740281" lon="7.1305170">
        <ele>1995</ele>
      </trkpt>
      <trkpt lat="45.5735981" lon="7.1301970">
        <ele>2001</ele>
      </trkpt>
      <trkpt lat="45.5733781" lon="7.1299070">
        <ele>2007</ele>
      </trkpt>
      <trkpt lat="45.5726781" lon="7.1294670">
        <ele>2013</ele>
      </trkpt>
      <trkpt lat="45.5722681" lon="7.1287070">
        <ele>2019</ele>
      </trkpt>
      <trkpt lat="45.5720081" lon="7.1285370">
        <ele>2026</ele>
      </trkpt>
      <trkpt lat="45.5717281" lon="7.1281470">
        <ele>2032</ele>
      </trkpt>
      <trkpt lat="45.5715581" lon="7.1280670">
        <ele>2038</ele>
      </trkpt>
      <trkpt lat="45.5712381" lon="7.1276870">
        <ele>2044</ele>
      </trkpt>
      <trkpt lat="45.5711781" lon="7.1272670">
        <ele>2050</ele>
      </trkpt>
      <trkpt lat="45.5709181" lon="7.1269070">
        <ele>2056</ele>
      </trkpt>
      <trkpt lat="45.5707081" lon="7.1261570">
        <ele>2062</ele>
      </trkpt>
      <trkpt lat="45.5706381" lon="7.1261770">
        <ele>2068</ele>
      </trkpt>
      <trkpt lat="45.5702981" lon="7.1256670">
        <ele>2075</ele>
      </trkpt>
      <trkpt lat="45.5701781" lon="7.1253270">
        <ele>2081</ele>
      </trkpt>
      <trkpt lat="45.5702581" lon="7.1252870">
        <ele>2087</ele>
      </trkpt>
      <trkpt lat="45.5702181" lon="7.1251470">
        <ele>2093</ele>
      </trkpt>
      <trkpt lat="45.5701281" lon="7.1249970">
        <ele>2099</ele>
      </trkpt>
      <trkpt lat="45.5699081" lon="7.1249170">
        <ele>2105</ele>
      </trkpt>
      <trkpt lat="45.5698781" lon="7.1247470">
        <ele>2111</ele>
      </trkpt>
      <trkpt lat="45.5699681" lon="7.1246370">
        <ele>2117</ele>
      </trkpt>
      <trkpt lat="45.5699181" lon="7.1245870">
        <ele>2123</ele>
      </trkpt>
      <trkpt lat="45.5700681" lon="7.1245380">
        <ele>2130</ele>
      </trkpt>
      <trkpt lat="45.5698981" lon="7.1239880">
        <ele>2136</ele>
      </trkpt>
      <trkpt lat="45.5692781" lon="7.1230180">
        <ele>2142</ele>
      </trkpt>
      <trkpt lat="45.5689581" lon="7.1228280">
        <ele>2148</ele>
      </trkpt>
      <trkpt lat="45.5688081" lon="7.1225880">
        <ele>2154</ele>
      </trkpt>
      <trkpt lat="45.5688181" lon="7.1220880">
        <ele>2160</ele>
      </trkpt>
      <trkpt lat="45.5689581" lon="7.1218680">
        <ele>2166</ele>
      </trkpt>
      <trkpt lat="45.5693881" lon="7.1216080">
        <ele>2172</ele>
      </trkpt>
      <trkpt lat="45.5693981" lon="7.1213080">
        <ele>2179</ele>
      </trkpt>
      <trkpt lat="45.5693781" lon="7.1212180">
        <ele>2185</ele>
      </trkpt>
      <trkpt lat="45.5688581" lon="7.1207380">
        <ele>2191</ele>
      </trkpt>
      <trkpt lat="45.5688981" lon="7.1206680">
        <ele>2197</ele>
      </trkpt>
      <trkpt lat="45.5688600" lon="7.1202880">
        <ele>2203</ele>
      </trkpt>
    </trkseg>
  </trk>
</gpx>
