<?xml version="1.0" encoding="UTF-8"?>
<gpx version="1.1" creator="sentieri-vda" xmlns="http://www.topografix.com/GPX/1/1">
  <metadata>
    <name>Chanavey - Bruil, Foyer de Fond</name>
    <desc>Catasto Sentieri VdA — 55_S26</desc>
    <author><name>Regione Autonoma Valle d'Aosta</name></author>
  </metadata>
  <trk>
    <name>Chanavey - Bruil, Foyer de Fond</name>
    <src>Catasto Sentieri VdA (55_S26)</src>
    <trkseg>
      <trkpt lat="45.5669662" lon="7.1179257">
        <ele>1686</ele>
      </trkpt>
      <trkpt lat="45.5670597" lon="7.1177418">
        <ele>1687</ele>
      </trkpt>
      <trkpt lat="45.5672738" lon="7.1176234">
        <ele>1687</ele>
      </trkpt>
      <trkpt lat="45.5673622" lon="7.1175582">
        <ele>1688</ele>
      </trkpt>
      <trkpt lat="45.5675046" lon="7.1173938">
        <ele>1689</ele>
      </trkpt>
      <trkpt lat="45.5677106" lon="7.1171829">
        <ele>1689</ele>
      </trkpt>
      <trkpt lat="45.5677200" lon="7.1171784">
        <ele>1690</ele>
      </trkpt>
      <trkpt lat="45.5677196" lon="7.1171767">
        <ele>1691</ele>
      </trkpt>
      <trkpt lat="45.5678048" lon="7.1170976">
        <ele>1692</ele>
      </trkpt>
      <trkpt lat="45.5679078" lon="7.1170425">
        <ele>1692</ele>
      </trkpt>
      <trkpt lat="45.5680256" lon="7.1169833">
        <ele>1693</ele>
      </trkpt>
      <trkpt lat="45.5681427" lon="7.1169328">
        <ele>1694</ele>
      </trkpt>
      <trkpt lat="45.5682902" lon="7.1168738">
        <ele>1694</ele>
      </trkpt>
      <trkpt lat="45.5684251" lon="7.1168050">
        <ele>1695</ele>
      </trkpt>
      <trkpt lat="45.5684775" lon="7.1167684">
        <ele>1696</ele>
      </trkpt>
      <trkpt lat="45.5685661" lon="7.1167064">
        <ele>1696</ele>
      </trkpt>
      <trkpt lat="45.5686746" lon="7.1166335">
        <ele>1697</ele>
      </trkpt>
      <trkpt lat="45.5687976" lon="7.1165390">
        <ele>1698</ele>
      </trkpt>
      <trkpt lat="45.5688802" lon="7.1164493">
        <ele>1699</ele>
      </trkpt>
      <trkpt lat="45.5689457" lon="7.1163720">
        <ele>1699</ele>
      </trkpt>
      <trkpt lat="45.5690830" lon="7.1162186">
        <ele>1700</ele>
      </trkpt>
      <trkpt lat="45.5691551" lon="7.1161422">
        <ele>1701</ele>
      </trkpt>
      <trkpt lat="45.5692820" lon="7.1159868">
        <ele>1701</ele>
      </trkpt>
      <trkpt lat="45.5693282" lon="7.1159371">
        <ele>1702</ele>
      </trkpt>
      <trkpt lat="45.5693537" lon="7.1159105">
        <ele>1703</ele>
      </trkpt>
      <trkpt lat="45.5694372" lon="7.1157964">
        <ele>1703</ele>
      </trkpt>
      <trkpt lat="45.5694870" lon="7.1157149">
        <ele>1704</ele>
      </trkpt>
      <trkpt lat="45.5695474" lon="7.1156824">
        <ele>1705</ele>
      </trkpt>
      <trkpt lat="45.5699200" lon="7.1158983">
        <ele>1706</ele>
      </trkpt>
      <trkpt lat="45.5703817" lon="7.1158922">
        <ele>1706</ele>
      </trkpt>
      <trkpt lat="45.5708341" lon="7.1161350">
        <ele>1707</ele>
      </trkpt>
      <trkpt lat="45.5710701" lon="7.1164328">
        <ele>1708</ele>
      </trkpt>
      <trkpt lat="45.5714311" lon="7.1165220">
        <ele>1708</ele>
      </trkpt>
      <trkpt lat="45.5716012" lon="7.1166346">
        <ele>1709</ele>
      </trkpt>
      <trkpt lat="45.5718365" lon="7.1171037">
        <ele>1710</ele>
      </trkpt>
      <trkpt lat="45.5722895" lon="7.1179567">
        <ele>1710</ele>
      </trkpt>
      <trkpt lat="45.5723785" lon="7.1181145">
        <ele>1711</ele>
      </trkpt>
      <trkpt lat="45.5725019" lon="7.1181479">
        <ele>1712</ele>
      </trkpt>
      <trkpt lat="45.5725544" lon="7.1183763">
        <ele>1713</ele>
      </trkpt>
      <trkpt lat="45.5725174" lon="7.1185360">
        <ele>1713</ele>
      </trkpt>
      <trkpt lat="45.5724200" lon="7.1188276">
        <ele>1714</ele>
      </trkpt>
      <trkpt lat="45.5723516" lon="7.1190846">
        <ele>1715</ele>
      </trkpt>
      <trkpt lat="45.5723825" lon="7.1193566">
        <ele>1715</ele>
      </trkpt>
      <trkpt lat="45.5723245" lon="7.1195417">
        <ele>1716</ele>
      </trkpt>
      <trkpt lat="45.5723110" lon="7.1196745">
        <ele>1717</ele>
      </trkpt>
      <trkpt lat="45.5724158" lon="7.1195797">
        <ele>1717</ele>
      </trkpt>
      <trkpt lat="45.5725148" lon="7.1195216">
        <ele>1718</ele>
      </trkpt>
      <trkpt lat="45.5726000" lon="7.1194851">
        <ele>1719</ele>
      </trkpt>
      <trkpt lat="45.5726689" lon="7.1194505">
        <ele>1720</ele>
      </trkpt>
      <trkpt lat="45.5728209" lon="7.1193866">
        <ele>1720</ele>
      </trkpt>
      <trkpt lat="45.5730210" lon="7.1193138">
        <ele>1721</ele>
      </trkpt>
      <trkpt lat="45.5731103" lon="7.1192529">
        <ele>1722</ele>
      </trkpt>
      <trkpt lat="45.5732755" lon="7.1191285">
        <ele>1722</ele>
      </trkpt>
      <trkpt lat="45.5734032" lon="7.1191128">
        <ele>1723</ele>
      </trkpt>
      <trkpt lat="45.5735131" lon="7.1190850">
        <ele>1724</ele>
      </trkpt>
      <trkpt lat="45.5750651" lon="7.1195760">
        <ele>1724</ele>
      </trkpt>
      <trkpt lat="45.5767571" lon="7.1205230">
        <ele>1725</ele>
      </trkpt>
      <trkpt lat="45.5772162" lon="7.1205550">
        <ele>1726</ele>
      </trkpt>
      <trkpt lat="45.5773012" lon="7.1208527">
        <ele>1727</ele>
      </trkpt>
      <trkpt lat="45.5772763" lon="7.1211807">
        <ele>1727</ele>
      </trkpt>
      <trkpt lat="45.5777521" lon="7.1219010">
        <ele>1728</ele>
      </trkpt>
      <trkpt lat="45.5777249" lon="7.1225789">
        <ele>1729</ele>
      </trkpt>
      <trkpt lat="45.5787069" lon="7.1234558">
        <ele>1729</ele>
      </trkpt>
      <trkpt lat="45.5789729" lon="7.1237589">
        <ele>1730</ele>
      </trkpt>
    </trkseg>
  </trk>
</gpx>
