<?xml version="1.0" encoding="UTF-8"?>
<gpx version="1.1" creator="sentieri-vda" xmlns="http://www.topografix.com/GPX/1/1">
  <metadata>
    <name>Melignon - Féleumaz</name>
    <desc>Catasto Sentieri VdA — 56_S7</desc>
    <author><name>Regione Autonoma Valle d'Aosta</name></author>
  </metadata>
  <trk>
    <name>Melignon - Féleumaz</name>
    <src>Catasto Sentieri VdA (56_S7)</src>
    <trkseg>
      <trkpt lat="45.6136474" lon="7.1224304">
        <ele>1634</ele>
      </trkpt>
      <trkpt lat="45.6133601" lon="7.1226090">
        <ele>1643</ele>
      </trkpt>
      <trkpt lat="45.6131461" lon="7.1227710">
        <ele>1651</ele>
      </trkpt>
      <trkpt lat="45.6122771" lon="7.1236780">
        <ele>1660</ele>
      </trkpt>
      <trkpt lat="45.6121671" lon="7.1238180">
        <ele>1669</ele>
      </trkpt>
      <trkpt lat="45.6120571" lon="7.1238680">
        <ele>1677</ele>
      </trkpt>
      <trkpt lat="45.6119771" lon="7.1238580">
        <ele>1686</ele>
      </trkpt>
      <trkpt lat="45.6119171" lon="7.1237880">
        <ele>1695</ele>
      </trkpt>
      <trkpt lat="45.6118671" lon="7.1238780">
        <ele>1704</ele>
      </trkpt>
      <trkpt lat="45.6117871" lon="7.1239380">
        <ele>1712</ele>
      </trkpt>
      <trkpt lat="45.6116671" lon="7.1238280">
        <ele>1721</ele>
      </trkpt>
      <trkpt lat="45.6114671" lon="7.1238780">
        <ele>1730</ele>
      </trkpt>
      <trkpt lat="45.6114571" lon="7.1242780">
        <ele>1738</ele>
      </trkpt>
      <trkpt lat="45.6113271" lon="7.1243880">
        <ele>1747</ele>
      </trkpt>
      <trkpt lat="45.6112771" lon="7.1243780">
        <ele>1756</ele>
      </trkpt>
      <trkpt lat="45.6112371" lon="7.1244580">
        <ele>1764</ele>
      </trkpt>
      <trkpt lat="45.6113271" lon="7.1244680">
        <ele>1773</ele>
      </trkpt>
      <trkpt lat="45.6114271" lon="7.1245880">
        <ele>1782</ele>
      </trkpt>
      <trkpt lat="45.6113571" lon="7.1247780">
        <ele>1790</ele>
      </trkpt>
      <trkpt lat="45.6111271" lon="7.1250980">
        <ele>1799</ele>
      </trkpt>
      <trkpt lat="45.6110971" lon="7.1254780">
        <ele>1808</ele>
      </trkpt>
      <trkpt lat="45.6112071" lon="7.1256780">
        <ele>1816</ele>
      </trkpt>
      <trkpt lat="45.6112471" lon="7.1260080">
        <ele>1825</ele>
      </trkpt>
      <trkpt lat="45.6113371" lon="7.1262980">
        <ele>1834</ele>
      </trkpt>
      <trkpt lat="45.6112971" lon="7.1267480">
        <ele>1843</ele>
      </trkpt>
      <trkpt lat="45.6113771" lon="7.1267680">
        <ele>1851</ele>
      </trkpt>
      <trkpt lat="45.6114471" lon="7.1273780">
        <ele>1860</ele>
      </trkpt>
      <trkpt lat="45.6114471" lon="7.1278080">
        <ele>1869</ele>
      </trkpt>
      <trkpt lat="45.6113011" lon="7.1282220">
        <ele>1877</ele>
      </trkpt>
      <trkpt lat="45.6112131" lon="7.1286320">
        <ele>1886</ele>
      </trkpt>
      <trkpt lat="45.6109331" lon="7.1290220">
        <ele>1895</ele>
      </trkpt>
      <trkpt lat="45.6108471" lon="7.1295680">
        <ele>1903</ele>
      </trkpt>
      <trkpt lat="45.6103321" lon="7.1307250">
        <ele>1912</ele>
      </trkpt>
      <trkpt lat="45.6105041" lon="7.1319140">
        <ele>1921</ele>
      </trkpt>
      <trkpt lat="45.6110031" lon="7.1321150">
        <ele>1929</ele>
      </trkpt>
      <trkpt lat="45.6116071" lon="7.1317690">
        <ele>1938</ele>
      </trkpt>
      <trkpt lat="45.6115191" lon="7.1322060">
        <ele>1947</ele>
      </trkpt>
      <trkpt lat="45.6116181" lon="7.1324480">
        <ele>1956</ele>
      </trkpt>
      <trkpt lat="45.6120221" lon="7.1326510">
        <ele>1964</ele>
      </trkpt>
      <trkpt lat="45.6119311" lon="7.1328990">
        <ele>1973</ele>
      </trkpt>
      <trkpt lat="45.6109701" lon="7.1336100">
        <ele>1982</ele>
      </trkpt>
      <trkpt lat="45.6107787" lon="7.1345845">
        <ele>1990</ele>
      </trkpt>
      <trkpt lat="45.6107700" lon="7.1347840">
        <ele>1999</ele>
      </trkpt>
      <trkpt lat="45.6109591" lon="7.1351079">
        <ele>2008</ele>
      </trkpt>
      <trkpt lat="45.6112197" lon="7.1356600">
        <ele>2016</ele>
      </trkpt>
      <trkpt lat="45.6113352" lon="7.1357560">
        <ele>2025</ele>
      </trkpt>
      <trkpt lat="45.6112818" lon="7.1358313">
        <ele>2034</ele>
      </trkpt>
      <trkpt lat="45.6110304" lon="7.1357460">
        <ele>2042</ele>
      </trkpt>
      <trkpt lat="45.6109185" lon="7.1357793">
        <ele>2051</ele>
      </trkpt>
      <trkpt lat="45.6104850" lon="7.1360773">
        <ele>2060</ele>
      </trkpt>
      <trkpt lat="45.6102803" lon="7.1361593">
        <ele>2069</ele>
      </trkpt>
      <trkpt lat="45.6100757" lon="7.1362275">
        <ele>2077</ele>
      </trkpt>
      <trkpt lat="45.6097749" lon="7.1362231">
        <ele>2086</ele>
      </trkpt>
      <trkpt lat="45.6095155" lon="7.1363807">
        <ele>2095</ele>
      </trkpt>
      <trkpt lat="45.6092748" lon="7.1364872">
        <ele>2103</ele>
      </trkpt>
      <trkpt lat="45.6091055" lon="7.1366013">
        <ele>2112</ele>
      </trkpt>
      <trkpt lat="45.6089839" lon="7.1368832">
        <ele>2121</ele>
      </trkpt>
      <trkpt lat="45.6089360" lon="7.1368900">
        <ele>2129</ele>
      </trkpt>
      <trkpt lat="45.6088647" lon="7.1367994">
        <ele>2138</ele>
      </trkpt>
      <trkpt lat="45.6088080" lon="7.1367679">
        <ele>2147</ele>
      </trkpt>
      <trkpt lat="45.6085335" lon="7.1367253">
        <ele>2155</ele>
      </trkpt>
      <trkpt lat="45.6078294" lon="7.1367383">
        <ele>2164</ele>
      </trkpt>
      <trkpt lat="45.6073185" lon="7.1370213">
        <ele>2173</ele>
      </trkpt>
      <trkpt lat="45.6070303" lon="7.1371135">
        <ele>2181</ele>
      </trkpt>
      <trkpt lat="45.6065956" lon="7.1371496">
        <ele>2190</ele>
      </trkpt>
      <trkpt lat="45.6062192" lon="7.1372940">
        <ele>2199</ele>
      </trkpt>
      <trkpt lat="45.6061345" lon="7.1372953">
        <ele>2208</ele>
      </trkpt>
      <trkpt lat="45.6059497" lon="7.1372278">
        <ele>2216</ele>
      </trkpt>
      <trkpt lat="45.6059410" lon="7.1373023">
        <ele>2225</ele>
      </trkpt>
      <trkpt lat="45.6056483" lon="7.1373230">
        <ele>2234</ele>
      </trkpt>
      <trkpt lat="45.6056502" lon="7.1374909">
        <ele>2242</ele>
      </trkpt>
      <trkpt lat="45.6056547" lon="7.1377161">
        <ele>2251</ele>
      </trkpt>
    </trkseg>
  </trk>
</gpx>
