<?xml version="1.0" encoding="UTF-8"?>
<gpx version="1.1" creator="sentieri-vda" xmlns="http://www.topografix.com/GPX/1/1">
  <metadata>
    <name>Druges - Miniera Servette</name>
    <desc>Catasto Sentieri VdA — 60_S16</desc>
    <author><name>Regione Autonoma Valle d'Aosta</name></author>
  </metadata>
  <trk>
    <name>Druges - Miniera Servette</name>
    <src>Catasto Sentieri VdA (60_S16)</src>
    <trkseg>
      <trkpt lat="45.7011412" lon="7.4563130">
        <ele>1610</ele>
      </trkpt>
      <trkpt lat="45.7012812" lon="7.4563630">
        <ele>1612</ele>
      </trkpt>
      <trkpt lat="45.7014912" lon="7.4565030">
        <ele>1613</ele>
      </trkpt>
      <trkpt lat="45.7015412" lon="7.4565030">
        <ele>1615</ele>
      </trkpt>
      <trkpt lat="45.7016612" lon="7.4565730">
        <ele>1616</ele>
      </trkpt>
      <trkpt lat="45.7019112" lon="7.4566130">
        <ele>1618</ele>
      </trkpt>
      <trkpt lat="45.7019612" lon="7.4565930">
        <ele>1619</ele>
      </trkpt>
      <trkpt lat="45.7020832" lon="7.4566100">
        <ele>1621</ele>
      </trkpt>
      <trkpt lat="45.7021012" lon="7.4565730">
        <ele>1622</ele>
      </trkpt>
      <trkpt lat="45.7023112" lon="7.4564430">
        <ele>1624</ele>
      </trkpt>
      <trkpt lat="45.7023612" lon="7.4564330">
        <ele>1625</ele>
      </trkpt>
      <trkpt lat="45.7024312" lon="7.4564530">
        <ele>1627</ele>
      </trkpt>
      <trkpt lat="45.7024812" lon="7.4564230">
        <ele>1628</ele>
      </trkpt>
      <trkpt lat="45.7025312" lon="7.4564230">
        <ele>1630</ele>
      </trkpt>
      <trkpt lat="45.7025832" lon="7.4563390">
        <ele>1631</ele>
      </trkpt>
      <trkpt lat="45.7024412" lon="7.4563230">
        <ele>1633</ele>
      </trkpt>
      <trkpt lat="45.7022712" lon="7.4562530">
        <ele>1634</ele>
      </trkpt>
      <trkpt lat="45.7022112" lon="7.4561830">
        <ele>1636</ele>
      </trkpt>
      <trkpt lat="45.7021812" lon="7.4562030">
        <ele>1637</ele>
      </trkpt>
      <trkpt lat="45.7020912" lon="7.4561930">
        <ele>1639</ele>
      </trkpt>
      <trkpt lat="45.7018012" lon="7.4562230">
        <ele>1640</ele>
      </trkpt>
      <trkpt lat="45.7015412" lon="7.4559230">
        <ele>1642</ele>
      </trkpt>
      <trkpt lat="45.7013012" lon="7.4558430">
        <ele>1643</ele>
      </trkpt>
      <trkpt lat="45.7012012" lon="7.4558830">
        <ele>1645</ele>
      </trkpt>
      <trkpt lat="45.7011212" lon="7.4558430">
        <ele>1646</ele>
      </trkpt>
      <trkpt lat="45.7011312" lon="7.4558030">
        <ele>1648</ele>
      </trkpt>
      <trkpt lat="45.7011112" lon="7.4557430">
        <ele>1649</ele>
      </trkpt>
      <trkpt lat="45.7011312" lon="7.4556830">
        <ele>1651</ele>
      </trkpt>
      <trkpt lat="45.7013012" lon="7.4556630">
        <ele>1652</ele>
      </trkpt>
      <trkpt lat="45.7014512" lon="7.4556930">
        <ele>1654</ele>
      </trkpt>
      <trkpt lat="45.7015382" lon="7.4557500">
        <ele>1655</ele>
      </trkpt>
      <trkpt lat="45.7015312" lon="7.4557130">
        <ele>1657</ele>
      </trkpt>
      <trkpt lat="45.7013512" lon="7.4555630">
        <ele>1658</ele>
      </trkpt>
      <trkpt lat="45.7013312" lon="7.4554830">
        <ele>1660</ele>
      </trkpt>
      <trkpt lat="45.7015912" lon="7.4554730">
        <ele>1661</ele>
      </trkpt>
      <trkpt lat="45.7017012" lon="7.4554830">
        <ele>1663</ele>
      </trkpt>
      <trkpt lat="45.7017812" lon="7.4555230">
        <ele>1665</ele>
      </trkpt>
      <trkpt lat="45.7017812" lon="7.4554930">
        <ele>1666</ele>
      </trkpt>
      <trkpt lat="45.7018012" lon="7.4554630">
        <ele>1668</ele>
      </trkpt>
      <trkpt lat="45.7017912" lon="7.4554030">
        <ele>1669</ele>
      </trkpt>
      <trkpt lat="45.7016912" lon="7.4553130">
        <ele>1671</ele>
      </trkpt>
      <trkpt lat="45.7016012" lon="7.4551530">
        <ele>1672</ele>
      </trkpt>
      <trkpt lat="45.7016312" lon="7.4551430">
        <ele>1674</ele>
      </trkpt>
      <trkpt lat="45.7016812" lon="7.4550830">
        <ele>1675</ele>
      </trkpt>
      <trkpt lat="45.7016312" lon="7.4549630">
        <ele>1677</ele>
      </trkpt>
      <trkpt lat="45.7015412" lon="7.4548830">
        <ele>1678</ele>
      </trkpt>
      <trkpt lat="45.7014312" lon="7.4548630">
        <ele>1680</ele>
      </trkpt>
      <trkpt lat="45.7013812" lon="7.4547830">
        <ele>1681</ele>
      </trkpt>
      <trkpt lat="45.7013211" lon="7.4546339">
        <ele>1683</ele>
      </trkpt>
      <trkpt lat="45.7015356" lon="7.4545252">
        <ele>1684</ele>
      </trkpt>
      <trkpt lat="45.7016342" lon="7.4544968">
        <ele>1686</ele>
      </trkpt>
      <trkpt lat="45.7017514" lon="7.4545064">
        <ele>1687</ele>
      </trkpt>
      <trkpt lat="45.7019871" lon="7.4546284">
        <ele>1689</ele>
      </trkpt>
      <trkpt lat="45.7022153" lon="7.4548661">
        <ele>1690</ele>
      </trkpt>
      <trkpt lat="45.7026600" lon="7.4551365">
        <ele>1692</ele>
      </trkpt>
      <trkpt lat="45.7028671" lon="7.4551436">
        <ele>1693</ele>
      </trkpt>
      <trkpt lat="45.7031541" lon="7.4550715">
        <ele>1695</ele>
      </trkpt>
      <trkpt lat="45.7033701" lon="7.4550656">
        <ele>1696</ele>
      </trkpt>
      <trkpt lat="45.7040329" lon="7.4548289">
        <ele>1698</ele>
      </trkpt>
      <trkpt lat="45.7041225" lon="7.4548007">
        <ele>1699</ele>
      </trkpt>
      <trkpt lat="45.7042215" lon="7.4547980">
        <ele>1701</ele>
      </trkpt>
      <trkpt lat="45.7043933" lon="7.4548575">
        <ele>1702</ele>
      </trkpt>
      <trkpt lat="45.7046551" lon="7.4549145">
        <ele>1704</ele>
      </trkpt>
      <trkpt lat="45.7050512" lon="7.4549165">
        <ele>1705</ele>
      </trkpt>
      <trkpt lat="45.7052955" lon="7.4550125">
        <ele>1707</ele>
      </trkpt>
      <trkpt lat="45.7054945" lon="7.4550539">
        <ele>1708</ele>
      </trkpt>
      <trkpt lat="45.7057638" lon="7.4550381">
        <ele>1710</ele>
      </trkpt>
      <trkpt lat="45.7061699" lon="7.4551169">
        <ele>1711</ele>
      </trkpt>
      <trkpt lat="45.7062419" lon="7.4551149">
        <ele>1713</ele>
      </trkpt>
      <trkpt lat="45.7063956" lon="7.4551620">
        <ele>1714</ele>
      </trkpt>
      <trkpt lat="45.7065226" lon="7.4552356">
        <ele>1716</ele>
      </trkpt>
      <trkpt lat="45.7065857" lon="7.4552467">
        <ele>1717</ele>
      </trkpt>
      <trkpt lat="45.7066766" lon="7.4553085">
        <ele>1719</ele>
      </trkpt>
      <trkpt lat="45.7067939" lon="7.4553309">
        <ele>1721</ele>
      </trkpt>
      <trkpt lat="45.7070299" lon="7.4554786">
        <ele>1722</ele>
      </trkpt>
      <trkpt lat="45.7075825" lon="7.4557460">
        <ele>1724</ele>
      </trkpt>
      <trkpt lat="45.7076557" lon="7.4558339">
        <ele>1725</ele>
      </trkpt>
      <trkpt lat="45.7076948" lon="7.4559782">
        <ele>1727</ele>
      </trkpt>
      <trkpt lat="45.7077510" lon="7.4560896">
        <ele>1728</ele>
      </trkpt>
      <trkpt lat="45.7078214" lon="7.4564358">
        <ele>1730</ele>
      </trkpt>
      <trkpt lat="45.7077811" lon="7.4567838">
        <ele>1731</ele>
      </trkpt>
      <trkpt lat="45.7077823" lon="7.4568762">
        <ele>1733</ele>
      </trkpt>
      <trkpt lat="45.7076825" lon="7.4574820">
        <ele>1734</ele>
      </trkpt>
      <trkpt lat="45.7076768" lon="7.4576961">
        <ele>1736</ele>
      </trkpt>
      <trkpt lat="45.7077161" lon="7.4579659">
        <ele>1737</ele>
      </trkpt>
      <trkpt lat="45.7077007" lon="7.4581611">
        <ele>1739</ele>
      </trkpt>
      <trkpt lat="45.7077095" lon="7.4583924">
        <ele>1740</ele>
      </trkpt>
      <trkpt lat="45.7077342" lon="7.4584917">
        <ele>1742</ele>
      </trkpt>
      <trkpt lat="45.7079792" lon="7.4591278">
        <ele>1743</ele>
      </trkpt>
      <trkpt lat="45.7081347" lon="7.4596470">
        <ele>1745</ele>
      </trkpt>
      <trkpt lat="45.7081857" lon="7.4597540">
        <ele>1746</ele>
      </trkpt>
      <trkpt lat="45.7084800" lon="7.4602241">
        <ele>1748</ele>
      </trkpt>
      <trkpt lat="45.7085805" lon="7.4604871">
        <ele>1749</ele>
      </trkpt>
      <trkpt lat="45.7087055" lon="7.4609217">
        <ele>1751</ele>
      </trkpt>
      <trkpt lat="45.7088891" lon="7.4618609">
        <ele>1752</ele>
      </trkpt>
      <trkpt lat="45.7088683" lon="7.4619823">
        <ele>1754</ele>
      </trkpt>
      <trkpt lat="45.7087080" lon="7.4624448">
        <ele>1755</ele>
      </trkpt>
      <trkpt lat="45.7079693" lon="7.4640733">
        <ele>1757</ele>
      </trkpt>
      <trkpt lat="45.7079129" lon="7.4642242">
        <ele>1758</ele>
      </trkpt>
      <trkpt lat="45.7077715" lon="7.4647572">
        <ele>1760</ele>
      </trkpt>
      <trkpt lat="45.7072726" lon="7.4654694">
        <ele>1761</ele>
      </trkpt>
      <trkpt lat="45.7072488" lon="7.4657101">
        <ele>1763</ele>
      </trkpt>
      <trkpt lat="45.7072594" lon="7.4658290">
        <ele>1764</ele>
      </trkpt>
      <trkpt lat="45.7074779" lon="7.4666862">
        <ele>1766</ele>
      </trkpt>
      <trkpt lat="45.7074982" lon="7.4668567">
        <ele>1767</ele>
      </trkpt>
      <trkpt lat="45.7074833" lon="7.4670883">
        <ele>1769</ele>
      </trkpt>
      <trkpt lat="45.7074058" lon="7.4673502">
        <ele>1770</ele>
      </trkpt>
      <trkpt lat="45.7073488" lon="7.4674617">
        <ele>1772</ele>
      </trkpt>
      <trkpt lat="45.7071933" lon="7.4676121">
        <ele>1774</ele>
      </trkpt>
      <trkpt lat="45.7071673" lon="7.4676859">
        <ele>1775</ele>
      </trkpt>
      <trkpt lat="45.7071688" lon="7.4677990">
        <ele>1777</ele>
      </trkpt>
      <trkpt lat="45.7071353" lon="7.4679822">
        <ele>1778</ele>
      </trkpt>
      <trkpt lat="45.7070084" lon="7.4682503">
        <ele>1780</ele>
      </trkpt>
      <trkpt lat="45.7068500" lon="7.4685244">
        <ele>1781</ele>
      </trkpt>
      <trkpt lat="45.7068184" lon="7.4686449">
        <ele>1783</ele>
      </trkpt>
      <trkpt lat="45.7068137" lon="7.4687076">
        <ele>1784</ele>
      </trkpt>
      <trkpt lat="45.7068723" lon="7.4689297">
        <ele>1786</ele>
      </trkpt>
      <trkpt lat="45.7068797" lon="7.4690348">
        <ele>1787</ele>
      </trkpt>
      <trkpt lat="45.7068558" lon="7.4692902">
        <ele>1789</ele>
      </trkpt>
      <trkpt lat="45.7068176" lon="7.4694626">
        <ele>1790</ele>
      </trkpt>
      <trkpt lat="45.7068017" lon="7.4696233">
        <ele>1792</ele>
      </trkpt>
      <trkpt lat="45.7068290" lon="7.4699806">
        <ele>1793</ele>
      </trkpt>
      <trkpt lat="45.7068868" lon="7.4702625">
        <ele>1795</ele>
      </trkpt>
      <trkpt lat="45.7068790" lon="7.4703514">
        <ele>1796</ele>
      </trkpt>
      <trkpt lat="45.7067992" lon="7.4704439">
        <ele>1798</ele>
      </trkpt>
      <trkpt lat="45.7067098" lon="7.4704825">
        <ele>1799</ele>
      </trkpt>
      <trkpt lat="45.7062831" lon="7.4705491">
        <ele>1801</ele>
      </trkpt>
      <trkpt lat="45.7062251" lon="7.4705868">
        <ele>1802</ele>
      </trkpt>
      <trkpt lat="45.7061675" lon="7.4706550">
        <ele>1804</ele>
      </trkpt>
      <trkpt lat="45.7059787" lon="7.4710078">
        <ele>1805</ele>
      </trkpt>
      <trkpt lat="45.7058109" lon="7.4712436">
        <ele>1807</ele>
      </trkpt>
      <trkpt lat="45.7055972" lon="7.4714173">
        <ele>1808</ele>
      </trkpt>
      <trkpt lat="45.7055751" lon="7.4714508">
        <ele>1810</ele>
      </trkpt>
      <trkpt lat="45.7055897" lon="7.4715275">
        <ele>1811</ele>
      </trkpt>
      <trkpt lat="45.7056404" lon="7.4716168">
        <ele>1813</ele>
      </trkpt>
      <trkpt lat="45.7057728" lon="7.4717589">
        <ele>1814</ele>
      </trkpt>
      <trkpt lat="45.7060388" lon="7.4717962">
        <ele>1816</ele>
      </trkpt>
      <trkpt lat="45.7061160" lon="7.4718475">
        <ele>1817</ele>
      </trkpt>
      <trkpt lat="45.7064856" lon="7.4722297">
        <ele>1819</ele>
      </trkpt>
      <trkpt lat="45.7069108" lon="7.4727267">
        <ele>1820</ele>
      </trkpt>
      <trkpt lat="45.7072115" lon="7.4733416">
        <ele>1822</ele>
      </trkpt>
      <trkpt lat="45.7072539" lon="7.4734842">
        <ele>1823</ele>
      </trkpt>
      <trkpt lat="45.7072166" lon="7.4737236">
        <ele>1825</ele>
      </trkpt>
      <trkpt lat="45.7071013" lon="7.4741873">
        <ele>1826</ele>
      </trkpt>
      <trkpt lat="45.7071076" lon="7.4743184">
        <ele>1828</ele>
      </trkpt>
    </trkseg>
  </trk>
</gpx>
