<?xml version="1.0" encoding="UTF-8"?>
<gpx version="1.1" creator="sentieri-vda" xmlns="http://www.topografix.com/GPX/1/1">
  <metadata>
    <name>Valmeanaz - Rean</name>
    <desc>Catasto Sentieri VdA — 60_S1</desc>
    <author><name>Regione Autonoma Valle d'Aosta</name></author>
  </metadata>
  <trk>
    <name>Valmeanaz - Rean</name>
    <src>Catasto Sentieri VdA (60_S1)</src>
    <trkseg>
      <trkpt lat="45.7334141" lon="7.4593431">
        <ele>590</ele>
      </trkpt>
      <trkpt lat="45.7333942" lon="7.4593988">
        <ele>596</ele>
      </trkpt>
      <trkpt lat="45.7331511" lon="7.4596334">
        <ele>601</ele>
      </trkpt>
      <trkpt lat="45.7329702" lon="7.4598930">
        <ele>607</ele>
      </trkpt>
      <trkpt lat="45.7328702" lon="7.4599930">
        <ele>612</ele>
      </trkpt>
      <trkpt lat="45.7328042" lon="7.4600310">
        <ele>618</ele>
      </trkpt>
      <trkpt lat="45.7326242" lon="7.4600360">
        <ele>624</ele>
      </trkpt>
      <trkpt lat="45.7322212" lon="7.4602730">
        <ele>629</ele>
      </trkpt>
      <trkpt lat="45.7322712" lon="7.4596730">
        <ele>635</ele>
      </trkpt>
      <trkpt lat="45.7322212" lon="7.4596730">
        <ele>640</ele>
      </trkpt>
      <trkpt lat="45.7319912" lon="7.4598630">
        <ele>646</ele>
      </trkpt>
      <trkpt lat="45.7318812" lon="7.4600630">
        <ele>652</ele>
      </trkpt>
      <trkpt lat="45.7318012" lon="7.4600530">
        <ele>657</ele>
      </trkpt>
      <trkpt lat="45.7314412" lon="7.4599230">
        <ele>663</ele>
      </trkpt>
      <trkpt lat="45.7313612" lon="7.4599230">
        <ele>668</ele>
      </trkpt>
      <trkpt lat="45.7311132" lon="7.4600770">
        <ele>674</ele>
      </trkpt>
      <trkpt lat="45.7309702" lon="7.4601330">
        <ele>680</ele>
      </trkpt>
      <trkpt lat="45.7308252" lon="7.4600850">
        <ele>685</ele>
      </trkpt>
      <trkpt lat="45.7306102" lon="7.4601420">
        <ele>691</ele>
      </trkpt>
      <trkpt lat="45.7304702" lon="7.4600900">
        <ele>696</ele>
      </trkpt>
      <trkpt lat="45.7303822" lon="7.4598880">
        <ele>702</ele>
      </trkpt>
      <trkpt lat="45.7296912" lon="7.4602030">
        <ele>708</ele>
      </trkpt>
      <trkpt lat="45.7294152" lon="7.4602840">
        <ele>713</ele>
      </trkpt>
      <trkpt lat="45.7292722" lon="7.4602880">
        <ele>719</ele>
      </trkpt>
      <trkpt lat="45.7290044" lon="7.4603452">
        <ele>724</ele>
      </trkpt>
      <trkpt lat="45.7290669" lon="7.4610765">
        <ele>730</ele>
      </trkpt>
      <trkpt lat="45.7290607" lon="7.4612859">
        <ele>736</ele>
      </trkpt>
      <trkpt lat="45.7288412" lon="7.4612130">
        <ele>741</ele>
      </trkpt>
      <trkpt lat="45.7286612" lon="7.4612730">
        <ele>747</ele>
      </trkpt>
      <trkpt lat="45.7281522" lon="7.4619950">
        <ele>752</ele>
      </trkpt>
      <trkpt lat="45.7280372" lon="7.4619580">
        <ele>758</ele>
      </trkpt>
      <trkpt lat="45.7279342" lon="7.4619640">
        <ele>764</ele>
      </trkpt>
      <trkpt lat="45.7276852" lon="7.4621760">
        <ele>769</ele>
      </trkpt>
      <trkpt lat="45.7276902" lon="7.4625360">
        <ele>775</ele>
      </trkpt>
      <trkpt lat="45.7280212" lon="7.4629930">
        <ele>780</ele>
      </trkpt>
      <trkpt lat="45.7284412" lon="7.4631030">
        <ele>786</ele>
      </trkpt>
      <trkpt lat="45.7286712" lon="7.4632290">
        <ele>791</ele>
      </trkpt>
      <trkpt lat="45.7287822" lon="7.4634310">
        <ele>797</ele>
      </trkpt>
      <trkpt lat="45.7287112" lon="7.4635360">
        <ele>803</ele>
      </trkpt>
      <trkpt lat="45.7285712" lon="7.4634530">
        <ele>808</ele>
      </trkpt>
      <trkpt lat="45.7281912" lon="7.4637430">
        <ele>814</ele>
      </trkpt>
      <trkpt lat="45.7280312" lon="7.4637230">
        <ele>819</ele>
      </trkpt>
      <trkpt lat="45.7279512" lon="7.4638730">
        <ele>825</ele>
      </trkpt>
      <trkpt lat="45.7279012" lon="7.4637330">
        <ele>831</ele>
      </trkpt>
      <trkpt lat="45.7277812" lon="7.4639130">
        <ele>836</ele>
      </trkpt>
      <trkpt lat="45.7277062" lon="7.4640820">
        <ele>842</ele>
      </trkpt>
      <trkpt lat="45.7275272" lon="7.4641510">
        <ele>847</ele>
      </trkpt>
      <trkpt lat="45.7273952" lon="7.4643470">
        <ele>853</ele>
      </trkpt>
      <trkpt lat="45.7273012" lon="7.4644030">
        <ele>859</ele>
      </trkpt>
      <trkpt lat="45.7271052" lon="7.4646080">
        <ele>864</ele>
      </trkpt>
      <trkpt lat="45.7269712" lon="7.4645130">
        <ele>870</ele>
      </trkpt>
      <trkpt lat="45.7270112" lon="7.4643830">
        <ele>875</ele>
      </trkpt>
      <trkpt lat="45.7269012" lon="7.4642730">
        <ele>881</ele>
      </trkpt>
      <trkpt lat="45.7268012" lon="7.4644130">
        <ele>887</ele>
      </trkpt>
      <trkpt lat="45.7268412" lon="7.4645430">
        <ele>892</ele>
      </trkpt>
      <trkpt lat="45.7270112" lon="7.4648330">
        <ele>898</ele>
      </trkpt>
      <trkpt lat="45.7267292" lon="7.4650400">
        <ele>903</ele>
      </trkpt>
      <trkpt lat="45.7266012" lon="7.4651830">
        <ele>909</ele>
      </trkpt>
      <trkpt lat="45.7262342" lon="7.4650540">
        <ele>915</ele>
      </trkpt>
      <trkpt lat="45.7260992" lon="7.4650250">
        <ele>920</ele>
      </trkpt>
      <trkpt lat="45.7259402" lon="7.4649330">
        <ele>926</ele>
      </trkpt>
      <trkpt lat="45.7257802" lon="7.4647450">
        <ele>931</ele>
      </trkpt>
      <trkpt lat="45.7255732" lon="7.4644290">
        <ele>937</ele>
      </trkpt>
    </trkseg>
  </trk>
</gpx>
