<?xml version="1.0" encoding="UTF-8"?>
<gpx version="1.1" creator="sentieri-vda" xmlns="http://www.topografix.com/GPX/1/1">
  <metadata>
    <name>Fossaz, strada carrozzabile per Vens - Vens</name>
    <desc>Catasto Sentieri VdA — 61_S15</desc>
    <author><name>Regione Autonoma Valle d'Aosta</name></author>
  </metadata>
  <trk>
    <name>Fossaz, strada carrozzabile per Vens - Vens</name>
    <src>Catasto Sentieri VdA (61_S15)</src>
    <trkseg>
      <trkpt lat="45.7241136" lon="7.1406833">
        <ele>1392</ele>
      </trkpt>
      <trkpt lat="45.7242364" lon="7.1408399">
        <ele>1396</ele>
      </trkpt>
      <trkpt lat="45.7243402" lon="7.1409008">
        <ele>1401</ele>
      </trkpt>
      <trkpt lat="45.7243387" lon="7.1410868">
        <ele>1405</ele>
      </trkpt>
      <trkpt lat="45.7244171" lon="7.1414789">
        <ele>1410</ele>
      </trkpt>
      <trkpt lat="45.7244934" lon="7.1417443">
        <ele>1414</ele>
      </trkpt>
      <trkpt lat="45.7245443" lon="7.1418309">
        <ele>1418</ele>
      </trkpt>
      <trkpt lat="45.7246131" lon="7.1419057">
        <ele>1423</ele>
      </trkpt>
      <trkpt lat="45.7246723" lon="7.1419492">
        <ele>1427</ele>
      </trkpt>
      <trkpt lat="45.7247672" lon="7.1419769">
        <ele>1432</ele>
      </trkpt>
      <trkpt lat="45.7258842" lon="7.1422700">
        <ele>1436</ele>
      </trkpt>
      <trkpt lat="45.7260342" lon="7.1423900">
        <ele>1441</ele>
      </trkpt>
      <trkpt lat="45.7266442" lon="7.1435200">
        <ele>1445</ele>
      </trkpt>
      <trkpt lat="45.7266342" lon="7.1439200">
        <ele>1449</ele>
      </trkpt>
      <trkpt lat="45.7264642" lon="7.1444800">
        <ele>1454</ele>
      </trkpt>
      <trkpt lat="45.7264642" lon="7.1446500">
        <ele>1458</ele>
      </trkpt>
      <trkpt lat="45.7267842" lon="7.1450100">
        <ele>1463</ele>
      </trkpt>
      <trkpt lat="45.7268242" lon="7.1453500">
        <ele>1467</ele>
      </trkpt>
      <trkpt lat="45.7265742" lon="7.1462400">
        <ele>1471</ele>
      </trkpt>
      <trkpt lat="45.7266642" lon="7.1470800">
        <ele>1476</ele>
      </trkpt>
      <trkpt lat="45.7260242" lon="7.1473500">
        <ele>1480</ele>
      </trkpt>
      <trkpt lat="45.7259142" lon="7.1474800">
        <ele>1485</ele>
      </trkpt>
      <trkpt lat="45.7253942" lon="7.1487000">
        <ele>1489</ele>
      </trkpt>
      <trkpt lat="45.7250742" lon="7.1492600">
        <ele>1493</ele>
      </trkpt>
      <trkpt lat="45.7250442" lon="7.1496400">
        <ele>1498</ele>
      </trkpt>
      <trkpt lat="45.7247242" lon="7.1499700">
        <ele>1502</ele>
      </trkpt>
      <trkpt lat="45.7245342" lon="7.1503200">
        <ele>1507</ele>
      </trkpt>
      <trkpt lat="45.7241242" lon="7.1507000">
        <ele>1511</ele>
      </trkpt>
      <trkpt lat="45.7240142" lon="7.1511500">
        <ele>1516</ele>
      </trkpt>
      <trkpt lat="45.7240202" lon="7.1518050">
        <ele>1520</ele>
      </trkpt>
      <trkpt lat="45.7239342" lon="7.1519700">
        <ele>1524</ele>
      </trkpt>
      <trkpt lat="45.7238442" lon="7.1519700">
        <ele>1529</ele>
      </trkpt>
      <trkpt lat="45.7235592" lon="7.1522310">
        <ele>1533</ele>
      </trkpt>
      <trkpt lat="45.7233842" lon="7.1525450">
        <ele>1538</ele>
      </trkpt>
      <trkpt lat="45.7233502" lon="7.1526490">
        <ele>1542</ele>
      </trkpt>
      <trkpt lat="45.7233315" lon="7.1526535">
        <ele>1546</ele>
      </trkpt>
      <trkpt lat="45.7233042" lon="7.1526600">
        <ele>1551</ele>
      </trkpt>
      <trkpt lat="45.7231942" lon="7.1529000">
        <ele>1555</ele>
      </trkpt>
      <trkpt lat="45.7229142" lon="7.1531400">
        <ele>1560</ele>
      </trkpt>
      <trkpt lat="45.7229842" lon="7.1535100">
        <ele>1564</ele>
      </trkpt>
      <trkpt lat="45.7229322" lon="7.1535370">
        <ele>1569</ele>
      </trkpt>
      <trkpt lat="45.7228142" lon="7.1536000">
        <ele>1573</ele>
      </trkpt>
      <trkpt lat="45.7227542" lon="7.1537400">
        <ele>1577</ele>
      </trkpt>
      <trkpt lat="45.7227342" lon="7.1540300">
        <ele>1582</ele>
      </trkpt>
      <trkpt lat="45.7224042" lon="7.1542000">
        <ele>1586</ele>
      </trkpt>
      <trkpt lat="45.7222342" lon="7.1546800">
        <ele>1591</ele>
      </trkpt>
      <trkpt lat="45.7221142" lon="7.1548600">
        <ele>1595</ele>
      </trkpt>
      <trkpt lat="45.7220042" lon="7.1548900">
        <ele>1599</ele>
      </trkpt>
      <trkpt lat="45.7219842" lon="7.1553600">
        <ele>1604</ele>
      </trkpt>
      <trkpt lat="45.7218142" lon="7.1552300">
        <ele>1608</ele>
      </trkpt>
      <trkpt lat="45.7218342" lon="7.1554400">
        <ele>1613</ele>
      </trkpt>
      <trkpt lat="45.7217642" lon="7.1556300">
        <ele>1617</ele>
      </trkpt>
      <trkpt lat="45.7217006" lon="7.1555986">
        <ele>1621</ele>
      </trkpt>
      <trkpt lat="45.7216692" lon="7.1555830">
        <ele>1626</ele>
      </trkpt>
      <trkpt lat="45.7215542" lon="7.1561100">
        <ele>1630</ele>
      </trkpt>
      <trkpt lat="45.7215942" lon="7.1564200">
        <ele>1635</ele>
      </trkpt>
      <trkpt lat="45.7215342" lon="7.1569100">
        <ele>1639</ele>
      </trkpt>
      <trkpt lat="45.7213942" lon="7.1571000">
        <ele>1644</ele>
      </trkpt>
      <trkpt lat="45.7211042" lon="7.1572100">
        <ele>1648</ele>
      </trkpt>
      <trkpt lat="45.7208764" lon="7.1578988">
        <ele>1652</ele>
      </trkpt>
      <trkpt lat="45.7207692" lon="7.1578880">
        <ele>1657</ele>
      </trkpt>
      <trkpt lat="45.7207523" lon="7.1580188">
        <ele>1661</ele>
      </trkpt>
      <trkpt lat="45.7207740" lon="7.1581869">
        <ele>1666</ele>
      </trkpt>
      <trkpt lat="45.7208012" lon="7.1583444">
        <ele>1670</ele>
      </trkpt>
      <trkpt lat="45.7208594" lon="7.1585096">
        <ele>1674</ele>
      </trkpt>
      <trkpt lat="45.7208751" lon="7.1586899">
        <ele>1679</ele>
      </trkpt>
      <trkpt lat="45.7208534" lon="7.1589057">
        <ele>1683</ele>
      </trkpt>
      <trkpt lat="45.7208255" lon="7.1590825">
        <ele>1688</ele>
      </trkpt>
      <trkpt lat="45.7206476" lon="7.1591324">
        <ele>1692</ele>
      </trkpt>
      <trkpt lat="45.7205779" lon="7.1592020">
        <ele>1696</ele>
      </trkpt>
      <trkpt lat="45.7200842" lon="7.1602300">
        <ele>1701</ele>
      </trkpt>
      <trkpt lat="45.7200842" lon="7.1605700">
        <ele>1705</ele>
      </trkpt>
      <trkpt lat="45.7202442" lon="7.1610800">
        <ele>1710</ele>
      </trkpt>
      <trkpt lat="45.7202842" lon="7.1618300">
        <ele>1714</ele>
      </trkpt>
      <trkpt lat="45.7204642" lon="7.1620500">
        <ele>1719</ele>
      </trkpt>
      <trkpt lat="45.7203842" lon="7.1621200">
        <ele>1723</ele>
      </trkpt>
      <trkpt lat="45.7202342" lon="7.1621000">
        <ele>1727</ele>
      </trkpt>
      <trkpt lat="45.7203842" lon="7.1630900">
        <ele>1732</ele>
      </trkpt>
      <trkpt lat="45.7201142" lon="7.1632300">
        <ele>1736</ele>
      </trkpt>
      <trkpt lat="45.7200042" lon="7.1629700">
        <ele>1741</ele>
      </trkpt>
      <trkpt lat="45.7199219" lon="7.1629326">
        <ele>1745</ele>
      </trkpt>
    </trkseg>
  </trk>
</gpx>
