<?xml version="1.0" encoding="UTF-8"?>
<gpx version="1.1" creator="sentieri-vda" xmlns="http://www.topografix.com/GPX/1/1">
  <metadata>
    <name>Valyre - Salirod</name>
    <desc>Catasto Sentieri VdA — 65_S7</desc>
    <author><name>Regione Autonoma Valle d'Aosta</name></author>
  </metadata>
  <trk>
    <name>Valyre - Salirod</name>
    <src>Catasto Sentieri VdA (65_S7)</src>
    <trkseg>
      <trkpt lat="45.7473549" lon="7.6791779">
        <ele>688</ele>
      </trkpt>
      <trkpt lat="45.7471969" lon="7.6790698">
        <ele>698</ele>
      </trkpt>
      <trkpt lat="45.7470827" lon="7.6789592">
        <ele>708</ele>
      </trkpt>
      <trkpt lat="45.7470782" lon="7.6778190">
        <ele>718</ele>
      </trkpt>
      <trkpt lat="45.7468482" lon="7.6771090">
        <ele>728</ele>
      </trkpt>
      <trkpt lat="45.7463082" lon="7.6768690">
        <ele>738</ele>
      </trkpt>
      <trkpt lat="45.7461982" lon="7.6765990">
        <ele>747</ele>
      </trkpt>
      <trkpt lat="45.7455782" lon="7.6762690">
        <ele>757</ele>
      </trkpt>
      <trkpt lat="45.7454282" lon="7.6759490">
        <ele>767</ele>
      </trkpt>
      <trkpt lat="45.7453926" lon="7.6749307">
        <ele>777</ele>
      </trkpt>
      <trkpt lat="45.7454097" lon="7.6748563">
        <ele>787</ele>
      </trkpt>
      <trkpt lat="45.7455469" lon="7.6746510">
        <ele>797</ele>
      </trkpt>
      <trkpt lat="45.7456259" lon="7.6744824">
        <ele>807</ele>
      </trkpt>
      <trkpt lat="45.7456866" lon="7.6742805">
        <ele>817</ele>
      </trkpt>
      <trkpt lat="45.7456970" lon="7.6740155">
        <ele>827</ele>
      </trkpt>
      <trkpt lat="45.7458182" lon="7.6738290">
        <ele>837</ele>
      </trkpt>
      <trkpt lat="45.7454482" lon="7.6725590">
        <ele>846</ele>
      </trkpt>
      <trkpt lat="45.7455382" lon="7.6719790">
        <ele>856</ele>
      </trkpt>
      <trkpt lat="45.7457982" lon="7.6716790">
        <ele>866</ele>
      </trkpt>
      <trkpt lat="45.7458582" lon="7.6713590">
        <ele>876</ele>
      </trkpt>
      <trkpt lat="45.7457082" lon="7.6708390">
        <ele>886</ele>
      </trkpt>
      <trkpt lat="45.7454982" lon="7.6706690">
        <ele>896</ele>
      </trkpt>
      <trkpt lat="45.7448282" lon="7.6695590">
        <ele>906</ele>
      </trkpt>
      <trkpt lat="45.7444382" lon="7.6697690">
        <ele>916</ele>
      </trkpt>
      <trkpt lat="45.7444882" lon="7.6693890">
        <ele>926</ele>
      </trkpt>
      <trkpt lat="45.7443782" lon="7.6694290">
        <ele>936</ele>
      </trkpt>
      <trkpt lat="45.7443382" lon="7.6691290">
        <ele>945</ele>
      </trkpt>
      <trkpt lat="45.7442482" lon="7.6691890">
        <ele>955</ele>
      </trkpt>
      <trkpt lat="45.7441582" lon="7.6687190">
        <ele>965</ele>
      </trkpt>
      <trkpt lat="45.7434982" lon="7.6680990">
        <ele>975</ele>
      </trkpt>
      <trkpt lat="45.7434982" lon="7.6678990">
        <ele>985</ele>
      </trkpt>
      <trkpt lat="45.7431282" lon="7.6679490">
        <ele>995</ele>
      </trkpt>
      <trkpt lat="45.7431282" lon="7.6677290">
        <ele>1005</ele>
      </trkpt>
      <trkpt lat="45.7428282" lon="7.6678790">
        <ele>1015</ele>
      </trkpt>
      <trkpt lat="45.7428782" lon="7.6659990">
        <ele>1025</ele>
      </trkpt>
      <trkpt lat="45.7426182" lon="7.6662090">
        <ele>1035</ele>
      </trkpt>
      <trkpt lat="45.7424882" lon="7.6658690">
        <ele>1044</ele>
      </trkpt>
      <trkpt lat="45.7422782" lon="7.6660790">
        <ele>1054</ele>
      </trkpt>
      <trkpt lat="45.7422982" lon="7.6658890">
        <ele>1064</ele>
      </trkpt>
      <trkpt lat="45.7421682" lon="7.6657990">
        <ele>1074</ele>
      </trkpt>
      <trkpt lat="45.7416445" lon="7.6660911">
        <ele>1084</ele>
      </trkpt>
    </trkseg>
  </trk>
</gpx>
