<?xml version="1.0" encoding="UTF-8"?>
<gpx version="1.1" creator="sentieri-vda" xmlns="http://www.topografix.com/GPX/1/1">
  <metadata>
    <name>Mognod - Maisonnettes - Saint-Pantaléon - Saint-Evence</name>
    <desc>Catasto Sentieri VdA — 67_S13</desc>
    <author><name>Regione Autonoma Valle d'Aosta</name></author>
  </metadata>
  <trk>
    <name>Mognod - Maisonnettes - Saint-Pantaléon - Saint-Evence</name>
    <src>Catasto Sentieri VdA (67_S13)</src>
    <trkseg>
      <trkpt lat="45.8013853" lon="7.5692766">
        <ele>1540</ele>
      </trkpt>
      <trkpt lat="45.8012603" lon="7.5685489">
        <ele>1542</ele>
      </trkpt>
      <trkpt lat="45.8008582" lon="7.5680220">
        <ele>1545</ele>
      </trkpt>
      <trkpt lat="45.8007025" lon="7.5677875">
        <ele>1547</ele>
      </trkpt>
      <trkpt lat="45.8002982" lon="7.5675720">
        <ele>1549</ele>
      </trkpt>
      <trkpt lat="45.8000182" lon="7.5671220">
        <ele>1551</ele>
      </trkpt>
      <trkpt lat="45.7999482" lon="7.5664120">
        <ele>1554</ele>
      </trkpt>
      <trkpt lat="45.7995482" lon="7.5663920">
        <ele>1556</ele>
      </trkpt>
      <trkpt lat="45.7989682" lon="7.5667720">
        <ele>1558</ele>
      </trkpt>
      <trkpt lat="45.7972082" lon="7.5661320">
        <ele>1561</ele>
      </trkpt>
      <trkpt lat="45.7970291" lon="7.5660126">
        <ele>1563</ele>
      </trkpt>
      <trkpt lat="45.7962182" lon="7.5651920">
        <ele>1565</ele>
      </trkpt>
      <trkpt lat="45.7958624" lon="7.5649602">
        <ele>1567</ele>
      </trkpt>
      <trkpt lat="45.7952871" lon="7.5648761">
        <ele>1570</ele>
      </trkpt>
      <trkpt lat="45.7950318" lon="7.5647807">
        <ele>1572</ele>
      </trkpt>
      <trkpt lat="45.7948637" lon="7.5647053">
        <ele>1574</ele>
      </trkpt>
      <trkpt lat="45.7947695" lon="7.5646206">
        <ele>1576</ele>
      </trkpt>
      <trkpt lat="45.7947103" lon="7.5645317">
        <ele>1579</ele>
      </trkpt>
      <trkpt lat="45.7946854" lon="7.5644884">
        <ele>1581</ele>
      </trkpt>
      <trkpt lat="45.7933882" lon="7.5646920">
        <ele>1583</ele>
      </trkpt>
      <trkpt lat="45.7926182" lon="7.5636820">
        <ele>1586</ele>
      </trkpt>
      <trkpt lat="45.7922082" lon="7.5628320">
        <ele>1588</ele>
      </trkpt>
      <trkpt lat="45.7916082" lon="7.5625920">
        <ele>1590</ele>
      </trkpt>
      <trkpt lat="45.7898682" lon="7.5647420">
        <ele>1592</ele>
      </trkpt>
      <trkpt lat="45.7888382" lon="7.5662220">
        <ele>1595</ele>
      </trkpt>
      <trkpt lat="45.7879782" lon="7.5679120">
        <ele>1597</ele>
      </trkpt>
      <trkpt lat="45.7874882" lon="7.5693320">
        <ele>1599</ele>
      </trkpt>
      <trkpt lat="45.7872246" lon="7.5696311">
        <ele>1602</ele>
      </trkpt>
      <trkpt lat="45.7870382" lon="7.5700820">
        <ele>1604</ele>
      </trkpt>
      <trkpt lat="45.7868682" lon="7.5701720">
        <ele>1606</ele>
      </trkpt>
      <trkpt lat="45.7863082" lon="7.5703220">
        <ele>1608</ele>
      </trkpt>
      <trkpt lat="45.7849782" lon="7.5700420">
        <ele>1611</ele>
      </trkpt>
      <trkpt lat="45.7847182" lon="7.5701420">
        <ele>1613</ele>
      </trkpt>
      <trkpt lat="45.7845282" lon="7.5699320">
        <ele>1615</ele>
      </trkpt>
      <trkpt lat="45.7834082" lon="7.5723320">
        <ele>1618</ele>
      </trkpt>
      <trkpt lat="45.7829382" lon="7.5725320">
        <ele>1620</ele>
      </trkpt>
      <trkpt lat="45.7824882" lon="7.5732120">
        <ele>1622</ele>
      </trkpt>
      <trkpt lat="45.7819682" lon="7.5736420">
        <ele>1624</ele>
      </trkpt>
      <trkpt lat="45.7811782" lon="7.5738120">
        <ele>1627</ele>
      </trkpt>
      <trkpt lat="45.7809182" lon="7.5743320">
        <ele>1629</ele>
      </trkpt>
      <trkpt lat="45.7804882" lon="7.5741120">
        <ele>1631</ele>
      </trkpt>
      <trkpt lat="45.7781082" lon="7.5744420">
        <ele>1634</ele>
      </trkpt>
      <trkpt lat="45.7773182" lon="7.5742420">
        <ele>1636</ele>
      </trkpt>
      <trkpt lat="45.7758982" lon="7.5747120">
        <ele>1638</ele>
      </trkpt>
      <trkpt lat="45.7753582" lon="7.5746520">
        <ele>1640</ele>
      </trkpt>
      <trkpt lat="45.7750582" lon="7.5748620">
        <ele>1643</ele>
      </trkpt>
      <trkpt lat="45.7739082" lon="7.5764120">
        <ele>1645</ele>
      </trkpt>
      <trkpt lat="45.7732982" lon="7.5774410">
        <ele>1647</ele>
      </trkpt>
      <trkpt lat="45.7728082" lon="7.5792210">
        <ele>1649</ele>
      </trkpt>
      <trkpt lat="45.7719682" lon="7.5805710">
        <ele>1652</ele>
      </trkpt>
      <trkpt lat="45.7717582" lon="7.5811510">
        <ele>1654</ele>
      </trkpt>
      <trkpt lat="45.7711582" lon="7.5817110">
        <ele>1656</ele>
      </trkpt>
      <trkpt lat="45.7708582" lon="7.5822910">
        <ele>1659</ele>
      </trkpt>
      <trkpt lat="45.7704882" lon="7.5825510">
        <ele>1661</ele>
      </trkpt>
      <trkpt lat="45.7697382" lon="7.5834310">
        <ele>1663</ele>
      </trkpt>
      <trkpt lat="45.7690582" lon="7.5849110">
        <ele>1665</ele>
      </trkpt>
      <trkpt lat="45.7687782" lon="7.5863210">
        <ele>1668</ele>
      </trkpt>
      <trkpt lat="45.7684476" lon="7.5862291">
        <ele>1670</ele>
      </trkpt>
    </trkseg>
  </trk>
</gpx>
