<?xml version="1.0" encoding="UTF-8"?>
<gpx version="1.1" creator="sentieri-vda" xmlns="http://www.topografix.com/GPX/1/1">
  <metadata>
    <name>Poutaz (Antey-Saint-André) - Triatel</name>
    <desc>Catasto Sentieri VdA — 67_S10</desc>
    <author><name>Regione Autonoma Valle d'Aosta</name></author>
  </metadata>
  <trk>
    <name>Poutaz (Antey-Saint-André) - Triatel</name>
    <src>Catasto Sentieri VdA (67_S10)</src>
    <trkseg>
      <trkpt lat="45.8053241" lon="7.5888335">
        <ele>1024</ele>
      </trkpt>
      <trkpt lat="45.8053621" lon="7.5887398">
        <ele>1039</ele>
      </trkpt>
      <trkpt lat="45.8054522" lon="7.5886587">
        <ele>1055</ele>
      </trkpt>
      <trkpt lat="45.8057292" lon="7.5885603">
        <ele>1070</ele>
      </trkpt>
      <trkpt lat="45.8059021" lon="7.5885168">
        <ele>1086</ele>
      </trkpt>
      <trkpt lat="45.8060789" lon="7.5885231">
        <ele>1101</ele>
      </trkpt>
      <trkpt lat="45.8062176" lon="7.5884927">
        <ele>1117</ele>
      </trkpt>
      <trkpt lat="45.8063407" lon="7.5884090">
        <ele>1132</ele>
      </trkpt>
      <trkpt lat="45.8068807" lon="7.5879000">
        <ele>1148</ele>
      </trkpt>
      <trkpt lat="45.8069023" lon="7.5878226">
        <ele>1163</ele>
      </trkpt>
      <trkpt lat="45.8070482" lon="7.5876118">
        <ele>1179</ele>
      </trkpt>
      <trkpt lat="45.8071773" lon="7.5874972">
        <ele>1194</ele>
      </trkpt>
      <trkpt lat="45.8076254" lon="7.5873435">
        <ele>1210</ele>
      </trkpt>
      <trkpt lat="45.8076702" lon="7.5873242">
        <ele>1225</ele>
      </trkpt>
      <trkpt lat="45.8076967" lon="7.5872825">
        <ele>1241</ele>
      </trkpt>
      <trkpt lat="45.8088027" lon="7.5874881">
        <ele>1256</ele>
      </trkpt>
      <trkpt lat="45.8108273" lon="7.5876520">
        <ele>1272</ele>
      </trkpt>
      <trkpt lat="45.8119673" lon="7.5882320">
        <ele>1287</ele>
      </trkpt>
      <trkpt lat="45.8132583" lon="7.5875700">
        <ele>1303</ele>
      </trkpt>
      <trkpt lat="45.8172283" lon="7.5882200">
        <ele>1318</ele>
      </trkpt>
      <trkpt lat="45.8177108" lon="7.5882675">
        <ele>1333</ele>
      </trkpt>
      <trkpt lat="45.8184180" lon="7.5879060">
        <ele>1349</ele>
      </trkpt>
      <trkpt lat="45.8207673" lon="7.5863420">
        <ele>1364</ele>
      </trkpt>
      <trkpt lat="45.8208773" lon="7.5857820">
        <ele>1380</ele>
      </trkpt>
      <trkpt lat="45.8209273" lon="7.5849720">
        <ele>1395</ele>
      </trkpt>
      <trkpt lat="45.8201883" lon="7.5840300">
        <ele>1411</ele>
      </trkpt>
      <trkpt lat="45.8197373" lon="7.5840720">
        <ele>1426</ele>
      </trkpt>
      <trkpt lat="45.8194573" lon="7.5841820">
        <ele>1442</ele>
      </trkpt>
      <trkpt lat="45.8190673" lon="7.5839820">
        <ele>1457</ele>
      </trkpt>
      <trkpt lat="45.8193973" lon="7.5832820">
        <ele>1473</ele>
      </trkpt>
      <trkpt lat="45.8187273" lon="7.5834320">
        <ele>1488</ele>
      </trkpt>
      <trkpt lat="45.8189373" lon="7.5830820">
        <ele>1504</ele>
      </trkpt>
      <trkpt lat="45.8186373" lon="7.5829820">
        <ele>1519</ele>
      </trkpt>
      <trkpt lat="45.8185173" lon="7.5824620">
        <ele>1535</ele>
      </trkpt>
      <trkpt lat="45.8188973" lon="7.5818420">
        <ele>1550</ele>
      </trkpt>
      <trkpt lat="45.8189873" lon="7.5805520">
        <ele>1566</ele>
      </trkpt>
      <trkpt lat="45.8184273" lon="7.5810920">
        <ele>1581</ele>
      </trkpt>
      <trkpt lat="45.8180624" lon="7.5804822">
        <ele>1597</ele>
      </trkpt>
      <trkpt lat="45.8179700" lon="7.5800611">
        <ele>1612</ele>
      </trkpt>
    </trkseg>
  </trk>
</gpx>
