<?xml version="1.0" encoding="UTF-8"?>
<gpx version="1.1" creator="sentieri-vda" xmlns="http://www.topografix.com/GPX/1/1">
  <metadata>
    <name>Bivio strada per Grand Alpe - Col du Mont</name>
    <desc>Catasto Sentieri VdA — 68_S26</desc>
    <author><name>Regione Autonoma Valle d'Aosta</name></author>
  </metadata>
  <trk>
    <name>Bivio strada per Grand Alpe - Col du Mont</name>
    <src>Catasto Sentieri VdA (68_S26)</src>
    <trkseg>
      <trkpt lat="45.6016181" lon="6.9828600">
        <ele>1933</ele>
      </trkpt>
      <trkpt lat="45.6013281" lon="6.9833210">
        <ele>1937</ele>
      </trkpt>
      <trkpt lat="45.6012881" lon="6.9835710">
        <ele>1942</ele>
      </trkpt>
      <trkpt lat="45.6011981" lon="6.9838110">
        <ele>1946</ele>
      </trkpt>
      <trkpt lat="45.6012781" lon="6.9839410">
        <ele>1951</ele>
      </trkpt>
      <trkpt lat="45.6006281" lon="6.9856210">
        <ele>1955</ele>
      </trkpt>
      <trkpt lat="45.6002081" lon="6.9862710">
        <ele>1959</ele>
      </trkpt>
      <trkpt lat="45.5996881" lon="6.9879610">
        <ele>1964</ele>
      </trkpt>
      <trkpt lat="45.5994881" lon="6.9884110">
        <ele>1968</ele>
      </trkpt>
      <trkpt lat="45.5995781" lon="6.9884210">
        <ele>1973</ele>
      </trkpt>
      <trkpt lat="45.5995481" lon="6.9886810">
        <ele>1977</ele>
      </trkpt>
      <trkpt lat="45.5988681" lon="6.9896610">
        <ele>1982</ele>
      </trkpt>
      <trkpt lat="45.5987381" lon="6.9901410">
        <ele>1986</ele>
      </trkpt>
      <trkpt lat="45.5986081" lon="6.9901810">
        <ele>1990</ele>
      </trkpt>
      <trkpt lat="45.5982581" lon="6.9895610">
        <ele>1995</ele>
      </trkpt>
      <trkpt lat="45.5982581" lon="6.9904210">
        <ele>1999</ele>
      </trkpt>
      <trkpt lat="45.5980581" lon="6.9909310">
        <ele>2004</ele>
      </trkpt>
      <trkpt lat="45.5980881" lon="6.9910810">
        <ele>2008</ele>
      </trkpt>
      <trkpt lat="45.5978781" lon="6.9914510">
        <ele>2012</ele>
      </trkpt>
      <trkpt lat="45.5979381" lon="6.9917610">
        <ele>2017</ele>
      </trkpt>
      <trkpt lat="45.5978581" lon="6.9922210">
        <ele>2021</ele>
      </trkpt>
      <trkpt lat="45.5974681" lon="6.9933210">
        <ele>2026</ele>
      </trkpt>
      <trkpt lat="45.5973781" lon="6.9932310">
        <ele>2030</ele>
      </trkpt>
      <trkpt lat="45.5972381" lon="6.9933810">
        <ele>2035</ele>
      </trkpt>
      <trkpt lat="45.5972581" lon="6.9937410">
        <ele>2039</ele>
      </trkpt>
      <trkpt lat="45.5971381" lon="6.9937510">
        <ele>2043</ele>
      </trkpt>
      <trkpt lat="45.5971081" lon="6.9938510">
        <ele>2048</ele>
      </trkpt>
      <trkpt lat="45.5971081" lon="6.9940710">
        <ele>2052</ele>
      </trkpt>
      <trkpt lat="45.5972381" lon="6.9942310">
        <ele>2057</ele>
      </trkpt>
      <trkpt lat="45.5970681" lon="6.9948710">
        <ele>2061</ele>
      </trkpt>
      <trkpt lat="45.5970781" lon="6.9952410">
        <ele>2065</ele>
      </trkpt>
      <trkpt lat="45.5969881" lon="6.9953810">
        <ele>2070</ele>
      </trkpt>
      <trkpt lat="45.5970481" lon="6.9961410">
        <ele>2074</ele>
      </trkpt>
      <trkpt lat="45.5969581" lon="6.9962810">
        <ele>2079</ele>
      </trkpt>
      <trkpt lat="45.5970681" lon="6.9967310">
        <ele>2083</ele>
      </trkpt>
      <trkpt lat="45.5969981" lon="6.9967010">
        <ele>2088</ele>
      </trkpt>
      <trkpt lat="45.5969781" lon="6.9968110">
        <ele>2092</ele>
      </trkpt>
      <trkpt lat="45.5971381" lon="6.9970910">
        <ele>2096</ele>
      </trkpt>
      <trkpt lat="45.5970581" lon="6.9971510">
        <ele>2101</ele>
      </trkpt>
      <trkpt lat="45.5970581" lon="6.9973810">
        <ele>2105</ele>
      </trkpt>
      <trkpt lat="45.5971581" lon="6.9975710">
        <ele>2110</ele>
      </trkpt>
      <trkpt lat="45.5970781" lon="6.9978710">
        <ele>2114</ele>
      </trkpt>
      <trkpt lat="45.5971781" lon="6.9984010">
        <ele>2118</ele>
      </trkpt>
      <trkpt lat="45.5971580" lon="6.9985124">
        <ele>2123</ele>
      </trkpt>
      <trkpt lat="45.5975481" lon="6.9985310">
        <ele>2127</ele>
      </trkpt>
      <trkpt lat="45.5980581" lon="6.9982710">
        <ele>2132</ele>
      </trkpt>
      <trkpt lat="45.5982281" lon="6.9983210">
        <ele>2136</ele>
      </trkpt>
      <trkpt lat="45.5985181" lon="6.9991310">
        <ele>2141</ele>
      </trkpt>
      <trkpt lat="45.5987181" lon="6.9994010">
        <ele>2145</ele>
      </trkpt>
      <trkpt lat="45.5998981" lon="6.9995710">
        <ele>2149</ele>
      </trkpt>
      <trkpt lat="45.6001381" lon="7.0002010">
        <ele>2154</ele>
      </trkpt>
      <trkpt lat="45.6005381" lon="7.0001810">
        <ele>2158</ele>
      </trkpt>
      <trkpt lat="45.6009481" lon="7.0005010">
        <ele>2163</ele>
      </trkpt>
      <trkpt lat="45.6005781" lon="7.0012210">
        <ele>2167</ele>
      </trkpt>
      <trkpt lat="45.6004381" lon="7.0017310">
        <ele>2171</ele>
      </trkpt>
      <trkpt lat="45.6004081" lon="7.0020610">
        <ele>2176</ele>
      </trkpt>
      <trkpt lat="45.6005181" lon="7.0023110">
        <ele>2180</ele>
      </trkpt>
      <trkpt lat="45.6000681" lon="7.0034810">
        <ele>2185</ele>
      </trkpt>
      <trkpt lat="45.6000781" lon="7.0035710">
        <ele>2189</ele>
      </trkpt>
      <trkpt lat="45.6002081" lon="7.0036800">
        <ele>2193</ele>
      </trkpt>
      <trkpt lat="45.6001781" lon="7.0040410">
        <ele>2198</ele>
      </trkpt>
      <trkpt lat="45.5997581" lon="7.0048210">
        <ele>2202</ele>
      </trkpt>
      <trkpt lat="45.5994081" lon="7.0058410">
        <ele>2207</ele>
      </trkpt>
      <trkpt lat="45.5990881" lon="7.0060110">
        <ele>2211</ele>
      </trkpt>
      <trkpt lat="45.5988297" lon="7.0066470">
        <ele>2216</ele>
      </trkpt>
      <trkpt lat="45.5985866" lon="7.0073022">
        <ele>2220</ele>
      </trkpt>
      <trkpt lat="45.5985090" lon="7.0073888">
        <ele>2224</ele>
      </trkpt>
      <trkpt lat="45.5984505" lon="7.0076473">
        <ele>2229</ele>
      </trkpt>
      <trkpt lat="45.5984474" lon="7.0077275">
        <ele>2233</ele>
      </trkpt>
      <trkpt lat="45.5984001" lon="7.0078542">
        <ele>2238</ele>
      </trkpt>
      <trkpt lat="45.5982820" lon="7.0083072">
        <ele>2242</ele>
      </trkpt>
      <trkpt lat="45.5981988" lon="7.0086948">
        <ele>2246</ele>
      </trkpt>
      <trkpt lat="45.5981201" lon="7.0088258">
        <ele>2251</ele>
      </trkpt>
      <trkpt lat="45.5979521" lon="7.0089984">
        <ele>2255</ele>
      </trkpt>
      <trkpt lat="45.5978652" lon="7.0091810">
        <ele>2260</ele>
      </trkpt>
      <trkpt lat="45.5978038" lon="7.0092729">
        <ele>2264</ele>
      </trkpt>
      <trkpt lat="45.5977247" lon="7.0093783">
        <ele>2269</ele>
      </trkpt>
      <trkpt lat="45.5976444" lon="7.0094196">
        <ele>2273</ele>
      </trkpt>
      <trkpt lat="45.5975569" lon="7.0095637">
        <ele>2277</ele>
      </trkpt>
      <trkpt lat="45.5975067" lon="7.0097835">
        <ele>2282</ele>
      </trkpt>
      <trkpt lat="45.5974298" lon="7.0100170">
        <ele>2286</ele>
      </trkpt>
      <trkpt lat="45.5973861" lon="7.0100954">
        <ele>2291</ele>
      </trkpt>
      <trkpt lat="45.5973353" lon="7.0102767">
        <ele>2295</ele>
      </trkpt>
      <trkpt lat="45.5972950" lon="7.0105474">
        <ele>2299</ele>
      </trkpt>
      <trkpt lat="45.5972446" lon="7.0107543">
        <ele>2304</ele>
      </trkpt>
      <trkpt lat="45.5970997" lon="7.0112210">
        <ele>2308</ele>
      </trkpt>
      <trkpt lat="45.5970346" lon="7.0113580">
        <ele>2313</ele>
      </trkpt>
      <trkpt lat="45.5969017" lon="7.0117409">
        <ele>2317</ele>
      </trkpt>
      <trkpt lat="45.5967349" lon="7.0119776">
        <ele>2322</ele>
      </trkpt>
      <trkpt lat="45.5965665" lon="7.0123874">
        <ele>2326</ele>
      </trkpt>
      <trkpt lat="45.5965182" lon="7.0124596">
        <ele>2330</ele>
      </trkpt>
      <trkpt lat="45.5963904" lon="7.0128744">
        <ele>2335</ele>
      </trkpt>
      <trkpt lat="45.5962136" lon="7.0130602">
        <ele>2339</ele>
      </trkpt>
      <trkpt lat="45.5960731" lon="7.0132574">
        <ele>2344</ele>
      </trkpt>
      <trkpt lat="45.5959165" lon="7.0135707">
        <ele>2348</ele>
      </trkpt>
      <trkpt lat="45.5958389" lon="7.0137657">
        <ele>2352</ele>
      </trkpt>
      <trkpt lat="45.5956994" lon="7.0140271">
        <ele>2357</ele>
      </trkpt>
      <trkpt lat="45.5955226" lon="7.0142128">
        <ele>2361</ele>
      </trkpt>
      <trkpt lat="45.5954246" lon="7.0142676">
        <ele>2366</ele>
      </trkpt>
      <trkpt lat="45.5953366" lon="7.0143860">
        <ele>2370</ele>
      </trkpt>
      <trkpt lat="45.5951625" lon="7.0147255">
        <ele>2375</ele>
      </trkpt>
      <trkpt lat="45.5947693" lon="7.0154061">
        <ele>2379</ele>
      </trkpt>
      <trkpt lat="45.5945498" lon="7.0157215">
        <ele>2383</ele>
      </trkpt>
      <trkpt lat="45.5944893" lon="7.0158647">
        <ele>2388</ele>
      </trkpt>
      <trkpt lat="45.5941015" lon="7.0163399">
        <ele>2392</ele>
      </trkpt>
      <trkpt lat="45.5938133" lon="7.0168501">
        <ele>2397</ele>
      </trkpt>
      <trkpt lat="45.5937633" lon="7.0170826">
        <ele>2401</ele>
      </trkpt>
      <trkpt lat="45.5936536" lon="7.0180224">
        <ele>2405</ele>
      </trkpt>
      <trkpt lat="45.5935945" lon="7.0182424">
        <ele>2410</ele>
      </trkpt>
      <trkpt lat="45.5934642" lon="7.0185163">
        <ele>2414</ele>
      </trkpt>
      <trkpt lat="45.5932021" lon="7.0189742">
        <ele>2419</ele>
      </trkpt>
      <trkpt lat="45.5931328" lon="7.0191305">
        <ele>2423</ele>
      </trkpt>
      <trkpt lat="45.5928593" lon="7.0194478">
        <ele>2427</ele>
      </trkpt>
      <trkpt lat="45.5927288" lon="7.0197088">
        <ele>2432</ele>
      </trkpt>
      <trkpt lat="45.5926856" lon="7.0198129">
        <ele>2436</ele>
      </trkpt>
      <trkpt lat="45.5926012" lon="7.0201364">
        <ele>2441</ele>
      </trkpt>
      <trkpt lat="45.5923245" lon="7.0207871">
        <ele>2445</ele>
      </trkpt>
      <trkpt lat="45.5921890" lon="7.0212791">
        <ele>2450</ele>
      </trkpt>
      <trkpt lat="45.5919289" lon="7.0218523">
        <ele>2454</ele>
      </trkpt>
      <trkpt lat="45.5917806" lon="7.0221267">
        <ele>2458</ele>
      </trkpt>
      <trkpt lat="45.5914797" lon="7.0224194">
        <ele>2463</ele>
      </trkpt>
      <trkpt lat="45.5913395" lon="7.0226422">
        <ele>2467</ele>
      </trkpt>
      <trkpt lat="45.5911458" lon="7.0228926">
        <ele>2472</ele>
      </trkpt>
      <trkpt lat="45.5911112" lon="7.0229708">
        <ele>2476</ele>
      </trkpt>
      <trkpt lat="45.5911130" lon="7.0230733">
        <ele>2480</ele>
      </trkpt>
      <trkpt lat="45.5912287" lon="7.0235179">
        <ele>2485</ele>
      </trkpt>
      <trkpt lat="45.5912214" lon="7.0236207">
        <ele>2489</ele>
      </trkpt>
      <trkpt lat="45.5911346" lon="7.0238032">
        <ele>2494</ele>
      </trkpt>
      <trkpt lat="45.5910363" lon="7.0238452">
        <ele>2498</ele>
      </trkpt>
      <trkpt lat="45.5909823" lon="7.0238471">
        <ele>2503</ele>
      </trkpt>
      <trkpt lat="45.5909122" lon="7.0239521">
        <ele>2507</ele>
      </trkpt>
      <trkpt lat="45.5908951" lon="7.0240040">
        <ele>2511</ele>
      </trkpt>
      <trkpt lat="45.5908245" lon="7.0240866">
        <ele>2516</ele>
      </trkpt>
      <trkpt lat="45.5907817" lon="7.0242131">
        <ele>2520</ele>
      </trkpt>
      <trkpt lat="45.5906990" lon="7.0246390">
        <ele>2525</ele>
      </trkpt>
      <trkpt lat="45.5906973" lon="7.0250621">
        <ele>2529</ele>
      </trkpt>
      <trkpt lat="45.5906458" lon="7.0252050">
        <ele>2533</ele>
      </trkpt>
      <trkpt lat="45.5905583" lon="7.0253491">
        <ele>2538</ele>
      </trkpt>
      <trkpt lat="45.5905414" lon="7.0254138">
        <ele>2542</ele>
      </trkpt>
      <trkpt lat="45.5905430" lon="7.0255034">
        <ele>2547</ele>
      </trkpt>
      <trkpt lat="45.5905710" lon="7.0255666">
        <ele>2551</ele>
      </trkpt>
      <trkpt lat="45.5906255" lon="7.0255903">
        <ele>2556</ele>
      </trkpt>
      <trkpt lat="45.5907424" lon="7.0255862">
        <ele>2560</ele>
      </trkpt>
      <trkpt lat="45.5907834" lon="7.0256168">
        <ele>2564</ele>
      </trkpt>
      <trkpt lat="45.5908649" lon="7.0259024">
        <ele>2569</ele>
      </trkpt>
      <trkpt lat="45.5908213" lon="7.0265065">
        <ele>2573</ele>
      </trkpt>
      <trkpt lat="45.5907582" lon="7.0270215">
        <ele>2578</ele>
      </trkpt>
      <trkpt lat="45.5907859" lon="7.0275846">
        <ele>2582</ele>
      </trkpt>
      <trkpt lat="45.5908362" lon="7.0278905">
        <ele>2586</ele>
      </trkpt>
      <trkpt lat="45.5908569" lon="7.0285692">
        <ele>2591</ele>
      </trkpt>
      <trkpt lat="45.5910350" lon="7.0294989">
        <ele>2595</ele>
      </trkpt>
      <trkpt lat="45.5910434" lon="7.0299857">
        <ele>2600</ele>
      </trkpt>
      <trkpt lat="45.5911317" lon="7.0304057">
        <ele>2604</ele>
      </trkpt>
      <trkpt lat="45.5912377" lon="7.0308123">
        <ele>2609</ele>
      </trkpt>
      <trkpt lat="45.5915017" lon="7.0315081">
        <ele>2613</ele>
      </trkpt>
      <trkpt lat="45.5915660" lon="7.0315828">
        <ele>2617</ele>
      </trkpt>
      <trkpt lat="45.5916615" lon="7.0319000">
        <ele>2622</ele>
      </trkpt>
      <trkpt lat="45.5917440" lon="7.0319868">
        <ele>2626</ele>
      </trkpt>
      <trkpt lat="45.5918576" lon="7.0320534">
        <ele>2631</ele>
      </trkpt>
      <trkpt lat="45.5919312" lon="7.0321425">
        <ele>2635</ele>
      </trkpt>
    </trkseg>
  </trk>
</gpx>
