<?xml version="1.0" encoding="UTF-8"?>
<gpx version="1.1" creator="sentieri-vda" xmlns="http://www.topografix.com/GPX/1/1">
  <metadata>
    <name>Surrier, bivio poderali  - Rifugio Chalet de l'Epée</name>
    <desc>Catasto Sentieri VdA — 68_S14</desc>
    <author><name>Regione Autonoma Valle d'Aosta</name></author>
  </metadata>
  <trk>
    <name>Surrier, bivio poderali  - Rifugio Chalet de l'Epée</name>
    <src>Catasto Sentieri VdA (68_S14)</src>
    <trkseg>
      <trkpt lat="45.5853365" lon="7.0312650">
        <ele>1785</ele>
      </trkpt>
      <trkpt lat="45.5852401" lon="7.0312912">
        <ele>1787</ele>
      </trkpt>
      <trkpt lat="45.5851252" lon="7.0312824">
        <ele>1789</ele>
      </trkpt>
      <trkpt lat="45.5845102" lon="7.0311117">
        <ele>1791</ele>
      </trkpt>
      <trkpt lat="45.5838654" lon="7.0307753">
        <ele>1793</ele>
      </trkpt>
      <trkpt lat="45.5836306" lon="7.0307322">
        <ele>1795</ele>
      </trkpt>
      <trkpt lat="45.5834145" lon="7.0307270">
        <ele>1797</ele>
      </trkpt>
      <trkpt lat="45.5831455" lon="7.0307877">
        <ele>1799</ele>
      </trkpt>
      <trkpt lat="45.5830374" lon="7.0307786">
        <ele>1801</ele>
      </trkpt>
      <trkpt lat="45.5828103" lon="7.0306584">
        <ele>1803</ele>
      </trkpt>
      <trkpt lat="45.5826749" lon="7.0306375">
        <ele>1805</ele>
      </trkpt>
      <trkpt lat="45.5823807" lon="7.0308016">
        <ele>1807</ele>
      </trkpt>
      <trkpt lat="45.5823180" lon="7.0308166">
        <ele>1809</ele>
      </trkpt>
      <trkpt lat="45.5814809" lon="7.0308202">
        <ele>1811</ele>
      </trkpt>
      <trkpt lat="45.5811907" lon="7.0306894">
        <ele>1813</ele>
      </trkpt>
      <trkpt lat="45.5811187" lon="7.0306919">
        <ele>1815</ele>
      </trkpt>
      <trkpt lat="45.5808322" lon="7.0307788">
        <ele>1817</ele>
      </trkpt>
      <trkpt lat="45.5806161" lon="7.0307736">
        <ele>1819</ele>
      </trkpt>
      <trkpt lat="45.5803177" lon="7.0306943">
        <ele>1821</ele>
      </trkpt>
      <trkpt lat="45.5799102" lon="7.0305515">
        <ele>1823</ele>
      </trkpt>
      <trkpt lat="45.5799260" lon="7.0306678">
        <ele>1825</ele>
      </trkpt>
      <trkpt lat="45.5800453" lon="7.0307498">
        <ele>1827</ele>
      </trkpt>
      <trkpt lat="45.5803559" lon="7.0309047">
        <ele>1829</ele>
      </trkpt>
      <trkpt lat="45.5806775" lon="7.0310973">
        <ele>1831</ele>
      </trkpt>
      <trkpt lat="45.5808505" lon="7.0311728">
        <ele>1833</ele>
      </trkpt>
      <trkpt lat="45.5810113" lon="7.0313431">
        <ele>1835</ele>
      </trkpt>
      <trkpt lat="45.5814236" lon="7.0315700">
        <ele>1837</ele>
      </trkpt>
      <trkpt lat="45.5815654" lon="7.0316793">
        <ele>1839</ele>
      </trkpt>
      <trkpt lat="45.5816125" lon="7.0316616">
        <ele>1841</ele>
      </trkpt>
      <trkpt lat="45.5821757" lon="7.0319624">
        <ele>1843</ele>
      </trkpt>
      <trkpt lat="45.5823403" lon="7.0321105">
        <ele>1845</ele>
      </trkpt>
      <trkpt lat="45.5824493" lon="7.0321707">
        <ele>1847</ele>
      </trkpt>
      <trkpt lat="45.5826143" lon="7.0323444">
        <ele>1849</ele>
      </trkpt>
      <trkpt lat="45.5827966" lon="7.0324790">
        <ele>1851</ele>
      </trkpt>
      <trkpt lat="45.5830729" lon="7.0328411">
        <ele>1853</ele>
      </trkpt>
      <trkpt lat="45.5832313" lon="7.0331560">
        <ele>1855</ele>
      </trkpt>
      <trkpt lat="45.5832698" lon="7.0332957">
        <ele>1857</ele>
      </trkpt>
      <trkpt lat="45.5832713" lon="7.0333854">
        <ele>1859</ele>
      </trkpt>
      <trkpt lat="45.5833499" lon="7.0337672">
        <ele>1861</ele>
      </trkpt>
      <trkpt lat="45.5834526" lon="7.0339815">
        <ele>1863</ele>
      </trkpt>
      <trkpt lat="45.5835731" lon="7.0341824">
        <ele>1865</ele>
      </trkpt>
      <trkpt lat="45.5837319" lon="7.0345230">
        <ele>1867</ele>
      </trkpt>
      <trkpt lat="45.5838173" lon="7.0347763">
        <ele>1869</ele>
      </trkpt>
      <trkpt lat="45.5839294" lon="7.0350160">
        <ele>1871</ele>
      </trkpt>
      <trkpt lat="45.5841366" lon="7.0355471">
        <ele>1873</ele>
      </trkpt>
      <trkpt lat="45.5845371" lon="7.0363279">
        <ele>1875</ele>
      </trkpt>
      <trkpt lat="45.5846046" lon="7.0365947">
        <ele>1877</ele>
      </trkpt>
      <trkpt lat="45.5846099" lon="7.0369022">
        <ele>1879</ele>
      </trkpt>
      <trkpt lat="45.5846391" lon="7.0370294">
        <ele>1881</ele>
      </trkpt>
      <trkpt lat="45.5847034" lon="7.0371040">
        <ele>1883</ele>
      </trkpt>
      <trkpt lat="45.5849467" lon="7.0371212">
        <ele>1885</ele>
      </trkpt>
      <trkpt lat="45.5849478" lon="7.0371853">
        <ele>1887</ele>
      </trkpt>
      <trkpt lat="45.5850027" lon="7.0372346">
        <ele>1889</ele>
      </trkpt>
      <trkpt lat="45.5851686" lon="7.0374596">
        <ele>1891</ele>
      </trkpt>
      <trkpt lat="45.5852151" lon="7.0375477">
        <ele>1893</ele>
      </trkpt>
      <trkpt lat="45.5853838" lon="7.0379392">
        <ele>1895</ele>
      </trkpt>
      <trkpt lat="45.5854597" lon="7.0381673">
        <ele>1897</ele>
      </trkpt>
      <trkpt lat="45.5853781" lon="7.0382800">
        <ele>1899</ele>
      </trkpt>
      <trkpt lat="45.5853981" lon="7.0382800">
        <ele>1901</ele>
      </trkpt>
      <trkpt lat="45.5853881" lon="7.0382900">
        <ele>1903</ele>
      </trkpt>
      <trkpt lat="45.5854281" lon="7.0383400">
        <ele>1905</ele>
      </trkpt>
      <trkpt lat="45.5854481" lon="7.0384900">
        <ele>1907</ele>
      </trkpt>
      <trkpt lat="45.5854981" lon="7.0385800">
        <ele>1909</ele>
      </trkpt>
      <trkpt lat="45.5855081" lon="7.0386300">
        <ele>1911</ele>
      </trkpt>
      <trkpt lat="45.5854781" lon="7.0386900">
        <ele>1913</ele>
      </trkpt>
      <trkpt lat="45.5854981" lon="7.0388700">
        <ele>1915</ele>
      </trkpt>
      <trkpt lat="45.5855481" lon="7.0389500">
        <ele>1917</ele>
      </trkpt>
      <trkpt lat="45.5856181" lon="7.0393400">
        <ele>1919</ele>
      </trkpt>
      <trkpt lat="45.5855381" lon="7.0393100">
        <ele>1921</ele>
      </trkpt>
      <trkpt lat="45.5853281" lon="7.0391300">
        <ele>1923</ele>
      </trkpt>
      <trkpt lat="45.5852881" lon="7.0391700">
        <ele>1925</ele>
      </trkpt>
      <trkpt lat="45.5851081" lon="7.0390200">
        <ele>1927</ele>
      </trkpt>
      <trkpt lat="45.5850281" lon="7.0389100">
        <ele>1929</ele>
      </trkpt>
      <trkpt lat="45.5850181" lon="7.0389900">
        <ele>1931</ele>
      </trkpt>
      <trkpt lat="45.5849381" lon="7.0389800">
        <ele>1933</ele>
      </trkpt>
      <trkpt lat="45.5848581" lon="7.0388900">
        <ele>1935</ele>
      </trkpt>
      <trkpt lat="45.5848881" lon="7.0390600">
        <ele>1937</ele>
      </trkpt>
      <trkpt lat="45.5847881" lon="7.0390200">
        <ele>1939</ele>
      </trkpt>
      <trkpt lat="45.5846181" lon="7.0388700">
        <ele>1941</ele>
      </trkpt>
      <trkpt lat="45.5845181" lon="7.0388100">
        <ele>1943</ele>
      </trkpt>
      <trkpt lat="45.5844981" lon="7.0388900">
        <ele>1945</ele>
      </trkpt>
      <trkpt lat="45.5845581" lon="7.0390600">
        <ele>1947</ele>
      </trkpt>
      <trkpt lat="45.5844781" lon="7.0389900">
        <ele>1949</ele>
      </trkpt>
      <trkpt lat="45.5842881" lon="7.0385900">
        <ele>1951</ele>
      </trkpt>
      <trkpt lat="45.5840481" lon="7.0383200">
        <ele>1953</ele>
      </trkpt>
      <trkpt lat="45.5840281" lon="7.0383700">
        <ele>1955</ele>
      </trkpt>
      <trkpt lat="45.5840381" lon="7.0386600">
        <ele>1957</ele>
      </trkpt>
      <trkpt lat="45.5840881" lon="7.0388800">
        <ele>1959</ele>
      </trkpt>
      <trkpt lat="45.5841181" lon="7.0389000">
        <ele>1961</ele>
      </trkpt>
      <trkpt lat="45.5841281" lon="7.0392500">
        <ele>1963</ele>
      </trkpt>
      <trkpt lat="45.5841581" lon="7.0394800">
        <ele>1965</ele>
      </trkpt>
      <trkpt lat="45.5842281" lon="7.0396600">
        <ele>1967</ele>
      </trkpt>
      <trkpt lat="45.5842381" lon="7.0397700">
        <ele>1969</ele>
      </trkpt>
      <trkpt lat="45.5841981" lon="7.0397600">
        <ele>1971</ele>
      </trkpt>
      <trkpt lat="45.5841181" lon="7.0395900">
        <ele>1973</ele>
      </trkpt>
      <trkpt lat="45.5839281" lon="7.0393500">
        <ele>1975</ele>
      </trkpt>
      <trkpt lat="45.5839581" lon="7.0394900">
        <ele>1977</ele>
      </trkpt>
      <trkpt lat="45.5839581" lon="7.0395700">
        <ele>1979</ele>
      </trkpt>
      <trkpt lat="45.5839381" lon="7.0395800">
        <ele>1981</ele>
      </trkpt>
      <trkpt lat="45.5839381" lon="7.0396500">
        <ele>1983</ele>
      </trkpt>
      <trkpt lat="45.5839681" lon="7.0397800">
        <ele>1985</ele>
      </trkpt>
      <trkpt lat="45.5839381" lon="7.0397600">
        <ele>1987</ele>
      </trkpt>
      <trkpt lat="45.5837681" lon="7.0394600">
        <ele>1989</ele>
      </trkpt>
      <trkpt lat="45.5834481" lon="7.0389800">
        <ele>1991</ele>
      </trkpt>
      <trkpt lat="45.5833581" lon="7.0389200">
        <ele>1993</ele>
      </trkpt>
      <trkpt lat="45.5833381" lon="7.0390000">
        <ele>1995</ele>
      </trkpt>
      <trkpt lat="45.5832581" lon="7.0388800">
        <ele>1997</ele>
      </trkpt>
      <trkpt lat="45.5830981" lon="7.0387500">
        <ele>1999</ele>
      </trkpt>
      <trkpt lat="45.5829881" lon="7.0386800">
        <ele>2001</ele>
      </trkpt>
      <trkpt lat="45.5829781" lon="7.0387300">
        <ele>2003</ele>
      </trkpt>
      <trkpt lat="45.5829481" lon="7.0387300">
        <ele>2005</ele>
      </trkpt>
      <trkpt lat="45.5829881" lon="7.0387500">
        <ele>2007</ele>
      </trkpt>
      <trkpt lat="45.5830681" lon="7.0389100">
        <ele>2009</ele>
      </trkpt>
      <trkpt lat="45.5831181" lon="7.0389700">
        <ele>2011</ele>
      </trkpt>
      <trkpt lat="45.5831081" lon="7.0391100">
        <ele>2013</ele>
      </trkpt>
      <trkpt lat="45.5832781" lon="7.0395500">
        <ele>2015</ele>
      </trkpt>
      <trkpt lat="45.5831981" lon="7.0394900">
        <ele>2017</ele>
      </trkpt>
      <trkpt lat="45.5830881" lon="7.0393500">
        <ele>2019</ele>
      </trkpt>
      <trkpt lat="45.5830681" lon="7.0393400">
        <ele>2021</ele>
      </trkpt>
      <trkpt lat="45.5830881" lon="7.0394000">
        <ele>2023</ele>
      </trkpt>
      <trkpt lat="45.5830581" lon="7.0394100">
        <ele>2025</ele>
      </trkpt>
      <trkpt lat="45.5830081" lon="7.0393600">
        <ele>2027</ele>
      </trkpt>
      <trkpt lat="45.5829881" lon="7.0394600">
        <ele>2029</ele>
      </trkpt>
      <trkpt lat="45.5829981" lon="7.0395100">
        <ele>2031</ele>
      </trkpt>
      <trkpt lat="45.5830181" lon="7.0395200">
        <ele>2033</ele>
      </trkpt>
      <trkpt lat="45.5830181" lon="7.0395700">
        <ele>2035</ele>
      </trkpt>
      <trkpt lat="45.5830681" lon="7.0396100">
        <ele>2037</ele>
      </trkpt>
      <trkpt lat="45.5830781" lon="7.0396400">
        <ele>2039</ele>
      </trkpt>
      <trkpt lat="45.5830481" lon="7.0397400">
        <ele>2041</ele>
      </trkpt>
      <trkpt lat="45.5829781" lon="7.0397300">
        <ele>2043</ele>
      </trkpt>
      <trkpt lat="45.5830081" lon="7.0398200">
        <ele>2045</ele>
      </trkpt>
      <trkpt lat="45.5830081" lon="7.0399400">
        <ele>2047</ele>
      </trkpt>
      <trkpt lat="45.5830381" lon="7.0399900">
        <ele>2049</ele>
      </trkpt>
      <trkpt lat="45.5830081" lon="7.0400100">
        <ele>2051</ele>
      </trkpt>
      <trkpt lat="45.5830081" lon="7.0402200">
        <ele>2053</ele>
      </trkpt>
      <trkpt lat="45.5829481" lon="7.0404300">
        <ele>2055</ele>
      </trkpt>
      <trkpt lat="45.5829581" lon="7.0405500">
        <ele>2057</ele>
      </trkpt>
      <trkpt lat="45.5828881" lon="7.0409300">
        <ele>2059</ele>
      </trkpt>
      <trkpt lat="45.5828581" lon="7.0411700">
        <ele>2061</ele>
      </trkpt>
      <trkpt lat="45.5828681" lon="7.0412100">
        <ele>2063</ele>
      </trkpt>
      <trkpt lat="45.5828381" lon="7.0412400">
        <ele>2065</ele>
      </trkpt>
      <trkpt lat="45.5828181" lon="7.0413000">
        <ele>2067</ele>
      </trkpt>
      <trkpt lat="45.5827581" lon="7.0416200">
        <ele>2069</ele>
      </trkpt>
      <trkpt lat="45.5826581" lon="7.0418700">
        <ele>2071</ele>
      </trkpt>
      <trkpt lat="45.5826481" lon="7.0419700">
        <ele>2073</ele>
      </trkpt>
      <trkpt lat="45.5826681" lon="7.0420600">
        <ele>2075</ele>
      </trkpt>
      <trkpt lat="45.5826281" lon="7.0422000">
        <ele>2076</ele>
      </trkpt>
      <trkpt lat="45.5826381" lon="7.0422500">
        <ele>2078</ele>
      </trkpt>
      <trkpt lat="45.5825581" lon="7.0426000">
        <ele>2080</ele>
      </trkpt>
      <trkpt lat="45.5824781" lon="7.0423700">
        <ele>2082</ele>
      </trkpt>
      <trkpt lat="45.5824381" lon="7.0424400">
        <ele>2084</ele>
      </trkpt>
      <trkpt lat="45.5824881" lon="7.0425600">
        <ele>2086</ele>
      </trkpt>
      <trkpt lat="45.5824781" lon="7.0426400">
        <ele>2088</ele>
      </trkpt>
      <trkpt lat="45.5825181" lon="7.0428500">
        <ele>2090</ele>
      </trkpt>
      <trkpt lat="45.5825081" lon="7.0430100">
        <ele>2092</ele>
      </trkpt>
      <trkpt lat="45.5825581" lon="7.0431600">
        <ele>2094</ele>
      </trkpt>
      <trkpt lat="45.5826181" lon="7.0435700">
        <ele>2096</ele>
      </trkpt>
      <trkpt lat="45.5826581" lon="7.0436800">
        <ele>2098</ele>
      </trkpt>
      <trkpt lat="45.5826481" lon="7.0439600">
        <ele>2100</ele>
      </trkpt>
      <trkpt lat="45.5826781" lon="7.0440100">
        <ele>2102</ele>
      </trkpt>
      <trkpt lat="45.5826581" lon="7.0442100">
        <ele>2104</ele>
      </trkpt>
      <trkpt lat="45.5826781" lon="7.0444300">
        <ele>2106</ele>
      </trkpt>
      <trkpt lat="45.5826481" lon="7.0446800">
        <ele>2108</ele>
      </trkpt>
      <trkpt lat="45.5826081" lon="7.0447600">
        <ele>2110</ele>
      </trkpt>
      <trkpt lat="45.5825881" lon="7.0449300">
        <ele>2112</ele>
      </trkpt>
      <trkpt lat="45.5825424" lon="7.0450021">
        <ele>2114</ele>
      </trkpt>
      <trkpt lat="45.5825081" lon="7.0450090">
        <ele>2116</ele>
      </trkpt>
      <trkpt lat="45.5824181" lon="7.0452990">
        <ele>2118</ele>
      </trkpt>
      <trkpt lat="45.5821681" lon="7.0457190">
        <ele>2120</ele>
      </trkpt>
      <trkpt lat="45.5820981" lon="7.0460690">
        <ele>2122</ele>
      </trkpt>
      <trkpt lat="45.5818381" lon="7.0464090">
        <ele>2124</ele>
      </trkpt>
      <trkpt lat="45.5818124" lon="7.0465931">
        <ele>2126</ele>
      </trkpt>
      <trkpt lat="45.5817992" lon="7.0466020">
        <ele>2128</ele>
      </trkpt>
      <trkpt lat="45.5818157" lon="7.0467922">
        <ele>2130</ele>
      </trkpt>
      <trkpt lat="45.5818459" lon="7.0468300">
        <ele>2132</ele>
      </trkpt>
      <trkpt lat="45.5819907" lon="7.0468762">
        <ele>2134</ele>
      </trkpt>
      <trkpt lat="45.5820842" lon="7.0470781">
        <ele>2136</ele>
      </trkpt>
      <trkpt lat="45.5821039" lon="7.0471800">
        <ele>2138</ele>
      </trkpt>
      <trkpt lat="45.5821223" lon="7.0472050">
        <ele>2140</ele>
      </trkpt>
      <trkpt lat="45.5821278" lon="7.0472624">
        <ele>2142</ele>
      </trkpt>
      <trkpt lat="45.5821691" lon="7.0473059">
        <ele>2144</ele>
      </trkpt>
      <trkpt lat="45.5822075" lon="7.0474455">
        <ele>2146</ele>
      </trkpt>
      <trkpt lat="45.5822106" lon="7.0476281">
        <ele>2148</ele>
      </trkpt>
      <trkpt lat="45.5822758" lon="7.0478918">
        <ele>2150</ele>
      </trkpt>
      <trkpt lat="45.5822333" lon="7.0480343">
        <ele>2152</ele>
      </trkpt>
      <trkpt lat="45.5822528" lon="7.0481233">
        <ele>2154</ele>
      </trkpt>
      <trkpt lat="45.5823555" lon="7.0483377">
        <ele>2156</ele>
      </trkpt>
      <trkpt lat="45.5824316" lon="7.0485786">
        <ele>2158</ele>
      </trkpt>
      <trkpt lat="45.5823381" lon="7.0487990">
        <ele>2160</ele>
      </trkpt>
      <trkpt lat="45.5823981" lon="7.0491690">
        <ele>2162</ele>
      </trkpt>
      <trkpt lat="45.5824481" lon="7.0492590">
        <ele>2164</ele>
      </trkpt>
      <trkpt lat="45.5824581" lon="7.0494790">
        <ele>2166</ele>
      </trkpt>
      <trkpt lat="45.5825235" lon="7.0495681">
        <ele>2168</ele>
      </trkpt>
      <trkpt lat="45.5825581" lon="7.0496190">
        <ele>2170</ele>
      </trkpt>
      <trkpt lat="45.5825781" lon="7.0498690">
        <ele>2172</ele>
      </trkpt>
      <trkpt lat="45.5827181" lon="7.0503090">
        <ele>2174</ele>
      </trkpt>
      <trkpt lat="45.5827681" lon="7.0504190">
        <ele>2176</ele>
      </trkpt>
      <trkpt lat="45.5829581" lon="7.0505590">
        <ele>2178</ele>
      </trkpt>
      <trkpt lat="45.5831481" lon="7.0506090">
        <ele>2180</ele>
      </trkpt>
      <trkpt lat="45.5833781" lon="7.0507490">
        <ele>2182</ele>
      </trkpt>
      <trkpt lat="45.5834881" lon="7.0508890">
        <ele>2184</ele>
      </trkpt>
      <trkpt lat="45.5837481" lon="7.0510890">
        <ele>2186</ele>
      </trkpt>
      <trkpt lat="45.5837981" lon="7.0512490">
        <ele>2188</ele>
      </trkpt>
      <trkpt lat="45.5838381" lon="7.0512790">
        <ele>2190</ele>
      </trkpt>
      <trkpt lat="45.5838781" lon="7.0512590">
        <ele>2192</ele>
      </trkpt>
      <trkpt lat="45.5840981" lon="7.0514890">
        <ele>2194</ele>
      </trkpt>
      <trkpt lat="45.5841481" lon="7.0514990">
        <ele>2196</ele>
      </trkpt>
      <trkpt lat="45.5842981" lon="7.0516590">
        <ele>2198</ele>
      </trkpt>
      <trkpt lat="45.5844281" lon="7.0517190">
        <ele>2200</ele>
      </trkpt>
      <trkpt lat="45.5845681" lon="7.0519390">
        <ele>2202</ele>
      </trkpt>
      <trkpt lat="45.5846181" lon="7.0520590">
        <ele>2204</ele>
      </trkpt>
      <trkpt lat="45.5846881" lon="7.0520890">
        <ele>2206</ele>
      </trkpt>
      <trkpt lat="45.5847181" lon="7.0521590">
        <ele>2208</ele>
      </trkpt>
      <trkpt lat="45.5848281" lon="7.0522190">
        <ele>2210</ele>
      </trkpt>
      <trkpt lat="45.5848081" lon="7.0522390">
        <ele>2212</ele>
      </trkpt>
      <trkpt lat="45.5848381" lon="7.0523190">
        <ele>2214</ele>
      </trkpt>
      <trkpt lat="45.5847081" lon="7.0523690">
        <ele>2216</ele>
      </trkpt>
      <trkpt lat="45.5847881" lon="7.0525390">
        <ele>2218</ele>
      </trkpt>
      <trkpt lat="45.5847681" lon="7.0525190">
        <ele>2220</ele>
      </trkpt>
      <trkpt lat="45.5847681" lon="7.0525890">
        <ele>2222</ele>
      </trkpt>
      <trkpt lat="45.5848281" lon="7.0526890">
        <ele>2224</ele>
      </trkpt>
      <trkpt lat="45.5849581" lon="7.0526590">
        <ele>2226</ele>
      </trkpt>
      <trkpt lat="45.5849981" lon="7.0526190">
        <ele>2228</ele>
      </trkpt>
      <trkpt lat="45.5850981" lon="7.0526290">
        <ele>2230</ele>
      </trkpt>
      <trkpt lat="45.5852081" lon="7.0526790">
        <ele>2232</ele>
      </trkpt>
      <trkpt lat="45.5853181" lon="7.0526390">
        <ele>2234</ele>
      </trkpt>
      <trkpt lat="45.5855581" lon="7.0526490">
        <ele>2236</ele>
      </trkpt>
      <trkpt lat="45.5856381" lon="7.0526290">
        <ele>2238</ele>
      </trkpt>
      <trkpt lat="45.5858081" lon="7.0526490">
        <ele>2240</ele>
      </trkpt>
      <trkpt lat="45.5858781" lon="7.0527490">
        <ele>2242</ele>
      </trkpt>
      <trkpt lat="45.5859281" lon="7.0527690">
        <ele>2244</ele>
      </trkpt>
      <trkpt lat="45.5860381" lon="7.0529990">
        <ele>2246</ele>
      </trkpt>
      <trkpt lat="45.5861481" lon="7.0530790">
        <ele>2248</ele>
      </trkpt>
      <trkpt lat="45.5862481" lon="7.0530590">
        <ele>2250</ele>
      </trkpt>
      <trkpt lat="45.5862781" lon="7.0531090">
        <ele>2252</ele>
      </trkpt>
      <trkpt lat="45.5863281" lon="7.0530890">
        <ele>2254</ele>
      </trkpt>
      <trkpt lat="45.5863581" lon="7.0531690">
        <ele>2256</ele>
      </trkpt>
      <trkpt lat="45.5863681" lon="7.0532490">
        <ele>2258</ele>
      </trkpt>
      <trkpt lat="45.5864181" lon="7.0532390">
        <ele>2260</ele>
      </trkpt>
      <trkpt lat="45.5864881" lon="7.0532590">
        <ele>2262</ele>
      </trkpt>
      <trkpt lat="45.5865181" lon="7.0533490">
        <ele>2264</ele>
      </trkpt>
      <trkpt lat="45.5865681" lon="7.0534090">
        <ele>2266</ele>
      </trkpt>
      <trkpt lat="45.5866481" lon="7.0534290">
        <ele>2268</ele>
      </trkpt>
      <trkpt lat="45.5866981" lon="7.0535090">
        <ele>2270</ele>
      </trkpt>
      <trkpt lat="45.5869681" lon="7.0536090">
        <ele>2272</ele>
      </trkpt>
      <trkpt lat="45.5870081" lon="7.0535690">
        <ele>2274</ele>
      </trkpt>
      <trkpt lat="45.5872181" lon="7.0536390">
        <ele>2276</ele>
      </trkpt>
      <trkpt lat="45.5872981" lon="7.0538790">
        <ele>2278</ele>
      </trkpt>
      <trkpt lat="45.5873981" lon="7.0542590">
        <ele>2280</ele>
      </trkpt>
      <trkpt lat="45.5874381" lon="7.0543190">
        <ele>2282</ele>
      </trkpt>
      <trkpt lat="45.5874481" lon="7.0543790">
        <ele>2284</ele>
      </trkpt>
      <trkpt lat="45.5874981" lon="7.0544490">
        <ele>2286</ele>
      </trkpt>
      <trkpt lat="45.5875681" lon="7.0547790">
        <ele>2288</ele>
      </trkpt>
      <trkpt lat="45.5876581" lon="7.0548690">
        <ele>2290</ele>
      </trkpt>
      <trkpt lat="45.5877081" lon="7.0549590">
        <ele>2292</ele>
      </trkpt>
      <trkpt lat="45.5877181" lon="7.0554590">
        <ele>2294</ele>
      </trkpt>
      <trkpt lat="45.5877781" lon="7.0554690">
        <ele>2296</ele>
      </trkpt>
      <trkpt lat="45.5878181" lon="7.0554290">
        <ele>2298</ele>
      </trkpt>
      <trkpt lat="45.5878581" lon="7.0554490">
        <ele>2300</ele>
      </trkpt>
      <trkpt lat="45.5879281" lon="7.0555390">
        <ele>2302</ele>
      </trkpt>
      <trkpt lat="45.5879881" lon="7.0555390">
        <ele>2304</ele>
      </trkpt>
      <trkpt lat="45.5880281" lon="7.0555990">
        <ele>2306</ele>
      </trkpt>
      <trkpt lat="45.5880581" lon="7.0558690">
        <ele>2308</ele>
      </trkpt>
      <trkpt lat="45.5881767" lon="7.0559599">
        <ele>2310</ele>
      </trkpt>
      <trkpt lat="45.5882681" lon="7.0561290">
        <ele>2312</ele>
      </trkpt>
      <trkpt lat="45.5883770" lon="7.0564360">
        <ele>2314</ele>
      </trkpt>
      <trkpt lat="45.5884438" lon="7.0567157">
        <ele>2316</ele>
      </trkpt>
      <trkpt lat="45.5884815" lon="7.0570039">
        <ele>2318</ele>
      </trkpt>
      <trkpt lat="45.5884484" lon="7.0573420">
        <ele>2320</ele>
      </trkpt>
      <trkpt lat="45.5884481" lon="7.0575534">
        <ele>2322</ele>
      </trkpt>
      <trkpt lat="45.5884821" lon="7.0576850">
        <ele>2324</ele>
      </trkpt>
      <trkpt lat="45.5885320" lon="7.0577739">
        <ele>2326</ele>
      </trkpt>
      <trkpt lat="45.5885514" lon="7.0578850">
        <ele>2328</ele>
      </trkpt>
      <trkpt lat="45.5885368" lon="7.0579693">
        <ele>2330</ele>
      </trkpt>
      <trkpt lat="45.5884519" lon="7.0581898">
        <ele>2332</ele>
      </trkpt>
      <trkpt lat="45.5884442" lon="7.0584075">
        <ele>2334</ele>
      </trkpt>
      <trkpt lat="45.5884590" lon="7.0585518">
        <ele>2336</ele>
      </trkpt>
      <trkpt lat="45.5884365" lon="7.0587873">
        <ele>2338</ele>
      </trkpt>
      <trkpt lat="45.5882847" lon="7.0591401">
        <ele>2340</ele>
      </trkpt>
      <trkpt lat="45.5882509" lon="7.0592791">
        <ele>2342</ele>
      </trkpt>
      <trkpt lat="45.5882552" lon="7.0597273">
        <ele>2344</ele>
      </trkpt>
      <trkpt lat="45.5882888" lon="7.0600565">
        <ele>2346</ele>
      </trkpt>
      <trkpt lat="45.5882704" lon="7.0605673">
        <ele>2348</ele>
      </trkpt>
      <trkpt lat="45.5882833" lon="7.0606755">
        <ele>2350</ele>
      </trkpt>
      <trkpt lat="45.5883059" lon="7.0607278">
        <ele>2352</ele>
      </trkpt>
      <trkpt lat="45.5884599" lon="7.0609830">
        <ele>2354</ele>
      </trkpt>
      <trkpt lat="45.5885144" lon="7.0609967">
        <ele>2356</ele>
      </trkpt>
      <trkpt lat="45.5886220" lon="7.0609762">
        <ele>2358</ele>
      </trkpt>
      <trkpt lat="45.5887119" lon="7.0609975">
        <ele>2360</ele>
      </trkpt>
      <trkpt lat="45.5887863" lon="7.0610653">
        <ele>2362</ele>
      </trkpt>
      <trkpt lat="45.5888577" lon="7.0611785">
        <ele>2364</ele>
      </trkpt>
      <trkpt lat="45.5889827" lon="7.0612895">
        <ele>2366</ele>
      </trkpt>
    </trkseg>
  </trk>
</gpx>
