<?xml version="1.0" encoding="UTF-8"?>
<gpx version="1.1" creator="sentieri-vda" xmlns="http://www.topografix.com/GPX/1/1">
  <metadata>
    <name>Valpelline - Alpeggio Verdignolettaz</name>
    <desc>Catasto Sentieri VdA — 69_S6</desc>
    <author><name>Regione Autonoma Valle d'Aosta</name></author>
  </metadata>
  <trk>
    <name>Valpelline - Alpeggio Verdignolettaz</name>
    <src>Catasto Sentieri VdA (69_S6)</src>
    <trkseg>
      <trkpt lat="45.8287774" lon="7.3647728">
        <ele>960</ele>
      </trkpt>
      <trkpt lat="45.8280193" lon="7.3646970">
        <ele>965</ele>
      </trkpt>
      <trkpt lat="45.8280193" lon="7.3649770">
        <ele>969</ele>
      </trkpt>
      <trkpt lat="45.8275693" lon="7.3648870">
        <ele>974</ele>
      </trkpt>
      <trkpt lat="45.8253793" lon="7.3641570">
        <ele>979</ele>
      </trkpt>
      <trkpt lat="45.8249293" lon="7.3637470">
        <ele>984</ele>
      </trkpt>
      <trkpt lat="45.8245893" lon="7.3643970">
        <ele>988</ele>
      </trkpt>
      <trkpt lat="45.8239693" lon="7.3639870">
        <ele>993</ele>
      </trkpt>
      <trkpt lat="45.8240883" lon="7.3638700">
        <ele>998</ele>
      </trkpt>
      <trkpt lat="45.8230893" lon="7.3637470">
        <ele>1002</ele>
      </trkpt>
      <trkpt lat="45.8230593" lon="7.3639470">
        <ele>1007</ele>
      </trkpt>
      <trkpt lat="45.8230193" lon="7.3637670">
        <ele>1012</ele>
      </trkpt>
      <trkpt lat="45.8226993" lon="7.3638370">
        <ele>1017</ele>
      </trkpt>
      <trkpt lat="45.8223993" lon="7.3641370">
        <ele>1021</ele>
      </trkpt>
      <trkpt lat="45.8219693" lon="7.3649770">
        <ele>1026</ele>
      </trkpt>
      <trkpt lat="45.8215793" lon="7.3647370">
        <ele>1031</ele>
      </trkpt>
      <trkpt lat="45.8215193" lon="7.3642170">
        <ele>1035</ele>
      </trkpt>
      <trkpt lat="45.8214293" lon="7.3643470">
        <ele>1040</ele>
      </trkpt>
      <trkpt lat="45.8214593" lon="7.3634270">
        <ele>1045</ele>
      </trkpt>
      <trkpt lat="45.8208993" lon="7.3615170">
        <ele>1049</ele>
      </trkpt>
      <trkpt lat="45.8202793" lon="7.3602270">
        <ele>1054</ele>
      </trkpt>
      <trkpt lat="45.8198493" lon="7.3578670">
        <ele>1059</ele>
      </trkpt>
      <trkpt lat="45.8194393" lon="7.3569870">
        <ele>1064</ele>
      </trkpt>
      <trkpt lat="45.8182393" lon="7.3573770">
        <ele>1068</ele>
      </trkpt>
      <trkpt lat="45.8178093" lon="7.3570570">
        <ele>1073</ele>
      </trkpt>
      <trkpt lat="45.8171593" lon="7.3571170">
        <ele>1078</ele>
      </trkpt>
      <trkpt lat="45.8162593" lon="7.3575270">
        <ele>1082</ele>
      </trkpt>
      <trkpt lat="45.8148483" lon="7.3577200">
        <ele>1087</ele>
      </trkpt>
      <trkpt lat="45.8148693" lon="7.3576770">
        <ele>1092</ele>
      </trkpt>
      <trkpt lat="45.8149493" lon="7.3570370">
        <ele>1097</ele>
      </trkpt>
      <trkpt lat="45.8147393" lon="7.3569270">
        <ele>1101</ele>
      </trkpt>
      <trkpt lat="45.8150393" lon="7.3561070">
        <ele>1106</ele>
      </trkpt>
      <trkpt lat="45.8156393" lon="7.3557270">
        <ele>1111</ele>
      </trkpt>
      <trkpt lat="45.8165593" lon="7.3558970">
        <ele>1115</ele>
      </trkpt>
      <trkpt lat="45.8168593" lon="7.3556370">
        <ele>1120</ele>
      </trkpt>
      <trkpt lat="45.8167793" lon="7.3549070">
        <ele>1125</ele>
      </trkpt>
      <trkpt lat="45.8171593" lon="7.3542870">
        <ele>1130</ele>
      </trkpt>
      <trkpt lat="45.8169093" lon="7.3532370">
        <ele>1134</ele>
      </trkpt>
      <trkpt lat="45.8169893" lon="7.3529770">
        <ele>1139</ele>
      </trkpt>
      <trkpt lat="45.8175668" lon="7.3525187">
        <ele>1144</ele>
      </trkpt>
      <trkpt lat="45.8177621" lon="7.3526417">
        <ele>1148</ele>
      </trkpt>
      <trkpt lat="45.8178602" lon="7.3525809">
        <ele>1153</ele>
      </trkpt>
      <trkpt lat="45.8179073" lon="7.3524153">
        <ele>1158</ele>
      </trkpt>
      <trkpt lat="45.8179048" lon="7.3519295">
        <ele>1162</ele>
      </trkpt>
      <trkpt lat="45.8179857" lon="7.3516117">
        <ele>1167</ele>
      </trkpt>
      <trkpt lat="45.8180680" lon="7.3513873">
        <ele>1172</ele>
      </trkpt>
      <trkpt lat="45.8181644" lon="7.3512074">
        <ele>1177</ele>
      </trkpt>
      <trkpt lat="45.8183137" lon="7.3509520">
        <ele>1181</ele>
      </trkpt>
      <trkpt lat="45.8184724" lon="7.3507221">
        <ele>1186</ele>
      </trkpt>
      <trkpt lat="45.8187957" lon="7.3503585">
        <ele>1191</ele>
      </trkpt>
      <trkpt lat="45.8191772" lon="7.3499804">
        <ele>1195</ele>
      </trkpt>
      <trkpt lat="45.8192182" lon="7.3500146">
        <ele>1200</ele>
      </trkpt>
      <trkpt lat="45.8192373" lon="7.3500880">
        <ele>1205</ele>
      </trkpt>
      <trkpt lat="45.8192546" lon="7.3503514">
        <ele>1210</ele>
      </trkpt>
      <trkpt lat="45.8192824" lon="7.3504053">
        <ele>1214</ele>
      </trkpt>
      <trkpt lat="45.8193542" lon="7.3503967">
        <ele>1219</ele>
      </trkpt>
      <trkpt lat="45.8193940" lon="7.3503441">
        <ele>1224</ele>
      </trkpt>
      <trkpt lat="45.8195159" lon="7.3500637">
        <ele>1228</ele>
      </trkpt>
      <trkpt lat="45.8197793" lon="7.3501670">
        <ele>1233</ele>
      </trkpt>
      <trkpt lat="45.8197793" lon="7.3500170">
        <ele>1238</ele>
      </trkpt>
      <trkpt lat="45.8199493" lon="7.3501270">
        <ele>1243</ele>
      </trkpt>
      <trkpt lat="45.8200793" lon="7.3498870">
        <ele>1247</ele>
      </trkpt>
      <trkpt lat="45.8202793" lon="7.3500170">
        <ele>1252</ele>
      </trkpt>
      <trkpt lat="45.8203993" lon="7.3495670">
        <ele>1257</ele>
      </trkpt>
      <trkpt lat="45.8206993" lon="7.3493270">
        <ele>1261</ele>
      </trkpt>
      <trkpt lat="45.8206593" lon="7.3488770">
        <ele>1266</ele>
      </trkpt>
      <trkpt lat="45.8211793" lon="7.3490470">
        <ele>1271</ele>
      </trkpt>
      <trkpt lat="45.8212593" lon="7.3488580">
        <ele>1275</ele>
      </trkpt>
      <trkpt lat="45.8216693" lon="7.3488180">
        <ele>1280</ele>
      </trkpt>
      <trkpt lat="45.8215793" lon="7.3486480">
        <ele>1285</ele>
      </trkpt>
      <trkpt lat="45.8217993" lon="7.3487480">
        <ele>1290</ele>
      </trkpt>
      <trkpt lat="45.8218593" lon="7.3482980">
        <ele>1294</ele>
      </trkpt>
      <trkpt lat="45.8215593" lon="7.3468380">
        <ele>1299</ele>
      </trkpt>
      <trkpt lat="45.8217593" lon="7.3467980">
        <ele>1304</ele>
      </trkpt>
      <trkpt lat="45.8217793" lon="7.3460280">
        <ele>1308</ele>
      </trkpt>
      <trkpt lat="45.8219293" lon="7.3462380">
        <ele>1313</ele>
      </trkpt>
      <trkpt lat="45.8219693" lon="7.3460880">
        <ele>1318</ele>
      </trkpt>
      <trkpt lat="45.8220793" lon="7.3450380">
        <ele>1323</ele>
      </trkpt>
      <trkpt lat="45.8219893" lon="7.3438980">
        <ele>1327</ele>
      </trkpt>
      <trkpt lat="45.8220993" lon="7.3434980">
        <ele>1332</ele>
      </trkpt>
      <trkpt lat="45.8219695" lon="7.3420486">
        <ele>1337</ele>
      </trkpt>
      <trkpt lat="45.8226593" lon="7.3407680">
        <ele>1341</ele>
      </trkpt>
      <trkpt lat="45.8228893" lon="7.3401280">
        <ele>1346</ele>
      </trkpt>
      <trkpt lat="45.8228700" lon="7.3389805">
        <ele>1351</ele>
      </trkpt>
      <trkpt lat="45.8229159" lon="7.3387314">
        <ele>1356</ele>
      </trkpt>
      <trkpt lat="45.8228929" lon="7.3385454">
        <ele>1360</ele>
      </trkpt>
      <trkpt lat="45.8227847" lon="7.3382236">
        <ele>1365</ele>
      </trkpt>
      <trkpt lat="45.8226292" lon="7.3378967">
        <ele>1370</ele>
      </trkpt>
      <trkpt lat="45.8225229" lon="7.3375459">
        <ele>1374</ele>
      </trkpt>
      <trkpt lat="45.8224373" lon="7.3366119">
        <ele>1379</ele>
      </trkpt>
      <trkpt lat="45.8224318" lon="7.3359266">
        <ele>1384</ele>
      </trkpt>
      <trkpt lat="45.8223926" lon="7.3357121">
        <ele>1388</ele>
      </trkpt>
      <trkpt lat="45.8224499" lon="7.3356235">
        <ele>1393</ele>
      </trkpt>
      <trkpt lat="45.8225595" lon="7.3357329">
        <ele>1398</ele>
      </trkpt>
      <trkpt lat="45.8228320" lon="7.3359082">
        <ele>1403</ele>
      </trkpt>
      <trkpt lat="45.8230393" lon="7.3360680">
        <ele>1407</ele>
      </trkpt>
      <trkpt lat="45.8232838" lon="7.3358722">
        <ele>1412</ele>
      </trkpt>
    </trkseg>
  </trk>
</gpx>
