<?xml version="1.0" encoding="UTF-8"?>
<gpx version="1.1" creator="sentieri-vda" xmlns="http://www.topografix.com/GPX/1/1">
  <metadata>
    <name>Pont - Rifugio Vittorio Emanuele II</name>
    <desc>Catasto Sentieri VdA — 70_S17</desc>
    <author><name>Regione Autonoma Valle d'Aosta</name></author>
  </metadata>
  <trk>
    <name>Pont - Rifugio Vittorio Emanuele II</name>
    <src>Catasto Sentieri VdA (70_S17)</src>
    <trkseg>
      <trkpt lat="45.5126680" lon="7.2317640">
        <ele>1955</ele>
      </trkpt>
      <trkpt lat="45.5127380" lon="7.2309940">
        <ele>1960</ele>
      </trkpt>
      <trkpt lat="45.5126780" lon="7.2308540">
        <ele>1965</ele>
      </trkpt>
      <trkpt lat="45.5125780" lon="7.2309040">
        <ele>1971</ele>
      </trkpt>
      <trkpt lat="45.5125780" lon="7.2306340">
        <ele>1976</ele>
      </trkpt>
      <trkpt lat="45.5129280" lon="7.2297400">
        <ele>1981</ele>
      </trkpt>
      <trkpt lat="45.5127280" lon="7.2296840">
        <ele>1986</ele>
      </trkpt>
      <trkpt lat="45.5125880" lon="7.2293440">
        <ele>1991</ele>
      </trkpt>
      <trkpt lat="45.5125280" lon="7.2284940">
        <ele>1997</ele>
      </trkpt>
      <trkpt lat="45.5125880" lon="7.2283140">
        <ele>2002</ele>
      </trkpt>
      <trkpt lat="45.5124680" lon="7.2281840">
        <ele>2007</ele>
      </trkpt>
      <trkpt lat="45.5126180" lon="7.2274740">
        <ele>2012</ele>
      </trkpt>
      <trkpt lat="45.5126180" lon="7.2270940">
        <ele>2017</ele>
      </trkpt>
      <trkpt lat="45.5128180" lon="7.2268540">
        <ele>2022</ele>
      </trkpt>
      <trkpt lat="45.5126880" lon="7.2269140">
        <ele>2028</ele>
      </trkpt>
      <trkpt lat="45.5130880" lon="7.2260240">
        <ele>2033</ele>
      </trkpt>
      <trkpt lat="45.5133880" lon="7.2242340">
        <ele>2038</ele>
      </trkpt>
      <trkpt lat="45.5137780" lon="7.2235440">
        <ele>2043</ele>
      </trkpt>
      <trkpt lat="45.5136980" lon="7.2231540">
        <ele>2048</ele>
      </trkpt>
      <trkpt lat="45.5138180" lon="7.2225240">
        <ele>2054</ele>
      </trkpt>
      <trkpt lat="45.5136080" lon="7.2227040">
        <ele>2059</ele>
      </trkpt>
      <trkpt lat="45.5137380" lon="7.2220240">
        <ele>2064</ele>
      </trkpt>
      <trkpt lat="45.5135180" lon="7.2221540">
        <ele>2069</ele>
      </trkpt>
      <trkpt lat="45.5137927" lon="7.2210809">
        <ele>2074</ele>
      </trkpt>
      <trkpt lat="45.5137380" lon="7.2200940">
        <ele>2080</ele>
      </trkpt>
      <trkpt lat="45.5133580" lon="7.2208140">
        <ele>2085</ele>
      </trkpt>
      <trkpt lat="45.5134880" lon="7.2200140">
        <ele>2090</ele>
      </trkpt>
      <trkpt lat="45.5138680" lon="7.2191440">
        <ele>2095</ele>
      </trkpt>
      <trkpt lat="45.5141580" lon="7.2186840">
        <ele>2100</ele>
      </trkpt>
      <trkpt lat="45.5138380" lon="7.2188540">
        <ele>2105</ele>
      </trkpt>
      <trkpt lat="45.5134480" lon="7.2192840">
        <ele>2111</ele>
      </trkpt>
      <trkpt lat="45.5140780" lon="7.2176540">
        <ele>2116</ele>
      </trkpt>
      <trkpt lat="45.5136180" lon="7.2177940">
        <ele>2121</ele>
      </trkpt>
      <trkpt lat="45.5135880" lon="7.2175440">
        <ele>2126</ele>
      </trkpt>
      <trkpt lat="45.5139480" lon="7.2171940">
        <ele>2131</ele>
      </trkpt>
      <trkpt lat="45.5143842" lon="7.2164267">
        <ele>2137</ele>
      </trkpt>
      <trkpt lat="45.5141180" lon="7.2159240">
        <ele>2142</ele>
      </trkpt>
      <trkpt lat="45.5142180" lon="7.2159540">
        <ele>2147</ele>
      </trkpt>
      <trkpt lat="45.5143380" lon="7.2157740">
        <ele>2152</ele>
      </trkpt>
      <trkpt lat="45.5144380" lon="7.2158240">
        <ele>2157</ele>
      </trkpt>
      <trkpt lat="45.5142980" lon="7.2151040">
        <ele>2163</ele>
      </trkpt>
      <trkpt lat="45.5140780" lon="7.2146040">
        <ele>2168</ele>
      </trkpt>
      <trkpt lat="45.5144180" lon="7.2146740">
        <ele>2173</ele>
      </trkpt>
      <trkpt lat="45.5141680" lon="7.2142940">
        <ele>2178</ele>
      </trkpt>
      <trkpt lat="45.5144780" lon="7.2142840">
        <ele>2183</ele>
      </trkpt>
      <trkpt lat="45.5140980" lon="7.2139440">
        <ele>2188</ele>
      </trkpt>
      <trkpt lat="45.5145180" lon="7.2137940">
        <ele>2194</ele>
      </trkpt>
      <trkpt lat="45.5139880" lon="7.2135140">
        <ele>2199</ele>
      </trkpt>
      <trkpt lat="45.5142880" lon="7.2134840">
        <ele>2204</ele>
      </trkpt>
      <trkpt lat="45.5140480" lon="7.2131740">
        <ele>2209</ele>
      </trkpt>
      <trkpt lat="45.5138580" lon="7.2131340">
        <ele>2214</ele>
      </trkpt>
      <trkpt lat="45.5138180" lon="7.2129940">
        <ele>2220</ele>
      </trkpt>
      <trkpt lat="45.5143080" lon="7.2129740">
        <ele>2225</ele>
      </trkpt>
      <trkpt lat="45.5137380" lon="7.2125240">
        <ele>2230</ele>
      </trkpt>
      <trkpt lat="45.5143380" lon="7.2124740">
        <ele>2235</ele>
      </trkpt>
      <trkpt lat="45.5145280" lon="7.2126640">
        <ele>2240</ele>
      </trkpt>
      <trkpt lat="45.5146880" lon="7.2126640">
        <ele>2246</ele>
      </trkpt>
      <trkpt lat="45.5141680" lon="7.2120240">
        <ele>2251</ele>
      </trkpt>
      <trkpt lat="45.5145380" lon="7.2119540">
        <ele>2256</ele>
      </trkpt>
      <trkpt lat="45.5147580" lon="7.2121740">
        <ele>2261</ele>
      </trkpt>
      <trkpt lat="45.5147180" lon="7.2117840">
        <ele>2266</ele>
      </trkpt>
      <trkpt lat="45.5150180" lon="7.2121240">
        <ele>2271</ele>
      </trkpt>
      <trkpt lat="45.5151680" lon="7.2119550">
        <ele>2277</ele>
      </trkpt>
      <trkpt lat="45.5153780" lon="7.2120350">
        <ele>2282</ele>
      </trkpt>
      <trkpt lat="45.5152280" lon="7.2117850">
        <ele>2287</ele>
      </trkpt>
      <trkpt lat="45.5153380" lon="7.2116950">
        <ele>2292</ele>
      </trkpt>
      <trkpt lat="45.5150680" lon="7.2115250">
        <ele>2297</ele>
      </trkpt>
      <trkpt lat="45.5149580" lon="7.2112350">
        <ele>2303</ele>
      </trkpt>
      <trkpt lat="45.5151080" lon="7.2112150">
        <ele>2308</ele>
      </trkpt>
      <trkpt lat="45.5151780" lon="7.2109550">
        <ele>2313</ele>
      </trkpt>
      <trkpt lat="45.5147280" lon="7.2108650">
        <ele>2318</ele>
      </trkpt>
      <trkpt lat="45.5146380" lon="7.2107450">
        <ele>2323</ele>
      </trkpt>
      <trkpt lat="45.5147480" lon="7.2106450">
        <ele>2329</ele>
      </trkpt>
      <trkpt lat="45.5146180" lon="7.2105650">
        <ele>2334</ele>
      </trkpt>
      <trkpt lat="45.5148080" lon="7.2105050">
        <ele>2339</ele>
      </trkpt>
      <trkpt lat="45.5148280" lon="7.2103450">
        <ele>2344</ele>
      </trkpt>
      <trkpt lat="45.5146580" lon="7.2102950">
        <ele>2349</ele>
      </trkpt>
      <trkpt lat="45.5148180" lon="7.2102150">
        <ele>2354</ele>
      </trkpt>
      <trkpt lat="45.5144580" lon="7.2103150">
        <ele>2360</ele>
      </trkpt>
      <trkpt lat="45.5146080" lon="7.2100550">
        <ele>2365</ele>
      </trkpt>
      <trkpt lat="45.5139480" lon="7.2099050">
        <ele>2370</ele>
      </trkpt>
      <trkpt lat="45.5147880" lon="7.2095150">
        <ele>2375</ele>
      </trkpt>
      <trkpt lat="45.5150380" lon="7.2092150">
        <ele>2380</ele>
      </trkpt>
      <trkpt lat="45.5140280" lon="7.2089450">
        <ele>2386</ele>
      </trkpt>
      <trkpt lat="45.5141580" lon="7.2086650">
        <ele>2391</ele>
      </trkpt>
      <trkpt lat="45.5148380" lon="7.2079750">
        <ele>2396</ele>
      </trkpt>
      <trkpt lat="45.5154080" lon="7.2069150">
        <ele>2401</ele>
      </trkpt>
      <trkpt lat="45.5156173" lon="7.2068674">
        <ele>2406</ele>
      </trkpt>
      <trkpt lat="45.5158091" lon="7.2067884">
        <ele>2412</ele>
      </trkpt>
      <trkpt lat="45.5158437" lon="7.2068068">
        <ele>2417</ele>
      </trkpt>
      <trkpt lat="45.5159288" lon="7.2068001">
        <ele>2422</ele>
      </trkpt>
      <trkpt lat="45.5160645" lon="7.2067661">
        <ele>2427</ele>
      </trkpt>
      <trkpt lat="45.5162168" lon="7.2067337">
        <ele>2432</ele>
      </trkpt>
      <trkpt lat="45.5163246" lon="7.2067092">
        <ele>2437</ele>
      </trkpt>
      <trkpt lat="45.5163534" lon="7.2067014">
        <ele>2443</ele>
      </trkpt>
      <trkpt lat="45.5164140" lon="7.2066862">
        <ele>2448</ele>
      </trkpt>
      <trkpt lat="45.5165742" lon="7.2066524">
        <ele>2453</ele>
      </trkpt>
      <trkpt lat="45.5167008" lon="7.2066025">
        <ele>2458</ele>
      </trkpt>
      <trkpt lat="45.5168177" lon="7.2065669">
        <ele>2463</ele>
      </trkpt>
      <trkpt lat="45.5169356" lon="7.2065698">
        <ele>2469</ele>
      </trkpt>
      <trkpt lat="45.5170510" lon="7.2066207">
        <ele>2474</ele>
      </trkpt>
      <trkpt lat="45.5171496" lon="7.2066428">
        <ele>2479</ele>
      </trkpt>
      <trkpt lat="45.5172852" lon="7.2066426">
        <ele>2484</ele>
      </trkpt>
      <trkpt lat="45.5175359" lon="7.2065579">
        <ele>2489</ele>
      </trkpt>
      <trkpt lat="45.5176892" lon="7.2065786">
        <ele>2495</ele>
      </trkpt>
      <trkpt lat="45.5178231" lon="7.2065103">
        <ele>2500</ele>
      </trkpt>
      <trkpt lat="45.5178591" lon="7.2065092">
        <ele>2505</ele>
      </trkpt>
      <trkpt lat="45.5179137" lon="7.2065459">
        <ele>2510</ele>
      </trkpt>
      <trkpt lat="45.5180552" lon="7.2063877">
        <ele>2515</ele>
      </trkpt>
      <trkpt lat="45.5182689" lon="7.2062401">
        <ele>2520</ele>
      </trkpt>
      <trkpt lat="45.5183851" lon="7.2061852">
        <ele>2526</ele>
      </trkpt>
      <trkpt lat="45.5184661" lon="7.2061826">
        <ele>2531</ele>
      </trkpt>
      <trkpt lat="45.5185998" lon="7.2061015">
        <ele>2536</ele>
      </trkpt>
      <trkpt lat="45.5187078" lon="7.2060981">
        <ele>2541</ele>
      </trkpt>
      <trkpt lat="45.5188771" lon="7.2059903">
        <ele>2546</ele>
      </trkpt>
      <trkpt lat="45.5189940" lon="7.2059866">
        <ele>2552</ele>
      </trkpt>
      <trkpt lat="45.5190476" lon="7.2059593">
        <ele>2557</ele>
      </trkpt>
      <trkpt lat="45.5191975" lon="7.2057624">
        <ele>2562</ele>
      </trkpt>
      <trkpt lat="45.5193223" lon="7.2056816">
        <ele>2567</ele>
      </trkpt>
      <trkpt lat="45.5194376" lon="7.2055755">
        <ele>2572</ele>
      </trkpt>
      <trkpt lat="45.5196891" lon="7.2055419">
        <ele>2578</ele>
      </trkpt>
      <trkpt lat="45.5197779" lon="7.2054623">
        <ele>2583</ele>
      </trkpt>
      <trkpt lat="45.5200200" lon="7.2054034">
        <ele>2588</ele>
      </trkpt>
      <trkpt lat="45.5201347" lon="7.2052589">
        <ele>2593</ele>
      </trkpt>
      <trkpt lat="45.5204629" lon="7.2049540">
        <ele>2598</ele>
      </trkpt>
      <trkpt lat="45.5206944" lon="7.2047929">
        <ele>2603</ele>
      </trkpt>
      <trkpt lat="45.5208444" lon="7.2045961">
        <ele>2609</ele>
      </trkpt>
      <trkpt lat="45.5209732" lon="7.2044562">
        <ele>2614</ele>
      </trkpt>
      <trkpt lat="45.5210354" lon="7.2044263">
        <ele>2619</ele>
      </trkpt>
      <trkpt lat="45.5211765" lon="7.2043817">
        <ele>2624</ele>
      </trkpt>
      <trkpt lat="45.5212765" lon="7.2043467">
        <ele>2629</ele>
      </trkpt>
      <trkpt lat="45.5213947" lon="7.2042210">
        <ele>2635</ele>
      </trkpt>
      <trkpt lat="45.5214983" lon="7.2041340">
        <ele>2640</ele>
      </trkpt>
      <trkpt lat="45.5216732" lon="7.2040704">
        <ele>2645</ele>
      </trkpt>
      <trkpt lat="45.5218001" lon="7.2040005">
        <ele>2650</ele>
      </trkpt>
      <trkpt lat="45.5220241" lon="7.2039667">
        <ele>2655</ele>
      </trkpt>
      <trkpt lat="45.5221428" lon="7.2039550">
        <ele>2661</ele>
      </trkpt>
      <trkpt lat="45.5223397" lon="7.2039807">
        <ele>2666</ele>
      </trkpt>
      <trkpt lat="45.5224598" lon="7.2039449">
        <ele>2671</ele>
      </trkpt>
      <trkpt lat="45.5226628" lon="7.2038852">
        <ele>2676</ele>
      </trkpt>
      <trkpt lat="45.5227850" lon="7.2038627">
        <ele>2681</ele>
      </trkpt>
      <trkpt lat="45.5230391" lon="7.2038359">
        <ele>2686</ele>
      </trkpt>
      <trkpt lat="45.5234157" lon="7.2038080">
        <ele>2692</ele>
      </trkpt>
      <trkpt lat="45.5237301" lon="7.2038086">
        <ele>2697</ele>
      </trkpt>
      <trkpt lat="45.5240056" lon="7.2037812">
        <ele>2702</ele>
      </trkpt>
      <trkpt lat="45.5241998" lon="7.2037564">
        <ele>2707</ele>
      </trkpt>
      <trkpt lat="45.5245635" lon="7.2036735">
        <ele>2712</ele>
      </trkpt>
      <trkpt lat="45.5246273" lon="7.2033265">
        <ele>2718</ele>
      </trkpt>
      <trkpt lat="45.5246388" lon="7.2027245">
        <ele>2723</ele>
      </trkpt>
      <trkpt lat="45.5246608" lon="7.2024590">
        <ele>2728</ele>
      </trkpt>
    </trkseg>
  </trk>
</gpx>
