<?xml version="1.0" encoding="UTF-8"?>
<gpx version="1.1" creator="sentieri-vda" xmlns="http://www.topografix.com/GPX/1/1">
  <metadata>
    <name>Degioz - Bocconère</name>
    <desc>Catasto Sentieri VdA — 70_S27</desc>
    <author><name>Regione Autonoma Valle d'Aosta</name></author>
  </metadata>
  <trk>
    <name>Degioz - Bocconère</name>
    <src>Catasto Sentieri VdA (70_S27)</src>
    <trkseg>
      <trkpt lat="45.5929879" lon="7.2108231">
        <ele>1534</ele>
      </trkpt>
      <trkpt lat="45.5929967" lon="7.2110121">
        <ele>1541</ele>
      </trkpt>
      <trkpt lat="45.5930795" lon="7.2111264">
        <ele>1548</ele>
      </trkpt>
      <trkpt lat="45.5931570" lon="7.2111841">
        <ele>1554</ele>
      </trkpt>
      <trkpt lat="45.5934404" lon="7.2114691">
        <ele>1561</ele>
      </trkpt>
      <trkpt lat="45.5934506" lon="7.2115461">
        <ele>1568</ele>
      </trkpt>
      <trkpt lat="45.5935870" lon="7.2116895">
        <ele>1575</ele>
      </trkpt>
      <trkpt lat="45.5941376" lon="7.2118628">
        <ele>1582</ele>
      </trkpt>
      <trkpt lat="45.5944453" lon="7.2119228">
        <ele>1588</ele>
      </trkpt>
      <trkpt lat="45.5946583" lon="7.2120217">
        <ele>1595</ele>
      </trkpt>
      <trkpt lat="45.5948384" lon="7.2120047">
        <ele>1602</ele>
      </trkpt>
      <trkpt lat="45.5949394" lon="7.2121683">
        <ele>1609</ele>
      </trkpt>
      <trkpt lat="45.5951791" lon="7.2120250">
        <ele>1616</ele>
      </trkpt>
      <trkpt lat="45.5956551" lon="7.2119830">
        <ele>1622</ele>
      </trkpt>
      <trkpt lat="45.5958631" lon="7.2118670">
        <ele>1629</ele>
      </trkpt>
      <trkpt lat="45.5960901" lon="7.2118060">
        <ele>1636</ele>
      </trkpt>
      <trkpt lat="45.5966553" lon="7.2118598">
        <ele>1643</ele>
      </trkpt>
      <trkpt lat="45.5969654" lon="7.2116379">
        <ele>1649</ele>
      </trkpt>
      <trkpt lat="45.5972187" lon="7.2113046">
        <ele>1656</ele>
      </trkpt>
      <trkpt lat="45.5974611" lon="7.2110773">
        <ele>1663</ele>
      </trkpt>
      <trkpt lat="45.5981851" lon="7.2105180">
        <ele>1670</ele>
      </trkpt>
      <trkpt lat="45.5987541" lon="7.2103370">
        <ele>1677</ele>
      </trkpt>
      <trkpt lat="45.5990791" lon="7.2104080">
        <ele>1683</ele>
      </trkpt>
      <trkpt lat="45.5990811" lon="7.2104900">
        <ele>1690</ele>
      </trkpt>
      <trkpt lat="45.5986461" lon="7.2107480">
        <ele>1697</ele>
      </trkpt>
      <trkpt lat="45.5989901" lon="7.2108180">
        <ele>1704</ele>
      </trkpt>
      <trkpt lat="45.5993181" lon="7.2110790">
        <ele>1711</ele>
      </trkpt>
      <trkpt lat="45.5991101" lon="7.2111670">
        <ele>1717</ele>
      </trkpt>
      <trkpt lat="45.5994731" lon="7.2112370">
        <ele>1724</ele>
      </trkpt>
      <trkpt lat="45.5995331" lon="7.2113980">
        <ele>1731</ele>
      </trkpt>
      <trkpt lat="45.5998001" lon="7.2114170">
        <ele>1738</ele>
      </trkpt>
      <trkpt lat="45.5995931" lon="7.2115590">
        <ele>1745</ele>
      </trkpt>
      <trkpt lat="45.5998601" lon="7.2116050">
        <ele>1751</ele>
      </trkpt>
      <trkpt lat="45.5997101" lon="7.2117180">
        <ele>1758</ele>
      </trkpt>
      <trkpt lat="45.5999011" lon="7.2117670">
        <ele>1765</ele>
      </trkpt>
      <trkpt lat="45.5995621" lon="7.2120220">
        <ele>1772</ele>
      </trkpt>
      <trkpt lat="45.5994691" lon="7.2121870">
        <ele>1779</ele>
      </trkpt>
      <trkpt lat="45.5993921" lon="7.2121080">
        <ele>1785</ele>
      </trkpt>
      <trkpt lat="45.5992591" lon="7.2121400">
        <ele>1792</ele>
      </trkpt>
      <trkpt lat="45.5992011" lon="7.2121140">
        <ele>1799</ele>
      </trkpt>
      <trkpt lat="45.5992021" lon="7.2121690">
        <ele>1806</ele>
      </trkpt>
      <trkpt lat="45.5993921" lon="7.2121360">
        <ele>1813</ele>
      </trkpt>
      <trkpt lat="45.5994411" lon="7.2127860">
        <ele>1819</ele>
      </trkpt>
      <trkpt lat="45.5991141" lon="7.2126060">
        <ele>1826</ele>
      </trkpt>
      <trkpt lat="45.5990961" lon="7.2126610">
        <ele>1833</ele>
      </trkpt>
      <trkpt lat="45.5987561" lon="7.2128890">
        <ele>1840</ele>
      </trkpt>
      <trkpt lat="45.5988511" lon="7.2128580">
        <ele>1846</ele>
      </trkpt>
      <trkpt lat="45.5990641" lon="7.2130690">
        <ele>1853</ele>
      </trkpt>
      <trkpt lat="45.5991041" lon="7.2131760">
        <ele>1860</ele>
      </trkpt>
      <trkpt lat="45.5990851" lon="7.2132040">
        <ele>1867</ele>
      </trkpt>
      <trkpt lat="45.5990861" lon="7.2132850">
        <ele>1874</ele>
      </trkpt>
      <trkpt lat="45.5990311" lon="7.2133960">
        <ele>1880</ele>
      </trkpt>
      <trkpt lat="45.5988401" lon="7.2134020">
        <ele>1887</ele>
      </trkpt>
      <trkpt lat="45.5994201" lon="7.2138990">
        <ele>1894</ele>
      </trkpt>
      <trkpt lat="45.5991351" lon="7.2139620">
        <ele>1901</ele>
      </trkpt>
      <trkpt lat="45.5989871" lon="7.2142660">
        <ele>1908</ele>
      </trkpt>
      <trkpt lat="45.5988191" lon="7.2144340">
        <ele>1914</ele>
      </trkpt>
      <trkpt lat="45.5988041" lon="7.2147330">
        <ele>1921</ele>
      </trkpt>
      <trkpt lat="45.5989191" lon="7.2147840">
        <ele>1928</ele>
      </trkpt>
      <trkpt lat="45.5986591" lon="7.2151990">
        <ele>1935</ele>
      </trkpt>
      <trkpt lat="45.5985851" lon="7.2153640">
        <ele>1942</ele>
      </trkpt>
      <trkpt lat="45.5983531" lon="7.2151270">
        <ele>1948</ele>
      </trkpt>
      <trkpt lat="45.5978351" lon="7.2148720">
        <ele>1955</ele>
      </trkpt>
      <trkpt lat="45.5980531" lon="7.2154080">
        <ele>1962</ele>
      </trkpt>
      <trkpt lat="45.5978431" lon="7.2154150">
        <ele>1969</ele>
      </trkpt>
      <trkpt lat="45.5977661" lon="7.2153360">
        <ele>1976</ele>
      </trkpt>
      <trkpt lat="45.5977701" lon="7.2156340">
        <ele>1982</ele>
      </trkpt>
      <trkpt lat="45.5972921" lon="7.2155410">
        <ele>1989</ele>
      </trkpt>
      <trkpt lat="45.5972941" lon="7.2156490">
        <ele>1996</ele>
      </trkpt>
      <trkpt lat="45.5972581" lon="7.2157590">
        <ele>2003</ele>
      </trkpt>
      <trkpt lat="45.5975281" lon="7.2159950">
        <ele>2009</ele>
      </trkpt>
      <trkpt lat="45.5975681" lon="7.2160750">
        <ele>2016</ele>
      </trkpt>
      <trkpt lat="45.5974011" lon="7.2163790">
        <ele>2023</ele>
      </trkpt>
      <trkpt lat="45.5973831" lon="7.2164610">
        <ele>2030</ele>
      </trkpt>
      <trkpt lat="45.5975081" lon="7.2171360">
        <ele>2037</ele>
      </trkpt>
      <trkpt lat="45.5975311" lon="7.2174060">
        <ele>2043</ele>
      </trkpt>
      <trkpt lat="45.5979881" lon="7.2174700">
        <ele>2050</ele>
      </trkpt>
      <trkpt lat="45.5978771" lon="7.2175850">
        <ele>2057</ele>
      </trkpt>
      <trkpt lat="45.5968001" lon="7.2181620">
        <ele>2064</ele>
      </trkpt>
      <trkpt lat="45.5973381" lon="7.2184440">
        <ele>2071</ele>
      </trkpt>
      <trkpt lat="45.5970951" lon="7.2187230">
        <ele>2077</ele>
      </trkpt>
      <trkpt lat="45.5970591" lon="7.2188600">
        <ele>2084</ele>
      </trkpt>
      <trkpt lat="45.5962981" lon="7.2188000">
        <ele>2091</ele>
      </trkpt>
    </trkseg>
  </trk>
</gpx>
