<?xml version="1.0" encoding="UTF-8"?>
<gpx version="1.1" creator="sentieri-vda" xmlns="http://www.topografix.com/GPX/1/1">
  <metadata>
    <name>Pont - Col du Nivolet</name>
    <desc>Catasto Sentieri VdA — 70_S12</desc>
    <author><name>Regione Autonoma Valle d'Aosta</name></author>
  </metadata>
  <trk>
    <name>Pont - Col du Nivolet</name>
    <src>Catasto Sentieri VdA (70_S12)</src>
    <trkseg>
      <trkpt lat="45.5247156" lon="7.2015213">
        <ele>1963</ele>
      </trkpt>
      <trkpt lat="45.5245880" lon="7.2013650">
        <ele>1964</ele>
      </trkpt>
      <trkpt lat="45.5246180" lon="7.2013550">
        <ele>1966</ele>
      </trkpt>
      <trkpt lat="45.5246080" lon="7.2012950">
        <ele>1967</ele>
      </trkpt>
      <trkpt lat="45.5249180" lon="7.2011750">
        <ele>1969</ele>
      </trkpt>
      <trkpt lat="45.5248080" lon="7.2010850">
        <ele>1970</ele>
      </trkpt>
      <trkpt lat="45.5247280" lon="7.2009250">
        <ele>1972</ele>
      </trkpt>
      <trkpt lat="45.5245980" lon="7.2009450">
        <ele>1973</ele>
      </trkpt>
      <trkpt lat="45.5245680" lon="7.2008850">
        <ele>1975</ele>
      </trkpt>
      <trkpt lat="45.5245580" lon="7.2008050">
        <ele>1976</ele>
      </trkpt>
      <trkpt lat="45.5246380" lon="7.2006450">
        <ele>1978</ele>
      </trkpt>
      <trkpt lat="45.5247280" lon="7.2005250">
        <ele>1979</ele>
      </trkpt>
      <trkpt lat="45.5248980" lon="7.2003950">
        <ele>1981</ele>
      </trkpt>
      <trkpt lat="45.5249780" lon="7.2002950">
        <ele>1982</ele>
      </trkpt>
      <trkpt lat="45.5248280" lon="7.1996850">
        <ele>1983</ele>
      </trkpt>
      <trkpt lat="45.5248080" lon="7.1994850">
        <ele>1985</ele>
      </trkpt>
      <trkpt lat="45.5248280" lon="7.1993750">
        <ele>1986</ele>
      </trkpt>
      <trkpt lat="45.5248980" lon="7.1992150">
        <ele>1988</ele>
      </trkpt>
      <trkpt lat="45.5249480" lon="7.1991650">
        <ele>1989</ele>
      </trkpt>
      <trkpt lat="45.5249980" lon="7.1991750">
        <ele>1991</ele>
      </trkpt>
      <trkpt lat="45.5250780" lon="7.1990850">
        <ele>1992</ele>
      </trkpt>
      <trkpt lat="45.5250880" lon="7.1991050">
        <ele>1994</ele>
      </trkpt>
      <trkpt lat="45.5251280" lon="7.1990650">
        <ele>1995</ele>
      </trkpt>
      <trkpt lat="45.5251680" lon="7.1989800">
        <ele>1997</ele>
      </trkpt>
      <trkpt lat="45.5251680" lon="7.1988650">
        <ele>1998</ele>
      </trkpt>
      <trkpt lat="45.5251880" lon="7.1987550">
        <ele>2000</ele>
      </trkpt>
      <trkpt lat="45.5251680" lon="7.1986550">
        <ele>2001</ele>
      </trkpt>
      <trkpt lat="45.5251280" lon="7.1985950">
        <ele>2002</ele>
      </trkpt>
      <trkpt lat="45.5251080" lon="7.1984950">
        <ele>2004</ele>
      </trkpt>
      <trkpt lat="45.5250380" lon="7.1983050">
        <ele>2005</ele>
      </trkpt>
      <trkpt lat="45.5250380" lon="7.1982150">
        <ele>2007</ele>
      </trkpt>
      <trkpt lat="45.5249980" lon="7.1981950">
        <ele>2008</ele>
      </trkpt>
      <trkpt lat="45.5249680" lon="7.1981450">
        <ele>2010</ele>
      </trkpt>
      <trkpt lat="45.5248880" lon="7.1982350">
        <ele>2011</ele>
      </trkpt>
      <trkpt lat="45.5247980" lon="7.1981550">
        <ele>2013</ele>
      </trkpt>
      <trkpt lat="45.5247380" lon="7.1981750">
        <ele>2014</ele>
      </trkpt>
      <trkpt lat="45.5245980" lon="7.1980850">
        <ele>2016</ele>
      </trkpt>
      <trkpt lat="45.5246780" lon="7.1979750">
        <ele>2017</ele>
      </trkpt>
      <trkpt lat="45.5246580" lon="7.1979550">
        <ele>2019</ele>
      </trkpt>
      <trkpt lat="45.5246280" lon="7.1979450">
        <ele>2020</ele>
      </trkpt>
      <trkpt lat="45.5245580" lon="7.1979650">
        <ele>2021</ele>
      </trkpt>
      <trkpt lat="45.5244480" lon="7.1980250">
        <ele>2023</ele>
      </trkpt>
      <trkpt lat="45.5244180" lon="7.1979450">
        <ele>2024</ele>
      </trkpt>
      <trkpt lat="45.5245680" lon="7.1977450">
        <ele>2026</ele>
      </trkpt>
      <trkpt lat="45.5248080" lon="7.1975850">
        <ele>2027</ele>
      </trkpt>
      <trkpt lat="45.5249780" lon="7.1972550">
        <ele>2029</ele>
      </trkpt>
      <trkpt lat="45.5249780" lon="7.1970950">
        <ele>2030</ele>
      </trkpt>
      <trkpt lat="45.5249980" lon="7.1969350">
        <ele>2032</ele>
      </trkpt>
      <trkpt lat="45.5250780" lon="7.1967650">
        <ele>2033</ele>
      </trkpt>
      <trkpt lat="45.5251680" lon="7.1966850">
        <ele>2035</ele>
      </trkpt>
      <trkpt lat="45.5252780" lon="7.1966250">
        <ele>2036</ele>
      </trkpt>
      <trkpt lat="45.5252880" lon="7.1965850">
        <ele>2038</ele>
      </trkpt>
      <trkpt lat="45.5252380" lon="7.1965150">
        <ele>2039</ele>
      </trkpt>
      <trkpt lat="45.5252280" lon="7.1963850">
        <ele>2040</ele>
      </trkpt>
      <trkpt lat="45.5252780" lon="7.1963850">
        <ele>2042</ele>
      </trkpt>
      <trkpt lat="45.5254080" lon="7.1964650">
        <ele>2043</ele>
      </trkpt>
      <trkpt lat="45.5255080" lon="7.1964350">
        <ele>2045</ele>
      </trkpt>
      <trkpt lat="45.5255680" lon="7.1963150">
        <ele>2046</ele>
      </trkpt>
      <trkpt lat="45.5255580" lon="7.1962150">
        <ele>2048</ele>
      </trkpt>
      <trkpt lat="45.5255780" lon="7.1960650">
        <ele>2049</ele>
      </trkpt>
      <trkpt lat="45.5255080" lon="7.1957350">
        <ele>2051</ele>
      </trkpt>
      <trkpt lat="45.5254980" lon="7.1955550">
        <ele>2052</ele>
      </trkpt>
      <trkpt lat="45.5254180" lon="7.1954050">
        <ele>2054</ele>
      </trkpt>
      <trkpt lat="45.5253980" lon="7.1953150">
        <ele>2055</ele>
      </trkpt>
      <trkpt lat="45.5253680" lon="7.1952650">
        <ele>2057</ele>
      </trkpt>
      <trkpt lat="45.5253680" lon="7.1951150">
        <ele>2058</ele>
      </trkpt>
      <trkpt lat="45.5252880" lon="7.1948250">
        <ele>2060</ele>
      </trkpt>
      <trkpt lat="45.5252580" lon="7.1944650">
        <ele>2061</ele>
      </trkpt>
      <trkpt lat="45.5252080" lon="7.1943350">
        <ele>2062</ele>
      </trkpt>
      <trkpt lat="45.5251580" lon="7.1938350">
        <ele>2064</ele>
      </trkpt>
      <trkpt lat="45.5251280" lon="7.1937550">
        <ele>2065</ele>
      </trkpt>
      <trkpt lat="45.5251480" lon="7.1936050">
        <ele>2067</ele>
      </trkpt>
      <trkpt lat="45.5251880" lon="7.1935850">
        <ele>2068</ele>
      </trkpt>
      <trkpt lat="45.5252280" lon="7.1935250">
        <ele>2070</ele>
      </trkpt>
      <trkpt lat="45.5251180" lon="7.1932750">
        <ele>2071</ele>
      </trkpt>
      <trkpt lat="45.5251280" lon="7.1931450">
        <ele>2073</ele>
      </trkpt>
      <trkpt lat="45.5252180" lon="7.1929650">
        <ele>2074</ele>
      </trkpt>
      <trkpt lat="45.5251280" lon="7.1928150">
        <ele>2076</ele>
      </trkpt>
      <trkpt lat="45.5250080" lon="7.1927250">
        <ele>2077</ele>
      </trkpt>
      <trkpt lat="45.5249180" lon="7.1925450">
        <ele>2079</ele>
      </trkpt>
      <trkpt lat="45.5249580" lon="7.1925150">
        <ele>2080</ele>
      </trkpt>
      <trkpt lat="45.5250080" lon="7.1923750">
        <ele>2081</ele>
      </trkpt>
      <trkpt lat="45.5251280" lon="7.1924050">
        <ele>2083</ele>
      </trkpt>
      <trkpt lat="45.5251580" lon="7.1924450">
        <ele>2084</ele>
      </trkpt>
      <trkpt lat="45.5254380" lon="7.1925250">
        <ele>2086</ele>
      </trkpt>
      <trkpt lat="45.5254680" lon="7.1924950">
        <ele>2087</ele>
      </trkpt>
      <trkpt lat="45.5254480" lon="7.1924550">
        <ele>2089</ele>
      </trkpt>
      <trkpt lat="45.5254080" lon="7.1924350">
        <ele>2090</ele>
      </trkpt>
      <trkpt lat="45.5254080" lon="7.1923750">
        <ele>2092</ele>
      </trkpt>
      <trkpt lat="45.5255180" lon="7.1923550">
        <ele>2093</ele>
      </trkpt>
      <trkpt lat="45.5255780" lon="7.1924250">
        <ele>2095</ele>
      </trkpt>
      <trkpt lat="45.5256580" lon="7.1924050">
        <ele>2096</ele>
      </trkpt>
      <trkpt lat="45.5256680" lon="7.1923850">
        <ele>2098</ele>
      </trkpt>
      <trkpt lat="45.5256080" lon="7.1923750">
        <ele>2099</ele>
      </trkpt>
      <trkpt lat="45.5255980" lon="7.1923350">
        <ele>2100</ele>
      </trkpt>
      <trkpt lat="45.5256280" lon="7.1923350">
        <ele>2102</ele>
      </trkpt>
      <trkpt lat="45.5256880" lon="7.1922850">
        <ele>2103</ele>
      </trkpt>
      <trkpt lat="45.5256780" lon="7.1922350">
        <ele>2105</ele>
      </trkpt>
      <trkpt lat="45.5255880" lon="7.1921850">
        <ele>2106</ele>
      </trkpt>
      <trkpt lat="45.5256180" lon="7.1921450">
        <ele>2108</ele>
      </trkpt>
      <trkpt lat="45.5256080" lon="7.1921350">
        <ele>2109</ele>
      </trkpt>
      <trkpt lat="45.5256080" lon="7.1921550">
        <ele>2111</ele>
      </trkpt>
      <trkpt lat="45.5255980" lon="7.1920650">
        <ele>2112</ele>
      </trkpt>
      <trkpt lat="45.5254480" lon="7.1920550">
        <ele>2114</ele>
      </trkpt>
      <trkpt lat="45.5254280" lon="7.1920250">
        <ele>2115</ele>
      </trkpt>
      <trkpt lat="45.5251680" lon="7.1919250">
        <ele>2117</ele>
      </trkpt>
      <trkpt lat="45.5249680" lon="7.1917550">
        <ele>2118</ele>
      </trkpt>
      <trkpt lat="45.5248780" lon="7.1915450">
        <ele>2119</ele>
      </trkpt>
      <trkpt lat="45.5249980" lon="7.1915450">
        <ele>2121</ele>
      </trkpt>
      <trkpt lat="45.5250880" lon="7.1915750">
        <ele>2122</ele>
      </trkpt>
      <trkpt lat="45.5250880" lon="7.1915150">
        <ele>2124</ele>
      </trkpt>
      <trkpt lat="45.5249680" lon="7.1913850">
        <ele>2125</ele>
      </trkpt>
      <trkpt lat="45.5249480" lon="7.1913250">
        <ele>2127</ele>
      </trkpt>
      <trkpt lat="45.5250780" lon="7.1913450">
        <ele>2128</ele>
      </trkpt>
      <trkpt lat="45.5251180" lon="7.1913250">
        <ele>2130</ele>
      </trkpt>
      <trkpt lat="45.5251480" lon="7.1913450">
        <ele>2131</ele>
      </trkpt>
      <trkpt lat="45.5251780" lon="7.1913050">
        <ele>2133</ele>
      </trkpt>
      <trkpt lat="45.5250880" lon="7.1912650">
        <ele>2134</ele>
      </trkpt>
      <trkpt lat="45.5250580" lon="7.1912150">
        <ele>2136</ele>
      </trkpt>
      <trkpt lat="45.5249580" lon="7.1911350">
        <ele>2137</ele>
      </trkpt>
      <trkpt lat="45.5249280" lon="7.1911350">
        <ele>2138</ele>
      </trkpt>
      <trkpt lat="45.5248780" lon="7.1910550">
        <ele>2140</ele>
      </trkpt>
      <trkpt lat="45.5247680" lon="7.1910550">
        <ele>2141</ele>
      </trkpt>
      <trkpt lat="45.5247380" lon="7.1910150">
        <ele>2143</ele>
      </trkpt>
      <trkpt lat="45.5246580" lon="7.1909850">
        <ele>2144</ele>
      </trkpt>
      <trkpt lat="45.5245480" lon="7.1908850">
        <ele>2146</ele>
      </trkpt>
      <trkpt lat="45.5244080" lon="7.1908450">
        <ele>2147</ele>
      </trkpt>
      <trkpt lat="45.5244280" lon="7.1908350">
        <ele>2149</ele>
      </trkpt>
      <trkpt lat="45.5244180" lon="7.1908150">
        <ele>2150</ele>
      </trkpt>
      <trkpt lat="45.5243580" lon="7.1908150">
        <ele>2152</ele>
      </trkpt>
      <trkpt lat="45.5243480" lon="7.1907850">
        <ele>2153</ele>
      </trkpt>
      <trkpt lat="45.5244380" lon="7.1907350">
        <ele>2155</ele>
      </trkpt>
      <trkpt lat="45.5245180" lon="7.1906350">
        <ele>2156</ele>
      </trkpt>
      <trkpt lat="45.5244980" lon="7.1906150">
        <ele>2157</ele>
      </trkpt>
      <trkpt lat="45.5243480" lon="7.1906850">
        <ele>2159</ele>
      </trkpt>
      <trkpt lat="45.5242580" lon="7.1906750">
        <ele>2160</ele>
      </trkpt>
      <trkpt lat="45.5242280" lon="7.1906050">
        <ele>2162</ele>
      </trkpt>
      <trkpt lat="45.5241980" lon="7.1905750">
        <ele>2163</ele>
      </trkpt>
      <trkpt lat="45.5242480" lon="7.1905550">
        <ele>2165</ele>
      </trkpt>
      <trkpt lat="45.5241280" lon="7.1905350">
        <ele>2166</ele>
      </trkpt>
      <trkpt lat="45.5240080" lon="7.1904450">
        <ele>2168</ele>
      </trkpt>
      <trkpt lat="45.5238880" lon="7.1904350">
        <ele>2169</ele>
      </trkpt>
      <trkpt lat="45.5238580" lon="7.1903250">
        <ele>2171</ele>
      </trkpt>
      <trkpt lat="45.5239280" lon="7.1902550">
        <ele>2172</ele>
      </trkpt>
      <trkpt lat="45.5239280" lon="7.1902150">
        <ele>2174</ele>
      </trkpt>
      <trkpt lat="45.5238480" lon="7.1901450">
        <ele>2175</ele>
      </trkpt>
      <trkpt lat="45.5238280" lon="7.1900750">
        <ele>2176</ele>
      </trkpt>
      <trkpt lat="45.5239480" lon="7.1899950">
        <ele>2178</ele>
      </trkpt>
      <trkpt lat="45.5240080" lon="7.1899950">
        <ele>2179</ele>
      </trkpt>
      <trkpt lat="45.5240080" lon="7.1899450">
        <ele>2181</ele>
      </trkpt>
      <trkpt lat="45.5240680" lon="7.1899950">
        <ele>2182</ele>
      </trkpt>
      <trkpt lat="45.5241080" lon="7.1899950">
        <ele>2184</ele>
      </trkpt>
      <trkpt lat="45.5241480" lon="7.1900550">
        <ele>2185</ele>
      </trkpt>
      <trkpt lat="45.5242080" lon="7.1900950">
        <ele>2187</ele>
      </trkpt>
      <trkpt lat="45.5242380" lon="7.1900350">
        <ele>2188</ele>
      </trkpt>
      <trkpt lat="45.5243880" lon="7.1901050">
        <ele>2190</ele>
      </trkpt>
      <trkpt lat="45.5243980" lon="7.1900450">
        <ele>2191</ele>
      </trkpt>
      <trkpt lat="45.5245080" lon="7.1900250">
        <ele>2193</ele>
      </trkpt>
      <trkpt lat="45.5246180" lon="7.1900750">
        <ele>2194</ele>
      </trkpt>
      <trkpt lat="45.5247080" lon="7.1900450">
        <ele>2195</ele>
      </trkpt>
      <trkpt lat="45.5247580" lon="7.1900550">
        <ele>2197</ele>
      </trkpt>
      <trkpt lat="45.5247480" lon="7.1900750">
        <ele>2198</ele>
      </trkpt>
      <trkpt lat="45.5247880" lon="7.1900650">
        <ele>2200</ele>
      </trkpt>
      <trkpt lat="45.5247580" lon="7.1899450">
        <ele>2201</ele>
      </trkpt>
      <trkpt lat="45.5248080" lon="7.1899050">
        <ele>2203</ele>
      </trkpt>
      <trkpt lat="45.5247680" lon="7.1898250">
        <ele>2204</ele>
      </trkpt>
      <trkpt lat="45.5247880" lon="7.1897650">
        <ele>2206</ele>
      </trkpt>
      <trkpt lat="45.5247980" lon="7.1896450">
        <ele>2207</ele>
      </trkpt>
      <trkpt lat="45.5247680" lon="7.1895450">
        <ele>2209</ele>
      </trkpt>
      <trkpt lat="45.5247280" lon="7.1894850">
        <ele>2210</ele>
      </trkpt>
      <trkpt lat="45.5246980" lon="7.1893550">
        <ele>2212</ele>
      </trkpt>
      <trkpt lat="45.5246080" lon="7.1891550">
        <ele>2213</ele>
      </trkpt>
      <trkpt lat="45.5245491" lon="7.1888945">
        <ele>2215</ele>
      </trkpt>
      <trkpt lat="45.5243780" lon="7.1888150">
        <ele>2216</ele>
      </trkpt>
      <trkpt lat="45.5240980" lon="7.1886350">
        <ele>2217</ele>
      </trkpt>
      <trkpt lat="45.5239880" lon="7.1886050">
        <ele>2219</ele>
      </trkpt>
      <trkpt lat="45.5237980" lon="7.1885950">
        <ele>2220</ele>
      </trkpt>
      <trkpt lat="45.5233780" lon="7.1885250">
        <ele>2222</ele>
      </trkpt>
      <trkpt lat="45.5232280" lon="7.1884850">
        <ele>2223</ele>
      </trkpt>
      <trkpt lat="45.5231680" lon="7.1883950">
        <ele>2225</ele>
      </trkpt>
      <trkpt lat="45.5231380" lon="7.1880750">
        <ele>2226</ele>
      </trkpt>
      <trkpt lat="45.5231480" lon="7.1879850">
        <ele>2228</ele>
      </trkpt>
      <trkpt lat="45.5231180" lon="7.1878950">
        <ele>2229</ele>
      </trkpt>
      <trkpt lat="45.5229480" lon="7.1878350">
        <ele>2231</ele>
      </trkpt>
      <trkpt lat="45.5228980" lon="7.1877850">
        <ele>2232</ele>
      </trkpt>
      <trkpt lat="45.5228480" lon="7.1875750">
        <ele>2234</ele>
      </trkpt>
      <trkpt lat="45.5227980" lon="7.1874850">
        <ele>2235</ele>
      </trkpt>
      <trkpt lat="45.5227680" lon="7.1872750">
        <ele>2236</ele>
      </trkpt>
      <trkpt lat="45.5226980" lon="7.1871350">
        <ele>2238</ele>
      </trkpt>
      <trkpt lat="45.5227680" lon="7.1866550">
        <ele>2239</ele>
      </trkpt>
      <trkpt lat="45.5227280" lon="7.1865150">
        <ele>2241</ele>
      </trkpt>
      <trkpt lat="45.5226380" lon="7.1863750">
        <ele>2242</ele>
      </trkpt>
      <trkpt lat="45.5226680" lon="7.1862550">
        <ele>2244</ele>
      </trkpt>
      <trkpt lat="45.5226680" lon="7.1861950">
        <ele>2245</ele>
      </trkpt>
      <trkpt lat="45.5227680" lon="7.1861250">
        <ele>2247</ele>
      </trkpt>
      <trkpt lat="45.5227980" lon="7.1861450">
        <ele>2248</ele>
      </trkpt>
      <trkpt lat="45.5228480" lon="7.1861350">
        <ele>2250</ele>
      </trkpt>
      <trkpt lat="45.5229480" lon="7.1860450">
        <ele>2251</ele>
      </trkpt>
      <trkpt lat="45.5229580" lon="7.1859650">
        <ele>2253</ele>
      </trkpt>
      <trkpt lat="45.5228380" lon="7.1856950">
        <ele>2254</ele>
      </trkpt>
      <trkpt lat="45.5227780" lon="7.1855950">
        <ele>2255</ele>
      </trkpt>
      <trkpt lat="45.5226880" lon="7.1854950">
        <ele>2257</ele>
      </trkpt>
      <trkpt lat="45.5226780" lon="7.1853250">
        <ele>2258</ele>
      </trkpt>
      <trkpt lat="45.5226180" lon="7.1850250">
        <ele>2260</ele>
      </trkpt>
      <trkpt lat="45.5225580" lon="7.1849750">
        <ele>2261</ele>
      </trkpt>
      <trkpt lat="45.5224580" lon="7.1847750">
        <ele>2263</ele>
      </trkpt>
      <trkpt lat="45.5224080" lon="7.1844250">
        <ele>2264</ele>
      </trkpt>
      <trkpt lat="45.5223280" lon="7.1843350">
        <ele>2266</ele>
      </trkpt>
      <trkpt lat="45.5222480" lon="7.1842850">
        <ele>2267</ele>
      </trkpt>
      <trkpt lat="45.5221880" lon="7.1841350">
        <ele>2269</ele>
      </trkpt>
      <trkpt lat="45.5220280" lon="7.1840850">
        <ele>2270</ele>
      </trkpt>
      <trkpt lat="45.5218680" lon="7.1840750">
        <ele>2272</ele>
      </trkpt>
      <trkpt lat="45.5217280" lon="7.1841750">
        <ele>2273</ele>
      </trkpt>
      <trkpt lat="45.5216680" lon="7.1840950">
        <ele>2274</ele>
      </trkpt>
      <trkpt lat="45.5215980" lon="7.1836700">
        <ele>2276</ele>
      </trkpt>
      <trkpt lat="45.5215180" lon="7.1834250">
        <ele>2277</ele>
      </trkpt>
      <trkpt lat="45.5211980" lon="7.1830050">
        <ele>2279</ele>
      </trkpt>
      <trkpt lat="45.5209980" lon="7.1828150">
        <ele>2280</ele>
      </trkpt>
      <trkpt lat="45.5209180" lon="7.1826350">
        <ele>2282</ele>
      </trkpt>
      <trkpt lat="45.5208580" lon="7.1824750">
        <ele>2283</ele>
      </trkpt>
      <trkpt lat="45.5208780" lon="7.1823450">
        <ele>2285</ele>
      </trkpt>
      <trkpt lat="45.5209180" lon="7.1822350">
        <ele>2286</ele>
      </trkpt>
      <trkpt lat="45.5207780" lon="7.1820550">
        <ele>2288</ele>
      </trkpt>
      <trkpt lat="45.5207880" lon="7.1818350">
        <ele>2289</ele>
      </trkpt>
      <trkpt lat="45.5207680" lon="7.1815950">
        <ele>2291</ele>
      </trkpt>
      <trkpt lat="45.5206290" lon="7.1813050">
        <ele>2292</ele>
      </trkpt>
      <trkpt lat="45.5205490" lon="7.1811850">
        <ele>2293</ele>
      </trkpt>
      <trkpt lat="45.5203690" lon="7.1810450">
        <ele>2295</ele>
      </trkpt>
      <trkpt lat="45.5202690" lon="7.1810350">
        <ele>2296</ele>
      </trkpt>
      <trkpt lat="45.5201090" lon="7.1809050">
        <ele>2298</ele>
      </trkpt>
      <trkpt lat="45.5200890" lon="7.1807650">
        <ele>2299</ele>
      </trkpt>
      <trkpt lat="45.5199990" lon="7.1807750">
        <ele>2301</ele>
      </trkpt>
      <trkpt lat="45.5199390" lon="7.1806650">
        <ele>2302</ele>
      </trkpt>
      <trkpt lat="45.5199490" lon="7.1805250">
        <ele>2304</ele>
      </trkpt>
      <trkpt lat="45.5198190" lon="7.1803150">
        <ele>2305</ele>
      </trkpt>
      <trkpt lat="45.5195590" lon="7.1802350">
        <ele>2307</ele>
      </trkpt>
      <trkpt lat="45.5194790" lon="7.1801750">
        <ele>2308</ele>
      </trkpt>
      <trkpt lat="45.5193590" lon="7.1802250">
        <ele>2310</ele>
      </trkpt>
      <trkpt lat="45.5192390" lon="7.1803150">
        <ele>2311</ele>
      </trkpt>
      <trkpt lat="45.5191290" lon="7.1802450">
        <ele>2312</ele>
      </trkpt>
      <trkpt lat="45.5190490" lon="7.1801350">
        <ele>2314</ele>
      </trkpt>
      <trkpt lat="45.5190190" lon="7.1799850">
        <ele>2315</ele>
      </trkpt>
      <trkpt lat="45.5189290" lon="7.1800350">
        <ele>2317</ele>
      </trkpt>
      <trkpt lat="45.5188690" lon="7.1800450">
        <ele>2318</ele>
      </trkpt>
      <trkpt lat="45.5187590" lon="7.1798950">
        <ele>2320</ele>
      </trkpt>
      <trkpt lat="45.5186990" lon="7.1797750">
        <ele>2321</ele>
      </trkpt>
      <trkpt lat="45.5186390" lon="7.1797350">
        <ele>2323</ele>
      </trkpt>
      <trkpt lat="45.5185490" lon="7.1796350">
        <ele>2324</ele>
      </trkpt>
      <trkpt lat="45.5183890" lon="7.1795350">
        <ele>2326</ele>
      </trkpt>
      <trkpt lat="45.5182490" lon="7.1795750">
        <ele>2327</ele>
      </trkpt>
      <trkpt lat="45.5180090" lon="7.1797350">
        <ele>2329</ele>
      </trkpt>
      <trkpt lat="45.5176290" lon="7.1798750">
        <ele>2330</ele>
      </trkpt>
      <trkpt lat="45.5171190" lon="7.1799350">
        <ele>2331</ele>
      </trkpt>
      <trkpt lat="45.5168690" lon="7.1800650">
        <ele>2333</ele>
      </trkpt>
      <trkpt lat="45.5165990" lon="7.1800850">
        <ele>2334</ele>
      </trkpt>
      <trkpt lat="45.5163190" lon="7.1799850">
        <ele>2336</ele>
      </trkpt>
      <trkpt lat="45.5162490" lon="7.1799250">
        <ele>2337</ele>
      </trkpt>
      <trkpt lat="45.5161090" lon="7.1796750">
        <ele>2339</ele>
      </trkpt>
      <trkpt lat="45.5156990" lon="7.1791550">
        <ele>2340</ele>
      </trkpt>
      <trkpt lat="45.5153690" lon="7.1786750">
        <ele>2342</ele>
      </trkpt>
      <trkpt lat="45.5152890" lon="7.1786550">
        <ele>2343</ele>
      </trkpt>
      <trkpt lat="45.5152090" lon="7.1785450">
        <ele>2345</ele>
      </trkpt>
      <trkpt lat="45.5151590" lon="7.1785150">
        <ele>2346</ele>
      </trkpt>
      <trkpt lat="45.5150390" lon="7.1782450">
        <ele>2348</ele>
      </trkpt>
      <trkpt lat="45.5149990" lon="7.1782150">
        <ele>2349</ele>
      </trkpt>
      <trkpt lat="45.5149090" lon="7.1782750">
        <ele>2350</ele>
      </trkpt>
      <trkpt lat="45.5149190" lon="7.1782450">
        <ele>2352</ele>
      </trkpt>
      <trkpt lat="45.5148890" lon="7.1781550">
        <ele>2353</ele>
      </trkpt>
      <trkpt lat="45.5148190" lon="7.1780850">
        <ele>2355</ele>
      </trkpt>
      <trkpt lat="45.5147590" lon="7.1779650">
        <ele>2356</ele>
      </trkpt>
      <trkpt lat="45.5146390" lon="7.1778550">
        <ele>2358</ele>
      </trkpt>
      <trkpt lat="45.5143690" lon="7.1775450">
        <ele>2359</ele>
      </trkpt>
      <trkpt lat="45.5141390" lon="7.1774150">
        <ele>2361</ele>
      </trkpt>
      <trkpt lat="45.5138190" lon="7.1770750">
        <ele>2362</ele>
      </trkpt>
      <trkpt lat="45.5136790" lon="7.1769850">
        <ele>2364</ele>
      </trkpt>
      <trkpt lat="45.5134490" lon="7.1769250">
        <ele>2365</ele>
      </trkpt>
      <trkpt lat="45.5133090" lon="7.1768250">
        <ele>2367</ele>
      </trkpt>
      <trkpt lat="45.5130890" lon="7.1768550">
        <ele>2368</ele>
      </trkpt>
      <trkpt lat="45.5129690" lon="7.1768950">
        <ele>2370</ele>
      </trkpt>
      <trkpt lat="45.5128790" lon="7.1768250">
        <ele>2371</ele>
      </trkpt>
      <trkpt lat="45.5127590" lon="7.1768450">
        <ele>2372</ele>
      </trkpt>
      <trkpt lat="45.5126690" lon="7.1768050">
        <ele>2374</ele>
      </trkpt>
      <trkpt lat="45.5125590" lon="7.1768050">
        <ele>2375</ele>
      </trkpt>
      <trkpt lat="45.5124990" lon="7.1768350">
        <ele>2377</ele>
      </trkpt>
      <trkpt lat="45.5123690" lon="7.1768250">
        <ele>2378</ele>
      </trkpt>
      <trkpt lat="45.5122090" lon="7.1767550">
        <ele>2380</ele>
      </trkpt>
      <trkpt lat="45.5121190" lon="7.1764150">
        <ele>2381</ele>
      </trkpt>
      <trkpt lat="45.5120190" lon="7.1762950">
        <ele>2383</ele>
      </trkpt>
      <trkpt lat="45.5119290" lon="7.1761450">
        <ele>2384</ele>
      </trkpt>
      <trkpt lat="45.5115590" lon="7.1760550">
        <ele>2386</ele>
      </trkpt>
      <trkpt lat="45.5113590" lon="7.1759450">
        <ele>2387</ele>
      </trkpt>
      <trkpt lat="45.5111690" lon="7.1760150">
        <ele>2389</ele>
      </trkpt>
      <trkpt lat="45.5110990" lon="7.1759950">
        <ele>2390</ele>
      </trkpt>
      <trkpt lat="45.5109690" lon="7.1759250">
        <ele>2391</ele>
      </trkpt>
      <trkpt lat="45.5108890" lon="7.1757950">
        <ele>2393</ele>
      </trkpt>
      <trkpt lat="45.5108290" lon="7.1757950">
        <ele>2394</ele>
      </trkpt>
      <trkpt lat="45.5105990" lon="7.1756350">
        <ele>2396</ele>
      </trkpt>
      <trkpt lat="45.5104190" lon="7.1754550">
        <ele>2397</ele>
      </trkpt>
      <trkpt lat="45.5103090" lon="7.1753950">
        <ele>2399</ele>
      </trkpt>
      <trkpt lat="45.5101890" lon="7.1754050">
        <ele>2400</ele>
      </trkpt>
      <trkpt lat="45.5099790" lon="7.1751550">
        <ele>2402</ele>
      </trkpt>
      <trkpt lat="45.5099290" lon="7.1749350">
        <ele>2403</ele>
      </trkpt>
      <trkpt lat="45.5097190" lon="7.1745350">
        <ele>2405</ele>
      </trkpt>
      <trkpt lat="45.5094590" lon="7.1743790">
        <ele>2406</ele>
      </trkpt>
      <trkpt lat="45.5092630" lon="7.1740600">
        <ele>2408</ele>
      </trkpt>
      <trkpt lat="45.5082390" lon="7.1733450">
        <ele>2409</ele>
      </trkpt>
      <trkpt lat="45.5080590" lon="7.1731850">
        <ele>2410</ele>
      </trkpt>
      <trkpt lat="45.5078490" lon="7.1728950">
        <ele>2412</ele>
      </trkpt>
      <trkpt lat="45.5076990" lon="7.1728350">
        <ele>2413</ele>
      </trkpt>
      <trkpt lat="45.5073990" lon="7.1726150">
        <ele>2415</ele>
      </trkpt>
      <trkpt lat="45.5072390" lon="7.1725450">
        <ele>2416</ele>
      </trkpt>
      <trkpt lat="45.5068990" lon="7.1722650">
        <ele>2418</ele>
      </trkpt>
      <trkpt lat="45.5067790" lon="7.1721250">
        <ele>2419</ele>
      </trkpt>
      <trkpt lat="45.5065990" lon="7.1717050">
        <ele>2421</ele>
      </trkpt>
      <trkpt lat="45.5063090" lon="7.1712150">
        <ele>2422</ele>
      </trkpt>
      <trkpt lat="45.5061790" lon="7.1711150">
        <ele>2424</ele>
      </trkpt>
      <trkpt lat="45.5059690" lon="7.1707450">
        <ele>2425</ele>
      </trkpt>
      <trkpt lat="45.5057990" lon="7.1706350">
        <ele>2427</ele>
      </trkpt>
      <trkpt lat="45.5055990" lon="7.1704150">
        <ele>2428</ele>
      </trkpt>
      <trkpt lat="45.5055590" lon="7.1703950">
        <ele>2429</ele>
      </trkpt>
      <trkpt lat="45.5054990" lon="7.1702650">
        <ele>2431</ele>
      </trkpt>
      <trkpt lat="45.5052490" lon="7.1699550">
        <ele>2432</ele>
      </trkpt>
      <trkpt lat="45.5052090" lon="7.1698150">
        <ele>2434</ele>
      </trkpt>
      <trkpt lat="45.5052190" lon="7.1697550">
        <ele>2435</ele>
      </trkpt>
      <trkpt lat="45.5048690" lon="7.1688250">
        <ele>2437</ele>
      </trkpt>
      <trkpt lat="45.5047490" lon="7.1684350">
        <ele>2438</ele>
      </trkpt>
      <trkpt lat="45.5047590" lon="7.1684350">
        <ele>2440</ele>
      </trkpt>
      <trkpt lat="45.5047190" lon="7.1684250">
        <ele>2441</ele>
      </trkpt>
      <trkpt lat="45.5044490" lon="7.1686050">
        <ele>2443</ele>
      </trkpt>
      <trkpt lat="45.5040590" lon="7.1687950">
        <ele>2444</ele>
      </trkpt>
      <trkpt lat="45.5039990" lon="7.1687150">
        <ele>2446</ele>
      </trkpt>
      <trkpt lat="45.5040790" lon="7.1684750">
        <ele>2447</ele>
      </trkpt>
      <trkpt lat="45.5040990" lon="7.1682250">
        <ele>2448</ele>
      </trkpt>
      <trkpt lat="45.5040990" lon="7.1678250">
        <ele>2450</ele>
      </trkpt>
      <trkpt lat="45.5040690" lon="7.1675150">
        <ele>2451</ele>
      </trkpt>
      <trkpt lat="45.5041090" lon="7.1674950">
        <ele>2453</ele>
      </trkpt>
      <trkpt lat="45.5041290" lon="7.1673950">
        <ele>2454</ele>
      </trkpt>
      <trkpt lat="45.5040490" lon="7.1671950">
        <ele>2456</ele>
      </trkpt>
      <trkpt lat="45.5038990" lon="7.1668650">
        <ele>2457</ele>
      </trkpt>
      <trkpt lat="45.5034290" lon="7.1666050">
        <ele>2459</ele>
      </trkpt>
      <trkpt lat="45.5031390" lon="7.1663550">
        <ele>2460</ele>
      </trkpt>
      <trkpt lat="45.5030690" lon="7.1660350">
        <ele>2462</ele>
      </trkpt>
      <trkpt lat="45.5030990" lon="7.1657550">
        <ele>2463</ele>
      </trkpt>
      <trkpt lat="45.5030490" lon="7.1655450">
        <ele>2465</ele>
      </trkpt>
      <trkpt lat="45.5028790" lon="7.1654350">
        <ele>2466</ele>
      </trkpt>
      <trkpt lat="45.5028190" lon="7.1650750">
        <ele>2467</ele>
      </trkpt>
      <trkpt lat="45.5027090" lon="7.1649150">
        <ele>2469</ele>
      </trkpt>
      <trkpt lat="45.5025290" lon="7.1647850">
        <ele>2470</ele>
      </trkpt>
      <trkpt lat="45.5022590" lon="7.1645050">
        <ele>2472</ele>
      </trkpt>
      <trkpt lat="45.5021190" lon="7.1643050">
        <ele>2473</ele>
      </trkpt>
      <trkpt lat="45.5020090" lon="7.1639550">
        <ele>2475</ele>
      </trkpt>
      <trkpt lat="45.5019390" lon="7.1638050">
        <ele>2476</ele>
      </trkpt>
      <trkpt lat="45.5017690" lon="7.1636850">
        <ele>2478</ele>
      </trkpt>
      <trkpt lat="45.5015890" lon="7.1636450">
        <ele>2479</ele>
      </trkpt>
      <trkpt lat="45.5014490" lon="7.1636550">
        <ele>2481</ele>
      </trkpt>
      <trkpt lat="45.5013090" lon="7.1636350">
        <ele>2482</ele>
      </trkpt>
      <trkpt lat="45.5011790" lon="7.1635550">
        <ele>2484</ele>
      </trkpt>
      <trkpt lat="45.5010790" lon="7.1633950">
        <ele>2485</ele>
      </trkpt>
      <trkpt lat="45.5009790" lon="7.1631250">
        <ele>2486</ele>
      </trkpt>
      <trkpt lat="45.5009590" lon="7.1628450">
        <ele>2488</ele>
      </trkpt>
      <trkpt lat="45.5010590" lon="7.1619850">
        <ele>2489</ele>
      </trkpt>
      <trkpt lat="45.5009990" lon="7.1617050">
        <ele>2491</ele>
      </trkpt>
      <trkpt lat="45.5007590" lon="7.1610750">
        <ele>2492</ele>
      </trkpt>
      <trkpt lat="45.5005990" lon="7.1607850">
        <ele>2494</ele>
      </trkpt>
      <trkpt lat="45.5005390" lon="7.1606250">
        <ele>2495</ele>
      </trkpt>
      <trkpt lat="45.5004090" lon="7.1604850">
        <ele>2497</ele>
      </trkpt>
      <trkpt lat="45.5000790" lon="7.1602650">
        <ele>2498</ele>
      </trkpt>
      <trkpt lat="45.4998990" lon="7.1600550">
        <ele>2500</ele>
      </trkpt>
      <trkpt lat="45.4997590" lon="7.1600050">
        <ele>2501</ele>
      </trkpt>
      <trkpt lat="45.4994690" lon="7.1597650">
        <ele>2503</ele>
      </trkpt>
      <trkpt lat="45.4988090" lon="7.1593050">
        <ele>2504</ele>
      </trkpt>
      <trkpt lat="45.4985190" lon="7.1591850">
        <ele>2505</ele>
      </trkpt>
      <trkpt lat="45.4982590" lon="7.1588950">
        <ele>2507</ele>
      </trkpt>
      <trkpt lat="45.4976190" lon="7.1584350">
        <ele>2508</ele>
      </trkpt>
      <trkpt lat="45.4974890" lon="7.1583050">
        <ele>2510</ele>
      </trkpt>
      <trkpt lat="45.4973290" lon="7.1581950">
        <ele>2511</ele>
      </trkpt>
      <trkpt lat="45.4970090" lon="7.1580450">
        <ele>2513</ele>
      </trkpt>
      <trkpt lat="45.4965690" lon="7.1579450">
        <ele>2514</ele>
      </trkpt>
      <trkpt lat="45.4961890" lon="7.1576350">
        <ele>2516</ele>
      </trkpt>
      <trkpt lat="45.4960590" lon="7.1574650">
        <ele>2517</ele>
      </trkpt>
      <trkpt lat="45.4959690" lon="7.1572350">
        <ele>2519</ele>
      </trkpt>
      <trkpt lat="45.4958490" lon="7.1569950">
        <ele>2520</ele>
      </trkpt>
      <trkpt lat="45.4955890" lon="7.1566150">
        <ele>2522</ele>
      </trkpt>
      <trkpt lat="45.4955390" lon="7.1565250">
        <ele>2523</ele>
      </trkpt>
      <trkpt lat="45.4955590" lon="7.1565050">
        <ele>2525</ele>
      </trkpt>
      <trkpt lat="45.4952590" lon="7.1560350">
        <ele>2526</ele>
      </trkpt>
      <trkpt lat="45.4949190" lon="7.1557150">
        <ele>2527</ele>
      </trkpt>
      <trkpt lat="45.4946490" lon="7.1553950">
        <ele>2529</ele>
      </trkpt>
      <trkpt lat="45.4943690" lon="7.1550050">
        <ele>2530</ele>
      </trkpt>
      <trkpt lat="45.4937680" lon="7.1537300">
        <ele>2532</ele>
      </trkpt>
      <trkpt lat="45.4933880" lon="7.1527000">
        <ele>2533</ele>
      </trkpt>
      <trkpt lat="45.4932180" lon="7.1515900">
        <ele>2535</ele>
      </trkpt>
      <trkpt lat="45.4930857" lon="7.1510175">
        <ele>2536</ele>
      </trkpt>
      <trkpt lat="45.4925644" lon="7.1505098">
        <ele>2538</ele>
      </trkpt>
      <trkpt lat="45.4922268" lon="7.1502265">
        <ele>2539</ele>
      </trkpt>
      <trkpt lat="45.4914624" lon="7.1497141">
        <ele>2541</ele>
      </trkpt>
      <trkpt lat="45.4897502" lon="7.1484777">
        <ele>2542</ele>
      </trkpt>
      <trkpt lat="45.4874400" lon="7.1458917">
        <ele>2544</ele>
      </trkpt>
      <trkpt lat="45.4869655" lon="7.1454978">
        <ele>2545</ele>
      </trkpt>
      <trkpt lat="45.4866011" lon="7.1452282">
        <ele>2546</ele>
      </trkpt>
      <trkpt lat="45.4865101" lon="7.1451672">
        <ele>2548</ele>
      </trkpt>
      <trkpt lat="45.4863175" lon="7.1450872">
        <ele>2549</ele>
      </trkpt>
      <trkpt lat="45.4859782" lon="7.1447523">
        <ele>2551</ele>
      </trkpt>
      <trkpt lat="45.4853280" lon="7.1439800">
        <ele>2552</ele>
      </trkpt>
      <trkpt lat="45.4849500" lon="7.1440150">
        <ele>2554</ele>
      </trkpt>
      <trkpt lat="45.4845500" lon="7.1438250">
        <ele>2555</ele>
      </trkpt>
      <trkpt lat="45.4845500" lon="7.1435850">
        <ele>2557</ele>
      </trkpt>
      <trkpt lat="45.4845900" lon="7.1432550">
        <ele>2558</ele>
      </trkpt>
      <trkpt lat="45.4845700" lon="7.1431650">
        <ele>2560</ele>
      </trkpt>
      <trkpt lat="45.4845500" lon="7.1425250">
        <ele>2561</ele>
      </trkpt>
      <trkpt lat="45.4843600" lon="7.1422550">
        <ele>2563</ele>
      </trkpt>
      <trkpt lat="45.4843200" lon="7.1421250">
        <ele>2564</ele>
      </trkpt>
      <trkpt lat="45.4842880" lon="7.1418400">
        <ele>2565</ele>
      </trkpt>
      <trkpt lat="45.4838300" lon="7.1423250">
        <ele>2567</ele>
      </trkpt>
      <trkpt lat="45.4837200" lon="7.1423650">
        <ele>2568</ele>
      </trkpt>
      <trkpt lat="45.4836800" lon="7.1424850">
        <ele>2570</ele>
      </trkpt>
      <trkpt lat="45.4834200" lon="7.1426850">
        <ele>2571</ele>
      </trkpt>
      <trkpt lat="45.4831600" lon="7.1428150">
        <ele>2573</ele>
      </trkpt>
      <trkpt lat="45.4830100" lon="7.1427350">
        <ele>2574</ele>
      </trkpt>
      <trkpt lat="45.4828800" lon="7.1428250">
        <ele>2576</ele>
      </trkpt>
      <trkpt lat="45.4828500" lon="7.1429350">
        <ele>2577</ele>
      </trkpt>
      <trkpt lat="45.4825700" lon="7.1429250">
        <ele>2579</ele>
      </trkpt>
      <trkpt lat="45.4824300" lon="7.1430450">
        <ele>2580</ele>
      </trkpt>
      <trkpt lat="45.4820100" lon="7.1428950">
        <ele>2582</ele>
      </trkpt>
      <trkpt lat="45.4818200" lon="7.1429550">
        <ele>2583</ele>
      </trkpt>
      <trkpt lat="45.4815700" lon="7.1431450">
        <ele>2584</ele>
      </trkpt>
      <trkpt lat="45.4814200" lon="7.1431750">
        <ele>2586</ele>
      </trkpt>
      <trkpt lat="45.4815200" lon="7.1434550">
        <ele>2587</ele>
      </trkpt>
      <trkpt lat="45.4815123" lon="7.1434661">
        <ele>2589</ele>
      </trkpt>
      <trkpt lat="45.4814300" lon="7.1435850">
        <ele>2590</ele>
      </trkpt>
      <trkpt lat="45.4810900" lon="7.1437750">
        <ele>2592</ele>
      </trkpt>
      <trkpt lat="45.4806700" lon="7.1439450">
        <ele>2593</ele>
      </trkpt>
      <trkpt lat="45.4804100" lon="7.1441950">
        <ele>2595</ele>
      </trkpt>
      <trkpt lat="45.4800900" lon="7.1441350">
        <ele>2596</ele>
      </trkpt>
      <trkpt lat="45.4800300" lon="7.1443650">
        <ele>2598</ele>
      </trkpt>
      <trkpt lat="45.4799700" lon="7.1443550">
        <ele>2599</ele>
      </trkpt>
      <trkpt lat="45.4799300" lon="7.1441150">
        <ele>2601</ele>
      </trkpt>
      <trkpt lat="45.4798892" lon="7.1440390">
        <ele>2602</ele>
      </trkpt>
    </trkseg>
  </trk>
</gpx>
