<?xml version="1.0" encoding="UTF-8"?>
<gpx version="1.1" creator="sentieri-vda" xmlns="http://www.topografix.com/GPX/1/1">
  <metadata>
    <name>Paquier - Lavoré -  Chamois</name>
    <desc>Catasto Sentieri VdA — 71_S33</desc>
    <author><name>Regione Autonoma Valle d'Aosta</name></author>
  </metadata>
  <trk>
    <name>Paquier - Lavoré -  Chamois</name>
    <src>Catasto Sentieri VdA (71_S33)</src>
    <trkseg>
      <trkpt lat="45.8385092" lon="7.6209272">
        <ele>1515</ele>
      </trkpt>
      <trkpt lat="45.8387462" lon="7.6217853">
        <ele>1518</ele>
      </trkpt>
      <trkpt lat="45.8388083" lon="7.6220100">
        <ele>1522</ele>
      </trkpt>
      <trkpt lat="45.8391183" lon="7.6221600">
        <ele>1525</ele>
      </trkpt>
      <trkpt lat="45.8393263" lon="7.6222020">
        <ele>1528</ele>
      </trkpt>
      <trkpt lat="45.8394783" lon="7.6214300">
        <ele>1531</ele>
      </trkpt>
      <trkpt lat="45.8396463" lon="7.6206520">
        <ele>1535</ele>
      </trkpt>
      <trkpt lat="45.8395959" lon="7.6201485">
        <ele>1538</ele>
      </trkpt>
      <trkpt lat="45.8396743" lon="7.6200086">
        <ele>1541</ele>
      </trkpt>
      <trkpt lat="45.8397215" lon="7.6197952">
        <ele>1545</ele>
      </trkpt>
      <trkpt lat="45.8397660" lon="7.6197490">
        <ele>1548</ele>
      </trkpt>
      <trkpt lat="45.8399472" lon="7.6196672">
        <ele>1551</ele>
      </trkpt>
      <trkpt lat="45.8400543" lon="7.6195873">
        <ele>1554</ele>
      </trkpt>
      <trkpt lat="45.8401520" lon="7.6194819">
        <ele>1558</ele>
      </trkpt>
      <trkpt lat="45.8403533" lon="7.6191936">
        <ele>1561</ele>
      </trkpt>
      <trkpt lat="45.8404669" lon="7.6191039">
        <ele>1564</ele>
      </trkpt>
      <trkpt lat="45.8406064" lon="7.6191004">
        <ele>1568</ele>
      </trkpt>
      <trkpt lat="45.8406959" lon="7.6190596">
        <ele>1571</ele>
      </trkpt>
      <trkpt lat="45.8407275" lon="7.6190652">
        <ele>1574</ele>
      </trkpt>
      <trkpt lat="45.8412099" lon="7.6193270">
        <ele>1577</ele>
      </trkpt>
      <trkpt lat="45.8414177" lon="7.6192027">
        <ele>1581</ele>
      </trkpt>
      <trkpt lat="45.8416258" lon="7.6191074">
        <ele>1584</ele>
      </trkpt>
      <trkpt lat="45.8418263" lon="7.6189383">
        <ele>1587</ele>
      </trkpt>
      <trkpt lat="45.8419140" lon="7.6187526">
        <ele>1591</ele>
      </trkpt>
      <trkpt lat="45.8420375" lon="7.6185435">
        <ele>1594</ele>
      </trkpt>
      <trkpt lat="45.8421119" lon="7.6183710">
        <ele>1597</ele>
      </trkpt>
      <trkpt lat="45.8421963" lon="7.6186620">
        <ele>1601</ele>
      </trkpt>
      <trkpt lat="45.8441763" lon="7.6194720">
        <ele>1604</ele>
      </trkpt>
      <trkpt lat="45.8449263" lon="7.6188120">
        <ele>1607</ele>
      </trkpt>
      <trkpt lat="45.8451663" lon="7.6176320">
        <ele>1610</ele>
      </trkpt>
      <trkpt lat="45.8455300" lon="7.6175662">
        <ele>1614</ele>
      </trkpt>
      <trkpt lat="45.8458963" lon="7.6175020">
        <ele>1617</ele>
      </trkpt>
      <trkpt lat="45.8464463" lon="7.6180220">
        <ele>1620</ele>
      </trkpt>
      <trkpt lat="45.8472263" lon="7.6183620">
        <ele>1624</ele>
      </trkpt>
      <trkpt lat="45.8476963" lon="7.6188120">
        <ele>1627</ele>
      </trkpt>
      <trkpt lat="45.8477763" lon="7.6190520">
        <ele>1630</ele>
      </trkpt>
      <trkpt lat="45.8482063" lon="7.6188320">
        <ele>1633</ele>
      </trkpt>
      <trkpt lat="45.8487263" lon="7.6180420">
        <ele>1637</ele>
      </trkpt>
      <trkpt lat="45.8487263" lon="7.6176920">
        <ele>1640</ele>
      </trkpt>
      <trkpt lat="45.8492563" lon="7.6176320">
        <ele>1643</ele>
      </trkpt>
      <trkpt lat="45.8494563" lon="7.6173920">
        <ele>1647</ele>
      </trkpt>
      <trkpt lat="45.8494063" lon="7.6170320">
        <ele>1650</ele>
      </trkpt>
      <trkpt lat="45.8502463" lon="7.6161520">
        <ele>1653</ele>
      </trkpt>
      <trkpt lat="45.8517763" lon="7.6152920">
        <ele>1656</ele>
      </trkpt>
      <trkpt lat="45.8525863" lon="7.6151420">
        <ele>1660</ele>
      </trkpt>
      <trkpt lat="45.8529063" lon="7.6157220">
        <ele>1663</ele>
      </trkpt>
      <trkpt lat="45.8536563" lon="7.6157620">
        <ele>1666</ele>
      </trkpt>
      <trkpt lat="45.8541063" lon="7.6164920">
        <ele>1670</ele>
      </trkpt>
      <trkpt lat="45.8545563" lon="7.6167520">
        <ele>1673</ele>
      </trkpt>
      <trkpt lat="45.8553163" lon="7.6167320">
        <ele>1676</ele>
      </trkpt>
      <trkpt lat="45.8556763" lon="7.6169420">
        <ele>1679</ele>
      </trkpt>
      <trkpt lat="45.8566463" lon="7.6166620">
        <ele>1683</ele>
      </trkpt>
      <trkpt lat="45.8570463" lon="7.6172220">
        <ele>1686</ele>
      </trkpt>
      <trkpt lat="45.8569463" lon="7.6173720">
        <ele>1689</ele>
      </trkpt>
      <trkpt lat="45.8573963" lon="7.6175020">
        <ele>1693</ele>
      </trkpt>
      <trkpt lat="45.8584263" lon="7.6175020">
        <ele>1696</ele>
      </trkpt>
      <trkpt lat="45.8588763" lon="7.6177220">
        <ele>1699</ele>
      </trkpt>
      <trkpt lat="45.8587263" lon="7.6180620">
        <ele>1702</ele>
      </trkpt>
      <trkpt lat="45.8591763" lon="7.6181720">
        <ele>1706</ele>
      </trkpt>
      <trkpt lat="45.8596263" lon="7.6180220">
        <ele>1709</ele>
      </trkpt>
      <trkpt lat="45.8602063" lon="7.6187020">
        <ele>1712</ele>
      </trkpt>
      <trkpt lat="45.8605263" lon="7.6187520">
        <ele>1716</ele>
      </trkpt>
      <trkpt lat="45.8610663" lon="7.6201420">
        <ele>1719</ele>
      </trkpt>
      <trkpt lat="45.8613863" lon="7.6199520">
        <ele>1722</ele>
      </trkpt>
      <trkpt lat="45.8616163" lon="7.6201620">
        <ele>1725</ele>
      </trkpt>
      <trkpt lat="45.8620583" lon="7.6196400">
        <ele>1729</ele>
      </trkpt>
      <trkpt lat="45.8622463" lon="7.6199720">
        <ele>1732</ele>
      </trkpt>
      <trkpt lat="45.8629263" lon="7.6209820">
        <ele>1735</ele>
      </trkpt>
      <trkpt lat="45.8659163" lon="7.6228220">
        <ele>1739</ele>
      </trkpt>
      <trkpt lat="45.8665763" lon="7.6234720">
        <ele>1742</ele>
      </trkpt>
      <trkpt lat="45.8668763" lon="7.6234920">
        <ele>1745</ele>
      </trkpt>
      <trkpt lat="45.8674963" lon="7.6240520">
        <ele>1749</ele>
      </trkpt>
      <trkpt lat="45.8682453" lon="7.6240520">
        <ele>1752</ele>
      </trkpt>
      <trkpt lat="45.8683953" lon="7.6244120">
        <ele>1755</ele>
      </trkpt>
      <trkpt lat="45.8686553" lon="7.6246220">
        <ele>1758</ele>
      </trkpt>
      <trkpt lat="45.8691253" lon="7.6247720">
        <ele>1762</ele>
      </trkpt>
      <trkpt lat="45.8698353" lon="7.6245820">
        <ele>1765</ele>
      </trkpt>
      <trkpt lat="45.8712753" lon="7.6257020">
        <ele>1768</ele>
      </trkpt>
      <trkpt lat="45.8712553" lon="7.6258720">
        <ele>1772</ele>
      </trkpt>
      <trkpt lat="45.8713353" lon="7.6258320">
        <ele>1775</ele>
      </trkpt>
      <trkpt lat="45.8717453" lon="7.6264520">
        <ele>1778</ele>
      </trkpt>
      <trkpt lat="45.8719653" lon="7.6265820">
        <ele>1781</ele>
      </trkpt>
      <trkpt lat="45.8720253" lon="7.6269220">
        <ele>1785</ele>
      </trkpt>
      <trkpt lat="45.8725153" lon="7.6269220">
        <ele>1788</ele>
      </trkpt>
      <trkpt lat="45.8726953" lon="7.6264720">
        <ele>1791</ele>
      </trkpt>
      <trkpt lat="45.8729453" lon="7.6262820">
        <ele>1795</ele>
      </trkpt>
      <trkpt lat="45.8736140" lon="7.6262745">
        <ele>1798</ele>
      </trkpt>
      <trkpt lat="45.8739153" lon="7.6262320">
        <ele>1801</ele>
      </trkpt>
      <trkpt lat="45.8742553" lon="7.6258020">
        <ele>1804</ele>
      </trkpt>
      <trkpt lat="45.8743686" lon="7.6259264">
        <ele>1808</ele>
      </trkpt>
      <trkpt lat="45.8743984" lon="7.6260220">
        <ele>1811</ele>
      </trkpt>
    </trkseg>
  </trk>
</gpx>
