<?xml version="1.0" encoding="UTF-8"?>
<gpx version="1.1" creator="sentieri-vda" xmlns="http://www.topografix.com/GPX/1/1">
  <metadata>
    <name>Anello di Champlève</name>
    <desc>Catasto Sentieri VdA — 71_S46</desc>
    <author><name>Regione Autonoma Valle d'Aosta</name></author>
  </metadata>
  <trk>
    <name>Anello di Champlève</name>
    <src>Catasto Sentieri VdA (71_S46)</src>
    <trkseg>
      <trkpt lat="45.8767762" lon="7.6440568">
        <ele>1840</ele>
      </trkpt>
      <trkpt lat="45.8768217" lon="7.6440136">
        <ele>1840</ele>
      </trkpt>
      <trkpt lat="45.8769201" lon="7.6439771">
        <ele>1840</ele>
      </trkpt>
      <trkpt lat="45.8770130" lon="7.6439749">
        <ele>1840</ele>
      </trkpt>
      <trkpt lat="45.8771197" lon="7.6439416">
        <ele>1840</ele>
      </trkpt>
      <trkpt lat="45.8773797" lon="7.6438722">
        <ele>1840</ele>
      </trkpt>
      <trkpt lat="45.8774529" lon="7.6438261">
        <ele>1840</ele>
      </trkpt>
      <trkpt lat="45.8775294" lon="7.6437636">
        <ele>1840</ele>
      </trkpt>
      <trkpt lat="45.8776337" lon="7.6437202">
        <ele>1840</ele>
      </trkpt>
      <trkpt lat="45.8776931" lon="7.6437085">
        <ele>1840</ele>
      </trkpt>
      <trkpt lat="45.8778023" lon="7.6436820">
        <ele>1840</ele>
      </trkpt>
      <trkpt lat="45.8778952" lon="7.6436831">
        <ele>1840</ele>
      </trkpt>
      <trkpt lat="45.8779567" lon="7.6436509">
        <ele>1840</ele>
      </trkpt>
      <trkpt lat="45.8780884" lon="7.6435097">
        <ele>1840</ele>
      </trkpt>
      <trkpt lat="45.8781491" lon="7.6434127">
        <ele>1840</ele>
      </trkpt>
      <trkpt lat="45.8782538" lon="7.6434033">
        <ele>1840</ele>
      </trkpt>
      <trkpt lat="45.8783186" lon="7.6433438">
        <ele>1840</ele>
      </trkpt>
      <trkpt lat="45.8784034" lon="7.6432667">
        <ele>1840</ele>
      </trkpt>
      <trkpt lat="45.8784824" lon="7.6432989">
        <ele>1840</ele>
      </trkpt>
      <trkpt lat="45.8785532" lon="7.6432460">
        <ele>1840</ele>
      </trkpt>
      <trkpt lat="45.8786078" lon="7.6432345">
        <ele>1840</ele>
      </trkpt>
      <trkpt lat="45.8786382" lon="7.6431860">
        <ele>1840</ele>
      </trkpt>
      <trkpt lat="45.8786736" lon="7.6431613">
        <ele>1840</ele>
      </trkpt>
      <trkpt lat="45.8786844" lon="7.6430621">
        <ele>1840</ele>
      </trkpt>
      <trkpt lat="45.8786642" lon="7.6429706">
        <ele>1840</ele>
      </trkpt>
      <trkpt lat="45.8786372" lon="7.6429031">
        <ele>1840</ele>
      </trkpt>
      <trkpt lat="45.8786285" lon="7.6427737">
        <ele>1840</ele>
      </trkpt>
      <trkpt lat="45.8786458" lon="7.6426267">
        <ele>1840</ele>
      </trkpt>
      <trkpt lat="45.8786399" lon="7.6425314">
        <ele>1840</ele>
      </trkpt>
      <trkpt lat="45.8786200" lon="7.6424534">
        <ele>1840</ele>
      </trkpt>
      <trkpt lat="45.8786188" lon="7.6423512">
        <ele>1840</ele>
      </trkpt>
      <trkpt lat="45.8786512" lon="7.6422788">
        <ele>1840</ele>
      </trkpt>
      <trkpt lat="45.8787378" lon="7.6421505">
        <ele>1840</ele>
      </trkpt>
      <trkpt lat="45.8788103" lon="7.6420397">
        <ele>1840</ele>
      </trkpt>
      <trkpt lat="45.8788664" lon="7.6419496">
        <ele>1840</ele>
      </trkpt>
      <trkpt lat="45.8789359" lon="7.6417877">
        <ele>1840</ele>
      </trkpt>
      <trkpt lat="45.8790412" lon="7.6416317">
        <ele>1840</ele>
      </trkpt>
      <trkpt lat="45.8791236" lon="7.6415479">
        <ele>1840</ele>
      </trkpt>
      <trkpt lat="45.8792108" lon="7.6414742">
        <ele>1840</ele>
      </trkpt>
      <trkpt lat="45.8792783" lon="7.6413395">
        <ele>1840</ele>
      </trkpt>
      <trkpt lat="45.8793310" lon="7.6411712">
        <ele>1840</ele>
      </trkpt>
      <trkpt lat="45.8793992" lon="7.6408968">
        <ele>1840</ele>
      </trkpt>
      <trkpt lat="45.8794713" lon="7.6407552">
        <ele>1840</ele>
      </trkpt>
      <trkpt lat="45.8795389" lon="7.6406274">
        <ele>1840</ele>
      </trkpt>
      <trkpt lat="45.8795954" lon="7.6405749">
        <ele>1840</ele>
      </trkpt>
      <trkpt lat="45.8796829" lon="7.6405216">
        <ele>1840</ele>
      </trkpt>
      <trkpt lat="45.8797470" lon="7.6405064">
        <ele>1840</ele>
      </trkpt>
      <trkpt lat="45.8798134" lon="7.6404843">
        <ele>1840</ele>
      </trkpt>
      <trkpt lat="45.8798461" lon="7.6404256">
        <ele>1840</ele>
      </trkpt>
      <trkpt lat="45.8798935" lon="7.6404142">
        <ele>1840</ele>
      </trkpt>
      <trkpt lat="45.8799598" lon="7.6403785">
        <ele>1840</ele>
      </trkpt>
      <trkpt lat="45.8800382" lon="7.6403595">
        <ele>1840</ele>
      </trkpt>
      <trkpt lat="45.8801707" lon="7.6402881">
        <ele>1840</ele>
      </trkpt>
      <trkpt lat="45.8802180" lon="7.6402665">
        <ele>1840</ele>
      </trkpt>
      <trkpt lat="45.8803023" lon="7.6402406">
        <ele>1840</ele>
      </trkpt>
      <trkpt lat="45.8803616" lon="7.6402255">
        <ele>1840</ele>
      </trkpt>
      <trkpt lat="45.8804088" lon="7.6401885">
        <ele>1840</ele>
      </trkpt>
      <trkpt lat="45.8804669" lon="7.6401684">
        <ele>1840</ele>
      </trkpt>
      <trkpt lat="45.8805237" lon="7.6401363">
        <ele>1840</ele>
      </trkpt>
      <trkpt lat="45.8806028" lon="7.6400849">
        <ele>1840</ele>
      </trkpt>
      <trkpt lat="45.8806538" lon="7.6400615">
        <ele>1840</ele>
      </trkpt>
      <trkpt lat="45.8807798" lon="7.6399493">
        <ele>1840</ele>
      </trkpt>
      <trkpt lat="45.8808588" lon="7.6398792">
        <ele>1840</ele>
      </trkpt>
      <trkpt lat="45.8808795" lon="7.6398224">
        <ele>1840</ele>
      </trkpt>
      <trkpt lat="45.8809007" lon="7.6398015">
        <ele>1840</ele>
      </trkpt>
      <trkpt lat="45.8809575" lon="7.6397728">
        <ele>1840</ele>
      </trkpt>
      <trkpt lat="45.8809901" lon="7.6397106">
        <ele>1840</ele>
      </trkpt>
      <trkpt lat="45.8810157" lon="7.6396555">
        <ele>1840</ele>
      </trkpt>
      <trkpt lat="45.8810582" lon="7.6396271">
        <ele>1840</ele>
      </trkpt>
      <trkpt lat="45.8811008" lon="7.6396057">
        <ele>1840</ele>
      </trkpt>
      <trkpt lat="45.8811214" lon="7.6395370">
        <ele>1840</ele>
      </trkpt>
      <trkpt lat="45.8811581" lon="7.6394201">
        <ele>1840</ele>
      </trkpt>
      <trkpt lat="45.8811908" lon="7.6393648">
        <ele>1840</ele>
      </trkpt>
      <trkpt lat="45.8812277" lon="7.6392650">
        <ele>1840</ele>
      </trkpt>
      <trkpt lat="45.8812208" lon="7.6390845">
        <ele>1840</ele>
      </trkpt>
      <trkpt lat="45.8812166" lon="7.6389345">
        <ele>1840</ele>
      </trkpt>
      <trkpt lat="45.8812602" lon="7.6387937">
        <ele>1840</ele>
      </trkpt>
      <trkpt lat="45.8812686" lon="7.6386980">
        <ele>1840</ele>
      </trkpt>
      <trkpt lat="45.8812911" lon="7.6385918">
        <ele>1840</ele>
      </trkpt>
      <trkpt lat="45.8813238" lon="7.6385330">
        <ele>1840</ele>
      </trkpt>
      <trkpt lat="45.8813446" lon="7.6384848">
        <ele>1840</ele>
      </trkpt>
      <trkpt lat="45.8813638" lon="7.6383677">
        <ele>1840</ele>
      </trkpt>
      <trkpt lat="45.8813111" lon="7.6383785">
        <ele>1840</ele>
      </trkpt>
      <trkpt lat="45.8812502" lon="7.6383507">
        <ele>1840</ele>
      </trkpt>
      <trkpt lat="45.8811848" lon="7.6382602">
        <ele>1840</ele>
      </trkpt>
      <trkpt lat="45.8811504" lon="7.6381724">
        <ele>1840</ele>
      </trkpt>
      <trkpt lat="45.8809861" lon="7.6377775">
        <ele>1840</ele>
      </trkpt>
      <trkpt lat="45.8809150" lon="7.6376054">
        <ele>1840</ele>
      </trkpt>
      <trkpt lat="45.8808204" lon="7.6374611">
        <ele>1840</ele>
      </trkpt>
      <trkpt lat="45.8807141" lon="7.6373307">
        <ele>1840</ele>
      </trkpt>
      <trkpt lat="45.8805741" lon="7.6371739">
        <ele>1840</ele>
      </trkpt>
      <trkpt lat="45.8804463" lon="7.6370372">
        <ele>1840</ele>
      </trkpt>
      <trkpt lat="45.8802785" lon="7.6369492">
        <ele>1840</ele>
      </trkpt>
      <trkpt lat="45.8801534" lon="7.6369047">
        <ele>1840</ele>
      </trkpt>
      <trkpt lat="45.8799402" lon="7.6368679">
        <ele>1840</ele>
      </trkpt>
      <trkpt lat="45.8797935" lon="7.6368539">
        <ele>1840</ele>
      </trkpt>
      <trkpt lat="45.8796825" lon="7.6368839">
        <ele>1840</ele>
      </trkpt>
      <trkpt lat="45.8795546" lon="7.6369845">
        <ele>1840</ele>
      </trkpt>
      <trkpt lat="45.8785702" lon="7.6378480">
        <ele>1840</ele>
      </trkpt>
      <trkpt lat="45.8782708" lon="7.6380583">
        <ele>1840</ele>
      </trkpt>
      <trkpt lat="45.8781341" lon="7.6381024">
        <ele>1840</ele>
      </trkpt>
      <trkpt lat="45.8779453" lon="7.6381274">
        <ele>1840</ele>
      </trkpt>
      <trkpt lat="45.8769079" lon="7.6382546">
        <ele>1840</ele>
      </trkpt>
      <trkpt lat="45.8766582" lon="7.6384960">
        <ele>1840</ele>
      </trkpt>
      <trkpt lat="45.8765691" lon="7.6386140">
        <ele>1840</ele>
      </trkpt>
      <trkpt lat="45.8764077" lon="7.6386521">
        <ele>1840</ele>
      </trkpt>
      <trkpt lat="45.8762797" lon="7.6387029">
        <ele>1840</ele>
      </trkpt>
      <trkpt lat="45.8761995" lon="7.6387731">
        <ele>1840</ele>
      </trkpt>
      <trkpt lat="45.8761091" lon="7.6387753">
        <ele>1840</ele>
      </trkpt>
      <trkpt lat="45.8760600" lon="7.6388549">
        <ele>1840</ele>
      </trkpt>
      <trkpt lat="45.8759825" lon="7.6391432">
        <ele>1840</ele>
      </trkpt>
      <trkpt lat="45.8759419" lon="7.6393351">
        <ele>1840</ele>
      </trkpt>
      <trkpt lat="45.8759107" lon="7.6395131">
        <ele>1840</ele>
      </trkpt>
      <trkpt lat="45.8758889" lon="7.6396841">
        <ele>1840</ele>
      </trkpt>
      <trkpt lat="45.8758196" lon="7.6398631">
        <ele>1840</ele>
      </trkpt>
      <trkpt lat="45.8757548" lon="7.6400215">
        <ele>1840</ele>
      </trkpt>
      <trkpt lat="45.8756610" lon="7.6401397">
        <ele>1840</ele>
      </trkpt>
      <trkpt lat="45.8756159" lon="7.6403522">
        <ele>1840</ele>
      </trkpt>
      <trkpt lat="45.8755896" lon="7.6405506">
        <ele>1840</ele>
      </trkpt>
      <trkpt lat="45.8755915" lon="7.6407073">
        <ele>1840</ele>
      </trkpt>
      <trkpt lat="45.8756645" lon="7.6408351">
        <ele>1840</ele>
      </trkpt>
      <trkpt lat="45.8757471" lon="7.6409763">
        <ele>1840</ele>
      </trkpt>
      <trkpt lat="45.8758014" lon="7.6411318">
        <ele>1840</ele>
      </trkpt>
      <trkpt lat="45.8758430" lon="7.6414308">
        <ele>1840</ele>
      </trkpt>
      <trkpt lat="45.8759040" lon="7.6417566">
        <ele>1840</ele>
      </trkpt>
      <trkpt lat="45.8759292" lon="7.6418719">
        <ele>1840</ele>
      </trkpt>
      <trkpt lat="45.8759403" lon="7.6420012">
        <ele>1840</ele>
      </trkpt>
      <trkpt lat="45.8759091" lon="7.6421792">
        <ele>1840</ele>
      </trkpt>
      <trkpt lat="45.8759346" lon="7.6423218">
        <ele>1840</ele>
      </trkpt>
      <trkpt lat="45.8760041" lon="7.6425587">
        <ele>1840</ele>
      </trkpt>
      <trkpt lat="45.8760440" lon="7.6426021">
        <ele>1840</ele>
      </trkpt>
      <trkpt lat="45.8760580" lon="7.6426802">
        <ele>1840</ele>
      </trkpt>
      <trkpt lat="45.8760754" lon="7.6427377">
        <ele>1840</ele>
      </trkpt>
      <trkpt lat="45.8760985" lon="7.6427715">
        <ele>1840</ele>
      </trkpt>
      <trkpt lat="45.8761121" lon="7.6428069">
        <ele>1840</ele>
      </trkpt>
      <trkpt lat="45.8761177" lon="7.6428818">
        <ele>1840</ele>
      </trkpt>
      <trkpt lat="45.8761161" lon="7.6429432">
        <ele>1840</ele>
      </trkpt>
      <trkpt lat="45.8761049" lon="7.6430083">
        <ele>1840</ele>
      </trkpt>
      <trkpt lat="45.8760562" lon="7.6430163">
        <ele>1840</ele>
      </trkpt>
      <trkpt lat="45.8760277" lon="7.6430204">
        <ele>1840</ele>
      </trkpt>
      <trkpt lat="45.8760367" lon="7.6430764">
        <ele>1840</ele>
      </trkpt>
      <trkpt lat="45.8760763" lon="7.6431061">
        <ele>1840</ele>
      </trkpt>
      <trkpt lat="45.8760986" lon="7.6431738">
        <ele>1840</ele>
      </trkpt>
      <trkpt lat="45.8761270" lon="7.6432634">
        <ele>1840</ele>
      </trkpt>
      <trkpt lat="45.8761192" lon="7.6434102">
        <ele>1840</ele>
      </trkpt>
      <trkpt lat="45.8761179" lon="7.6435006">
        <ele>1840</ele>
      </trkpt>
      <trkpt lat="45.8761604" lon="7.6435712">
        <ele>1840</ele>
      </trkpt>
      <trkpt lat="45.8762038" lon="7.6436144">
        <ele>1840</ele>
      </trkpt>
      <trkpt lat="45.8762625" lon="7.6436437">
        <ele>1840</ele>
      </trkpt>
      <trkpt lat="45.8763168" lon="7.6437020">
        <ele>1840</ele>
      </trkpt>
      <trkpt lat="45.8763717" lon="7.6437177">
        <ele>1840</ele>
      </trkpt>
      <trkpt lat="45.8764271" lon="7.6437709">
        <ele>1840</ele>
      </trkpt>
      <trkpt lat="45.8764826" lon="7.6438258">
        <ele>1840</ele>
      </trkpt>
      <trkpt lat="45.8765412" lon="7.6438500">
        <ele>1840</ele>
      </trkpt>
      <trkpt lat="45.8765901" lon="7.6438573">
        <ele>1840</ele>
      </trkpt>
      <trkpt lat="45.8766432" lon="7.6439225">
        <ele>1840</ele>
      </trkpt>
      <trkpt lat="45.8767067" lon="7.6439499">
        <ele>1840</ele>
      </trkpt>
      <trkpt lat="45.8767428" lon="7.6439831">
        <ele>1840</ele>
      </trkpt>
      <trkpt lat="45.8767601" lon="7.6440339">
        <ele>1840</ele>
      </trkpt>
      <trkpt lat="45.8767762" lon="7.6440568">
        <ele>1840</ele>
      </trkpt>
    </trkseg>
  </trk>
</gpx>
