<?xml version="1.0" encoding="UTF-8"?>
<gpx version="1.1" creator="sentieri-vda" xmlns="http://www.topografix.com/GPX/1/1">
  <metadata>
    <name>Breuil-Tsa de Vielle-Plan Maison - Col de Saint-Théodule</name>
    <desc>Catasto Sentieri VdA — 71_S14</desc>
    <author><name>Regione Autonoma Valle d'Aosta</name></author>
  </metadata>
  <trk>
    <name>Breuil-Tsa de Vielle-Plan Maison - Col de Saint-Théodule</name>
    <src>Catasto Sentieri VdA (71_S14)</src>
    <trkseg>
      <trkpt lat="45.9322956" lon="7.6284998">
        <ele>2008</ele>
      </trkpt>
      <trkpt lat="45.9333597" lon="7.6301770">
        <ele>2013</ele>
      </trkpt>
      <trkpt lat="45.9342946" lon="7.6315861">
        <ele>2018</ele>
      </trkpt>
      <trkpt lat="45.9345467" lon="7.6319669">
        <ele>2024</ele>
      </trkpt>
      <trkpt lat="45.9346121" lon="7.6321672">
        <ele>2029</ele>
      </trkpt>
      <trkpt lat="45.9346092" lon="7.6323007">
        <ele>2034</ele>
      </trkpt>
      <trkpt lat="45.9345472" lon="7.6323885">
        <ele>2039</ele>
      </trkpt>
      <trkpt lat="45.9344305" lon="7.6324083">
        <ele>2044</ele>
      </trkpt>
      <trkpt lat="45.9336550" lon="7.6322845">
        <ele>2050</ele>
      </trkpt>
      <trkpt lat="45.9336202" lon="7.6323855">
        <ele>2055</ele>
      </trkpt>
      <trkpt lat="45.9336206" lon="7.6324242">
        <ele>2060</ele>
      </trkpt>
      <trkpt lat="45.9337185" lon="7.6327015">
        <ele>2065</ele>
      </trkpt>
      <trkpt lat="45.9338680" lon="7.6327857">
        <ele>2071</ele>
      </trkpt>
      <trkpt lat="45.9342384" lon="7.6329060">
        <ele>2076</ele>
      </trkpt>
      <trkpt lat="45.9342658" lon="7.6329344">
        <ele>2081</ele>
      </trkpt>
      <trkpt lat="45.9342987" lon="7.6330525">
        <ele>2086</ele>
      </trkpt>
      <trkpt lat="45.9342858" lon="7.6331064">
        <ele>2091</ele>
      </trkpt>
      <trkpt lat="45.9342506" lon="7.6331754">
        <ele>2097</ele>
      </trkpt>
      <trkpt lat="45.9341527" lon="7.6332661">
        <ele>2102</ele>
      </trkpt>
      <trkpt lat="45.9339878" lon="7.6333975">
        <ele>2107</ele>
      </trkpt>
      <trkpt lat="45.9339080" lon="7.6334974">
        <ele>2112</ele>
      </trkpt>
      <trkpt lat="45.9339043" lon="7.6335620">
        <ele>2117</ele>
      </trkpt>
      <trkpt lat="45.9339668" lon="7.6339011">
        <ele>2123</ele>
      </trkpt>
      <trkpt lat="45.9339785" lon="7.6341245">
        <ele>2128</ele>
      </trkpt>
      <trkpt lat="45.9339546" lon="7.6343847">
        <ele>2133</ele>
      </trkpt>
      <trkpt lat="45.9339530" lon="7.6346282">
        <ele>2138</ele>
      </trkpt>
      <trkpt lat="45.9339094" lon="7.6346449">
        <ele>2143</ele>
      </trkpt>
      <trkpt lat="45.9338755" lon="7.6347178">
        <ele>2149</ele>
      </trkpt>
      <trkpt lat="45.9338856" lon="7.6349170">
        <ele>2154</ele>
      </trkpt>
      <trkpt lat="45.9339534" lon="7.6354140">
        <ele>2159</ele>
      </trkpt>
      <trkpt lat="45.9338101" lon="7.6363650">
        <ele>2164</ele>
      </trkpt>
      <trkpt lat="45.9337986" lon="7.6366977">
        <ele>2170</ele>
      </trkpt>
      <trkpt lat="45.9338287" lon="7.6369519">
        <ele>2175</ele>
      </trkpt>
      <trkpt lat="45.9338858" lon="7.6372053">
        <ele>2180</ele>
      </trkpt>
      <trkpt lat="45.9339537" lon="7.6373865">
        <ele>2185</ele>
      </trkpt>
      <trkpt lat="45.9340566" lon="7.6375835">
        <ele>2190</ele>
      </trkpt>
      <trkpt lat="45.9341482" lon="7.6378084">
        <ele>2196</ele>
      </trkpt>
      <trkpt lat="45.9341963" lon="7.6379513">
        <ele>2201</ele>
      </trkpt>
      <trkpt lat="45.9342254" lon="7.6381223">
        <ele>2206</ele>
      </trkpt>
      <trkpt lat="45.9342893" lon="7.6382925">
        <ele>2211</ele>
      </trkpt>
      <trkpt lat="45.9344749" lon="7.6386678">
        <ele>2216</ele>
      </trkpt>
      <trkpt lat="45.9346468" lon="7.6389016">
        <ele>2222</ele>
      </trkpt>
      <trkpt lat="45.9347846" lon="7.6391531">
        <ele>2227</ele>
      </trkpt>
      <trkpt lat="45.9348566" lon="7.6392025">
        <ele>2232</ele>
      </trkpt>
      <trkpt lat="45.9350459" lon="7.6392636">
        <ele>2237</ele>
      </trkpt>
      <trkpt lat="45.9352086" lon="7.6392377">
        <ele>2243</ele>
      </trkpt>
      <trkpt lat="45.9354038" lon="7.6393644">
        <ele>2248</ele>
      </trkpt>
      <trkpt lat="45.9356100" lon="7.6395566">
        <ele>2253</ele>
      </trkpt>
      <trkpt lat="45.9357751" lon="7.6398716">
        <ele>2258</ele>
      </trkpt>
      <trkpt lat="45.9359614" lon="7.6403953">
        <ele>2263</ele>
      </trkpt>
      <trkpt lat="45.9361310" lon="7.6405153">
        <ele>2269</ele>
      </trkpt>
      <trkpt lat="45.9363035" lon="7.6404454">
        <ele>2274</ele>
      </trkpt>
      <trkpt lat="45.9364212" lon="7.6404863">
        <ele>2279</ele>
      </trkpt>
      <trkpt lat="45.9365627" lon="7.6408116">
        <ele>2284</ele>
      </trkpt>
      <trkpt lat="45.9367101" lon="7.6412097">
        <ele>2289</ele>
      </trkpt>
      <trkpt lat="45.9369069" lon="7.6414679">
        <ele>2295</ele>
      </trkpt>
      <trkpt lat="45.9369597" lon="7.6416273">
        <ele>2300</ele>
      </trkpt>
      <trkpt lat="45.9369785" lon="7.6423500">
        <ele>2305</ele>
      </trkpt>
      <trkpt lat="45.9369740" lon="7.6428322">
        <ele>2310</ele>
      </trkpt>
      <trkpt lat="45.9369312" lon="7.6430889">
        <ele>2315</ele>
      </trkpt>
      <trkpt lat="45.9371375" lon="7.6437267">
        <ele>2321</ele>
      </trkpt>
      <trkpt lat="45.9371862" lon="7.6439592">
        <ele>2326</ele>
      </trkpt>
      <trkpt lat="45.9368744" lon="7.6452230">
        <ele>2331</ele>
      </trkpt>
      <trkpt lat="45.9373844" lon="7.6453730">
        <ele>2336</ele>
      </trkpt>
      <trkpt lat="45.9371244" lon="7.6459130">
        <ele>2342</ele>
      </trkpt>
      <trkpt lat="45.9372144" lon="7.6467730">
        <ele>2347</ele>
      </trkpt>
      <trkpt lat="45.9373644" lon="7.6474130">
        <ele>2352</ele>
      </trkpt>
      <trkpt lat="45.9376044" lon="7.6478830">
        <ele>2357</ele>
      </trkpt>
      <trkpt lat="45.9377044" lon="7.6478830">
        <ele>2362</ele>
      </trkpt>
      <trkpt lat="45.9377534" lon="7.6481430">
        <ele>2368</ele>
      </trkpt>
      <trkpt lat="45.9379434" lon="7.6480130">
        <ele>2373</ele>
      </trkpt>
      <trkpt lat="45.9386034" lon="7.6483630">
        <ele>2378</ele>
      </trkpt>
      <trkpt lat="45.9388034" lon="7.6481430">
        <ele>2383</ele>
      </trkpt>
      <trkpt lat="45.9388834" lon="7.6484430">
        <ele>2388</ele>
      </trkpt>
      <trkpt lat="45.9387534" lon="7.6488130">
        <ele>2394</ele>
      </trkpt>
      <trkpt lat="45.9381534" lon="7.6493030">
        <ele>2399</ele>
      </trkpt>
      <trkpt lat="45.9380534" lon="7.6502730">
        <ele>2404</ele>
      </trkpt>
      <trkpt lat="45.9383534" lon="7.6500530">
        <ele>2409</ele>
      </trkpt>
      <trkpt lat="45.9390834" lon="7.6503130">
        <ele>2414</ele>
      </trkpt>
      <trkpt lat="45.9389034" lon="7.6517330">
        <ele>2420</ele>
      </trkpt>
      <trkpt lat="45.9389734" lon="7.6523930">
        <ele>2425</ele>
      </trkpt>
      <trkpt lat="45.9385434" lon="7.6535330">
        <ele>2430</ele>
      </trkpt>
      <trkpt lat="45.9386534" lon="7.6541730">
        <ele>2435</ele>
      </trkpt>
      <trkpt lat="45.9390534" lon="7.6548430">
        <ele>2441</ele>
      </trkpt>
      <trkpt lat="45.9390834" lon="7.6557430">
        <ele>2446</ele>
      </trkpt>
      <trkpt lat="45.9387834" lon="7.6563430">
        <ele>2451</ele>
      </trkpt>
      <trkpt lat="45.9395934" lon="7.6564930">
        <ele>2456</ele>
      </trkpt>
      <trkpt lat="45.9401334" lon="7.6571530">
        <ele>2461</ele>
      </trkpt>
      <trkpt lat="45.9412034" lon="7.6581630">
        <ele>2467</ele>
      </trkpt>
      <trkpt lat="45.9419178" lon="7.6579938">
        <ele>2472</ele>
      </trkpt>
      <trkpt lat="45.9419952" lon="7.6584161">
        <ele>2477</ele>
      </trkpt>
      <trkpt lat="45.9420452" lon="7.6589089">
        <ele>2482</ele>
      </trkpt>
      <trkpt lat="45.9421398" lon="7.6592616">
        <ele>2487</ele>
      </trkpt>
      <trkpt lat="45.9425391" lon="7.6604125">
        <ele>2493</ele>
      </trkpt>
      <trkpt lat="45.9435103" lon="7.6636387">
        <ele>2498</ele>
      </trkpt>
      <trkpt lat="45.9438791" lon="7.6646265">
        <ele>2503</ele>
      </trkpt>
      <trkpt lat="45.9440723" lon="7.6653442">
        <ele>2508</ele>
      </trkpt>
      <trkpt lat="45.9447916" lon="7.6675662">
        <ele>2513</ele>
      </trkpt>
      <trkpt lat="45.9448050" lon="7.6677297">
        <ele>2519</ele>
      </trkpt>
      <trkpt lat="45.9447481" lon="7.6679813">
        <ele>2524</ele>
      </trkpt>
      <trkpt lat="45.9447424" lon="7.6681043">
        <ele>2529</ele>
      </trkpt>
      <trkpt lat="45.9447580" lon="7.6682115">
        <ele>2534</ele>
      </trkpt>
      <trkpt lat="45.9449071" lon="7.6687455">
        <ele>2540</ele>
      </trkpt>
      <trkpt lat="45.9450102" lon="7.6690093">
        <ele>2545</ele>
      </trkpt>
      <trkpt lat="45.9450984" lon="7.6695346">
        <ele>2550</ele>
      </trkpt>
      <trkpt lat="45.9451385" lon="7.6699074">
        <ele>2555</ele>
      </trkpt>
      <trkpt lat="45.9451868" lon="7.6700701">
        <ele>2560</ele>
      </trkpt>
      <trkpt lat="45.9452779" lon="7.6702266">
        <ele>2566</ele>
      </trkpt>
      <trkpt lat="45.9453721" lon="7.6703370">
        <ele>2571</ele>
      </trkpt>
      <trkpt lat="45.9454620" lon="7.6703861">
        <ele>2576</ele>
      </trkpt>
      <trkpt lat="45.9456121" lon="7.6703927">
        <ele>2581</ele>
      </trkpt>
      <trkpt lat="45.9456913" lon="7.6704472">
        <ele>2586</ele>
      </trkpt>
      <trkpt lat="45.9458015" lon="7.6707108">
        <ele>2592</ele>
      </trkpt>
      <trkpt lat="45.9465337" lon="7.6713180">
        <ele>2597</ele>
      </trkpt>
      <trkpt lat="45.9465774" lon="7.6713886">
        <ele>2602</ele>
      </trkpt>
      <trkpt lat="45.9466035" lon="7.6717925">
        <ele>2607</ele>
      </trkpt>
      <trkpt lat="45.9466303" lon="7.6719455">
        <ele>2612</ele>
      </trkpt>
      <trkpt lat="45.9466746" lon="7.6720673">
        <ele>2618</ele>
      </trkpt>
      <trkpt lat="45.9467907" lon="7.6722233">
        <ele>2623</ele>
      </trkpt>
      <trkpt lat="45.9469295" lon="7.6724862">
        <ele>2628</ele>
      </trkpt>
      <trkpt lat="45.9470031" lon="7.6726739">
        <ele>2633</ele>
      </trkpt>
      <trkpt lat="45.9470045" lon="7.6727968">
        <ele>2639</ele>
      </trkpt>
      <trkpt lat="45.9469668" lon="7.6729308">
        <ele>2644</ele>
      </trkpt>
      <trkpt lat="45.9468452" lon="7.6732307">
        <ele>2649</ele>
      </trkpt>
      <trkpt lat="45.9467682" lon="7.6733657">
        <ele>2654</ele>
      </trkpt>
      <trkpt lat="45.9467377" lon="7.6735046">
        <ele>2659</ele>
      </trkpt>
      <trkpt lat="45.9467642" lon="7.6736371">
        <ele>2665</ele>
      </trkpt>
      <trkpt lat="45.9467587" lon="7.6737806">
        <ele>2670</ele>
      </trkpt>
      <trkpt lat="45.9468987" lon="7.6743090">
        <ele>2675</ele>
      </trkpt>
      <trkpt lat="45.9474262" lon="7.6760630">
        <ele>2680</ele>
      </trkpt>
      <trkpt lat="45.9475549" lon="7.6763723">
        <ele>2685</ele>
      </trkpt>
      <trkpt lat="45.9477594" lon="7.6767617">
        <ele>2691</ele>
      </trkpt>
      <trkpt lat="45.9479326" lon="7.6772235">
        <ele>2696</ele>
      </trkpt>
      <trkpt lat="45.9480119" lon="7.6775903">
        <ele>2701</ele>
      </trkpt>
      <trkpt lat="45.9480406" lon="7.6779122">
        <ele>2706</ele>
      </trkpt>
      <trkpt lat="45.9480334" lon="7.6782197">
        <ele>2712</ele>
      </trkpt>
      <trkpt lat="45.9479839" lon="7.6785639">
        <ele>2717</ele>
      </trkpt>
      <trkpt lat="45.9479490" lon="7.6789488">
        <ele>2722</ele>
      </trkpt>
      <trkpt lat="45.9480261" lon="7.6794334">
        <ele>2727</ele>
      </trkpt>
      <trkpt lat="45.9480279" lon="7.6795972">
        <ele>2732</ele>
      </trkpt>
      <trkpt lat="45.9479631" lon="7.6798599">
        <ele>2738</ele>
      </trkpt>
      <trkpt lat="45.9478900" lon="7.6803327">
        <ele>2743</ele>
      </trkpt>
      <trkpt lat="45.9478447" lon="7.6807434">
        <ele>2748</ele>
      </trkpt>
      <trkpt lat="45.9477479" lon="7.6811602">
        <ele>2753</ele>
      </trkpt>
      <trkpt lat="45.9475637" lon="7.6814670">
        <ele>2758</ele>
      </trkpt>
      <trkpt lat="45.9469689" lon="7.6828968">
        <ele>2764</ele>
      </trkpt>
      <trkpt lat="45.9466734" lon="7.6837830">
        <ele>2769</ele>
      </trkpt>
      <trkpt lat="45.9465596" lon="7.6841971">
        <ele>2774</ele>
      </trkpt>
      <trkpt lat="45.9464454" lon="7.6845725">
        <ele>2779</ele>
      </trkpt>
      <trkpt lat="45.9461096" lon="7.6852134">
        <ele>2784</ele>
      </trkpt>
      <trkpt lat="45.9456634" lon="7.6862320">
        <ele>2790</ele>
      </trkpt>
      <trkpt lat="45.9458134" lon="7.6870220">
        <ele>2795</ele>
      </trkpt>
      <trkpt lat="45.9457934" lon="7.6880120">
        <ele>2800</ele>
      </trkpt>
      <trkpt lat="45.9466934" lon="7.6889120">
        <ele>2805</ele>
      </trkpt>
      <trkpt lat="45.9473545" lon="7.6906423">
        <ele>2811</ele>
      </trkpt>
      <trkpt lat="45.9473434" lon="7.6909520">
        <ele>2816</ele>
      </trkpt>
      <trkpt lat="45.9472828" lon="7.6909811">
        <ele>2821</ele>
      </trkpt>
      <trkpt lat="45.9469589" lon="7.6907126">
        <ele>2826</ele>
      </trkpt>
      <trkpt lat="45.9469134" lon="7.6907620">
        <ele>2831</ele>
      </trkpt>
      <trkpt lat="45.9468925" lon="7.6911021">
        <ele>2837</ele>
      </trkpt>
      <trkpt lat="45.9469316" lon="7.6913154">
        <ele>2842</ele>
      </trkpt>
      <trkpt lat="45.9470008" lon="7.6915166">
        <ele>2847</ele>
      </trkpt>
      <trkpt lat="45.9471171" lon="7.6917426">
        <ele>2852</ele>
      </trkpt>
      <trkpt lat="45.9471956" lon="7.6919928">
        <ele>2857</ele>
      </trkpt>
      <trkpt lat="45.9474335" lon="7.6928082">
        <ele>2863</ele>
      </trkpt>
      <trkpt lat="45.9475670" lon="7.6933359">
        <ele>2868</ele>
      </trkpt>
      <trkpt lat="45.9477192" lon="7.6940526">
        <ele>2873</ele>
      </trkpt>
      <trkpt lat="45.9477922" lon="7.6942915">
        <ele>2878</ele>
      </trkpt>
      <trkpt lat="45.9479476" lon="7.6946566">
        <ele>2883</ele>
      </trkpt>
      <trkpt lat="45.9482472" lon="7.6950353">
        <ele>2889</ele>
      </trkpt>
      <trkpt lat="45.9483081" lon="7.6951533">
        <ele>2894</ele>
      </trkpt>
      <trkpt lat="45.9483367" lon="7.6952585">
        <ele>2899</ele>
      </trkpt>
      <trkpt lat="45.9483331" lon="7.6953593">
        <ele>2904</ele>
      </trkpt>
      <trkpt lat="45.9483223" lon="7.6954585">
        <ele>2910</ele>
      </trkpt>
      <trkpt lat="45.9482829" lon="7.6955567">
        <ele>2915</ele>
      </trkpt>
      <trkpt lat="45.9484287" lon="7.6957490">
        <ele>2920</ele>
      </trkpt>
      <trkpt lat="45.9485240" lon="7.6958785">
        <ele>2925</ele>
      </trkpt>
      <trkpt lat="45.9485514" lon="7.6961441">
        <ele>2930</ele>
      </trkpt>
      <trkpt lat="45.9484826" lon="7.6965276">
        <ele>2936</ele>
      </trkpt>
      <trkpt lat="45.9485117" lon="7.6969410">
        <ele>2941</ele>
      </trkpt>
      <trkpt lat="45.9485117" lon="7.6972718">
        <ele>2946</ele>
      </trkpt>
      <trkpt lat="45.9484290" lon="7.6979084">
        <ele>2951</ele>
      </trkpt>
      <trkpt lat="45.9483485" lon="7.6987534">
        <ele>2956</ele>
      </trkpt>
      <trkpt lat="45.9482974" lon="7.6993690">
        <ele>2962</ele>
      </trkpt>
      <trkpt lat="45.9483035" lon="7.6997454">
        <ele>2967</ele>
      </trkpt>
      <trkpt lat="45.9482660" lon="7.7000743">
        <ele>2972</ele>
      </trkpt>
      <trkpt lat="45.9481941" lon="7.7010092">
        <ele>2977</ele>
      </trkpt>
      <trkpt lat="45.9481514" lon="7.7020347">
        <ele>2982</ele>
      </trkpt>
      <trkpt lat="45.9480276" lon="7.7026951">
        <ele>2988</ele>
      </trkpt>
      <trkpt lat="45.9479388" lon="7.7031409">
        <ele>2993</ele>
      </trkpt>
      <trkpt lat="45.9480044" lon="7.7034634">
        <ele>2998</ele>
      </trkpt>
      <trkpt lat="45.9480369" lon="7.7036805">
        <ele>3003</ele>
      </trkpt>
      <trkpt lat="45.9481430" lon="7.7039442">
        <ele>3009</ele>
      </trkpt>
      <trkpt lat="45.9481785" lon="7.7040967">
        <ele>3014</ele>
      </trkpt>
      <trkpt lat="45.9481934" lon="7.7042496">
        <ele>3019</ele>
      </trkpt>
      <trkpt lat="45.9481782" lon="7.7044006">
        <ele>3024</ele>
      </trkpt>
      <trkpt lat="45.9481402" lon="7.7045225">
        <ele>3029</ele>
      </trkpt>
      <trkpt lat="45.9480109" lon="7.7048684">
        <ele>3035</ele>
      </trkpt>
      <trkpt lat="45.9479790" lon="7.7050332">
        <ele>3040</ele>
      </trkpt>
      <trkpt lat="45.9479224" lon="7.7051662">
        <ele>3045</ele>
      </trkpt>
      <trkpt lat="45.9478513" lon="7.7052647">
        <ele>3050</ele>
      </trkpt>
      <trkpt lat="45.9477240" lon="7.7052865">
        <ele>3055</ele>
      </trkpt>
      <trkpt lat="45.9474941" lon="7.7052784">
        <ele>3061</ele>
      </trkpt>
      <trkpt lat="45.9472955" lon="7.7053045">
        <ele>3066</ele>
      </trkpt>
      <trkpt lat="45.9471313" lon="7.7052976">
        <ele>3071</ele>
      </trkpt>
      <trkpt lat="45.9467737" lon="7.7051930">
        <ele>3076</ele>
      </trkpt>
      <trkpt lat="45.9465645" lon="7.7053565">
        <ele>3081</ele>
      </trkpt>
      <trkpt lat="45.9463696" lon="7.7056192">
        <ele>3087</ele>
      </trkpt>
      <trkpt lat="45.9461320" lon="7.7056731">
        <ele>3092</ele>
      </trkpt>
      <trkpt lat="45.9459234" lon="7.7058020">
        <ele>3097</ele>
      </trkpt>
      <trkpt lat="45.9457216" lon="7.7058010">
        <ele>3102</ele>
      </trkpt>
      <trkpt lat="45.9455569" lon="7.7057457">
        <ele>3108</ele>
      </trkpt>
      <trkpt lat="45.9454169" lon="7.7056468">
        <ele>3113</ele>
      </trkpt>
      <trkpt lat="45.9452850" lon="7.7055934">
        <ele>3118</ele>
      </trkpt>
      <trkpt lat="45.9452212" lon="7.7055922">
        <ele>3123</ele>
      </trkpt>
      <trkpt lat="45.9451784" lon="7.7056201">
        <ele>3128</ele>
      </trkpt>
      <trkpt lat="45.9452299" lon="7.7056968">
        <ele>3134</ele>
      </trkpt>
      <trkpt lat="45.9453366" lon="7.7058449">
        <ele>3139</ele>
      </trkpt>
      <trkpt lat="45.9453634" lon="7.7060120">
        <ele>3144</ele>
      </trkpt>
      <trkpt lat="45.9453095" lon="7.7061024">
        <ele>3149</ele>
      </trkpt>
      <trkpt lat="45.9451920" lon="7.7061589">
        <ele>3154</ele>
      </trkpt>
      <trkpt lat="45.9450465" lon="7.7063169">
        <ele>3160</ele>
      </trkpt>
      <trkpt lat="45.9448317" lon="7.7064779">
        <ele>3165</ele>
      </trkpt>
      <trkpt lat="45.9447288" lon="7.7065401">
        <ele>3170</ele>
      </trkpt>
      <trkpt lat="45.9446535" lon="7.7066460">
        <ele>3175</ele>
      </trkpt>
      <trkpt lat="45.9444464" lon="7.7068885">
        <ele>3181</ele>
      </trkpt>
      <trkpt lat="45.9443308" lon="7.7069557">
        <ele>3186</ele>
      </trkpt>
      <trkpt lat="45.9440334" lon="7.7071320">
        <ele>3191</ele>
      </trkpt>
      <trkpt lat="45.9439997" lon="7.7072027">
        <ele>3196</ele>
      </trkpt>
      <trkpt lat="45.9439805" lon="7.7073242">
        <ele>3201</ele>
      </trkpt>
      <trkpt lat="45.9439934" lon="7.7074320">
        <ele>3207</ele>
      </trkpt>
      <trkpt lat="45.9440338" lon="7.7075636">
        <ele>3212</ele>
      </trkpt>
      <trkpt lat="45.9441323" lon="7.7076433">
        <ele>3217</ele>
      </trkpt>
      <trkpt lat="45.9442545" lon="7.7076674">
        <ele>3222</ele>
      </trkpt>
      <trkpt lat="45.9444118" lon="7.7076476">
        <ele>3227</ele>
      </trkpt>
      <trkpt lat="45.9450893" lon="7.7077555">
        <ele>3233</ele>
      </trkpt>
      <trkpt lat="45.9451426" lon="7.7078242">
        <ele>3238</ele>
      </trkpt>
      <trkpt lat="45.9450899" lon="7.7078873">
        <ele>3243</ele>
      </trkpt>
      <trkpt lat="45.9447464" lon="7.7080378">
        <ele>3248</ele>
      </trkpt>
      <trkpt lat="45.9447640" lon="7.7081019">
        <ele>3253</ele>
      </trkpt>
      <trkpt lat="45.9449356" lon="7.7081786">
        <ele>3259</ele>
      </trkpt>
      <trkpt lat="45.9450249" lon="7.7082760">
        <ele>3264</ele>
      </trkpt>
      <trkpt lat="45.9450048" lon="7.7083303">
        <ele>3269</ele>
      </trkpt>
      <trkpt lat="45.9448551" lon="7.7083579">
        <ele>3274</ele>
      </trkpt>
      <trkpt lat="45.9445867" lon="7.7085148">
        <ele>3280</ele>
      </trkpt>
      <trkpt lat="45.9445452" lon="7.7085789">
        <ele>3285</ele>
      </trkpt>
      <trkpt lat="45.9444761" lon="7.7089328">
        <ele>3290</ele>
      </trkpt>
      <trkpt lat="45.9443134" lon="7.7092320">
        <ele>3295</ele>
      </trkpt>
      <trkpt lat="45.9441348" lon="7.7092755">
        <ele>3300</ele>
      </trkpt>
      <trkpt lat="45.9440304" lon="7.7093317">
        <ele>3306</ele>
      </trkpt>
      <trkpt lat="45.9438664" lon="7.7095936">
        <ele>3311</ele>
      </trkpt>
      <trkpt lat="45.9436028" lon="7.7098444">
        <ele>3316</ele>
      </trkpt>
    </trkseg>
  </trk>
</gpx>
