<?xml version="1.0" encoding="UTF-8"?>
<gpx version="1.1" creator="sentieri-vda" xmlns="http://www.topografix.com/GPX/1/1">
  <metadata>
    <name>Mayen -  Pâquier</name>
    <desc>Catasto Sentieri VdA — 71_S48</desc>
    <author><name>Regione Autonoma Valle d'Aosta</name></author>
  </metadata>
  <trk>
    <name>Mayen -  Pâquier</name>
    <src>Catasto Sentieri VdA (71_S48)</src>
    <trkseg>
      <trkpt lat="45.8684877" lon="7.6171380">
        <ele>1330</ele>
      </trkpt>
      <trkpt lat="45.8685938" lon="7.6173348">
        <ele>1331</ele>
      </trkpt>
      <trkpt lat="45.8686958" lon="7.6174993">
        <ele>1331</ele>
      </trkpt>
      <trkpt lat="45.8687914" lon="7.6175242">
        <ele>1332</ele>
      </trkpt>
      <trkpt lat="45.8688552" lon="7.6175283">
        <ele>1332</ele>
      </trkpt>
      <trkpt lat="45.8689456" lon="7.6175226">
        <ele>1333</ele>
      </trkpt>
      <trkpt lat="45.8690552" lon="7.6175216">
        <ele>1334</ele>
      </trkpt>
      <trkpt lat="45.8691325" lon="7.6175163">
        <ele>1334</ele>
      </trkpt>
      <trkpt lat="45.8691668" lon="7.6174984">
        <ele>1335</ele>
      </trkpt>
      <trkpt lat="45.8691671" lon="7.6174234">
        <ele>1335</ele>
      </trkpt>
      <trkpt lat="45.8691436" lon="7.6172552">
        <ele>1336</ele>
      </trkpt>
      <trkpt lat="45.8691356" lon="7.6171856">
        <ele>1337</ele>
      </trkpt>
      <trkpt lat="45.8691880" lon="7.6171860">
        <ele>1337</ele>
      </trkpt>
      <trkpt lat="45.8692155" lon="7.6171921">
        <ele>1338</ele>
      </trkpt>
      <trkpt lat="45.8692372" lon="7.6172120">
        <ele>1338</ele>
      </trkpt>
      <trkpt lat="45.8692599" lon="7.6172225">
        <ele>1339</ele>
      </trkpt>
      <trkpt lat="45.8692672" lon="7.6172326">
        <ele>1339</ele>
      </trkpt>
      <trkpt lat="45.8692787" lon="7.6171999">
        <ele>1340</ele>
      </trkpt>
      <trkpt lat="45.8692948" lon="7.6171535">
        <ele>1341</ele>
      </trkpt>
      <trkpt lat="45.8693123" lon="7.6171224">
        <ele>1341</ele>
      </trkpt>
      <trkpt lat="45.8693267" lon="7.6171305">
        <ele>1342</ele>
      </trkpt>
      <trkpt lat="45.8693456" lon="7.6172221">
        <ele>1342</ele>
      </trkpt>
      <trkpt lat="45.8693767" lon="7.6173287">
        <ele>1343</ele>
      </trkpt>
      <trkpt lat="45.8694021" lon="7.6173639">
        <ele>1344</ele>
      </trkpt>
      <trkpt lat="45.8694195" lon="7.6174197">
        <ele>1344</ele>
      </trkpt>
      <trkpt lat="45.8694317" lon="7.6175404">
        <ele>1345</ele>
      </trkpt>
      <trkpt lat="45.8694566" lon="7.6176369">
        <ele>1345</ele>
      </trkpt>
      <trkpt lat="45.8694827" lon="7.6177249">
        <ele>1346</ele>
      </trkpt>
      <trkpt lat="45.8695027" lon="7.6178045">
        <ele>1347</ele>
      </trkpt>
      <trkpt lat="45.8695464" lon="7.6179671">
        <ele>1347</ele>
      </trkpt>
      <trkpt lat="45.8695940" lon="7.6179659">
        <ele>1348</ele>
      </trkpt>
      <trkpt lat="45.8696397" lon="7.6180057">
        <ele>1348</ele>
      </trkpt>
      <trkpt lat="45.8696908" lon="7.6180930">
        <ele>1349</ele>
      </trkpt>
      <trkpt lat="45.8697425" lon="7.6182383">
        <ele>1350</ele>
      </trkpt>
      <trkpt lat="45.8697523" lon="7.6182620">
        <ele>1350</ele>
      </trkpt>
      <trkpt lat="45.8698042" lon="7.6182164">
        <ele>1351</ele>
      </trkpt>
      <trkpt lat="45.8698588" lon="7.6182048">
        <ele>1351</ele>
      </trkpt>
      <trkpt lat="45.8699404" lon="7.6182539">
        <ele>1352</ele>
      </trkpt>
      <trkpt lat="45.8700731" lon="7.6183972">
        <ele>1352</ele>
      </trkpt>
      <trkpt lat="45.8701554" lon="7.6185076">
        <ele>1353</ele>
      </trkpt>
      <trkpt lat="45.8701942" lon="7.6185714">
        <ele>1354</ele>
      </trkpt>
      <trkpt lat="45.8702907" lon="7.6184770">
        <ele>1354</ele>
      </trkpt>
      <trkpt lat="45.8703752" lon="7.6183692">
        <ele>1355</ele>
      </trkpt>
      <trkpt lat="45.8704123" lon="7.6182865">
        <ele>1355</ele>
      </trkpt>
      <trkpt lat="45.8704710" lon="7.6182203">
        <ele>1356</ele>
      </trkpt>
      <trkpt lat="45.8705348" lon="7.6181778">
        <ele>1357</ele>
      </trkpt>
      <trkpt lat="45.8705442" lon="7.6181707">
        <ele>1357</ele>
      </trkpt>
      <trkpt lat="45.8705170" lon="7.6180862">
        <ele>1358</ele>
      </trkpt>
      <trkpt lat="45.8705184" lon="7.6180043">
        <ele>1358</ele>
      </trkpt>
      <trkpt lat="45.8705391" lon="7.6179425">
        <ele>1359</ele>
      </trkpt>
      <trkpt lat="45.8705546" lon="7.6178500">
        <ele>1360</ele>
      </trkpt>
      <trkpt lat="45.8705747" lon="7.6177336">
        <ele>1360</ele>
      </trkpt>
      <trkpt lat="45.8705739" lon="7.6176723">
        <ele>1361</ele>
      </trkpt>
      <trkpt lat="45.8705494" lon="7.6176150">
        <ele>1361</ele>
      </trkpt>
      <trkpt lat="45.8705199" lon="7.6175407">
        <ele>1362</ele>
      </trkpt>
      <trkpt lat="45.8705004" lon="7.6175003">
        <ele>1363</ele>
      </trkpt>
      <trkpt lat="45.8704928" lon="7.6174664">
        <ele>1363</ele>
      </trkpt>
      <trkpt lat="45.8705017" lon="7.6174116">
        <ele>1364</ele>
      </trkpt>
      <trkpt lat="45.8705110" lon="7.6173909">
        <ele>1364</ele>
      </trkpt>
      <trkpt lat="45.8705105" lon="7.6173534">
        <ele>1365</ele>
      </trkpt>
      <trkpt lat="45.8704983" lon="7.6173265">
        <ele>1366</ele>
      </trkpt>
      <trkpt lat="45.8704882" lon="7.6172824">
        <ele>1366</ele>
      </trkpt>
      <trkpt lat="45.8704899" lon="7.6172244">
        <ele>1367</ele>
      </trkpt>
      <trkpt lat="45.8704986" lon="7.6171560">
        <ele>1367</ele>
      </trkpt>
      <trkpt lat="45.8705190" lon="7.6170737">
        <ele>1368</ele>
      </trkpt>
      <trkpt lat="45.8705562" lon="7.6169944">
        <ele>1368</ele>
      </trkpt>
      <trkpt lat="45.8706031" lon="7.6169387">
        <ele>1369</ele>
      </trkpt>
      <trkpt lat="45.8706267" lon="7.6169142">
        <ele>1370</ele>
      </trkpt>
      <trkpt lat="45.8706382" lon="7.6168832">
        <ele>1370</ele>
      </trkpt>
      <trkpt lat="45.8706544" lon="7.6168453">
        <ele>1371</ele>
      </trkpt>
      <trkpt lat="45.8706899" lon="7.6168308">
        <ele>1371</ele>
      </trkpt>
      <trkpt lat="45.8707063" lon="7.6168031">
        <ele>1372</ele>
      </trkpt>
      <trkpt lat="45.8706984" lon="7.6167454">
        <ele>1373</ele>
      </trkpt>
      <trkpt lat="45.8706806" lon="7.6166504">
        <ele>1373</ele>
      </trkpt>
      <trkpt lat="45.8706611" lon="7.6166100">
        <ele>1374</ele>
      </trkpt>
      <trkpt lat="45.8706480" lon="7.6165148">
        <ele>1374</ele>
      </trkpt>
      <trkpt lat="45.8706300" lon="7.6164062">
        <ele>1375</ele>
      </trkpt>
      <trkpt lat="45.8706221" lon="7.6163450">
        <ele>1376</ele>
      </trkpt>
      <trkpt lat="45.8706264" lon="7.6163216">
        <ele>1376</ele>
      </trkpt>
      <trkpt lat="45.8706526" lon="7.6163209">
        <ele>1377</ele>
      </trkpt>
      <trkpt lat="45.8706812" lon="7.6163219">
        <ele>1377</ele>
      </trkpt>
      <trkpt lat="45.8706952" lon="7.6163011">
        <ele>1378</ele>
      </trkpt>
      <trkpt lat="45.8706876" lon="7.6161667">
        <ele>1379</ele>
      </trkpt>
      <trkpt lat="45.8706979" lon="7.6161272">
        <ele>1379</ele>
      </trkpt>
      <trkpt lat="45.8707120" lon="7.6161132">
        <ele>1380</ele>
      </trkpt>
      <trkpt lat="45.8707175" lon="7.6160790">
        <ele>1380</ele>
      </trkpt>
      <trkpt lat="45.8707240" lon="7.6160209">
        <ele>1381</ele>
      </trkpt>
      <trkpt lat="45.8707437" lon="7.6159812">
        <ele>1381</ele>
      </trkpt>
      <trkpt lat="45.8707517" lon="7.6159537">
        <ele>1382</ele>
      </trkpt>
      <trkpt lat="45.8707584" lon="7.6159126">
        <ele>1383</ele>
      </trkpt>
      <trkpt lat="45.8707796" lon="7.6158917">
        <ele>1383</ele>
      </trkpt>
      <trkpt lat="45.8708026" lon="7.6159218">
        <ele>1384</ele>
      </trkpt>
      <trkpt lat="45.8708183" lon="7.6159452">
        <ele>1384</ele>
      </trkpt>
      <trkpt lat="45.8708289" lon="7.6159314">
        <ele>1385</ele>
      </trkpt>
      <trkpt lat="45.8708533" lon="7.6158813">
        <ele>1386</ele>
      </trkpt>
      <trkpt lat="45.8708851" lon="7.6158550">
        <ele>1386</ele>
      </trkpt>
      <trkpt lat="45.8709227" lon="7.6158114">
        <ele>1387</ele>
      </trkpt>
      <trkpt lat="45.8709380" lon="7.6157957">
        <ele>1387</ele>
      </trkpt>
      <trkpt lat="45.8709642" lon="7.6158002">
        <ele>1388</ele>
      </trkpt>
      <trkpt lat="45.8709855" lon="7.6157928">
        <ele>1389</ele>
      </trkpt>
      <trkpt lat="45.8710033" lon="7.6157873">
        <ele>1389</ele>
      </trkpt>
      <trkpt lat="45.8710212" lon="7.6157902">
        <ele>1390</ele>
      </trkpt>
      <trkpt lat="45.8710311" lon="7.6158189">
        <ele>1390</ele>
      </trkpt>
      <trkpt lat="45.8710384" lon="7.6158341">
        <ele>1391</ele>
      </trkpt>
      <trkpt lat="45.8710504" lon="7.6158355">
        <ele>1392</ele>
      </trkpt>
      <trkpt lat="45.8710644" lon="7.6158130">
        <ele>1392</ele>
      </trkpt>
      <trkpt lat="45.8710829" lon="7.6157682">
        <ele>1393</ele>
      </trkpt>
      <trkpt lat="45.8711169" lon="7.6157299">
        <ele>1393</ele>
      </trkpt>
      <trkpt lat="45.8711404" lon="7.6157020">
        <ele>1394</ele>
      </trkpt>
      <trkpt lat="45.8711842" lon="7.6156805">
        <ele>1394</ele>
      </trkpt>
      <trkpt lat="45.8712127" lon="7.6156696">
        <ele>1395</ele>
      </trkpt>
      <trkpt lat="45.8712396" lon="7.6156365">
        <ele>1396</ele>
      </trkpt>
      <trkpt lat="45.8712655" lon="7.6156069">
        <ele>1396</ele>
      </trkpt>
      <trkpt lat="45.8713023" lon="7.6155957">
        <ele>1397</ele>
      </trkpt>
      <trkpt lat="45.8713286" lon="7.6156104">
        <ele>1397</ele>
      </trkpt>
      <trkpt lat="45.8714101" lon="7.6155539">
        <ele>1398</ele>
      </trkpt>
      <trkpt lat="45.8714407" lon="7.6155224">
        <ele>1399</ele>
      </trkpt>
      <trkpt lat="45.8714855" lon="7.6154906">
        <ele>1399</ele>
      </trkpt>
      <trkpt lat="45.8715566" lon="7.6154616">
        <ele>1400</ele>
      </trkpt>
      <trkpt lat="45.8715945" lon="7.6154470">
        <ele>1400</ele>
      </trkpt>
      <trkpt lat="45.8716303" lon="7.6154461">
        <ele>1401</ele>
      </trkpt>
      <trkpt lat="45.8717015" lon="7.6154307">
        <ele>1402</ele>
      </trkpt>
      <trkpt lat="45.8717485" lon="7.6153784">
        <ele>1402</ele>
      </trkpt>
      <trkpt lat="45.8717717" lon="7.6153267">
        <ele>1403</ele>
      </trkpt>
      <trkpt lat="45.8717785" lon="7.6152976">
        <ele>1403</ele>
      </trkpt>
      <trkpt lat="45.8717982" lon="7.6152528">
        <ele>1404</ele>
      </trkpt>
      <trkpt lat="45.8718201" lon="7.6151926">
        <ele>1405</ele>
      </trkpt>
      <trkpt lat="45.8718359" lon="7.6151257">
        <ele>1405</ele>
      </trkpt>
      <trkpt lat="45.8718581" lon="7.6150860">
        <ele>1406</ele>
      </trkpt>
      <trkpt lat="45.8718731" lon="7.6150515">
        <ele>1406</ele>
      </trkpt>
      <trkpt lat="45.8719076" lon="7.6150489">
        <ele>1407</ele>
      </trkpt>
      <trkpt lat="45.8719732" lon="7.6150558">
        <ele>1408</ele>
      </trkpt>
      <trkpt lat="45.8720219" lon="7.6150495">
        <ele>1408</ele>
      </trkpt>
      <trkpt lat="45.8720581" lon="7.6150588">
        <ele>1409</ele>
      </trkpt>
      <trkpt lat="45.8720878" lon="7.6150581">
        <ele>1409</ele>
      </trkpt>
      <trkpt lat="45.8721260" lon="7.6150588">
        <ele>1410</ele>
      </trkpt>
      <trkpt lat="45.8721316" lon="7.6150331">
        <ele>1410</ele>
      </trkpt>
      <trkpt lat="45.8721469" lon="7.6150191">
        <ele>1411</ele>
      </trkpt>
      <trkpt lat="45.8721601" lon="7.6150273">
        <ele>1412</ele>
      </trkpt>
      <trkpt lat="45.8721724" lon="7.6150560">
        <ele>1412</ele>
      </trkpt>
      <trkpt lat="45.8721727" lon="7.6150815">
        <ele>1413</ele>
      </trkpt>
      <trkpt lat="45.8721712" lon="7.6151532">
        <ele>1413</ele>
      </trkpt>
      <trkpt lat="45.8721715" lon="7.6152776">
        <ele>1414</ele>
      </trkpt>
      <trkpt lat="45.8721784" lon="7.6153609">
        <ele>1415</ele>
      </trkpt>
      <trkpt lat="45.8721932" lon="7.6153964">
        <ele>1415</ele>
      </trkpt>
      <trkpt lat="45.8722266" lon="7.6154092">
        <ele>1416</ele>
      </trkpt>
      <trkpt lat="45.8722958" lon="7.6154143">
        <ele>1416</ele>
      </trkpt>
      <trkpt lat="45.8723483" lon="7.6154232">
        <ele>1417</ele>
      </trkpt>
      <trkpt lat="45.8724018" lon="7.6154168">
        <ele>1418</ele>
      </trkpt>
      <trkpt lat="45.8724507" lon="7.6154241">
        <ele>1418</ele>
      </trkpt>
      <trkpt lat="45.8725284" lon="7.6154511">
        <ele>1419</ele>
      </trkpt>
      <trkpt lat="45.8725959" lon="7.6155210">
        <ele>1419</ele>
      </trkpt>
      <trkpt lat="45.8726581" lon="7.6155399">
        <ele>1420</ele>
      </trkpt>
      <trkpt lat="45.8727204" lon="7.6155759">
        <ele>1421</ele>
      </trkpt>
      <trkpt lat="45.8728230" lon="7.6155904">
        <ele>1421</ele>
      </trkpt>
      <trkpt lat="45.8729202" lon="7.6155573">
        <ele>1422</ele>
      </trkpt>
      <trkpt lat="45.8729918" lon="7.6155691">
        <ele>1422</ele>
      </trkpt>
      <trkpt lat="45.8730388" lon="7.6157112">
        <ele>1423</ele>
      </trkpt>
      <trkpt lat="45.8730606" lon="7.6157413">
        <ele>1423</ele>
      </trkpt>
      <trkpt lat="45.8730841" lon="7.6157203">
        <ele>1424</ele>
      </trkpt>
      <trkpt lat="45.8731237" lon="7.6156477">
        <ele>1425</ele>
      </trkpt>
      <trkpt lat="45.8731708" lon="7.6156056">
        <ele>1425</ele>
      </trkpt>
      <trkpt lat="45.8732186" lon="7.6156181">
        <ele>1426</ele>
      </trkpt>
      <trkpt lat="45.8732570" lon="7.6156444">
        <ele>1426</ele>
      </trkpt>
      <trkpt lat="45.8732667" lon="7.6156544">
        <ele>1427</ele>
      </trkpt>
      <trkpt lat="45.8732880" lon="7.6156470">
        <ele>1428</ele>
      </trkpt>
      <trkpt lat="45.8733099" lon="7.6156806">
        <ele>1428</ele>
      </trkpt>
      <trkpt lat="45.8733532" lon="7.6157170">
        <ele>1429</ele>
      </trkpt>
      <trkpt lat="45.8734493" lon="7.6157862">
        <ele>1429</ele>
      </trkpt>
      <trkpt lat="45.8735018" lon="7.6157951">
        <ele>1430</ele>
      </trkpt>
      <trkpt lat="45.8735397" lon="7.6157771">
        <ele>1431</ele>
      </trkpt>
      <trkpt lat="45.8736114" lon="7.6158060">
        <ele>1431</ele>
      </trkpt>
      <trkpt lat="45.8736477" lon="7.6158495">
        <ele>1432</ele>
      </trkpt>
      <trkpt lat="45.8737008" lon="7.6159095">
        <ele>1432</ele>
      </trkpt>
      <trkpt lat="45.8737298" lon="7.6159429">
        <ele>1433</ele>
      </trkpt>
      <trkpt lat="45.8737757" lon="7.6159997">
        <ele>1434</ele>
      </trkpt>
      <trkpt lat="45.8738624" lon="7.6160759">
        <ele>1434</ele>
      </trkpt>
      <trkpt lat="45.8739322" lon="7.6161390">
        <ele>1435</ele>
      </trkpt>
      <trkpt lat="45.8739780" lon="7.6161822">
        <ele>1435</ele>
      </trkpt>
      <trkpt lat="45.8740140" lon="7.6162120">
        <ele>1436</ele>
      </trkpt>
      <trkpt lat="45.8740456" lon="7.6162623">
        <ele>1437</ele>
      </trkpt>
      <trkpt lat="45.8740999" lon="7.6162235">
        <ele>1437</ele>
      </trkpt>
      <trkpt lat="45.8741211" lon="7.6162025">
        <ele>1438</ele>
      </trkpt>
      <trkpt lat="45.8741516" lon="7.6161642">
        <ele>1438</ele>
      </trkpt>
      <trkpt lat="45.8741581" lon="7.6161095">
        <ele>1439</ele>
      </trkpt>
      <trkpt lat="45.8741670" lon="7.6160616">
        <ele>1439</ele>
      </trkpt>
      <trkpt lat="45.8741787" lon="7.6160476">
        <ele>1440</ele>
      </trkpt>
      <trkpt lat="45.8742074" lon="7.6160572">
        <ele>1441</ele>
      </trkpt>
      <trkpt lat="45.8742024" lon="7.6160334">
        <ele>1441</ele>
      </trkpt>
      <trkpt lat="45.8742014" lon="7.6159516">
        <ele>1442</ele>
      </trkpt>
      <trkpt lat="45.8742006" lon="7.6158869">
        <ele>1442</ele>
      </trkpt>
      <trkpt lat="45.8742122" lon="7.6158627">
        <ele>1443</ele>
      </trkpt>
      <trkpt lat="45.8742598" lon="7.6158581">
        <ele>1444</ele>
      </trkpt>
      <trkpt lat="45.8743027" lon="7.6158605">
        <ele>1444</ele>
      </trkpt>
      <trkpt lat="45.8743476" lon="7.6158287">
        <ele>1445</ele>
      </trkpt>
      <trkpt lat="45.8743567" lon="7.6157978">
        <ele>1445</ele>
      </trkpt>
      <trkpt lat="45.8743584" lon="7.6157432">
        <ele>1446</ele>
      </trkpt>
      <trkpt lat="45.8743863" lon="7.6156845">
        <ele>1447</ele>
      </trkpt>
      <trkpt lat="45.8744097" lon="7.6156533">
        <ele>1447</ele>
      </trkpt>
      <trkpt lat="45.8744573" lon="7.6156453">
        <ele>1448</ele>
      </trkpt>
      <trkpt lat="45.8744766" lon="7.6156686">
        <ele>1448</ele>
      </trkpt>
      <trkpt lat="45.8745259" lon="7.6156095">
        <ele>1449</ele>
      </trkpt>
      <trkpt lat="45.8745823" lon="7.6155467">
        <ele>1450</ele>
      </trkpt>
      <trkpt lat="45.8745959" lon="7.6154884">
        <ele>1450</ele>
      </trkpt>
      <trkpt lat="45.8745954" lon="7.6154509">
        <ele>1451</ele>
      </trkpt>
      <trkpt lat="45.8745901" lon="7.6154067">
        <ele>1451</ele>
      </trkpt>
      <trkpt lat="45.8746137" lon="7.6153925">
        <ele>1452</ele>
      </trkpt>
      <trkpt lat="45.8746809" lon="7.6154283">
        <ele>1452</ele>
      </trkpt>
      <trkpt lat="45.8747144" lon="7.6154445">
        <ele>1453</ele>
      </trkpt>
      <trkpt lat="45.8747382" lon="7.6154405">
        <ele>1454</ele>
      </trkpt>
      <trkpt lat="45.8747402" lon="7.6154132">
        <ele>1454</ele>
      </trkpt>
      <trkpt lat="45.8747281" lon="7.6153931">
        <ele>1455</ele>
      </trkpt>
      <trkpt lat="45.8747324" lon="7.6153589">
        <ele>1455</ele>
      </trkpt>
      <trkpt lat="45.8747965" lon="7.6153402">
        <ele>1456</ele>
      </trkpt>
      <trkpt lat="45.8748485" lon="7.6153117">
        <ele>1457</ele>
      </trkpt>
      <trkpt lat="45.8749057" lon="7.6153171">
        <ele>1457</ele>
      </trkpt>
      <trkpt lat="45.8749958" lon="7.6152841">
        <ele>1458</ele>
      </trkpt>
      <trkpt lat="45.8750845" lon="7.6153331">
        <ele>1458</ele>
      </trkpt>
      <trkpt lat="45.8751421" lon="7.6153657">
        <ele>1459</ele>
      </trkpt>
      <trkpt lat="45.8751828" lon="7.6153818">
        <ele>1460</ele>
      </trkpt>
      <trkpt lat="45.8752134" lon="7.6153571">
        <ele>1460</ele>
      </trkpt>
      <trkpt lat="45.8752342" lon="7.6153021">
        <ele>1461</ele>
      </trkpt>
      <trkpt lat="45.8752820" lon="7.6153214">
        <ele>1461</ele>
      </trkpt>
      <trkpt lat="45.8753492" lon="7.6153640">
        <ele>1462</ele>
      </trkpt>
      <trkpt lat="45.8753829" lon="7.6153938">
        <ele>1463</ele>
      </trkpt>
      <trkpt lat="45.8753958" lon="7.6154719">
        <ele>1463</ele>
      </trkpt>
      <trkpt lat="45.8753893" lon="7.6155232">
        <ele>1464</ele>
      </trkpt>
      <trkpt lat="45.8753967" lon="7.6155469">
        <ele>1464</ele>
      </trkpt>
      <trkpt lat="45.8753853" lon="7.6155881">
        <ele>1465</ele>
      </trkpt>
      <trkpt lat="45.8754349" lon="7.6157539">
        <ele>1466</ele>
      </trkpt>
      <trkpt lat="45.8754891" lon="7.6159026">
        <ele>1466</ele>
      </trkpt>
      <trkpt lat="45.8755041" lon="7.6159602">
        <ele>1467</ele>
      </trkpt>
      <trkpt lat="45.8754966" lon="7.6161308">
        <ele>1467</ele>
      </trkpt>
      <trkpt lat="45.8754742" lon="7.6162439">
        <ele>1468</ele>
      </trkpt>
      <trkpt lat="45.8754448" lon="7.6163708">
        <ele>1468</ele>
      </trkpt>
      <trkpt lat="45.8754253" lon="7.6165315">
        <ele>1469</ele>
      </trkpt>
      <trkpt lat="45.8754171" lon="7.6166442">
        <ele>1470</ele>
      </trkpt>
      <trkpt lat="45.8754426" lon="7.6167833">
        <ele>1470</ele>
      </trkpt>
      <trkpt lat="45.8754806" lon="7.6169665">
        <ele>1471</ele>
      </trkpt>
      <trkpt lat="45.8754809" lon="7.6169938">
        <ele>1471</ele>
      </trkpt>
      <trkpt lat="45.8754473" lon="7.6169741">
        <ele>1472</ele>
      </trkpt>
      <trkpt lat="45.8753873" lon="7.6169347">
        <ele>1473</ele>
      </trkpt>
      <trkpt lat="45.8753348" lon="7.6169258">
        <ele>1473</ele>
      </trkpt>
      <trkpt lat="45.8753184" lon="7.6169432">
        <ele>1474</ele>
      </trkpt>
      <trkpt lat="45.8753503" lon="7.6170277">
        <ele>1474</ele>
      </trkpt>
      <trkpt lat="45.8753986" lon="7.6170776">
        <ele>1475</ele>
      </trkpt>
      <trkpt lat="45.8754457" lon="7.6172333">
        <ele>1476</ele>
      </trkpt>
      <trkpt lat="45.8754681" lon="7.6173111">
        <ele>1476</ele>
      </trkpt>
      <trkpt lat="45.8754970" lon="7.6173445">
        <ele>1477</ele>
      </trkpt>
      <trkpt lat="45.8755197" lon="7.6174428">
        <ele>1477</ele>
      </trkpt>
      <trkpt lat="45.8755336" lon="7.6176095">
        <ele>1478</ele>
      </trkpt>
      <trkpt lat="45.8755420" lon="7.6179127">
        <ele>1479</ele>
      </trkpt>
      <trkpt lat="45.8755732" lon="7.6181268">
        <ele>1479</ele>
      </trkpt>
      <trkpt lat="45.8756181" lon="7.6182995">
        <ele>1480</ele>
      </trkpt>
      <trkpt lat="45.8756829" lon="7.6185331">
        <ele>1480</ele>
      </trkpt>
      <trkpt lat="45.8757413" lon="7.6188317">
        <ele>1481</ele>
      </trkpt>
      <trkpt lat="45.8757995" lon="7.6191201">
        <ele>1481</ele>
      </trkpt>
      <trkpt lat="45.8758451" lon="7.6193439">
        <ele>1482</ele>
      </trkpt>
      <trkpt lat="45.8758971" lon="7.6195131">
        <ele>1483</ele>
      </trkpt>
      <trkpt lat="45.8759630" lon="7.6196410">
        <ele>1483</ele>
      </trkpt>
      <trkpt lat="45.8760138" lon="7.6197114">
        <ele>1484</ele>
      </trkpt>
      <trkpt lat="45.8760525" lon="7.6197581">
        <ele>1484</ele>
      </trkpt>
      <trkpt lat="45.8760919" lon="7.6198663">
        <ele>1485</ele>
      </trkpt>
      <trkpt lat="45.8761342" lon="7.6200118">
        <ele>1486</ele>
      </trkpt>
      <trkpt lat="45.8761712" lon="7.6201200">
        <ele>1486</ele>
      </trkpt>
      <trkpt lat="45.8761984" lon="7.6202080">
        <ele>1487</ele>
      </trkpt>
      <trkpt lat="45.8762166" lon="7.6203337">
        <ele>1487</ele>
      </trkpt>
      <trkpt lat="45.8762371" lon="7.6204525">
        <ele>1488</ele>
      </trkpt>
      <trkpt lat="45.8762981" lon="7.6205737">
        <ele>1489</ele>
      </trkpt>
      <trkpt lat="45.8763692" lon="7.6207424">
        <ele>1489</ele>
      </trkpt>
      <trkpt lat="45.8764013" lon="7.6208405">
        <ele>1490</ele>
      </trkpt>
      <trkpt lat="45.8764260" lon="7.6209081">
        <ele>1490</ele>
      </trkpt>
      <trkpt lat="45.8764567" lon="7.6209885">
        <ele>1491</ele>
      </trkpt>
      <trkpt lat="45.8765027" lon="7.6210488">
        <ele>1492</ele>
      </trkpt>
      <trkpt lat="45.8765892" lon="7.6211148">
        <ele>1492</ele>
      </trkpt>
      <trkpt lat="45.8767002" lon="7.6211342">
        <ele>1493</ele>
      </trkpt>
      <trkpt lat="45.8767577" lon="7.6211652">
        <ele>1493</ele>
      </trkpt>
      <trkpt lat="45.8768304" lon="7.6212708">
        <ele>1494</ele>
      </trkpt>
      <trkpt lat="45.8769383" lon="7.6213295">
        <ele>1494</ele>
      </trkpt>
      <trkpt lat="45.8769770" lon="7.6213831">
        <ele>1495</ele>
      </trkpt>
      <trkpt lat="45.8771012" lon="7.6214107">
        <ele>1496</ele>
      </trkpt>
      <trkpt lat="45.8771324" lon="7.6214304">
        <ele>1496</ele>
      </trkpt>
      <trkpt lat="45.8772174" lon="7.6215664">
        <ele>1497</ele>
      </trkpt>
      <trkpt lat="45.8772498" lon="7.6215860">
        <ele>1497</ele>
      </trkpt>
      <trkpt lat="45.8772963" lon="7.6215951">
        <ele>1498</ele>
      </trkpt>
      <trkpt lat="45.8773596" lon="7.6216072">
        <ele>1499</ele>
      </trkpt>
      <trkpt lat="45.8774085" lon="7.6216128">
        <ele>1499</ele>
      </trkpt>
      <trkpt lat="45.8774385" lon="7.6216325">
        <ele>1500</ele>
      </trkpt>
      <trkpt lat="45.8774703" lon="7.6217084">
        <ele>1500</ele>
      </trkpt>
      <trkpt lat="45.8775592" lon="7.6218665">
        <ele>1501</ele>
      </trkpt>
      <trkpt lat="45.8776704" lon="7.6220103">
        <ele>1502</ele>
      </trkpt>
      <trkpt lat="45.8777572" lon="7.6220968">
        <ele>1502</ele>
      </trkpt>
      <trkpt lat="45.8778412" lon="7.6221493">
        <ele>1503</ele>
      </trkpt>
      <trkpt lat="45.8779047" lon="7.6222841">
        <ele>1503</ele>
      </trkpt>
      <trkpt lat="45.8779530" lon="7.6223409">
        <ele>1504</ele>
      </trkpt>
      <trkpt lat="45.8779938" lon="7.6223671">
        <ele>1505</ele>
      </trkpt>
      <trkpt lat="45.8780317" lon="7.6223491">
        <ele>1505</ele>
      </trkpt>
      <trkpt lat="45.8780764" lon="7.6223037">
        <ele>1506</ele>
      </trkpt>
      <trkpt lat="45.8782113" lon="7.6222356">
        <ele>1506</ele>
      </trkpt>
      <trkpt lat="45.8782656" lon="7.6221933">
        <ele>1507</ele>
      </trkpt>
      <trkpt lat="45.8783535" lon="7.6221775">
        <ele>1508</ele>
      </trkpt>
      <trkpt lat="45.8784726" lon="7.6221780">
        <ele>1508</ele>
      </trkpt>
      <trkpt lat="45.8785540" lon="7.6222135">
        <ele>1509</ele>
      </trkpt>
      <trkpt lat="45.8787208" lon="7.6222196">
        <ele>1509</ele>
      </trkpt>
      <trkpt lat="45.8788355" lon="7.6222543">
        <ele>1510</ele>
      </trkpt>
      <trkpt lat="45.8790094" lon="7.6222602">
        <ele>1510</ele>
      </trkpt>
      <trkpt lat="45.8790734" lon="7.6222382">
        <ele>1511</ele>
      </trkpt>
      <trkpt lat="45.8791829" lon="7.6222354">
        <ele>1512</ele>
      </trkpt>
      <trkpt lat="45.8793539" lon="7.6221937">
        <ele>1512</ele>
      </trkpt>
      <trkpt lat="45.8795199" lon="7.6221385">
        <ele>1513</ele>
      </trkpt>
      <trkpt lat="45.8796500" lon="7.6220637">
        <ele>1513</ele>
      </trkpt>
      <trkpt lat="45.8797097" lon="7.6220792">
        <ele>1514</ele>
      </trkpt>
      <trkpt lat="45.8798009" lon="7.6221349">
        <ele>1515</ele>
      </trkpt>
      <trkpt lat="45.8799593" lon="7.6222367">
        <ele>1515</ele>
      </trkpt>
      <trkpt lat="45.8800169" lon="7.6222762">
        <ele>1516</ele>
      </trkpt>
      <trkpt lat="45.8800870" lon="7.6223631">
        <ele>1516</ele>
      </trkpt>
      <trkpt lat="45.8801351" lon="7.6224063">
        <ele>1517</ele>
      </trkpt>
      <trkpt lat="45.8801569" lon="7.6224364">
        <ele>1518</ele>
      </trkpt>
      <trkpt lat="45.8801312" lon="7.6224711">
        <ele>1518</ele>
      </trkpt>
      <trkpt lat="45.8800888" lon="7.6225097">
        <ele>1519</ele>
      </trkpt>
      <trkpt lat="45.8800205" lon="7.6225727">
        <ele>1519</ele>
      </trkpt>
      <trkpt lat="45.8799779" lon="7.6225977">
        <ele>1520</ele>
      </trkpt>
      <trkpt lat="45.8799786" lon="7.6226522">
        <ele>1521</ele>
      </trkpt>
      <trkpt lat="45.8800219" lon="7.6226886">
        <ele>1521</ele>
      </trkpt>
      <trkpt lat="45.8800839" lon="7.6227007">
        <ele>1522</ele>
      </trkpt>
      <trkpt lat="45.8801580" lon="7.6227228">
        <ele>1522</ele>
      </trkpt>
      <trkpt lat="45.8801986" lon="7.6227354">
        <ele>1523</ele>
      </trkpt>
      <trkpt lat="45.8802037" lon="7.6227626">
        <ele>1523</ele>
      </trkpt>
      <trkpt lat="45.8801348" lon="7.6227745">
        <ele>1524</ele>
      </trkpt>
      <trkpt lat="45.8800544" lon="7.6228242">
        <ele>1525</ele>
      </trkpt>
      <trkpt lat="45.8800355" lon="7.6228315">
        <ele>1525</ele>
      </trkpt>
      <trkpt lat="45.8800334" lon="7.6228520">
        <ele>1526</ele>
      </trkpt>
      <trkpt lat="45.8800711" lon="7.6228827">
        <ele>1526</ele>
      </trkpt>
      <trkpt lat="45.8801161" lon="7.6229259">
        <ele>1527</ele>
      </trkpt>
      <trkpt lat="45.8801524" lon="7.6229887">
        <ele>1528</ele>
      </trkpt>
      <trkpt lat="45.8801962" lon="7.6230375">
        <ele>1528</ele>
      </trkpt>
      <trkpt lat="45.8802503" lon="7.6230717">
        <ele>1529</ele>
      </trkpt>
      <trkpt lat="45.8803173" lon="7.6230939">
        <ele>1529</ele>
      </trkpt>
      <trkpt lat="45.8803943" lon="7.6231664">
        <ele>1530</ele>
      </trkpt>
    </trkseg>
  </trk>
</gpx>
