<?xml version="1.0" encoding="UTF-8"?>
<gpx version="1.1" creator="sentieri-vda" xmlns="http://www.topografix.com/GPX/1/1">
  <metadata>
    <name>Plan de la Glaea - Crepin - Alpe Liortere - Fenetre de Cignana - Monte Pancherot</name>
    <desc>Catasto Sentieri VdA — 71_S6</desc>
    <author><name>Regione Autonoma Valle d'Aosta</name></author>
  </metadata>
  <trk>
    <name>Plan de la Glaea - Crepin - Alpe Liortere - Fenetre de Cignana - Monte Pancherot</name>
    <src>Catasto Sentieri VdA (71_S6)</src>
    <trkseg>
      <trkpt lat="45.8838453" lon="7.6031930">
        <ele>1582</ele>
      </trkpt>
      <trkpt lat="45.8837853" lon="7.6029530">
        <ele>1588</ele>
      </trkpt>
      <trkpt lat="45.8838253" lon="7.6026730">
        <ele>1594</ele>
      </trkpt>
      <trkpt lat="45.8840453" lon="7.6024230">
        <ele>1599</ele>
      </trkpt>
      <trkpt lat="45.8841453" lon="7.6017530">
        <ele>1605</ele>
      </trkpt>
      <trkpt lat="45.8850053" lon="7.6004430">
        <ele>1611</ele>
      </trkpt>
      <trkpt lat="45.8857853" lon="7.5997830">
        <ele>1617</ele>
      </trkpt>
      <trkpt lat="45.8862053" lon="7.5990530">
        <ele>1623</ele>
      </trkpt>
      <trkpt lat="45.8868353" lon="7.5989030">
        <ele>1628</ele>
      </trkpt>
      <trkpt lat="45.8880953" lon="7.5978530">
        <ele>1634</ele>
      </trkpt>
      <trkpt lat="45.8898753" lon="7.5984030">
        <ele>1640</ele>
      </trkpt>
      <trkpt lat="45.8906395" lon="7.5981516">
        <ele>1646</ele>
      </trkpt>
      <trkpt lat="45.8909053" lon="7.5984730">
        <ele>1652</ele>
      </trkpt>
      <trkpt lat="45.8917053" lon="7.5998030">
        <ele>1657</ele>
      </trkpt>
      <trkpt lat="45.8918753" lon="7.6004630">
        <ele>1663</ele>
      </trkpt>
      <trkpt lat="45.8918553" lon="7.6007630">
        <ele>1669</ele>
      </trkpt>
      <trkpt lat="45.8916853" lon="7.6008730">
        <ele>1675</ele>
      </trkpt>
      <trkpt lat="45.8908053" lon="7.6005730">
        <ele>1681</ele>
      </trkpt>
      <trkpt lat="45.8912353" lon="7.6022730">
        <ele>1686</ele>
      </trkpt>
      <trkpt lat="45.8912053" lon="7.6034530">
        <ele>1692</ele>
      </trkpt>
      <trkpt lat="45.8909953" lon="7.6046030">
        <ele>1698</ele>
      </trkpt>
      <trkpt lat="45.8906953" lon="7.6048430">
        <ele>1704</ele>
      </trkpt>
      <trkpt lat="45.8909953" lon="7.6050330">
        <ele>1710</ele>
      </trkpt>
      <trkpt lat="45.8914453" lon="7.6063430">
        <ele>1715</ele>
      </trkpt>
      <trkpt lat="45.8914053" lon="7.6065130">
        <ele>1721</ele>
      </trkpt>
      <trkpt lat="45.8911653" lon="7.6063230">
        <ele>1727</ele>
      </trkpt>
      <trkpt lat="45.8912053" lon="7.6068130">
        <ele>1733</ele>
      </trkpt>
      <trkpt lat="45.8909353" lon="7.6067330">
        <ele>1739</ele>
      </trkpt>
      <trkpt lat="45.8910153" lon="7.6068830">
        <ele>1744</ele>
      </trkpt>
      <trkpt lat="45.8909053" lon="7.6072730">
        <ele>1750</ele>
      </trkpt>
      <trkpt lat="45.8907553" lon="7.6073730">
        <ele>1756</ele>
      </trkpt>
      <trkpt lat="45.8908853" lon="7.6075230">
        <ele>1762</ele>
      </trkpt>
      <trkpt lat="45.8907553" lon="7.6076330">
        <ele>1768</ele>
      </trkpt>
      <trkpt lat="45.8906428" lon="7.6079853">
        <ele>1773</ele>
      </trkpt>
      <trkpt lat="45.8909016" lon="7.6081584">
        <ele>1779</ele>
      </trkpt>
      <trkpt lat="45.8912509" lon="7.6083110">
        <ele>1785</ele>
      </trkpt>
      <trkpt lat="45.8912995" lon="7.6084161">
        <ele>1791</ele>
      </trkpt>
      <trkpt lat="45.8912512" lon="7.6085720">
        <ele>1797</ele>
      </trkpt>
      <trkpt lat="45.8912732" lon="7.6087427">
        <ele>1802</ele>
      </trkpt>
      <trkpt lat="45.8912539" lon="7.6088270">
        <ele>1808</ele>
      </trkpt>
      <trkpt lat="45.8912020" lon="7.6089116">
        <ele>1814</ele>
      </trkpt>
      <trkpt lat="45.8910605" lon="7.6089312">
        <ele>1820</ele>
      </trkpt>
      <trkpt lat="45.8909568" lon="7.6089145">
        <ele>1826</ele>
      </trkpt>
      <trkpt lat="45.8907353" lon="7.6088362">
        <ele>1831</ele>
      </trkpt>
      <trkpt lat="45.8905962" lon="7.6087553">
        <ele>1837</ele>
      </trkpt>
      <trkpt lat="45.8904781" lon="7.6086680">
        <ele>1843</ele>
      </trkpt>
      <trkpt lat="45.8903110" lon="7.6085439">
        <ele>1849</ele>
      </trkpt>
      <trkpt lat="45.8902178" lon="7.6084689">
        <ele>1854</ele>
      </trkpt>
      <trkpt lat="45.8898622" lon="7.6082716">
        <ele>1860</ele>
      </trkpt>
      <trkpt lat="45.8897700" lon="7.6082771">
        <ele>1866</ele>
      </trkpt>
      <trkpt lat="45.8897321" lon="7.6083071">
        <ele>1872</ele>
      </trkpt>
      <trkpt lat="45.8897125" lon="7.6083591">
        <ele>1878</ele>
      </trkpt>
      <trkpt lat="45.8897178" lon="7.6084299">
        <ele>1883</ele>
      </trkpt>
      <trkpt lat="45.8898436" lon="7.6087779">
        <ele>1889</ele>
      </trkpt>
      <trkpt lat="45.8898454" lon="7.6089261">
        <ele>1895</ele>
      </trkpt>
      <trkpt lat="45.8897990" lon="7.6089949">
        <ele>1901</ele>
      </trkpt>
      <trkpt lat="45.8895252" lon="7.6090598">
        <ele>1907</ele>
      </trkpt>
      <trkpt lat="45.8894313" lon="7.6091040">
        <ele>1912</ele>
      </trkpt>
      <trkpt lat="45.8893870" lon="7.6091663">
        <ele>1918</ele>
      </trkpt>
      <trkpt lat="45.8893658" lon="7.6092668">
        <ele>1924</ele>
      </trkpt>
      <trkpt lat="45.8893857" lon="7.6094274">
        <ele>1930</ele>
      </trkpt>
      <trkpt lat="45.8894107" lon="7.6094461">
        <ele>1936</ele>
      </trkpt>
      <trkpt lat="45.8894942" lon="7.6094665">
        <ele>1941</ele>
      </trkpt>
      <trkpt lat="45.8896629" lon="7.6094656">
        <ele>1947</ele>
      </trkpt>
      <trkpt lat="45.8897669" lon="7.6095048">
        <ele>1953</ele>
      </trkpt>
      <trkpt lat="45.8899200" lon="7.6095139">
        <ele>1959</ele>
      </trkpt>
      <trkpt lat="45.8900423" lon="7.6095753">
        <ele>1965</ele>
      </trkpt>
      <trkpt lat="45.8900813" lon="7.6096420">
        <ele>1970</ele>
      </trkpt>
      <trkpt lat="45.8900872" lon="7.6097514">
        <ele>1976</ele>
      </trkpt>
      <trkpt lat="45.8899756" lon="7.6100152">
        <ele>1982</ele>
      </trkpt>
      <trkpt lat="45.8899866" lon="7.6101760">
        <ele>1988</ele>
      </trkpt>
      <trkpt lat="45.8900190" lon="7.6102493">
        <ele>1994</ele>
      </trkpt>
      <trkpt lat="45.8902023" lon="7.6103382">
        <ele>1999</ele>
      </trkpt>
      <trkpt lat="45.8902434" lon="7.6103887">
        <ele>2005</ele>
      </trkpt>
      <trkpt lat="45.8902244" lon="7.6104891">
        <ele>2011</ele>
      </trkpt>
      <trkpt lat="45.8900260" lon="7.6106390">
        <ele>2017</ele>
      </trkpt>
      <trkpt lat="45.8899275" lon="7.6106834">
        <ele>2023</ele>
      </trkpt>
      <trkpt lat="45.8897321" lon="7.6107140">
        <ele>2028</ele>
      </trkpt>
      <trkpt lat="45.8894456" lon="7.6108372">
        <ele>2034</ele>
      </trkpt>
      <trkpt lat="45.8894349" lon="7.6108793">
        <ele>2040</ele>
      </trkpt>
      <trkpt lat="45.8894511" lon="7.6109208">
        <ele>2046</ele>
      </trkpt>
      <trkpt lat="45.8895418" lon="7.6109798">
        <ele>2052</ele>
      </trkpt>
      <trkpt lat="45.8896660" lon="7.6110153">
        <ele>2057</ele>
      </trkpt>
      <trkpt lat="45.8897680" lon="7.6110772">
        <ele>2063</ele>
      </trkpt>
      <trkpt lat="45.8898091" lon="7.6111245">
        <ele>2069</ele>
      </trkpt>
      <trkpt lat="45.8898209" lon="7.6111661">
        <ele>2075</ele>
      </trkpt>
      <trkpt lat="45.8898125" lon="7.6112147">
        <ele>2081</ele>
      </trkpt>
      <trkpt lat="45.8897391" lon="7.6112842">
        <ele>2086</ele>
      </trkpt>
      <trkpt lat="45.8894935" lon="7.6114417">
        <ele>2092</ele>
      </trkpt>
      <trkpt lat="45.8893158" lon="7.6114494">
        <ele>2098</ele>
      </trkpt>
      <trkpt lat="45.8893005" lon="7.6114852">
        <ele>2104</ele>
      </trkpt>
      <trkpt lat="45.8893144" lon="7.6115171">
        <ele>2110</ele>
      </trkpt>
      <trkpt lat="45.8894464" lon="7.6116395">
        <ele>2115</ele>
      </trkpt>
      <trkpt lat="45.8895663" lon="7.6116977">
        <ele>2121</ele>
      </trkpt>
      <trkpt lat="45.8898166" lon="7.6117366">
        <ele>2127</ele>
      </trkpt>
      <trkpt lat="45.8900211" lon="7.6117186">
        <ele>2133</ele>
      </trkpt>
      <trkpt lat="45.8902892" lon="7.6117473">
        <ele>2139</ele>
      </trkpt>
      <trkpt lat="45.8905679" lon="7.6117178">
        <ele>2144</ele>
      </trkpt>
      <trkpt lat="45.8906850" lon="7.6117278">
        <ele>2150</ele>
      </trkpt>
      <trkpt lat="45.8907598" lon="7.6117775">
        <ele>2156</ele>
      </trkpt>
      <trkpt lat="45.8907693" lon="7.6118159">
        <ele>2162</ele>
      </trkpt>
      <trkpt lat="45.8907499" lon="7.6118841">
        <ele>2168</ele>
      </trkpt>
      <trkpt lat="45.8906567" lon="7.6119895">
        <ele>2173</ele>
      </trkpt>
      <trkpt lat="45.8904422" lon="7.6121141">
        <ele>2179</ele>
      </trkpt>
      <trkpt lat="45.8901958" lon="7.6122104">
        <ele>2185</ele>
      </trkpt>
      <trkpt lat="45.8901156" lon="7.6122704">
        <ele>2191</ele>
      </trkpt>
      <trkpt lat="45.8898758" lon="7.6125406">
        <ele>2197</ele>
      </trkpt>
      <trkpt lat="45.8897776" lon="7.6126011">
        <ele>2202</ele>
      </trkpt>
      <trkpt lat="45.8895398" lon="7.6126650">
        <ele>2208</ele>
      </trkpt>
      <trkpt lat="45.8894975" lon="7.6127015">
        <ele>2214</ele>
      </trkpt>
      <trkpt lat="45.8895136" lon="7.6127301">
        <ele>2220</ele>
      </trkpt>
      <trkpt lat="45.8898199" lon="7.6127547">
        <ele>2226</ele>
      </trkpt>
      <trkpt lat="45.8899413" lon="7.6127452">
        <ele>2231</ele>
      </trkpt>
      <trkpt lat="45.8902033" lon="7.6126388">
        <ele>2237</ele>
      </trkpt>
      <trkpt lat="45.8902888" lon="7.6126367">
        <ele>2243</ele>
      </trkpt>
      <trkpt lat="45.8903317" lon="7.6126549">
        <ele>2249</ele>
      </trkpt>
      <trkpt lat="45.8903662" lon="7.6127121">
        <ele>2255</ele>
      </trkpt>
      <trkpt lat="45.8903355" lon="7.6127805">
        <ele>2260</ele>
      </trkpt>
      <trkpt lat="45.8901066" lon="7.6130118">
        <ele>2266</ele>
      </trkpt>
      <trkpt lat="45.8899081" lon="7.6131617">
        <ele>2272</ele>
      </trkpt>
      <trkpt lat="45.8897356" lon="7.6132240">
        <ele>2278</ele>
      </trkpt>
      <trkpt lat="45.8896889" lon="7.6132703">
        <ele>2284</ele>
      </trkpt>
      <trkpt lat="45.8897030" lon="7.6133182">
        <ele>2289</ele>
      </trkpt>
      <trkpt lat="45.8899647" lon="7.6133762">
        <ele>2295</ele>
      </trkpt>
      <trkpt lat="45.8900951" lon="7.6133665">
        <ele>2301</ele>
      </trkpt>
      <trkpt lat="45.8903665" lon="7.6132953">
        <ele>2307</ele>
      </trkpt>
      <trkpt lat="45.8904074" lon="7.6133265">
        <ele>2313</ele>
      </trkpt>
      <trkpt lat="45.8904170" lon="7.6133746">
        <ele>2318</ele>
      </trkpt>
      <trkpt lat="45.8903709" lon="7.6134692">
        <ele>2324</ele>
      </trkpt>
      <trkpt lat="45.8900653" lon="7.6136927">
        <ele>2330</ele>
      </trkpt>
      <trkpt lat="45.8898395" lon="7.6138143">
        <ele>2336</ele>
      </trkpt>
      <trkpt lat="45.8897999" lon="7.6138894">
        <ele>2342</ele>
      </trkpt>
      <trkpt lat="45.8889750" lon="7.6147122">
        <ele>2347</ele>
      </trkpt>
      <trkpt lat="45.8888932" lon="7.6152679">
        <ele>2353</ele>
      </trkpt>
      <trkpt lat="45.8888562" lon="7.6156316">
        <ele>2359</ele>
      </trkpt>
      <trkpt lat="45.8888123" lon="7.6159567">
        <ele>2365</ele>
      </trkpt>
      <trkpt lat="45.8887145" lon="7.6161737">
        <ele>2370</ele>
      </trkpt>
      <trkpt lat="45.8886953" lon="7.6165630">
        <ele>2376</ele>
      </trkpt>
      <trkpt lat="45.8884853" lon="7.6170930">
        <ele>2382</ele>
      </trkpt>
      <trkpt lat="45.8867178" lon="7.6173549">
        <ele>2388</ele>
      </trkpt>
      <trkpt lat="45.8865953" lon="7.6173730">
        <ele>2394</ele>
      </trkpt>
      <trkpt lat="45.8865806" lon="7.6175108">
        <ele>2399</ele>
      </trkpt>
      <trkpt lat="45.8865353" lon="7.6179330">
        <ele>2405</ele>
      </trkpt>
      <trkpt lat="45.8863853" lon="7.6179730">
        <ele>2411</ele>
      </trkpt>
      <trkpt lat="45.8862696" lon="7.6177607">
        <ele>2417</ele>
      </trkpt>
      <trkpt lat="45.8862368" lon="7.6178058">
        <ele>2423</ele>
      </trkpt>
      <trkpt lat="45.8862666" lon="7.6179038">
        <ele>2428</ele>
      </trkpt>
      <trkpt lat="45.8860069" lon="7.6178728">
        <ele>2434</ele>
      </trkpt>
      <trkpt lat="45.8858790" lon="7.6179237">
        <ele>2440</ele>
      </trkpt>
      <trkpt lat="45.8856207" lon="7.6179987">
        <ele>2446</ele>
      </trkpt>
      <trkpt lat="45.8855098" lon="7.6182028">
        <ele>2452</ele>
      </trkpt>
      <trkpt lat="45.8853707" lon="7.6184708">
        <ele>2457</ele>
      </trkpt>
      <trkpt lat="45.8853220" lon="7.6185686">
        <ele>2463</ele>
      </trkpt>
      <trkpt lat="45.8852681" lon="7.6187029">
        <ele>2469</ele>
      </trkpt>
      <trkpt lat="45.8854755" lon="7.6189233">
        <ele>2475</ele>
      </trkpt>
      <trkpt lat="45.8855487" lon="7.6190181">
        <ele>2481</ele>
      </trkpt>
      <trkpt lat="45.8856104" lon="7.6191036">
        <ele>2486</ele>
      </trkpt>
      <trkpt lat="45.8856333" lon="7.6191320">
        <ele>2492</ele>
      </trkpt>
      <trkpt lat="45.8856728" lon="7.6192373">
        <ele>2498</ele>
      </trkpt>
      <trkpt lat="45.8856555" lon="7.6192958">
        <ele>2504</ele>
      </trkpt>
      <trkpt lat="45.8855904" lon="7.6193103">
        <ele>2510</ele>
      </trkpt>
      <trkpt lat="45.8855236" lon="7.6194029">
        <ele>2515</ele>
      </trkpt>
      <trkpt lat="45.8854619" lon="7.6196271">
        <ele>2521</ele>
      </trkpt>
      <trkpt lat="45.8854761" lon="7.6198175">
        <ele>2527</ele>
      </trkpt>
      <trkpt lat="45.8853256" lon="7.6201618">
        <ele>2533</ele>
      </trkpt>
      <trkpt lat="45.8856753" lon="7.6210030">
        <ele>2539</ele>
      </trkpt>
      <trkpt lat="45.8859753" lon="7.6213430">
        <ele>2544</ele>
      </trkpt>
      <trkpt lat="45.8860062" lon="7.6220676">
        <ele>2550</ele>
      </trkpt>
      <trkpt lat="45.8862470" lon="7.6222562">
        <ele>2556</ele>
      </trkpt>
      <trkpt lat="45.8864817" lon="7.6225516">
        <ele>2562</ele>
      </trkpt>
      <trkpt lat="45.8864649" lon="7.6226564">
        <ele>2568</ele>
      </trkpt>
      <trkpt lat="45.8864458" lon="7.6226907">
        <ele>2573</ele>
      </trkpt>
      <trkpt lat="45.8864450" lon="7.6227226">
        <ele>2579</ele>
      </trkpt>
      <trkpt lat="45.8864437" lon="7.6228917">
        <ele>2585</ele>
      </trkpt>
      <trkpt lat="45.8864746" lon="7.6229595">
        <ele>2591</ele>
      </trkpt>
      <trkpt lat="45.8864753" lon="7.6230152">
        <ele>2597</ele>
      </trkpt>
      <trkpt lat="45.8865243" lon="7.6230811">
        <ele>2602</ele>
      </trkpt>
      <trkpt lat="45.8865538" lon="7.6231536">
        <ele>2608</ele>
      </trkpt>
      <trkpt lat="45.8865426" lon="7.6232610">
        <ele>2614</ele>
      </trkpt>
    </trkseg>
  </trk>
</gpx>
