<?xml version="1.0" encoding="UTF-8"?>
<gpx version="1.1" creator="sentieri-vda" xmlns="http://www.topografix.com/GPX/1/1">
  <metadata>
    <name>Cleva de la Seya - Sentier de l'abbé Gorret</name>
    <desc>Catasto Sentieri VdA — 71_S51</desc>
    <author><name>Regione Autonoma Valle d'Aosta</name></author>
  </metadata>
  <trk>
    <name>Cleva de la Seya - Sentier de l'abbé Gorret</name>
    <src>Catasto Sentieri VdA (71_S51)</src>
    <trkseg>
      <trkpt lat="45.9044156" lon="7.6571522">
        <ele>2360</ele>
      </trkpt>
      <trkpt lat="45.9044255" lon="7.6570669">
        <ele>2360</ele>
      </trkpt>
      <trkpt lat="45.9044405" lon="7.6569524">
        <ele>2360</ele>
      </trkpt>
      <trkpt lat="45.9044893" lon="7.6567611">
        <ele>2360</ele>
      </trkpt>
      <trkpt lat="45.9045468" lon="7.6566164">
        <ele>2360</ele>
      </trkpt>
      <trkpt lat="45.9045982" lon="7.6564659">
        <ele>2360</ele>
      </trkpt>
      <trkpt lat="45.9046421" lon="7.6563800">
        <ele>2360</ele>
      </trkpt>
      <trkpt lat="45.9047953" lon="7.6562081">
        <ele>2360</ele>
      </trkpt>
      <trkpt lat="45.9049314" lon="7.6559708">
        <ele>2360</ele>
      </trkpt>
      <trkpt lat="45.9050801" lon="7.6555927">
        <ele>2360</ele>
      </trkpt>
      <trkpt lat="45.9051908" lon="7.6552770">
        <ele>2360</ele>
      </trkpt>
      <trkpt lat="45.9052645" lon="7.6549417">
        <ele>2360</ele>
      </trkpt>
      <trkpt lat="45.9054079" lon="7.6545937">
        <ele>2360</ele>
      </trkpt>
      <trkpt lat="45.9055694" lon="7.6540866">
        <ele>2360</ele>
      </trkpt>
      <trkpt lat="45.9055994" lon="7.6538577">
        <ele>2360</ele>
      </trkpt>
      <trkpt lat="45.9056528" lon="7.6536677">
        <ele>2360</ele>
      </trkpt>
      <trkpt lat="45.9057556" lon="7.6535950">
        <ele>2360</ele>
      </trkpt>
      <trkpt lat="45.9059678" lon="7.6532314">
        <ele>2360</ele>
      </trkpt>
      <trkpt lat="45.9062743" lon="7.6528620">
        <ele>2360</ele>
      </trkpt>
      <trkpt lat="45.9065943" lon="7.6522820">
        <ele>2360</ele>
      </trkpt>
      <trkpt lat="45.9073243" lon="7.6515820">
        <ele>2360</ele>
      </trkpt>
      <trkpt lat="45.9075343" lon="7.6512120">
        <ele>2360</ele>
      </trkpt>
      <trkpt lat="45.9076843" lon="7.6499730">
        <ele>2360</ele>
      </trkpt>
      <trkpt lat="45.9075343" lon="7.6492230">
        <ele>2360</ele>
      </trkpt>
      <trkpt lat="45.9062043" lon="7.6478230">
        <ele>2360</ele>
      </trkpt>
      <trkpt lat="45.9057143" lon="7.6476130">
        <ele>2360</ele>
      </trkpt>
      <trkpt lat="45.9056043" lon="7.6473330">
        <ele>2360</ele>
      </trkpt>
      <trkpt lat="45.9057343" lon="7.6468830">
        <ele>2360</ele>
      </trkpt>
      <trkpt lat="45.9060543" lon="7.6467730">
        <ele>2360</ele>
      </trkpt>
      <trkpt lat="45.9062043" lon="7.6465130">
        <ele>2360</ele>
      </trkpt>
      <trkpt lat="45.9063143" lon="7.6455530">
        <ele>2360</ele>
      </trkpt>
      <trkpt lat="45.9070643" lon="7.6438330">
        <ele>2360</ele>
      </trkpt>
      <trkpt lat="45.9071743" lon="7.6424330">
        <ele>2360</ele>
      </trkpt>
      <trkpt lat="45.9068343" lon="7.6416630">
        <ele>2360</ele>
      </trkpt>
      <trkpt lat="45.9068715" lon="7.6414397">
        <ele>2360</ele>
      </trkpt>
      <trkpt lat="45.9070288" lon="7.6412576">
        <ele>2360</ele>
      </trkpt>
      <trkpt lat="45.9071968" lon="7.6413692">
        <ele>2360</ele>
      </trkpt>
      <trkpt lat="45.9072728" lon="7.6413537">
        <ele>2360</ele>
      </trkpt>
      <trkpt lat="45.9073630" lon="7.6413276">
        <ele>2360</ele>
      </trkpt>
      <trkpt lat="45.9074368" lon="7.6413292">
        <ele>2360</ele>
      </trkpt>
      <trkpt lat="45.9074871" lon="7.6413553">
        <ele>2360</ele>
      </trkpt>
      <trkpt lat="45.9075539" lon="7.6413605">
        <ele>2360</ele>
      </trkpt>
      <trkpt lat="45.9076702" lon="7.6413337">
        <ele>2360</ele>
      </trkpt>
      <trkpt lat="45.9077151" lon="7.6413054">
        <ele>2360</ele>
      </trkpt>
      <trkpt lat="45.9077644" lon="7.6412462">
        <ele>2360</ele>
      </trkpt>
      <trkpt lat="45.9078046" lon="7.6412213">
        <ele>2360</ele>
      </trkpt>
      <trkpt lat="45.9078515" lon="7.6411588">
        <ele>2360</ele>
      </trkpt>
      <trkpt lat="45.9079175" lon="7.6411026">
        <ele>2360</ele>
      </trkpt>
      <trkpt lat="45.9079575" lon="7.6410607">
        <ele>2360</ele>
      </trkpt>
      <trkpt lat="45.9080473" lon="7.6410039">
        <ele>2360</ele>
      </trkpt>
      <trkpt lat="45.9081267" lon="7.6408723">
        <ele>2360</ele>
      </trkpt>
      <trkpt lat="45.9082357" lon="7.6408219">
        <ele>2360</ele>
      </trkpt>
      <trkpt lat="45.9082682" lon="7.6407529">
        <ele>2360</ele>
      </trkpt>
      <trkpt lat="45.9083630" lon="7.6407164">
        <ele>2360</ele>
      </trkpt>
      <trkpt lat="45.9084484" lon="7.6406871">
        <ele>2360</ele>
      </trkpt>
      <trkpt lat="45.9085523" lon="7.6406163">
        <ele>2360</ele>
      </trkpt>
      <trkpt lat="45.9086016" lon="7.6406258">
        <ele>2360</ele>
      </trkpt>
      <trkpt lat="45.9086273" lon="7.6405842">
        <ele>2360</ele>
      </trkpt>
      <trkpt lat="45.9086385" lon="7.6405260">
        <ele>2360</ele>
      </trkpt>
      <trkpt lat="45.9086547" lon="7.6404812">
        <ele>2360</ele>
      </trkpt>
      <trkpt lat="45.9086905" lon="7.6404872">
        <ele>2360</ele>
      </trkpt>
      <trkpt lat="45.9087222" lon="7.6405546">
        <ele>2360</ele>
      </trkpt>
      <trkpt lat="45.9087847" lon="7.6405974">
        <ele>2360</ele>
      </trkpt>
      <trkpt lat="45.9088281" lon="7.6406441">
        <ele>2360</ele>
      </trkpt>
      <trkpt lat="45.9088714" lon="7.6406874">
        <ele>2360</ele>
      </trkpt>
      <trkpt lat="45.9089691" lon="7.6406850">
        <ele>2360</ele>
      </trkpt>
      <trkpt lat="45.9090358" lon="7.6406902">
        <ele>2360</ele>
      </trkpt>
      <trkpt lat="45.9090933" lon="7.6407161">
        <ele>2360</ele>
      </trkpt>
      <trkpt lat="45.9091839" lon="7.6407310">
        <ele>2360</ele>
      </trkpt>
      <trkpt lat="45.9092225" lon="7.6407675">
        <ele>2360</ele>
      </trkpt>
      <trkpt lat="45.9092795" lon="7.6407593">
        <ele>2360</ele>
      </trkpt>
      <trkpt lat="45.9093273" lon="7.6407752">
        <ele>2360</ele>
      </trkpt>
      <trkpt lat="45.9093611" lon="7.6408085">
        <ele>2360</ele>
      </trkpt>
      <trkpt lat="45.9094113" lon="7.6408243">
        <ele>2360</ele>
      </trkpt>
      <trkpt lat="45.9094660" lon="7.6408196">
        <ele>2360</ele>
      </trkpt>
      <trkpt lat="45.9094900" lon="7.6408361">
        <ele>2360</ele>
      </trkpt>
      <trkpt lat="45.9095928" lon="7.6408711">
        <ele>2360</ele>
      </trkpt>
      <trkpt lat="45.9096860" lon="7.6408995">
        <ele>2360</ele>
      </trkpt>
      <trkpt lat="45.9097767" lon="7.6409178">
        <ele>2360</ele>
      </trkpt>
      <trkpt lat="45.9098624" lon="7.6409157">
        <ele>2360</ele>
      </trkpt>
      <trkpt lat="45.9099718" lon="7.6409028">
        <ele>2360</ele>
      </trkpt>
      <trkpt lat="45.9100550" lon="7.6408939">
        <ele>2360</ele>
      </trkpt>
      <trkpt lat="45.9101527" lon="7.6408949">
        <ele>2360</ele>
      </trkpt>
      <trkpt lat="45.9101892" lon="7.6409589">
        <ele>2360</ele>
      </trkpt>
      <trkpt lat="45.9102347" lon="7.6409850">
        <ele>2360</ele>
      </trkpt>
      <trkpt lat="45.9102923" lon="7.6410212">
        <ele>2360</ele>
      </trkpt>
      <trkpt lat="45.9103354" lon="7.6410440">
        <ele>2360</ele>
      </trkpt>
      <trkpt lat="45.9103789" lon="7.6410941">
        <ele>2360</ele>
      </trkpt>
      <trkpt lat="45.9104313" lon="7.6410928">
        <ele>2360</ele>
      </trkpt>
      <trkpt lat="45.9105051" lon="7.6410910">
        <ele>2360</ele>
      </trkpt>
      <trkpt lat="45.9105288" lon="7.6410870">
        <ele>2360</ele>
      </trkpt>
      <trkpt lat="45.9105525" lon="7.6410762">
        <ele>2360</ele>
      </trkpt>
      <trkpt lat="45.9105765" lon="7.6410926">
        <ele>2360</ele>
      </trkpt>
      <trkpt lat="45.9105806" lon="7.6411317">
        <ele>2360</ele>
      </trkpt>
      <trkpt lat="45.9105822" lon="7.6411709">
        <ele>2360</ele>
      </trkpt>
      <trkpt lat="45.9105805" lon="7.6412239">
        <ele>2360</ele>
      </trkpt>
      <trkpt lat="45.9105999" lon="7.6412575">
        <ele>2360</ele>
      </trkpt>
      <trkpt lat="45.9106087" lon="7.6412965">
        <ele>2360</ele>
      </trkpt>
      <trkpt lat="45.9106209" lon="7.6413150">
        <ele>2360</ele>
      </trkpt>
      <trkpt lat="45.9106484" lon="7.6413280">
        <ele>2360</ele>
      </trkpt>
      <trkpt lat="45.9106911" lon="7.6414156">
        <ele>2360</ele>
      </trkpt>
      <trkpt lat="45.9107062" lon="7.6414818">
        <ele>2360</ele>
      </trkpt>
      <trkpt lat="45.9107258" lon="7.6415256">
        <ele>2360</ele>
      </trkpt>
      <trkpt lat="45.9107777" lon="7.6415841">
        <ele>2360</ele>
      </trkpt>
      <trkpt lat="45.9108461" lon="7.6416336">
        <ele>2360</ele>
      </trkpt>
      <trkpt lat="45.9108725" lon="7.6417206">
        <ele>2360</ele>
      </trkpt>
      <trkpt lat="45.9109420" lon="7.6417598">
        <ele>2360</ele>
      </trkpt>
      <trkpt lat="45.9109902" lon="7.6418064">
        <ele>2360</ele>
      </trkpt>
      <trkpt lat="45.9110392" lon="7.6419280">
        <ele>2360</ele>
      </trkpt>
      <trkpt lat="45.9110824" lon="7.6419543">
        <ele>2360</ele>
      </trkpt>
      <trkpt lat="45.9111189" lon="7.6420182">
        <ele>2360</ele>
      </trkpt>
      <trkpt lat="45.9111411" lon="7.6420859">
        <ele>2360</ele>
      </trkpt>
      <trkpt lat="45.9111872" lon="7.6421564">
        <ele>2360</ele>
      </trkpt>
      <trkpt lat="45.9112521" lon="7.6422026">
        <ele>2360</ele>
      </trkpt>
      <trkpt lat="45.9113719" lon="7.6422679">
        <ele>2360</ele>
      </trkpt>
      <trkpt lat="45.9114176" lon="7.6423043">
        <ele>2360</ele>
      </trkpt>
      <trkpt lat="45.9114647" lon="7.6424635">
        <ele>2360</ele>
      </trkpt>
      <trkpt lat="45.9115111" lon="7.6425613">
        <ele>2360</ele>
      </trkpt>
      <trkpt lat="45.9115619" lon="7.6426215">
        <ele>2360</ele>
      </trkpt>
      <trkpt lat="45.9116098" lon="7.6426476">
        <ele>2360</ele>
      </trkpt>
      <trkpt lat="45.9116388" lon="7.6426878">
        <ele>2360</ele>
      </trkpt>
      <trkpt lat="45.9116940" lon="7.6427240">
        <ele>2360</ele>
      </trkpt>
      <trkpt lat="45.9117541" lon="7.6427703">
        <ele>2360</ele>
      </trkpt>
      <trkpt lat="45.9118381" lon="7.6428228">
        <ele>2360</ele>
      </trkpt>
      <trkpt lat="45.9118976" lon="7.6428214">
        <ele>2360</ele>
      </trkpt>
      <trkpt lat="45.9120299" lon="7.6429324">
        <ele>2360</ele>
      </trkpt>
      <trkpt lat="45.9121789" lon="7.6430482">
        <ele>2360</ele>
      </trkpt>
      <trkpt lat="45.9122988" lon="7.6431135">
        <ele>2360</ele>
      </trkpt>
      <trkpt lat="45.9123656" lon="7.6431255">
        <ele>2360</ele>
      </trkpt>
      <trkpt lat="45.9125322" lon="7.6431215">
        <ele>2360</ele>
      </trkpt>
      <trkpt lat="45.9125658" lon="7.6431411">
        <ele>2360</ele>
      </trkpt>
      <trkpt lat="45.9127142" lon="7.6432057">
        <ele>2360</ele>
      </trkpt>
      <trkpt lat="45.9128527" lon="7.6432365">
        <ele>2360</ele>
      </trkpt>
      <trkpt lat="45.9129804" lon="7.6433630">
        <ele>2360</ele>
      </trkpt>
      <trkpt lat="45.9130908" lon="7.6434319">
        <ele>2360</ele>
      </trkpt>
      <trkpt lat="45.9131724" lon="7.6434880">
        <ele>2360</ele>
      </trkpt>
      <trkpt lat="45.9132487" lon="7.6434963">
        <ele>2360</ele>
      </trkpt>
      <trkpt lat="45.9133006" lon="7.6434575">
        <ele>2360</ele>
      </trkpt>
      <trkpt lat="45.9133188" lon="7.6433855">
        <ele>2360</ele>
      </trkpt>
      <trkpt lat="45.9133710" lon="7.6433671">
        <ele>2360</ele>
      </trkpt>
      <trkpt lat="45.9134521" lon="7.6433754">
        <ele>2360</ele>
      </trkpt>
      <trkpt lat="45.9135029" lon="7.6434492">
        <ele>2360</ele>
      </trkpt>
      <trkpt lat="45.9135537" lon="7.6435162">
        <ele>2360</ele>
      </trkpt>
      <trkpt lat="45.9136398" lon="7.6435414">
        <ele>2360</ele>
      </trkpt>
      <trkpt lat="45.9137160" lon="7.6435429">
        <ele>2360</ele>
      </trkpt>
      <trkpt lat="45.9137901" lon="7.6435650">
        <ele>2360</ele>
      </trkpt>
      <trkpt lat="45.9138096" lon="7.6436021">
        <ele>2360</ele>
      </trkpt>
      <trkpt lat="45.9138855" lon="7.6437776">
        <ele>2360</ele>
      </trkpt>
      <trkpt lat="45.9139277" lon="7.6439233">
        <ele>2360</ele>
      </trkpt>
      <trkpt lat="45.9139720" lon="7.6440484">
        <ele>2360</ele>
      </trkpt>
      <trkpt lat="45.9139971" lon="7.6441502">
        <ele>2360</ele>
      </trkpt>
      <trkpt lat="45.9140406" lon="7.6442037">
        <ele>2360</ele>
      </trkpt>
      <trkpt lat="45.9141102" lon="7.6442498">
        <ele>2360</ele>
      </trkpt>
      <trkpt lat="45.9141512" lon="7.6442999">
        <ele>2360</ele>
      </trkpt>
      <trkpt lat="45.9141969" lon="7.6443364">
        <ele>2360</ele>
      </trkpt>
      <trkpt lat="45.9142151" lon="7.6444622">
        <ele>2360</ele>
      </trkpt>
      <trkpt lat="45.9142549" lon="7.6446079">
        <ele>2360</ele>
      </trkpt>
      <trkpt lat="45.9142639" lon="7.6447612">
        <ele>2360</ele>
      </trkpt>
      <trkpt lat="45.9142704" lon="7.6449145">
        <ele>2360</ele>
      </trkpt>
      <trkpt lat="45.9142937" lon="7.6450641">
        <ele>2360</ele>
      </trkpt>
      <trkpt lat="45.9143142" lon="7.6451864">
        <ele>2360</ele>
      </trkpt>
      <trkpt lat="45.9143372" lon="7.6453223">
        <ele>2360</ele>
      </trkpt>
      <trkpt lat="45.9143633" lon="7.6455196">
        <ele>2360</ele>
      </trkpt>
      <trkpt lat="45.9143837" lon="7.6456282">
        <ele>2360</ele>
      </trkpt>
      <trkpt lat="45.9143944" lon="7.6457269">
        <ele>2360</ele>
      </trkpt>
      <trkpt lat="45.9144150" lon="7.6458595">
        <ele>2360</ele>
      </trkpt>
      <trkpt lat="45.9144496" lon="7.6459678">
        <ele>2360</ele>
      </trkpt>
      <trkpt lat="45.9144910" lon="7.6460418">
        <ele>2360</ele>
      </trkpt>
      <trkpt lat="45.9145638" lon="7.6461595">
        <ele>2360</ele>
      </trkpt>
      <trkpt lat="45.9145656" lon="7.6462072">
        <ele>2360</ele>
      </trkpt>
      <trkpt lat="45.9145567" lon="7.6462603">
        <ele>2360</ele>
      </trkpt>
      <trkpt lat="45.9145188" lon="7.6462749">
        <ele>2360</ele>
      </trkpt>
      <trkpt lat="45.9145146" lon="7.6463296">
        <ele>2360</ele>
      </trkpt>
      <trkpt lat="45.9145916" lon="7.6463942">
        <ele>2360</ele>
      </trkpt>
      <trkpt lat="45.9146360" lon="7.6464255">
        <ele>2360</ele>
      </trkpt>
      <trkpt lat="45.9146722" lon="7.6464656">
        <ele>2360</ele>
      </trkpt>
      <trkpt lat="45.9146532" lon="7.6465650">
        <ele>2360</ele>
      </trkpt>
      <trkpt lat="45.9146635" lon="7.6466330">
        <ele>2360</ele>
      </trkpt>
      <trkpt lat="45.9146834" lon="7.6467076">
        <ele>2360</ele>
      </trkpt>
      <trkpt lat="45.9146938" lon="7.6467755">
        <ele>2360</ele>
      </trkpt>
      <trkpt lat="45.9146946" lon="7.6468472">
        <ele>2360</ele>
      </trkpt>
      <trkpt lat="45.9147121" lon="7.6469201">
        <ele>2360</ele>
      </trkpt>
      <trkpt lat="45.9147125" lon="7.6469508">
        <ele>2360</ele>
      </trkpt>
      <trkpt lat="45.9147190" lon="7.6470001">
        <ele>2360</ele>
      </trkpt>
      <trkpt lat="45.9147162" lon="7.6470616">
        <ele>2360</ele>
      </trkpt>
      <trkpt lat="45.9147167" lon="7.6471025">
        <ele>2360</ele>
      </trkpt>
      <trkpt lat="45.9147040" lon="7.6471403">
        <ele>2360</ele>
      </trkpt>
      <trkpt lat="45.9146767" lon="7.6471427">
        <ele>2360</ele>
      </trkpt>
      <trkpt lat="45.9146503" lon="7.6471280">
        <ele>2360</ele>
      </trkpt>
      <trkpt lat="45.9146338" lon="7.6471437">
        <ele>2360</ele>
      </trkpt>
      <trkpt lat="45.9146174" lon="7.6471629">
        <ele>2360</ele>
      </trkpt>
      <trkpt lat="45.9146273" lon="7.6471985">
        <ele>2360</ele>
      </trkpt>
      <trkpt lat="45.9146408" lon="7.6472272">
        <ele>2360</ele>
      </trkpt>
      <trkpt lat="45.9146413" lon="7.6472715">
        <ele>2360</ele>
      </trkpt>
      <trkpt lat="45.9146140" lon="7.6472773">
        <ele>2360</ele>
      </trkpt>
      <trkpt lat="45.9145890" lon="7.6472762">
        <ele>2360</ele>
      </trkpt>
      <trkpt lat="45.9145686" lon="7.6472681">
        <ele>2360</ele>
      </trkpt>
      <trkpt lat="45.9145506" lon="7.6472566">
        <ele>2360</ele>
      </trkpt>
      <trkpt lat="45.9145341" lon="7.6472673">
        <ele>2360</ele>
      </trkpt>
      <trkpt lat="45.9145356" lon="7.6472962">
        <ele>2360</ele>
      </trkpt>
      <trkpt lat="45.9145490" lon="7.6473198">
        <ele>2360</ele>
      </trkpt>
      <trkpt lat="45.9145481" lon="7.6473471">
        <ele>2360</ele>
      </trkpt>
      <trkpt lat="45.9145523" lon="7.6473965">
        <ele>2360</ele>
      </trkpt>
      <trkpt lat="45.9145739" lon="7.6474147">
        <ele>2360</ele>
      </trkpt>
      <trkpt lat="45.9146014" lon="7.6474226">
        <ele>2360</ele>
      </trkpt>
      <trkpt lat="45.9146064" lon="7.6474429">
        <ele>2360</ele>
      </trkpt>
      <trkpt lat="45.9145997" lon="7.6474806">
        <ele>2360</ele>
      </trkpt>
      <trkpt lat="45.9146082" lon="7.6474941">
        <ele>2360</ele>
      </trkpt>
      <trkpt lat="45.9146249" lon="7.6475005">
        <ele>2360</ele>
      </trkpt>
      <trkpt lat="45.9146347" lon="7.6475156">
        <ele>2360</ele>
      </trkpt>
      <trkpt lat="45.9146399" lon="7.6475547">
        <ele>2360</ele>
      </trkpt>
      <trkpt lat="45.9146519" lon="7.6475681">
        <ele>2360</ele>
      </trkpt>
      <trkpt lat="45.9146605" lon="7.6475849">
        <ele>2360</ele>
      </trkpt>
      <trkpt lat="45.9146632" lon="7.6476121">
        <ele>2360</ele>
      </trkpt>
      <trkpt lat="45.9146490" lon="7.6476193">
        <ele>2360</ele>
      </trkpt>
      <trkpt lat="45.9146457" lon="7.6476416">
        <ele>2360</ele>
      </trkpt>
      <trkpt lat="45.9146520" lon="7.6476738">
        <ele>2360</ele>
      </trkpt>
      <trkpt lat="45.9146463" lon="7.6476927">
        <ele>2360</ele>
      </trkpt>
      <trkpt lat="45.9146659" lon="7.6477417">
        <ele>2360</ele>
      </trkpt>
      <trkpt lat="45.9146960" lon="7.6477717">
        <ele>2360</ele>
      </trkpt>
      <trkpt lat="45.9147297" lon="7.6478016">
        <ele>2360</ele>
      </trkpt>
      <trkpt lat="45.9147431" lon="7.6478217">
        <ele>2360</ele>
      </trkpt>
      <trkpt lat="45.9147601" lon="7.6478571">
        <ele>2360</ele>
      </trkpt>
      <trkpt lat="45.9147783" lon="7.6478806">
        <ele>2360</ele>
      </trkpt>
      <trkpt lat="45.9147966" lon="7.6479159">
        <ele>2360</ele>
      </trkpt>
      <trkpt lat="45.9148017" lon="7.6479465">
        <ele>2360</ele>
      </trkpt>
      <trkpt lat="45.9148079" lon="7.6479720">
        <ele>2360</ele>
      </trkpt>
      <trkpt lat="45.9148369" lon="7.6480054">
        <ele>2360</ele>
      </trkpt>
      <trkpt lat="45.9148603" lon="7.6480713">
        <ele>2360</ele>
      </trkpt>
      <trkpt lat="45.9148910" lon="7.6481456">
        <ele>2360</ele>
      </trkpt>
      <trkpt lat="45.9149188" lon="7.6481842">
        <ele>2360</ele>
      </trkpt>
      <trkpt lat="45.9149408" lon="7.6482331">
        <ele>2360</ele>
      </trkpt>
      <trkpt lat="45.9149628" lon="7.6482787">
        <ele>2360</ele>
      </trkpt>
      <trkpt lat="45.9149953" lon="7.6483120">
        <ele>2360</ele>
      </trkpt>
      <trkpt lat="45.9150429" lon="7.6484081">
        <ele>2360</ele>
      </trkpt>
      <trkpt lat="45.9150589" lon="7.6484503">
        <ele>2360</ele>
      </trkpt>
      <trkpt lat="45.9150902" lon="7.6484786">
        <ele>2360</ele>
      </trkpt>
      <trkpt lat="45.9151277" lon="7.6485305">
        <ele>2360</ele>
      </trkpt>
      <trkpt lat="45.9151485" lon="7.6485761">
        <ele>2360</ele>
      </trkpt>
      <trkpt lat="45.9151668" lon="7.6486132">
        <ele>2360</ele>
      </trkpt>
      <trkpt lat="45.9151912" lon="7.6486637">
        <ele>2360</ele>
      </trkpt>
      <trkpt lat="45.9152074" lon="7.6487265">
        <ele>2360</ele>
      </trkpt>
      <trkpt lat="45.9152209" lon="7.6487637">
        <ele>2360</ele>
      </trkpt>
      <trkpt lat="45.9152438" lon="7.6487819">
        <ele>2360</ele>
      </trkpt>
      <trkpt lat="45.9152553" lon="7.6488532">
        <ele>2360</ele>
      </trkpt>
      <trkpt lat="45.9152808" lon="7.6488936">
        <ele>2360</ele>
      </trkpt>
      <trkpt lat="45.9153095" lon="7.6489306">
        <ele>2360</ele>
      </trkpt>
      <trkpt lat="45.9153793" lon="7.6489937">
        <ele>2360</ele>
      </trkpt>
      <trkpt lat="45.9154703" lon="7.6490325">
        <ele>2360</ele>
      </trkpt>
      <trkpt lat="45.9156020" lon="7.6490941">
        <ele>2360</ele>
      </trkpt>
      <trkpt lat="45.9157051" lon="7.6491564">
        <ele>2360</ele>
      </trkpt>
      <trkpt lat="45.9157599" lon="7.6491585">
        <ele>2360</ele>
      </trkpt>
      <trkpt lat="45.9157163" lon="7.6492994">
        <ele>2360</ele>
      </trkpt>
      <trkpt lat="45.9156930" lon="7.6493444">
        <ele>2360</ele>
      </trkpt>
      <trkpt lat="45.9157035" lon="7.6494192">
        <ele>2360</ele>
      </trkpt>
      <trkpt lat="45.9157210" lon="7.6494904">
        <ele>2360</ele>
      </trkpt>
      <trkpt lat="45.9156938" lon="7.6496070">
        <ele>2360</ele>
      </trkpt>
      <trkpt lat="45.9156486" lon="7.6496150">
        <ele>2360</ele>
      </trkpt>
      <trkpt lat="45.9156871" lon="7.6496481">
        <ele>2360</ele>
      </trkpt>
      <trkpt lat="45.9156980" lon="7.6497605">
        <ele>2360</ele>
      </trkpt>
      <trkpt lat="45.9156291" lon="7.6497758">
        <ele>2360</ele>
      </trkpt>
      <trkpt lat="45.9156012" lon="7.6498379">
        <ele>2360</ele>
      </trkpt>
      <trkpt lat="45.9155637" lon="7.6498831">
        <ele>2360</ele>
      </trkpt>
      <trkpt lat="45.9154084" lon="7.6500438">
        <ele>2360</ele>
      </trkpt>
      <trkpt lat="45.9153416" lon="7.6500352">
        <ele>2360</ele>
      </trkpt>
      <trkpt lat="45.9152766" lon="7.6499754">
        <ele>2360</ele>
      </trkpt>
      <trkpt lat="45.9151883" lon="7.6499537">
        <ele>2360</ele>
      </trkpt>
      <trkpt lat="45.9151001" lon="7.6499524">
        <ele>2360</ele>
      </trkpt>
      <trkpt lat="45.9150432" lon="7.6499691">
        <ele>2360</ele>
      </trkpt>
      <trkpt lat="45.9148862" lon="7.6499883">
        <ele>2360</ele>
      </trkpt>
      <trkpt lat="45.9148357" lon="7.6499451">
        <ele>2360</ele>
      </trkpt>
      <trkpt lat="45.9147739" lon="7.6499569">
        <ele>2360</ele>
      </trkpt>
      <trkpt lat="45.9146951" lon="7.6499349">
        <ele>2360</ele>
      </trkpt>
      <trkpt lat="45.9145945" lon="7.6498896">
        <ele>2360</ele>
      </trkpt>
      <trkpt lat="45.9144775" lon="7.6498617">
        <ele>2360</ele>
      </trkpt>
      <trkpt lat="45.9143867" lon="7.6498298">
        <ele>2360</ele>
      </trkpt>
      <trkpt lat="45.9142887" lon="7.6497981">
        <ele>2360</ele>
      </trkpt>
      <trkpt lat="45.9142322" lon="7.6498574">
        <ele>2360</ele>
      </trkpt>
      <trkpt lat="45.9142096" lon="7.6499603">
        <ele>2360</ele>
      </trkpt>
      <trkpt lat="45.9141476" lon="7.6499550">
        <ele>2360</ele>
      </trkpt>
      <trkpt lat="45.9140575" lon="7.6499845">
        <ele>2360</ele>
      </trkpt>
      <trkpt lat="45.9140443" lon="7.6500735">
        <ele>2360</ele>
      </trkpt>
      <trkpt lat="45.9139544" lon="7.6501303">
        <ele>2360</ele>
      </trkpt>
      <trkpt lat="45.9139166" lon="7.6502574">
        <ele>2360</ele>
      </trkpt>
      <trkpt lat="45.9138839" lon="7.6503060">
        <ele>2360</ele>
      </trkpt>
      <trkpt lat="45.9138612" lon="7.6502997">
        <ele>2360</ele>
      </trkpt>
      <trkpt lat="45.9138343" lon="7.6503447">
        <ele>2360</ele>
      </trkpt>
      <trkpt lat="45.9138287" lon="7.6503704">
        <ele>2360</ele>
      </trkpt>
      <trkpt lat="45.9138159" lon="7.6503997">
        <ele>2360</ele>
      </trkpt>
      <trkpt lat="45.9137885" lon="7.6503970">
        <ele>2360</ele>
      </trkpt>
      <trkpt lat="45.9137735" lon="7.6504383">
        <ele>2360</ele>
      </trkpt>
      <trkpt lat="45.9137540" lon="7.6504951">
        <ele>2360</ele>
      </trkpt>
      <trkpt lat="45.9137581" lon="7.6505461">
        <ele>2360</ele>
      </trkpt>
      <trkpt lat="45.9137500" lon="7.6505668">
        <ele>2360</ele>
      </trkpt>
      <trkpt lat="45.9137276" lon="7.6505827">
        <ele>2360</ele>
      </trkpt>
      <trkpt lat="45.9136999" lon="7.6505561">
        <ele>2360</ele>
      </trkpt>
      <trkpt lat="45.9136711" lon="7.6505380">
        <ele>2360</ele>
      </trkpt>
      <trkpt lat="45.9136437" lon="7.6505387">
        <ele>2360</ele>
      </trkpt>
      <trkpt lat="45.9136117" lon="7.6505514">
        <ele>2360</ele>
      </trkpt>
      <trkpt lat="45.9135807" lon="7.6505487">
        <ele>2360</ele>
      </trkpt>
      <trkpt lat="45.9135726" lon="7.6505660">
        <ele>2360</ele>
      </trkpt>
      <trkpt lat="45.9135789" lon="7.6505914">
        <ele>2360</ele>
      </trkpt>
      <trkpt lat="45.9135791" lon="7.6506136">
        <ele>2360</ele>
      </trkpt>
      <trkpt lat="45.9135723" lon="7.6506359">
        <ele>2360</ele>
      </trkpt>
      <trkpt lat="45.9135761" lon="7.6506563">
        <ele>2360</ele>
      </trkpt>
      <trkpt lat="45.9135764" lon="7.6506836">
        <ele>2360</ele>
      </trkpt>
      <trkpt lat="45.9135957" lon="7.6507019">
        <ele>2360</ele>
      </trkpt>
      <trkpt lat="45.9136114" lon="7.6507285">
        <ele>2360</ele>
      </trkpt>
      <trkpt lat="45.9136117" lon="7.6507489">
        <ele>2360</ele>
      </trkpt>
      <trkpt lat="45.9136000" lon="7.6507663">
        <ele>2360</ele>
      </trkpt>
      <trkpt lat="45.9135764" lon="7.6507839">
        <ele>2360</ele>
      </trkpt>
      <trkpt lat="45.9135583" lon="7.6508040">
        <ele>2360</ele>
      </trkpt>
      <trkpt lat="45.9135186" lon="7.6507743">
        <ele>2360</ele>
      </trkpt>
      <trkpt lat="45.9135077" lon="7.6507575">
        <ele>2360</ele>
      </trkpt>
      <trkpt lat="45.9134835" lon="7.6507222">
        <ele>2360</ele>
      </trkpt>
      <trkpt lat="45.9134645" lon="7.6507244">
        <ele>2360</ele>
      </trkpt>
      <trkpt lat="45.9134432" lon="7.6507420">
        <ele>2360</ele>
      </trkpt>
      <trkpt lat="45.9134245" lon="7.6507646">
        <ele>2360</ele>
      </trkpt>
      <trkpt lat="45.9134176" lon="7.6507886">
        <ele>2360</ele>
      </trkpt>
      <trkpt lat="45.9134229" lon="7.6508363">
        <ele>2360</ele>
      </trkpt>
      <trkpt lat="45.9134401" lon="7.6508819">
        <ele>2360</ele>
      </trkpt>
      <trkpt lat="45.9134454" lon="7.6509227">
        <ele>2360</ele>
      </trkpt>
      <trkpt lat="45.9134289" lon="7.6509368">
        <ele>2360</ele>
      </trkpt>
      <trkpt lat="45.9134017" lon="7.6509511">
        <ele>2360</ele>
      </trkpt>
      <trkpt lat="45.9134356" lon="7.6509980">
        <ele>2360</ele>
      </trkpt>
      <trkpt lat="45.9134479" lon="7.6510318">
        <ele>2360</ele>
      </trkpt>
      <trkpt lat="45.9134600" lon="7.6510503">
        <ele>2360</ele>
      </trkpt>
      <trkpt lat="45.9134543" lon="7.6510709">
        <ele>2360</ele>
      </trkpt>
      <trkpt lat="45.9134341" lon="7.6510731">
        <ele>2360</ele>
      </trkpt>
      <trkpt lat="45.9134188" lon="7.6510888">
        <ele>2360</ele>
      </trkpt>
      <trkpt lat="45.9134345" lon="7.6511106">
        <ele>2360</ele>
      </trkpt>
      <trkpt lat="45.9134455" lon="7.6511342">
        <ele>2360</ele>
      </trkpt>
      <trkpt lat="45.9134493" lon="7.6511580">
        <ele>2360</ele>
      </trkpt>
      <trkpt lat="45.9134460" lon="7.6511786">
        <ele>2360</ele>
      </trkpt>
      <trkpt lat="45.9134143" lon="7.6511930">
        <ele>2360</ele>
      </trkpt>
      <trkpt lat="45.9132843" lon="7.6519430">
        <ele>2360</ele>
      </trkpt>
      <trkpt lat="45.9133543" lon="7.6535330">
        <ele>2360</ele>
      </trkpt>
      <trkpt lat="45.9131283" lon="7.6539100">
        <ele>2360</ele>
      </trkpt>
      <trkpt lat="45.9129843" lon="7.6539630">
        <ele>2360</ele>
      </trkpt>
      <trkpt lat="45.9128543" lon="7.6542130">
        <ele>2360</ele>
      </trkpt>
      <trkpt lat="45.9128143" lon="7.6551820">
        <ele>2360</ele>
      </trkpt>
      <trkpt lat="45.9130743" lon="7.6566620">
        <ele>2360</ele>
      </trkpt>
      <trkpt lat="45.9135443" lon="7.6574120">
        <ele>2360</ele>
      </trkpt>
      <trkpt lat="45.9133943" lon="7.6575820">
        <ele>2360</ele>
      </trkpt>
      <trkpt lat="45.9132443" lon="7.6588320">
        <ele>2360</ele>
      </trkpt>
      <trkpt lat="45.9128843" lon="7.6594920">
        <ele>2360</ele>
      </trkpt>
      <trkpt lat="45.9125343" lon="7.6598620">
        <ele>2360</ele>
      </trkpt>
      <trkpt lat="45.9126243" lon="7.6599920">
        <ele>2360</ele>
      </trkpt>
      <trkpt lat="45.9124043" lon="7.6605920">
        <ele>2360</ele>
      </trkpt>
      <trkpt lat="45.9121743" lon="7.6605920">
        <ele>2360</ele>
      </trkpt>
      <trkpt lat="45.9120643" lon="7.6611520">
        <ele>2360</ele>
      </trkpt>
      <trkpt lat="45.9116743" lon="7.6617920">
        <ele>2360</ele>
      </trkpt>
      <trkpt lat="45.9114443" lon="7.6631220">
        <ele>2360</ele>
      </trkpt>
      <trkpt lat="45.9105243" lon="7.6652020">
        <ele>2360</ele>
      </trkpt>
      <trkpt lat="45.9101743" lon="7.6655420">
        <ele>2360</ele>
      </trkpt>
      <trkpt lat="45.9098943" lon="7.6662120">
        <ele>2360</ele>
      </trkpt>
      <trkpt lat="45.9094243" lon="7.6665120">
        <ele>2360</ele>
      </trkpt>
      <trkpt lat="45.9089190" lon="7.6662871">
        <ele>2360</ele>
      </trkpt>
      <trkpt lat="45.9086462" lon="7.6658114">
        <ele>2360</ele>
      </trkpt>
      <trkpt lat="45.9084916" lon="7.6659465">
        <ele>2360</ele>
      </trkpt>
      <trkpt lat="45.9083456" lon="7.6658926">
        <ele>2360</ele>
      </trkpt>
      <trkpt lat="45.9078242" lon="7.6652409">
        <ele>2360</ele>
      </trkpt>
      <trkpt lat="45.9074186" lon="7.6646260">
        <ele>2360</ele>
      </trkpt>
      <trkpt lat="45.9071742" lon="7.6644506">
        <ele>2360</ele>
      </trkpt>
      <trkpt lat="45.9070959" lon="7.6639142">
        <ele>2360</ele>
      </trkpt>
      <trkpt lat="45.9069739" lon="7.6634820">
        <ele>2360</ele>
      </trkpt>
      <trkpt lat="45.9069325" lon="7.6630221">
        <ele>2360</ele>
      </trkpt>
      <trkpt lat="45.9069563" lon="7.6625574">
        <ele>2360</ele>
      </trkpt>
      <trkpt lat="45.9069883" lon="7.6624051">
        <ele>2360</ele>
      </trkpt>
      <trkpt lat="45.9070408" lon="7.6622814">
        <ele>2360</ele>
      </trkpt>
      <trkpt lat="45.9071336" lon="7.6621309">
        <ele>2360</ele>
      </trkpt>
      <trkpt lat="45.9071772" lon="7.6620106">
        <ele>2360</ele>
      </trkpt>
      <trkpt lat="45.9072111" lon="7.6618325">
        <ele>2360</ele>
      </trkpt>
      <trkpt lat="45.9072233" lon="7.6617226">
        <ele>2360</ele>
      </trkpt>
      <trkpt lat="45.9071826" lon="7.6615141">
        <ele>2360</ele>
      </trkpt>
      <trkpt lat="45.9071271" lon="7.6613833">
        <ele>2360</ele>
      </trkpt>
      <trkpt lat="45.9069251" lon="7.6612367">
        <ele>2360</ele>
      </trkpt>
      <trkpt lat="45.9067303" lon="7.6611253">
        <ele>2360</ele>
      </trkpt>
      <trkpt lat="45.9065665" lon="7.6609778">
        <ele>2360</ele>
      </trkpt>
      <trkpt lat="45.9062017" lon="7.6605611">
        <ele>2360</ele>
      </trkpt>
      <trkpt lat="45.9059541" lon="7.6601738">
        <ele>2360</ele>
      </trkpt>
      <trkpt lat="45.9055627" lon="7.6594194">
        <ele>2360</ele>
      </trkpt>
      <trkpt lat="45.9053258" lon="7.6587837">
        <ele>2360</ele>
      </trkpt>
      <trkpt lat="45.9051592" lon="7.6583977">
        <ele>2360</ele>
      </trkpt>
      <trkpt lat="45.9051180" lon="7.6583342">
        <ele>2360</ele>
      </trkpt>
      <trkpt lat="45.9049359" lon="7.6577746">
        <ele>2360</ele>
      </trkpt>
      <trkpt lat="45.9048253" lon="7.6575517">
        <ele>2360</ele>
      </trkpt>
      <trkpt lat="45.9046374" lon="7.6572661">
        <ele>2360</ele>
      </trkpt>
      <trkpt lat="45.9045330" lon="7.6571848">
        <ele>2360</ele>
      </trkpt>
      <trkpt lat="45.9044156" lon="7.6571522">
        <ele>2360</ele>
      </trkpt>
    </trkseg>
  </trk>
</gpx>
