<?xml version="1.0" encoding="UTF-8"?>
<gpx version="1.1" creator="sentieri-vda" xmlns="http://www.topografix.com/GPX/1/1">
  <metadata>
    <name>Omens - Col de Vert -  Bec de l'Oie (Arnad)</name>
    <desc>Catasto Sentieri VdA — 73_S11</desc>
    <author><name>Regione Autonoma Valle d'Aosta</name></author>
  </metadata>
  <trk>
    <name>Omens - Col de Vert -  Bec de l'Oie (Arnad)</name>
    <src>Catasto Sentieri VdA (73_S11)</src>
    <trkseg>
      <trkpt lat="45.6770431" lon="7.7102928">
        <ele>797</ele>
      </trkpt>
      <trkpt lat="45.6770257" lon="7.7104737">
        <ele>799</ele>
      </trkpt>
      <trkpt lat="45.6770300" lon="7.7106379">
        <ele>802</ele>
      </trkpt>
      <trkpt lat="45.6770056" lon="7.7106905">
        <ele>804</ele>
      </trkpt>
      <trkpt lat="45.6770492" lon="7.7109702">
        <ele>806</ele>
      </trkpt>
      <trkpt lat="45.6771429" lon="7.7112367">
        <ele>808</ele>
      </trkpt>
      <trkpt lat="45.6771466" lon="7.7114151">
        <ele>811</ele>
      </trkpt>
      <trkpt lat="45.6771173" lon="7.7114457">
        <ele>813</ele>
      </trkpt>
      <trkpt lat="45.6770735" lon="7.7116344">
        <ele>815</ele>
      </trkpt>
      <trkpt lat="45.6770283" lon="7.7117525">
        <ele>818</ele>
      </trkpt>
      <trkpt lat="45.6770343" lon="7.7118912">
        <ele>820</ele>
      </trkpt>
      <trkpt lat="45.6769972" lon="7.7120140">
        <ele>822</ele>
      </trkpt>
      <trkpt lat="45.6769708" lon="7.7120539">
        <ele>824</ele>
      </trkpt>
      <trkpt lat="45.6769858" lon="7.7120769">
        <ele>827</ele>
      </trkpt>
      <trkpt lat="45.6770265" lon="7.7120732">
        <ele>829</ele>
      </trkpt>
      <trkpt lat="45.6770183" lon="7.7121163">
        <ele>831</ele>
      </trkpt>
      <trkpt lat="45.6769736" lon="7.7121279">
        <ele>834</ele>
      </trkpt>
      <trkpt lat="45.6769039" lon="7.7120814">
        <ele>836</ele>
      </trkpt>
      <trkpt lat="45.6768813" lon="7.7120927">
        <ele>838</ele>
      </trkpt>
      <trkpt lat="45.6767990" lon="7.7123060">
        <ele>840</ele>
      </trkpt>
      <trkpt lat="45.6766874" lon="7.7127976">
        <ele>843</ele>
      </trkpt>
      <trkpt lat="45.6766557" lon="7.7128701">
        <ele>845</ele>
      </trkpt>
      <trkpt lat="45.6766228" lon="7.7129282">
        <ele>847</ele>
      </trkpt>
      <trkpt lat="45.6765654" lon="7.7129666">
        <ele>850</ele>
      </trkpt>
      <trkpt lat="45.6764918" lon="7.7129863">
        <ele>852</ele>
      </trkpt>
      <trkpt lat="45.6763516" lon="7.7130415">
        <ele>854</ele>
      </trkpt>
      <trkpt lat="45.6763161" lon="7.7130866">
        <ele>856</ele>
      </trkpt>
      <trkpt lat="45.6762943" lon="7.7131700">
        <ele>859</ele>
      </trkpt>
      <trkpt lat="45.6761078" lon="7.7130623">
        <ele>861</ele>
      </trkpt>
      <trkpt lat="45.6760480" lon="7.7130654">
        <ele>863</ele>
      </trkpt>
      <trkpt lat="45.6759773" lon="7.7130251">
        <ele>866</ele>
      </trkpt>
      <trkpt lat="45.6759570" lon="7.7129613">
        <ele>868</ele>
      </trkpt>
      <trkpt lat="45.6759830" lon="7.7128914">
        <ele>870</ele>
      </trkpt>
      <trkpt lat="45.6759422" lon="7.7128370">
        <ele>873</ele>
      </trkpt>
      <trkpt lat="45.6757363" lon="7.7127892">
        <ele>875</ele>
      </trkpt>
      <trkpt lat="45.6757008" lon="7.7127266">
        <ele>877</ele>
      </trkpt>
      <trkpt lat="45.6756108" lon="7.7126583">
        <ele>879</ele>
      </trkpt>
      <trkpt lat="45.6755527" lon="7.7126550">
        <ele>882</ele>
      </trkpt>
      <trkpt lat="45.6755332" lon="7.7125948">
        <ele>884</ele>
      </trkpt>
      <trkpt lat="45.6754389" lon="7.7124504">
        <ele>886</ele>
      </trkpt>
      <trkpt lat="45.6754209" lon="7.7123956">
        <ele>889</ele>
      </trkpt>
      <trkpt lat="45.6753505" lon="7.7123235">
        <ele>891</ele>
      </trkpt>
      <trkpt lat="45.6753123" lon="7.7122042">
        <ele>893</ele>
      </trkpt>
      <trkpt lat="45.6752187" lon="7.7121014">
        <ele>895</ele>
      </trkpt>
      <trkpt lat="45.6751855" lon="7.7120901">
        <ele>898</ele>
      </trkpt>
      <trkpt lat="45.6751681" lon="7.7121217">
        <ele>900</ele>
      </trkpt>
      <trkpt lat="45.6751095" lon="7.7121451">
        <ele>902</ele>
      </trkpt>
      <trkpt lat="45.6748952" lon="7.7120209">
        <ele>905</ele>
      </trkpt>
      <trkpt lat="45.6746433" lon="7.7119226">
        <ele>907</ele>
      </trkpt>
      <trkpt lat="45.6745989" lon="7.7119469">
        <ele>909</ele>
      </trkpt>
      <trkpt lat="45.6745022" lon="7.7119319">
        <ele>911</ele>
      </trkpt>
      <trkpt lat="45.6744228" lon="7.7119837">
        <ele>914</ele>
      </trkpt>
      <trkpt lat="45.6744031" lon="7.7119801">
        <ele>916</ele>
      </trkpt>
      <trkpt lat="45.6743700" lon="7.7119239">
        <ele>918</ele>
      </trkpt>
      <trkpt lat="45.6743020" lon="7.7119510">
        <ele>921</ele>
      </trkpt>
      <trkpt lat="45.6742184" lon="7.7119178">
        <ele>923</ele>
      </trkpt>
      <trkpt lat="45.6742423" lon="7.7119607">
        <ele>925</ele>
      </trkpt>
      <trkpt lat="45.6742387" lon="7.7120121">
        <ele>927</ele>
      </trkpt>
      <trkpt lat="45.6742544" lon="7.7120503">
        <ele>930</ele>
      </trkpt>
      <trkpt lat="45.6740616" lon="7.7120737">
        <ele>932</ele>
      </trkpt>
      <trkpt lat="45.6740627" lon="7.7120580">
        <ele>934</ele>
      </trkpt>
      <trkpt lat="45.6739830" lon="7.7120235">
        <ele>937</ele>
      </trkpt>
      <trkpt lat="45.6739421" lon="7.7120287">
        <ele>939</ele>
      </trkpt>
      <trkpt lat="45.6738864" lon="7.7120039">
        <ele>941</ele>
      </trkpt>
      <trkpt lat="45.6738412" lon="7.7119819">
        <ele>943</ele>
      </trkpt>
      <trkpt lat="45.6737798" lon="7.7120006">
        <ele>946</ele>
      </trkpt>
      <trkpt lat="45.6737606" lon="7.7122287">
        <ele>948</ele>
      </trkpt>
      <trkpt lat="45.6737699" lon="7.7123028">
        <ele>950</ele>
      </trkpt>
      <trkpt lat="45.6737593" lon="7.7123274">
        <ele>953</ele>
      </trkpt>
      <trkpt lat="45.6736185" lon="7.7122193">
        <ele>955</ele>
      </trkpt>
      <trkpt lat="45.6735349" lon="7.7121778">
        <ele>957</ele>
      </trkpt>
      <trkpt lat="45.6735080" lon="7.7122346">
        <ele>959</ele>
      </trkpt>
      <trkpt lat="45.6735003" lon="7.7123022">
        <ele>962</ele>
      </trkpt>
      <trkpt lat="45.6735199" lon="7.7123496">
        <ele>964</ele>
      </trkpt>
      <trkpt lat="45.6735391" lon="7.7123011">
        <ele>966</ele>
      </trkpt>
      <trkpt lat="45.6735579" lon="7.7123286">
        <ele>969</ele>
      </trkpt>
      <trkpt lat="45.6735766" lon="7.7126066">
        <ele>971</ele>
      </trkpt>
      <trkpt lat="45.6735540" lon="7.7126687">
        <ele>973</ele>
      </trkpt>
      <trkpt lat="45.6734572" lon="7.7126022">
        <ele>975</ele>
      </trkpt>
      <trkpt lat="45.6734564" lon="7.7125317">
        <ele>978</ele>
      </trkpt>
      <trkpt lat="45.6734339" lon="7.7125056">
        <ele>980</ele>
      </trkpt>
      <trkpt lat="45.6733509" lon="7.7124826">
        <ele>982</ele>
      </trkpt>
      <trkpt lat="45.6732135" lon="7.7123017">
        <ele>985</ele>
      </trkpt>
      <trkpt lat="45.6730685" lon="7.7121885">
        <ele>987</ele>
      </trkpt>
      <trkpt lat="45.6729688" lon="7.7121611">
        <ele>989</ele>
      </trkpt>
      <trkpt lat="45.6729918" lon="7.7121233">
        <ele>991</ele>
      </trkpt>
      <trkpt lat="45.6729628" lon="7.7120969">
        <ele>994</ele>
      </trkpt>
      <trkpt lat="45.6728284" lon="7.7121899">
        <ele>996</ele>
      </trkpt>
      <trkpt lat="45.6728108" lon="7.7122268">
        <ele>998</ele>
      </trkpt>
      <trkpt lat="45.6728133" lon="7.7122644">
        <ele>1001</ele>
      </trkpt>
      <trkpt lat="45.6728031" lon="7.7122945">
        <ele>1003</ele>
      </trkpt>
      <trkpt lat="45.6727725" lon="7.7123131">
        <ele>1005</ele>
      </trkpt>
      <trkpt lat="45.6727370" lon="7.7122967">
        <ele>1008</ele>
      </trkpt>
      <trkpt lat="45.6727106" lon="7.7122760">
        <ele>1010</ele>
      </trkpt>
      <trkpt lat="45.6726579" lon="7.7122346">
        <ele>1012</ele>
      </trkpt>
      <trkpt lat="45.6726092" lon="7.7122077">
        <ele>1014</ele>
      </trkpt>
      <trkpt lat="45.6725374" lon="7.7121591">
        <ele>1017</ele>
      </trkpt>
      <trkpt lat="45.6724562" lon="7.7121301">
        <ele>1019</ele>
      </trkpt>
      <trkpt lat="45.6723956" lon="7.7121248">
        <ele>1021</ele>
      </trkpt>
      <trkpt lat="45.6723466" lon="7.7121264">
        <ele>1024</ele>
      </trkpt>
      <trkpt lat="45.6723034" lon="7.7121257">
        <ele>1026</ele>
      </trkpt>
      <trkpt lat="45.6722960" lon="7.7121270">
        <ele>1028</ele>
      </trkpt>
      <trkpt lat="45.6722875" lon="7.7121930">
        <ele>1030</ele>
      </trkpt>
      <trkpt lat="45.6722598" lon="7.7121880">
        <ele>1033</ele>
      </trkpt>
      <trkpt lat="45.6722190" lon="7.7122774">
        <ele>1035</ele>
      </trkpt>
      <trkpt lat="45.6722748" lon="7.7122789">
        <ele>1037</ele>
      </trkpt>
      <trkpt lat="45.6723887" lon="7.7123986">
        <ele>1040</ele>
      </trkpt>
      <trkpt lat="45.6723932" lon="7.7124296">
        <ele>1042</ele>
      </trkpt>
      <trkpt lat="45.6724127" lon="7.7124316">
        <ele>1044</ele>
      </trkpt>
      <trkpt lat="45.6724319" lon="7.7124769">
        <ele>1046</ele>
      </trkpt>
      <trkpt lat="45.6723466" lon="7.7125980">
        <ele>1049</ele>
      </trkpt>
      <trkpt lat="45.6723038" lon="7.7126254">
        <ele>1051</ele>
      </trkpt>
      <trkpt lat="45.6721306" lon="7.7126605">
        <ele>1053</ele>
      </trkpt>
      <trkpt lat="45.6720846" lon="7.7126120">
        <ele>1056</ele>
      </trkpt>
      <trkpt lat="45.6720827" lon="7.7126537">
        <ele>1058</ele>
      </trkpt>
      <trkpt lat="45.6720440" lon="7.7127135">
        <ele>1060</ele>
      </trkpt>
      <trkpt lat="45.6720837" lon="7.7127532">
        <ele>1062</ele>
      </trkpt>
      <trkpt lat="45.6720321" lon="7.7127766">
        <ele>1065</ele>
      </trkpt>
      <trkpt lat="45.6720053" lon="7.7130019">
        <ele>1067</ele>
      </trkpt>
      <trkpt lat="45.6718428" lon="7.7129943">
        <ele>1069</ele>
      </trkpt>
      <trkpt lat="45.6718576" lon="7.7131797">
        <ele>1072</ele>
      </trkpt>
      <trkpt lat="45.6717678" lon="7.7132238">
        <ele>1074</ele>
      </trkpt>
      <trkpt lat="45.6718675" lon="7.7133846">
        <ele>1076</ele>
      </trkpt>
      <trkpt lat="45.6719083" lon="7.7133989">
        <ele>1078</ele>
      </trkpt>
      <trkpt lat="45.6718844" lon="7.7135017">
        <ele>1081</ele>
      </trkpt>
      <trkpt lat="45.6718012" lon="7.7135555">
        <ele>1083</ele>
      </trkpt>
      <trkpt lat="45.6717924" lon="7.7134563">
        <ele>1085</ele>
      </trkpt>
      <trkpt lat="45.6717211" lon="7.7134857">
        <ele>1088</ele>
      </trkpt>
      <trkpt lat="45.6715929" lon="7.7135937">
        <ele>1090</ele>
      </trkpt>
      <trkpt lat="45.6715526" lon="7.7135980">
        <ele>1092</ele>
      </trkpt>
      <trkpt lat="45.6714952" lon="7.7136618">
        <ele>1094</ele>
      </trkpt>
      <trkpt lat="45.6712867" lon="7.7136894">
        <ele>1097</ele>
      </trkpt>
      <trkpt lat="45.6712116" lon="7.7137151">
        <ele>1099</ele>
      </trkpt>
      <trkpt lat="45.6711578" lon="7.7137618">
        <ele>1101</ele>
      </trkpt>
      <trkpt lat="45.6711071" lon="7.7137642">
        <ele>1104</ele>
      </trkpt>
      <trkpt lat="45.6708702" lon="7.7136558">
        <ele>1106</ele>
      </trkpt>
      <trkpt lat="45.6708576" lon="7.7136332">
        <ele>1108</ele>
      </trkpt>
      <trkpt lat="45.6708102" lon="7.7136496">
        <ele>1110</ele>
      </trkpt>
      <trkpt lat="45.6707150" lon="7.7136087">
        <ele>1113</ele>
      </trkpt>
      <trkpt lat="45.6707204" lon="7.7136379">
        <ele>1115</ele>
      </trkpt>
      <trkpt lat="45.6706401" lon="7.7136438">
        <ele>1117</ele>
      </trkpt>
      <trkpt lat="45.6706185" lon="7.7136354">
        <ele>1120</ele>
      </trkpt>
      <trkpt lat="45.6706151" lon="7.7135868">
        <ele>1122</ele>
      </trkpt>
      <trkpt lat="45.6705402" lon="7.7135618">
        <ele>1124</ele>
      </trkpt>
      <trkpt lat="45.6705358" lon="7.7135823">
        <ele>1126</ele>
      </trkpt>
      <trkpt lat="45.6704839" lon="7.7136160">
        <ele>1129</ele>
      </trkpt>
      <trkpt lat="45.6704928" lon="7.7136695">
        <ele>1131</ele>
      </trkpt>
      <trkpt lat="45.6705175" lon="7.7137083">
        <ele>1133</ele>
      </trkpt>
      <trkpt lat="45.6705131" lon="7.7137369">
        <ele>1136</ele>
      </trkpt>
      <trkpt lat="45.6704789" lon="7.7137753">
        <ele>1138</ele>
      </trkpt>
      <trkpt lat="45.6704354" lon="7.7137793">
        <ele>1140</ele>
      </trkpt>
      <trkpt lat="45.6704102" lon="7.7138059">
        <ele>1142</ele>
      </trkpt>
      <trkpt lat="45.6704086" lon="7.7138269">
        <ele>1145</ele>
      </trkpt>
      <trkpt lat="45.6704558" lon="7.7138762">
        <ele>1147</ele>
      </trkpt>
      <trkpt lat="45.6704501" lon="7.7139188">
        <ele>1149</ele>
      </trkpt>
      <trkpt lat="45.6704612" lon="7.7139429">
        <ele>1152</ele>
      </trkpt>
      <trkpt lat="45.6705533" lon="7.7140758">
        <ele>1154</ele>
      </trkpt>
      <trkpt lat="45.6704878" lon="7.7141261">
        <ele>1156</ele>
      </trkpt>
      <trkpt lat="45.6705528" lon="7.7143128">
        <ele>1159</ele>
      </trkpt>
      <trkpt lat="45.6706243" lon="7.7144750">
        <ele>1161</ele>
      </trkpt>
      <trkpt lat="45.6707820" lon="7.7146341">
        <ele>1163</ele>
      </trkpt>
      <trkpt lat="45.6709856" lon="7.7148162">
        <ele>1165</ele>
      </trkpt>
      <trkpt lat="45.6710551" lon="7.7149027">
        <ele>1168</ele>
      </trkpt>
      <trkpt lat="45.6711576" lon="7.7152543">
        <ele>1170</ele>
      </trkpt>
      <trkpt lat="45.6712962" lon="7.7155407">
        <ele>1172</ele>
      </trkpt>
      <trkpt lat="45.6712889" lon="7.7155743">
        <ele>1175</ele>
      </trkpt>
      <trkpt lat="45.6712616" lon="7.7155980">
        <ele>1177</ele>
      </trkpt>
      <trkpt lat="45.6710663" lon="7.7155653">
        <ele>1179</ele>
      </trkpt>
      <trkpt lat="45.6708012" lon="7.7155224">
        <ele>1181</ele>
      </trkpt>
      <trkpt lat="45.6705278" lon="7.7154754">
        <ele>1184</ele>
      </trkpt>
      <trkpt lat="45.6703348" lon="7.7153961">
        <ele>1186</ele>
      </trkpt>
      <trkpt lat="45.6701721" lon="7.7153569">
        <ele>1188</ele>
      </trkpt>
      <trkpt lat="45.6701006" lon="7.7154490">
        <ele>1191</ele>
      </trkpt>
      <trkpt lat="45.6698713" lon="7.7156226">
        <ele>1193</ele>
      </trkpt>
      <trkpt lat="45.6697131" lon="7.7155104">
        <ele>1195</ele>
      </trkpt>
      <trkpt lat="45.6695804" lon="7.7154910">
        <ele>1197</ele>
      </trkpt>
      <trkpt lat="45.6695463" lon="7.7155038">
        <ele>1200</ele>
      </trkpt>
      <trkpt lat="45.6695493" lon="7.7155321">
        <ele>1202</ele>
      </trkpt>
      <trkpt lat="45.6694388" lon="7.7155808">
        <ele>1204</ele>
      </trkpt>
      <trkpt lat="45.6692358" lon="7.7155192">
        <ele>1207</ele>
      </trkpt>
      <trkpt lat="45.6691803" lon="7.7155663">
        <ele>1209</ele>
      </trkpt>
      <trkpt lat="45.6692045" lon="7.7156046">
        <ele>1211</ele>
      </trkpt>
      <trkpt lat="45.6692019" lon="7.7158121">
        <ele>1213</ele>
      </trkpt>
      <trkpt lat="45.6690918" lon="7.7158831">
        <ele>1216</ele>
      </trkpt>
      <trkpt lat="45.6689703" lon="7.7158925">
        <ele>1218</ele>
      </trkpt>
      <trkpt lat="45.6688684" lon="7.7159563">
        <ele>1220</ele>
      </trkpt>
      <trkpt lat="45.6688260" lon="7.7160103">
        <ele>1223</ele>
      </trkpt>
      <trkpt lat="45.6688378" lon="7.7160969">
        <ele>1225</ele>
      </trkpt>
      <trkpt lat="45.6687941" lon="7.7161684">
        <ele>1227</ele>
      </trkpt>
      <trkpt lat="45.6687158" lon="7.7161208">
        <ele>1229</ele>
      </trkpt>
      <trkpt lat="45.6686635" lon="7.7161315">
        <ele>1232</ele>
      </trkpt>
      <trkpt lat="45.6686627" lon="7.7161800">
        <ele>1234</ele>
      </trkpt>
      <trkpt lat="45.6687202" lon="7.7163635">
        <ele>1236</ele>
      </trkpt>
      <trkpt lat="45.6687267" lon="7.7164842">
        <ele>1239</ele>
      </trkpt>
      <trkpt lat="45.6687941" lon="7.7165041">
        <ele>1241</ele>
      </trkpt>
      <trkpt lat="45.6688146" lon="7.7165597">
        <ele>1243</ele>
      </trkpt>
      <trkpt lat="45.6688520" lon="7.7166786">
        <ele>1245</ele>
      </trkpt>
      <trkpt lat="45.6689661" lon="7.7168344">
        <ele>1248</ele>
      </trkpt>
      <trkpt lat="45.6690905" lon="7.7169804">
        <ele>1250</ele>
      </trkpt>
      <trkpt lat="45.6692698" lon="7.7170746">
        <ele>1252</ele>
      </trkpt>
      <trkpt lat="45.6692699" lon="7.7171536">
        <ele>1255</ele>
      </trkpt>
      <trkpt lat="45.6691633" lon="7.7171666">
        <ele>1257</ele>
      </trkpt>
      <trkpt lat="45.6689361" lon="7.7171661">
        <ele>1259</ele>
      </trkpt>
      <trkpt lat="45.6688387" lon="7.7171298">
        <ele>1261</ele>
      </trkpt>
      <trkpt lat="45.6686982" lon="7.7170175">
        <ele>1264</ele>
      </trkpt>
      <trkpt lat="45.6687278" lon="7.7170639">
        <ele>1266</ele>
      </trkpt>
      <trkpt lat="45.6687059" lon="7.7170737">
        <ele>1268</ele>
      </trkpt>
      <trkpt lat="45.6686824" lon="7.7171527">
        <ele>1271</ele>
      </trkpt>
      <trkpt lat="45.6686448" lon="7.7172013">
        <ele>1273</ele>
      </trkpt>
      <trkpt lat="45.6687026" lon="7.7171981">
        <ele>1275</ele>
      </trkpt>
      <trkpt lat="45.6686568" lon="7.7172527">
        <ele>1277</ele>
      </trkpt>
      <trkpt lat="45.6686518" lon="7.7173500">
        <ele>1280</ele>
      </trkpt>
      <trkpt lat="45.6686730" lon="7.7173774">
        <ele>1282</ele>
      </trkpt>
      <trkpt lat="45.6685927" lon="7.7174217">
        <ele>1284</ele>
      </trkpt>
      <trkpt lat="45.6685794" lon="7.7174566">
        <ele>1287</ele>
      </trkpt>
      <trkpt lat="45.6685843" lon="7.7175630">
        <ele>1289</ele>
      </trkpt>
      <trkpt lat="45.6685553" lon="7.7176115">
        <ele>1291</ele>
      </trkpt>
      <trkpt lat="45.6685121" lon="7.7176278">
        <ele>1294</ele>
      </trkpt>
      <trkpt lat="45.6684257" lon="7.7177214">
        <ele>1296</ele>
      </trkpt>
      <trkpt lat="45.6684211" lon="7.7177782">
        <ele>1298</ele>
      </trkpt>
      <trkpt lat="45.6683574" lon="7.7177748">
        <ele>1300</ele>
      </trkpt>
      <trkpt lat="45.6683351" lon="7.7178053">
        <ele>1303</ele>
      </trkpt>
      <trkpt lat="45.6683457" lon="7.7178484">
        <ele>1305</ele>
      </trkpt>
      <trkpt lat="45.6683063" lon="7.7178873">
        <ele>1307</ele>
      </trkpt>
      <trkpt lat="45.6682851" lon="7.7178234">
        <ele>1310</ele>
      </trkpt>
      <trkpt lat="45.6682650" lon="7.7176009">
        <ele>1312</ele>
      </trkpt>
      <trkpt lat="45.6682742" lon="7.7175738">
        <ele>1314</ele>
      </trkpt>
      <trkpt lat="45.6682300" lon="7.7174172">
        <ele>1316</ele>
      </trkpt>
      <trkpt lat="45.6682313" lon="7.7172511">
        <ele>1319</ele>
      </trkpt>
      <trkpt lat="45.6680691" lon="7.7170981">
        <ele>1321</ele>
      </trkpt>
      <trkpt lat="45.6680585" lon="7.7171405">
        <ele>1323</ele>
      </trkpt>
      <trkpt lat="45.6680250" lon="7.7171392">
        <ele>1326</ele>
      </trkpt>
      <trkpt lat="45.6680405" lon="7.7171532">
        <ele>1328</ele>
      </trkpt>
      <trkpt lat="45.6680392" lon="7.7173205">
        <ele>1330</ele>
      </trkpt>
      <trkpt lat="45.6680685" lon="7.7174354">
        <ele>1332</ele>
      </trkpt>
      <trkpt lat="45.6680564" lon="7.7175398">
        <ele>1335</ele>
      </trkpt>
      <trkpt lat="45.6679939" lon="7.7177202">
        <ele>1337</ele>
      </trkpt>
      <trkpt lat="45.6679769" lon="7.7178263">
        <ele>1339</ele>
      </trkpt>
      <trkpt lat="45.6679033" lon="7.7179352">
        <ele>1342</ele>
      </trkpt>
      <trkpt lat="45.6678774" lon="7.7179429">
        <ele>1344</ele>
      </trkpt>
      <trkpt lat="45.6678603" lon="7.7180559">
        <ele>1346</ele>
      </trkpt>
      <trkpt lat="45.6678348" lon="7.7180628">
        <ele>1348</ele>
      </trkpt>
      <trkpt lat="45.6677536" lon="7.7180103">
        <ele>1351</ele>
      </trkpt>
      <trkpt lat="45.6676777" lon="7.7180226">
        <ele>1353</ele>
      </trkpt>
      <trkpt lat="45.6675666" lon="7.7179813">
        <ele>1355</ele>
      </trkpt>
      <trkpt lat="45.6675767" lon="7.7179452">
        <ele>1358</ele>
      </trkpt>
      <trkpt lat="45.6676019" lon="7.7179165">
        <ele>1360</ele>
      </trkpt>
      <trkpt lat="45.6676056" lon="7.7177748">
        <ele>1362</ele>
      </trkpt>
      <trkpt lat="45.6675793" lon="7.7176275">
        <ele>1364</ele>
      </trkpt>
      <trkpt lat="45.6675469" lon="7.7175445">
        <ele>1367</ele>
      </trkpt>
      <trkpt lat="45.6674749" lon="7.7174638">
        <ele>1369</ele>
      </trkpt>
      <trkpt lat="45.6674032" lon="7.7174505">
        <ele>1371</ele>
      </trkpt>
      <trkpt lat="45.6673675" lon="7.7174774">
        <ele>1374</ele>
      </trkpt>
      <trkpt lat="45.6672043" lon="7.7174908">
        <ele>1376</ele>
      </trkpt>
      <trkpt lat="45.6670529" lon="7.7173913">
        <ele>1378</ele>
      </trkpt>
      <trkpt lat="45.6669434" lon="7.7173962">
        <ele>1380</ele>
      </trkpt>
      <trkpt lat="45.6668553" lon="7.7174694">
        <ele>1383</ele>
      </trkpt>
      <trkpt lat="45.6667677" lon="7.7175769">
        <ele>1385</ele>
      </trkpt>
      <trkpt lat="45.6667528" lon="7.7179052">
        <ele>1387</ele>
      </trkpt>
      <trkpt lat="45.6667250" lon="7.7180014">
        <ele>1390</ele>
      </trkpt>
      <trkpt lat="45.6667030" lon="7.7179939">
        <ele>1392</ele>
      </trkpt>
      <trkpt lat="45.6666858" lon="7.7180633">
        <ele>1394</ele>
      </trkpt>
      <trkpt lat="45.6666553" lon="7.7180651">
        <ele>1396</ele>
      </trkpt>
      <trkpt lat="45.6666528" lon="7.7181399">
        <ele>1399</ele>
      </trkpt>
      <trkpt lat="45.6667874" lon="7.7183460">
        <ele>1401</ele>
      </trkpt>
      <trkpt lat="45.6668051" lon="7.7184417">
        <ele>1403</ele>
      </trkpt>
      <trkpt lat="45.6666826" lon="7.7185331">
        <ele>1406</ele>
      </trkpt>
      <trkpt lat="45.6666587" lon="7.7186047">
        <ele>1408</ele>
      </trkpt>
      <trkpt lat="45.6666127" lon="7.7186693">
        <ele>1410</ele>
      </trkpt>
      <trkpt lat="45.6665126" lon="7.7187685">
        <ele>1412</ele>
      </trkpt>
      <trkpt lat="45.6665434" lon="7.7188070">
        <ele>1415</ele>
      </trkpt>
      <trkpt lat="45.6664572" lon="7.7188520">
        <ele>1417</ele>
      </trkpt>
      <trkpt lat="45.6664507" lon="7.7187713">
        <ele>1419</ele>
      </trkpt>
      <trkpt lat="45.6664015" lon="7.7188000">
        <ele>1422</ele>
      </trkpt>
      <trkpt lat="45.6662978" lon="7.7190431">
        <ele>1424</ele>
      </trkpt>
      <trkpt lat="45.6663098" lon="7.7190719">
        <ele>1426</ele>
      </trkpt>
      <trkpt lat="45.6662749" lon="7.7190533">
        <ele>1429</ele>
      </trkpt>
      <trkpt lat="45.6662672" lon="7.7190272">
        <ele>1431</ele>
      </trkpt>
      <trkpt lat="45.6662600" lon="7.7190772">
        <ele>1433</ele>
      </trkpt>
      <trkpt lat="45.6662203" lon="7.7190731">
        <ele>1435</ele>
      </trkpt>
      <trkpt lat="45.6661664" lon="7.7192007">
        <ele>1438</ele>
      </trkpt>
      <trkpt lat="45.6661560" lon="7.7191453">
        <ele>1440</ele>
      </trkpt>
      <trkpt lat="45.6660967" lon="7.7192234">
        <ele>1442</ele>
      </trkpt>
      <trkpt lat="45.6660393" lon="7.7192296">
        <ele>1445</ele>
      </trkpt>
      <trkpt lat="45.6657750" lon="7.7194307">
        <ele>1447</ele>
      </trkpt>
      <trkpt lat="45.6656469" lon="7.7197427">
        <ele>1449</ele>
      </trkpt>
      <trkpt lat="45.6656338" lon="7.7198240">
        <ele>1451</ele>
      </trkpt>
      <trkpt lat="45.6654484" lon="7.7201152">
        <ele>1454</ele>
      </trkpt>
      <trkpt lat="45.6653774" lon="7.7202700">
        <ele>1456</ele>
      </trkpt>
      <trkpt lat="45.6654001" lon="7.7202660">
        <ele>1458</ele>
      </trkpt>
      <trkpt lat="45.6654201" lon="7.7203360">
        <ele>1461</ele>
      </trkpt>
      <trkpt lat="45.6653901" lon="7.7205360">
        <ele>1463</ele>
      </trkpt>
      <trkpt lat="45.6653401" lon="7.7207060">
        <ele>1465</ele>
      </trkpt>
      <trkpt lat="45.6653401" lon="7.7208260">
        <ele>1467</ele>
      </trkpt>
      <trkpt lat="45.6653601" lon="7.7208560">
        <ele>1470</ele>
      </trkpt>
      <trkpt lat="45.6653701" lon="7.7209860">
        <ele>1472</ele>
      </trkpt>
      <trkpt lat="45.6654101" lon="7.7211160">
        <ele>1474</ele>
      </trkpt>
      <trkpt lat="45.6654301" lon="7.7214460">
        <ele>1477</ele>
      </trkpt>
      <trkpt lat="45.6654701" lon="7.7215860">
        <ele>1479</ele>
      </trkpt>
      <trkpt lat="45.6654801" lon="7.7217060">
        <ele>1481</ele>
      </trkpt>
      <trkpt lat="45.6655301" lon="7.7217860">
        <ele>1483</ele>
      </trkpt>
      <trkpt lat="45.6656201" lon="7.7218560">
        <ele>1486</ele>
      </trkpt>
      <trkpt lat="45.6655401" lon="7.7220160">
        <ele>1488</ele>
      </trkpt>
      <trkpt lat="45.6655401" lon="7.7220660">
        <ele>1490</ele>
      </trkpt>
      <trkpt lat="45.6655101" lon="7.7221360">
        <ele>1493</ele>
      </trkpt>
      <trkpt lat="45.6655301" lon="7.7221360">
        <ele>1495</ele>
      </trkpt>
      <trkpt lat="45.6656101" lon="7.7222860">
        <ele>1497</ele>
      </trkpt>
      <trkpt lat="45.6656701" lon="7.7223560">
        <ele>1499</ele>
      </trkpt>
      <trkpt lat="45.6657001" lon="7.7224460">
        <ele>1502</ele>
      </trkpt>
      <trkpt lat="45.6657501" lon="7.7225260">
        <ele>1504</ele>
      </trkpt>
      <trkpt lat="45.6658501" lon="7.7226360">
        <ele>1506</ele>
      </trkpt>
      <trkpt lat="45.6660601" lon="7.7227960">
        <ele>1509</ele>
      </trkpt>
      <trkpt lat="45.6660621" lon="7.7228874">
        <ele>1511</ele>
      </trkpt>
      <trkpt lat="45.6660191" lon="7.7229750">
        <ele>1513</ele>
      </trkpt>
      <trkpt lat="45.6660221" lon="7.7232320">
        <ele>1515</ele>
      </trkpt>
      <trkpt lat="45.6659531" lon="7.7235420">
        <ele>1518</ele>
      </trkpt>
      <trkpt lat="45.6659561" lon="7.7237470">
        <ele>1520</ele>
      </trkpt>
      <trkpt lat="45.6659101" lon="7.7237560">
        <ele>1522</ele>
      </trkpt>
      <trkpt lat="45.6658001" lon="7.7238260">
        <ele>1525</ele>
      </trkpt>
      <trkpt lat="45.6656701" lon="7.7241360">
        <ele>1527</ele>
      </trkpt>
      <trkpt lat="45.6655901" lon="7.7242060">
        <ele>1529</ele>
      </trkpt>
      <trkpt lat="45.6655601" lon="7.7243960">
        <ele>1531</ele>
      </trkpt>
      <trkpt lat="45.6654701" lon="7.7243960">
        <ele>1534</ele>
      </trkpt>
      <trkpt lat="45.6654201" lon="7.7245060">
        <ele>1536</ele>
      </trkpt>
      <trkpt lat="45.6654501" lon="7.7245660">
        <ele>1538</ele>
      </trkpt>
      <trkpt lat="45.6654401" lon="7.7246160">
        <ele>1541</ele>
      </trkpt>
      <trkpt lat="45.6653401" lon="7.7246360">
        <ele>1543</ele>
      </trkpt>
      <trkpt lat="45.6653001" lon="7.7247160">
        <ele>1545</ele>
      </trkpt>
      <trkpt lat="45.6653401" lon="7.7247360">
        <ele>1547</ele>
      </trkpt>
      <trkpt lat="45.6653201" lon="7.7247560">
        <ele>1550</ele>
      </trkpt>
      <trkpt lat="45.6653001" lon="7.7247460">
        <ele>1552</ele>
      </trkpt>
      <trkpt lat="45.6652901" lon="7.7247760">
        <ele>1554</ele>
      </trkpt>
      <trkpt lat="45.6653401" lon="7.7248260">
        <ele>1557</ele>
      </trkpt>
      <trkpt lat="45.6652601" lon="7.7248060">
        <ele>1559</ele>
      </trkpt>
      <trkpt lat="45.6652901" lon="7.7249160">
        <ele>1561</ele>
      </trkpt>
      <trkpt lat="45.6652701" lon="7.7249260">
        <ele>1563</ele>
      </trkpt>
      <trkpt lat="45.6653301" lon="7.7249460">
        <ele>1566</ele>
      </trkpt>
      <trkpt lat="45.6653101" lon="7.7251960">
        <ele>1568</ele>
      </trkpt>
      <trkpt lat="45.6653301" lon="7.7253260">
        <ele>1570</ele>
      </trkpt>
      <trkpt lat="45.6653001" lon="7.7253260">
        <ele>1573</ele>
      </trkpt>
      <trkpt lat="45.6653201" lon="7.7253560">
        <ele>1575</ele>
      </trkpt>
      <trkpt lat="45.6652701" lon="7.7253860">
        <ele>1577</ele>
      </trkpt>
      <trkpt lat="45.6652401" lon="7.7254460">
        <ele>1580</ele>
      </trkpt>
      <trkpt lat="45.6651301" lon="7.7255360">
        <ele>1582</ele>
      </trkpt>
      <trkpt lat="45.6651201" lon="7.7256260">
        <ele>1584</ele>
      </trkpt>
      <trkpt lat="45.6652201" lon="7.7259560">
        <ele>1586</ele>
      </trkpt>
      <trkpt lat="45.6652301" lon="7.7260260">
        <ele>1589</ele>
      </trkpt>
      <trkpt lat="45.6651901" lon="7.7260960">
        <ele>1591</ele>
      </trkpt>
      <trkpt lat="45.6652301" lon="7.7261860">
        <ele>1593</ele>
      </trkpt>
      <trkpt lat="45.6652501" lon="7.7262960">
        <ele>1596</ele>
      </trkpt>
      <trkpt lat="45.6652701" lon="7.7263360">
        <ele>1598</ele>
      </trkpt>
      <trkpt lat="45.6652901" lon="7.7263260">
        <ele>1600</ele>
      </trkpt>
      <trkpt lat="45.6652801" lon="7.7264060">
        <ele>1602</ele>
      </trkpt>
      <trkpt lat="45.6653001" lon="7.7266060">
        <ele>1605</ele>
      </trkpt>
      <trkpt lat="45.6652701" lon="7.7267160">
        <ele>1607</ele>
      </trkpt>
      <trkpt lat="45.6653401" lon="7.7268060">
        <ele>1609</ele>
      </trkpt>
      <trkpt lat="45.6653301" lon="7.7268760">
        <ele>1612</ele>
      </trkpt>
      <trkpt lat="45.6653001" lon="7.7268860">
        <ele>1614</ele>
      </trkpt>
      <trkpt lat="45.6652801" lon="7.7269460">
        <ele>1616</ele>
      </trkpt>
      <trkpt lat="45.6653101" lon="7.7269360">
        <ele>1618</ele>
      </trkpt>
      <trkpt lat="45.6652901" lon="7.7270060">
        <ele>1621</ele>
      </trkpt>
      <trkpt lat="45.6653301" lon="7.7272160">
        <ele>1623</ele>
      </trkpt>
      <trkpt lat="45.6653201" lon="7.7272460">
        <ele>1625</ele>
      </trkpt>
      <trkpt lat="45.6653801" lon="7.7272560">
        <ele>1628</ele>
      </trkpt>
      <trkpt lat="45.6654001" lon="7.7272960">
        <ele>1630</ele>
      </trkpt>
      <trkpt lat="45.6653801" lon="7.7273160">
        <ele>1632</ele>
      </trkpt>
      <trkpt lat="45.6654101" lon="7.7273860">
        <ele>1634</ele>
      </trkpt>
      <trkpt lat="45.6654401" lon="7.7273660">
        <ele>1637</ele>
      </trkpt>
      <trkpt lat="45.6654701" lon="7.7273860">
        <ele>1639</ele>
      </trkpt>
      <trkpt lat="45.6654801" lon="7.7272260">
        <ele>1641</ele>
      </trkpt>
      <trkpt lat="45.6655301" lon="7.7271760">
        <ele>1644</ele>
      </trkpt>
      <trkpt lat="45.6655601" lon="7.7271160">
        <ele>1646</ele>
      </trkpt>
      <trkpt lat="45.6656001" lon="7.7271060">
        <ele>1648</ele>
      </trkpt>
      <trkpt lat="45.6656301" lon="7.7271560">
        <ele>1650</ele>
      </trkpt>
      <trkpt lat="45.6657201" lon="7.7271660">
        <ele>1653</ele>
      </trkpt>
      <trkpt lat="45.6657001" lon="7.7272960">
        <ele>1655</ele>
      </trkpt>
      <trkpt lat="45.6656301" lon="7.7274160">
        <ele>1657</ele>
      </trkpt>
      <trkpt lat="45.6656001" lon="7.7275660">
        <ele>1660</ele>
      </trkpt>
      <trkpt lat="45.6656101" lon="7.7276460">
        <ele>1662</ele>
      </trkpt>
      <trkpt lat="45.6655501" lon="7.7277160">
        <ele>1664</ele>
      </trkpt>
      <trkpt lat="45.6655501" lon="7.7277660">
        <ele>1666</ele>
      </trkpt>
      <trkpt lat="45.6655101" lon="7.7278060">
        <ele>1669</ele>
      </trkpt>
      <trkpt lat="45.6655001" lon="7.7279160">
        <ele>1671</ele>
      </trkpt>
      <trkpt lat="45.6654801" lon="7.7279060">
        <ele>1673</ele>
      </trkpt>
      <trkpt lat="45.6654601" lon="7.7279360">
        <ele>1676</ele>
      </trkpt>
      <trkpt lat="45.6654801" lon="7.7279460">
        <ele>1678</ele>
      </trkpt>
      <trkpt lat="45.6655001" lon="7.7280260">
        <ele>1680</ele>
      </trkpt>
      <trkpt lat="45.6655301" lon="7.7280160">
        <ele>1682</ele>
      </trkpt>
      <trkpt lat="45.6655201" lon="7.7279960">
        <ele>1685</ele>
      </trkpt>
      <trkpt lat="45.6655501" lon="7.7280460">
        <ele>1687</ele>
      </trkpt>
      <trkpt lat="45.6655101" lon="7.7281360">
        <ele>1689</ele>
      </trkpt>
      <trkpt lat="45.6654901" lon="7.7281160">
        <ele>1692</ele>
      </trkpt>
      <trkpt lat="45.6654501" lon="7.7281960">
        <ele>1694</ele>
      </trkpt>
      <trkpt lat="45.6654401" lon="7.7282560">
        <ele>1696</ele>
      </trkpt>
      <trkpt lat="45.6655101" lon="7.7282560">
        <ele>1698</ele>
      </trkpt>
      <trkpt lat="45.6655201" lon="7.7282360">
        <ele>1701</ele>
      </trkpt>
      <trkpt lat="45.6655201" lon="7.7282960">
        <ele>1703</ele>
      </trkpt>
      <trkpt lat="45.6655601" lon="7.7283060">
        <ele>1705</ele>
      </trkpt>
      <trkpt lat="45.6655901" lon="7.7282660">
        <ele>1708</ele>
      </trkpt>
      <trkpt lat="45.6656301" lon="7.7282560">
        <ele>1710</ele>
      </trkpt>
      <trkpt lat="45.6656701" lon="7.7282760">
        <ele>1712</ele>
      </trkpt>
      <trkpt lat="45.6657201" lon="7.7282360">
        <ele>1715</ele>
      </trkpt>
      <trkpt lat="45.6657301" lon="7.7281260">
        <ele>1717</ele>
      </trkpt>
      <trkpt lat="45.6658101" lon="7.7281960">
        <ele>1719</ele>
      </trkpt>
      <trkpt lat="45.6658801" lon="7.7281360">
        <ele>1721</ele>
      </trkpt>
      <trkpt lat="45.6659801" lon="7.7281160">
        <ele>1724</ele>
      </trkpt>
      <trkpt lat="45.6660101" lon="7.7281460">
        <ele>1726</ele>
      </trkpt>
      <trkpt lat="45.6660301" lon="7.7280760">
        <ele>1728</ele>
      </trkpt>
      <trkpt lat="45.6660901" lon="7.7280360">
        <ele>1731</ele>
      </trkpt>
      <trkpt lat="45.6661001" lon="7.7280960">
        <ele>1733</ele>
      </trkpt>
      <trkpt lat="45.6661301" lon="7.7281060">
        <ele>1735</ele>
      </trkpt>
      <trkpt lat="45.6661301" lon="7.7281260">
        <ele>1737</ele>
      </trkpt>
      <trkpt lat="45.6661701" lon="7.7281060">
        <ele>1740</ele>
      </trkpt>
      <trkpt lat="45.6662201" lon="7.7281260">
        <ele>1742</ele>
      </trkpt>
      <trkpt lat="45.6662701" lon="7.7280860">
        <ele>1744</ele>
      </trkpt>
      <trkpt lat="45.6662401" lon="7.7283660">
        <ele>1747</ele>
      </trkpt>
      <trkpt lat="45.6662701" lon="7.7283860">
        <ele>1749</ele>
      </trkpt>
      <trkpt lat="45.6663101" lon="7.7283660">
        <ele>1751</ele>
      </trkpt>
      <trkpt lat="45.6664101" lon="7.7283860">
        <ele>1753</ele>
      </trkpt>
      <trkpt lat="45.6664101" lon="7.7283660">
        <ele>1756</ele>
      </trkpt>
      <trkpt lat="45.6664401" lon="7.7283760">
        <ele>1758</ele>
      </trkpt>
      <trkpt lat="45.6664901" lon="7.7283560">
        <ele>1760</ele>
      </trkpt>
      <trkpt lat="45.6665471" lon="7.7283040">
        <ele>1763</ele>
      </trkpt>
      <trkpt lat="45.6665841" lon="7.7284050">
        <ele>1765</ele>
      </trkpt>
      <trkpt lat="45.6665131" lon="7.7285100">
        <ele>1767</ele>
      </trkpt>
      <trkpt lat="45.6664801" lon="7.7286160">
        <ele>1769</ele>
      </trkpt>
      <trkpt lat="45.6665001" lon="7.7286660">
        <ele>1772</ele>
      </trkpt>
      <trkpt lat="45.6664791" lon="7.7287160">
        <ele>1774</ele>
      </trkpt>
    </trkseg>
  </trk>
</gpx>
