<?xml version="1.0" encoding="UTF-8"?>
<gpx xmlns="http://www.topografix.com/GPX/1/1" creator="INVA x RAVdA" version="1.1" xmlns:xsi="http://www.w3.org/2001/XMLSchema-instance" xsi:schemaLocation="http://www.topografix.com/GPX/1/1 http://www.topografix.com/GPX/1/1/gpx.xsd">
  <trk>
    <name>RAVDA - Catasto Sentieri</name>
    <desc>Percorso personalizzato</desc>
    <trkseg>
      <trkpt lon="7.5516684493986" lat="45.6120238149802">
        <ele>2185</ele>
      </trkpt>
      <trkpt lon="7.55179602813229" lat="45.6121197630741">
        <ele>2183.63</ele>
      </trkpt>
      <trkpt lon="7.55188973427352" lat="45.6121961992385">
        <ele>2182</ele>
      </trkpt>
      <trkpt lon="7.55199442405229" lat="45.6122695326524">
        <ele>2180</ele>
      </trkpt>
      <trkpt lon="7.5520584637111" lat="45.6123028396648">
        <ele>2180</ele>
      </trkpt>
      <trkpt lon="7.55211765367136" lat="45.6123152016573">
        <ele>2179</ele>
      </trkpt>
      <trkpt lon="7.55218591066413" lat="45.612319127413">
        <ele>2178.08</ele>
      </trkpt>
      <trkpt lon="7.55228516860751" lat="45.6123095836822">
        <ele>2177.26</ele>
      </trkpt>
      <trkpt lon="7.55238874308725" lat="45.6123116152853">
        <ele>2176.73</ele>
      </trkpt>
      <trkpt lon="7.5525652937966" lat="45.6123335647597">
        <ele>2175.29</ele>
      </trkpt>
      <trkpt lon="7.5529827540796" lat="45.6124233738201">
        <ele>2173</ele>
      </trkpt>
      <trkpt lon="7.55313603161517" lat="45.6124676208559">
        <ele>2172</ele>
      </trkpt>
      <trkpt lon="7.55339077145018" lat="45.6125662563518">
        <ele>2169</ele>
      </trkpt>
      <trkpt lon="7.55362050537456" lat="45.6126546746826">
        <ele>2167</ele>
      </trkpt>
      <trkpt lon="7.55393796448819" lat="45.6128330433504">
        <ele>2162</ele>
      </trkpt>
      <trkpt lon="7.55439216578412" lat="45.6131403249215">
        <ele>2154</ele>
      </trkpt>
      <trkpt lon="7.55472229728209" lat="45.6133247910875">
        <ele>2148.89</ele>
      </trkpt>
      <trkpt lon="7.55487913569066" lat="45.6133852830122">
        <ele>2146.5</ele>
      </trkpt>
      <trkpt lon="7.55498773661379" lat="45.6134613637554">
        <ele>2145</ele>
      </trkpt>
      <trkpt lon="7.5551451156463" lat="45.6135758681601">
        <ele>2143</ele>
      </trkpt>
      <trkpt lon="7.55548694205631" lat="45.613749678614">
        <ele>2141</ele>
      </trkpt>
      <trkpt lon="7.55592667067176" lat="45.6139217566325">
        <ele>2140</ele>
      </trkpt>
      <trkpt lon="7.55600399659618" lat="45.6139622500652">
        <ele>2140</ele>
      </trkpt>
      <trkpt lon="7.55604432691847" lat="45.6140200046892">
        <ele>2139.69</ele>
      </trkpt>
      <trkpt lon="7.55604432691847" lat="45.6140200046892">
        <ele>2139.69</ele>
      </trkpt>
      <trkpt lon="7.55607950374704" lat="45.6141085683748">
        <ele>2139</ele>
      </trkpt>
      <trkpt lon="7.55608203852514" lat="45.6141797090843">
        <ele>2139</ele>
      </trkpt>
      <trkpt lon="7.55607847072381" lat="45.6142337604148">
        <ele>2139</ele>
      </trkpt>
      <trkpt lon="7.55603595813709" lat="45.6142610356946">
        <ele>2138</ele>
      </trkpt>
      <trkpt lon="7.55597104220916" lat="45.6142917164005">
        <ele>2137</ele>
      </trkpt>
      <trkpt lon="7.55572070236008" lat="45.614341026349">
        <ele>2135</ele>
      </trkpt>
      <trkpt lon="7.55567570873974" lat="45.614389963263">
        <ele>2134</ele>
      </trkpt>
      <trkpt lon="7.55566760508113" lat="45.6144258640916">
        <ele>2134</ele>
      </trkpt>
      <trkpt lon="7.55572985025277" lat="45.6144593266462">
        <ele>2133.37</ele>
      </trkpt>
      <trkpt lon="7.55588749864783" lat="45.6145783311673">
        <ele>2131.94</ele>
      </trkpt>
      <trkpt lon="7.5558502191963" lat="45.6146216957926">
        <ele>2130.85</ele>
      </trkpt>
      <trkpt lon="7.55580031462079" lat="45.614657068428">
        <ele>2129.9</ele>
      </trkpt>
      <trkpt lon="7.5556533413374" lat="45.6146867122074">
        <ele>2128</ele>
      </trkpt>
      <trkpt lon="7.55544375861106" lat="45.6147020633571">
        <ele>2126</ele>
      </trkpt>
      <trkpt lon="7.55515303045142" lat="45.6146758848999">
        <ele>2124</ele>
      </trkpt>
      <trkpt lon="7.55463591114835" lat="45.6146502598348">
        <ele>2118.43</ele>
      </trkpt>
      <trkpt lon="7.5544664100115" lat="45.614658194516">
        <ele>2116.79</ele>
      </trkpt>
      <trkpt lon="7.55389029310333" lat="45.6147274101669">
        <ele>2109.4</ele>
      </trkpt>
      <trkpt lon="7.5535602986118" lat="45.6147817361425">
        <ele>2107</ele>
      </trkpt>
      <trkpt lon="7.55349606865004" lat="45.614820617062">
        <ele>2106</ele>
      </trkpt>
      <trkpt lon="7.55331951029493" lat="45.6150479072139">
        <ele>2105</ele>
      </trkpt>
      <trkpt lon="7.55309200848754" lat="45.6151665357989">
        <ele>2104</ele>
      </trkpt>
      <trkpt lon="7.55305875626398" lat="45.6152426235114">
        <ele>2103</ele>
      </trkpt>
      <trkpt lon="7.55304913972943" lat="45.6153671654525">
        <ele>2105</ele>
      </trkpt>
      <trkpt lon="7.55305505795533" lat="45.6154362783657">
        <ele>2106</ele>
      </trkpt>
      <trkpt lon="7.55308996591169" lat="45.6154952246343">
        <ele>2107.94</ele>
      </trkpt>
      <trkpt lon="7.5532300581776" lat="45.6156236431133">
        <ele>2110</ele>
      </trkpt>
      <trkpt lon="7.55336772003506" lat="45.6157417696424">
        <ele>2110.56</ele>
      </trkpt>
      <trkpt lon="7.55349318151243" lat="45.6158655017513">
        <ele>2109</ele>
      </trkpt>
      <trkpt lon="7.5537197323802" lat="45.6160783620831">
        <ele>2106</ele>
      </trkpt>
      <trkpt lon="7.5538141645675" lat="45.616102060812">
        <ele>2105</ele>
      </trkpt>
      <trkpt lon="7.55394817844229" lat="45.6161127568155">
        <ele>2104</ele>
      </trkpt>
      <trkpt lon="7.55397439802229" lat="45.6161355937555">
        <ele>2103.17</ele>
      </trkpt>
      <trkpt lon="7.55398485883548" lat="45.6161627278746">
        <ele>2103</ele>
      </trkpt>
      <trkpt lon="7.55396926647524" lat="45.616180530952">
        <ele>2103</ele>
      </trkpt>
      <trkpt lon="7.55389565295841" lat="45.6162201034654">
        <ele>2102</ele>
      </trkpt>
      <trkpt lon="7.55385574226062" lat="45.6162958383273">
        <ele>2100.04</ele>
      </trkpt>
      <trkpt lon="7.55387059178996" lat="45.6163368006156">
        <ele>2099.75</ele>
      </trkpt>
      <trkpt lon="7.55390064487535" lat="45.6163551819244">
        <ele>2099</ele>
      </trkpt>
      <trkpt lon="7.55405343103247" lat="45.6163841202358">
        <ele>2097</ele>
      </trkpt>
      <trkpt lon="7.55415191009834" lat="45.6164300112307">
        <ele>2096.74</ele>
      </trkpt>
      <trkpt lon="7.55425054357343" lat="45.6165347703803">
        <ele>2096</ele>
      </trkpt>
      <trkpt lon="7.55431208234422" lat="45.616610706223">
        <ele>2095.07</ele>
      </trkpt>
      <trkpt lon="7.55434482705685" lat="45.6166341626859">
        <ele>2096</ele>
      </trkpt>
      <trkpt lon="7.55440723922047" lat="45.6166511553819">
        <ele>2096</ele>
      </trkpt>
      <trkpt lon="7.55447097386037" lat="45.6166566422446">
        <ele>2096</ele>
      </trkpt>
      <trkpt lon="7.55453272527464" lat="45.6166543622254">
        <ele>2096</ele>
      </trkpt>
      <trkpt lon="7.55457804029461" lat="45.6166479152763">
        <ele>2096</ele>
      </trkpt>
      <trkpt lon="7.55457804029461" lat="45.6166479152763">
        <ele>2096</ele>
      </trkpt>
      <trkpt lon="7.55463360938785" lat="45.6165867837115">
        <ele>2096</ele>
      </trkpt>
      <trkpt lon="7.55469358358308" lat="45.6165538779019">
        <ele>2095</ele>
      </trkpt>
      <trkpt lon="7.55511961267969" lat="45.6164013031468">
        <ele>2097</ele>
      </trkpt>
      <trkpt lon="7.5553265757142" lat="45.6162534236254">
        <ele>2096</ele>
      </trkpt>
      <trkpt lon="7.55544079008824" lat="45.6162160737808">
        <ele>2096</ele>
      </trkpt>
      <trkpt lon="7.55582965991016" lat="45.6162117218555">
        <ele>2092.84</ele>
      </trkpt>
      <trkpt lon="7.55606257232756" lat="45.6162671421618">
        <ele>2093.28</ele>
      </trkpt>
      <trkpt lon="7.55671469413062" lat="45.6164603533128">
        <ele>2089</ele>
      </trkpt>
      <trkpt lon="7.55746686405847" lat="45.6165787663151">
        <ele>2085.02</ele>
      </trkpt>
      <trkpt lon="7.55811203436802" lat="45.6166983449842">
        <ele>2081.74</ele>
      </trkpt>
      <trkpt lon="7.55828158504936" lat="45.6167138081165">
        <ele>2080</ele>
      </trkpt>
      <trkpt lon="7.55870624992054" lat="45.6167191678917">
        <ele>2078</ele>
      </trkpt>
      <trkpt lon="7.55886833077217" lat="45.6167458756805">
        <ele>2076.89</ele>
      </trkpt>
      <trkpt lon="7.55901107837617" lat="45.6167462353958">
        <ele>2075.3</ele>
      </trkpt>
      <trkpt lon="7.55934610613858" lat="45.6167008680278">
        <ele>2071</ele>
      </trkpt>
      <trkpt lon="7.55954800487671" lat="45.6167103452089">
        <ele>2067.05</ele>
      </trkpt>
      <trkpt lon="7.55965056018201" lat="45.6166974153131">
        <ele>2065.2</ele>
      </trkpt>
      <trkpt lon="7.55989832315907" lat="45.6165988290953">
        <ele>2062</ele>
      </trkpt>
      <trkpt lon="7.56004685969639" lat="45.6166034917527">
        <ele>2061</ele>
      </trkpt>
      <trkpt lon="7.56050479629488" lat="45.6166720006646">
        <ele>2059.26</ele>
      </trkpt>
      <trkpt lon="7.56063535473739" lat="45.6166724769322">
        <ele>2058.04</ele>
      </trkpt>
      <trkpt lon="7.56076542629527" lat="45.616712009737">
        <ele>2057.17</ele>
      </trkpt>
      <trkpt lon="7.56081788857132" lat="45.6167119519068">
        <ele>2057.13</ele>
      </trkpt>
      <trkpt lon="7.56084386151629" lat="45.6167044464115">
        <ele>2056.7</ele>
      </trkpt>
      <trkpt lon="7.56089013762108" lat="45.6167004411998">
        <ele>2055.86</ele>
      </trkpt>
      <trkpt lon="7.5609860480585" lat="45.6167016477082">
        <ele>2055</ele>
      </trkpt>
      <trkpt lon="7.56105055484286" lat="45.6167120013678">
        <ele>2054.48</ele>
      </trkpt>
      <trkpt lon="7.56111110043975" lat="45.6167217660856">
        <ele>2054</ele>
      </trkpt>
      <trkpt lon="7.56121000810535" lat="45.6167260727011">
        <ele>2053</ele>
      </trkpt>
      <trkpt lon="7.5612881847905" lat="45.6167285874053">
        <ele>2052.73</ele>
      </trkpt>
      <trkpt lon="7.56138692555904" lat="45.6167445026457">
        <ele>2052</ele>
      </trkpt>
      <trkpt lon="7.5614590906233" lat="45.6167662927789">
        <ele>2051.85</ele>
      </trkpt>
      <trkpt lon="7.56149170774886" lat="45.6167798462126">
        <ele>2051.55</ele>
      </trkpt>
      <trkpt lon="7.56153684207237" lat="45.6167804133276">
        <ele>2050.45</ele>
      </trkpt>
      <trkpt lon="7.56158085129558" lat="45.6167848388626">
        <ele>2049.91</ele>
      </trkpt>
      <trkpt lon="7.56163326324011" lat="45.6168017009036">
        <ele>2049</ele>
      </trkpt>
      <trkpt lon="7.56169787546635" lat="45.616817996381">
        <ele>2049</ele>
      </trkpt>
      <trkpt lon="7.56175250971175" lat="45.6168333556276">
        <ele>2048.99</ele>
      </trkpt>
      <trkpt lon="7.56186846170009" lat="45.6168632574978">
        <ele>2047</ele>
      </trkpt>
      <trkpt lon="7.56199653612914" lat="45.6168957428832">
        <ele>2046</ele>
      </trkpt>
      <trkpt lon="7.56211601889812" lat="45.6169181307087">
        <ele>2045</ele>
      </trkpt>
      <trkpt lon="7.56222391765605" lat="45.6169620634114">
        <ele>2044</ele>
      </trkpt>
      <trkpt lon="7.56231959179615" lat="45.616972539596">
        <ele>2043.55</ele>
      </trkpt>
      <trkpt lon="7.5623753176865" lat="45.6169902516904">
        <ele>2043.28</ele>
      </trkpt>
      <trkpt lon="7.5624232434215" lat="45.6170070581312">
        <ele>2042.4</ele>
      </trkpt>
      <trkpt lon="7.56246693573033" lat="45.6170238089744">
        <ele>2041</ele>
      </trkpt>
      <trkpt lon="7.56251905299725" lat="45.6170522768612">
        <ele>2040.76</ele>
      </trkpt>
      <trkpt lon="7.56260855715331" lat="45.6170833757296">
        <ele>2040</ele>
      </trkpt>
      <trkpt lon="7.56269607252447" lat="45.6171068910539">
        <ele>2039</ele>
      </trkpt>
      <trkpt lon="7.56275650146098" lat="45.6171162029813">
        <ele>2038.67</ele>
      </trkpt>
      <trkpt lon="7.56279281060675" lat="45.617115847766">
        <ele>2038.87</ele>
      </trkpt>
      <trkpt lon="7.56287334303452" lat="45.6171114623186">
        <ele>2039</ele>
      </trkpt>
      <trkpt lon="7.56296370898155" lat="45.6171087270074">
        <ele>2039</ele>
      </trkpt>
      <trkpt lon="7.56302514903729" lat="45.6171187722964">
        <ele>2039.02</ele>
      </trkpt>
      <trkpt lon="7.56309074736646" lat="45.6171366094888">
        <ele>2038.59</ele>
      </trkpt>
      <trkpt lon="7.563169454241" lat="45.6171584802425">
        <ele>2038</ele>
      </trkpt>
      <trkpt lon="7.56322623841229" lat="45.6171800785563">
        <ele>2037.56</ele>
      </trkpt>
      <trkpt lon="7.56326966672099" lat="45.6172022267554">
        <ele>2036.82</ele>
      </trkpt>
      <trkpt lon="7.56336607398735" lat="45.6172241421249">
        <ele>2035.8</ele>
      </trkpt>
      <trkpt lon="7.56342786710113" lat="45.617220237065">
        <ele>2035.54</ele>
      </trkpt>
      <trkpt lon="7.56351803844824" lat="45.6172252436141">
        <ele>2035.59</ele>
      </trkpt>
      <trkpt lon="7.56356518370028" lat="45.6172374471535">
        <ele>2035.4</ele>
      </trkpt>
      <trkpt lon="7.56358926754621" lat="45.6172385585243">
        <ele>2035.44</ele>
      </trkpt>
      <trkpt lon="7.56362782391774" lat="45.6172405756126">
        <ele>2035.53</ele>
      </trkpt>
      <trkpt lon="7.56365189932469" lat="45.6172470871197">
        <ele>2035.47</ele>
      </trkpt>
      <trkpt lon="7.56368135252365" lat="45.61725897937">
        <ele>2035.2</ele>
      </trkpt>
      <trkpt lon="7.56371952257875" lat="45.6172710717091">
        <ele>2035.04</ele>
      </trkpt>
      <trkpt lon="7.56376021785451" lat="45.617274733304">
        <ele>2034.33</ele>
      </trkpt>
      <trkpt lon="7.56380745216438" lat="45.6172783866283">
        <ele>2034.5</ele>
      </trkpt>
      <trkpt lon="7.56394420809366" lat="45.6172723655692">
        <ele>2034.08</ele>
      </trkpt>
      <trkpt lon="7.56406243876766" lat="45.6172583719083">
        <ele>2033.22</ele>
      </trkpt>
      <trkpt lon="7.56414711278606" lat="45.6172625867179">
        <ele>2033.39</ele>
      </trkpt>
      <trkpt lon="7.56420103892523" lat="45.6172655150882">
        <ele>2033.06</ele>
      </trkpt>
      <trkpt lon="7.564249562256" lat="45.6172638738467">
        <ele>2032.86</ele>
      </trkpt>
      <trkpt lon="7.56428287983469" lat="45.6172550211658">
        <ele>2032.87</ele>
      </trkpt>
      <trkpt lon="7.56434014821129" lat="45.6172325183705">
        <ele>2031.59</ele>
      </trkpt>
      <trkpt lon="7.56434503721976" lat="45.6172319489586">
        <ele>2031.55</ele>
      </trkpt>
      <trkpt lon="7.56434507892072" lat="45.6172302405826">
        <ele>2031.46</ele>
      </trkpt>
      <trkpt lon="7.56440286943961" lat="45.6172124240217">
        <ele>2030.6</ele>
      </trkpt>
      <trkpt lon="7.564443859393" lat="45.6172044797708">
        <ele>2030</ele>
      </trkpt>
      <trkpt lon="7.56452318063928" lat="45.6172023249236">
        <ele>2029.78</ele>
      </trkpt>
      <trkpt lon="7.56458927379994" lat="45.6172009060789">
        <ele>2029.65</ele>
      </trkpt>
      <trkpt lon="7.56466116721089" lat="45.617193259355">
        <ele>2029.79</ele>
      </trkpt>
      <trkpt lon="7.56471507955054" lat="45.6171915959425">
        <ele>2030.04</ele>
      </trkpt>
      <trkpt lon="7.56475396395846" lat="45.6171807432646">
        <ele>2029.79</ele>
      </trkpt>
      <trkpt lon="7.56479243146909" lat="45.6171812269801">
        <ele>2029.42</ele>
      </trkpt>
      <trkpt lon="7.56487995001194" lat="45.6171845779063">
        <ele>2030.15</ele>
      </trkpt>
      <trkpt lon="7.56491018954848" lat="45.617185767116">
        <ele>2030.59</ele>
      </trkpt>
      <trkpt lon="7.56497168798462" lat="45.6171934706798">
        <ele>2031.84</ele>
      </trkpt>
      <trkpt lon="7.5650281450056" lat="45.6171825681696">
        <ele>2032.05</ele>
      </trkpt>
      <trkpt lon="7.56508142429855" lat="45.6171655071399">
        <ele>2033.04</ele>
      </trkpt>
      <trkpt lon="7.56517416623289" lat="45.6171149150875">
        <ele>2032.82</ele>
      </trkpt>
      <trkpt lon="7.56529402508251" lat="45.6170823987522">
        <ele>2033.18</ele>
      </trkpt>
      <trkpt lon="7.56534238766601" lat="45.6170619431452">
        <ele>2033.51</ele>
      </trkpt>
      <trkpt lon="7.56543431824291" lat="45.6170230430468">
        <ele>2034.13</ele>
      </trkpt>
      <trkpt lon="7.56560571789616" lat="45.6169510289875">
        <ele>2035.37</ele>
      </trkpt>
      <trkpt lon="7.56579483184278" lat="45.6168784261948">
        <ele>2036.96</ele>
      </trkpt>
      <trkpt lon="7.56587352818435" lat="45.6168706823115">
        <ele>2038.11</ele>
      </trkpt>
      <trkpt lon="7.56594167426979" lat="45.6168640689109">
        <ele>2038</ele>
      </trkpt>
      <trkpt lon="7.56598801719051" lat="45.61685249962">
        <ele>2038.33</ele>
      </trkpt>
      <trkpt lon="7.56603926302121" lat="45.6168397303458">
        <ele>2038</ele>
      </trkpt>
      <trkpt lon="7.56612854844531" lat="45.6168341005067">
        <ele>2038</ele>
      </trkpt>
      <trkpt lon="7.56636929466466" lat="45.6168744760636">
        <ele>2035</ele>
      </trkpt>
      <trkpt lon="7.56650803303588" lat="45.6169163617888">
        <ele>2034</ele>
      </trkpt>
      <trkpt lon="7.56676992951898" lat="45.6169672628149">
        <ele>2031</ele>
      </trkpt>
      <trkpt lon="7.56710188401573" lat="45.6169718800125">
        <ele>2028.18</ele>
      </trkpt>
      <trkpt lon="7.56725061534686" lat="45.6169588922258">
        <ele>2027</ele>
      </trkpt>
      <trkpt lon="7.56743284020691" lat="45.6170308457952">
        <ele>2026</ele>
      </trkpt>
      <trkpt lon="7.56763010788275" lat="45.6170610428992">
        <ele>2024.77</ele>
      </trkpt>
      <trkpt lon="7.56767720914644" lat="45.6170498430693">
        <ele>2024.11</ele>
      </trkpt>
      <trkpt lon="7.56771847431685" lat="45.6170310985482">
        <ele>2024</ele>
      </trkpt>
      <trkpt lon="7.56785578068201" lat="45.6170033880576">
        <ele>2024</ele>
      </trkpt>
      <trkpt lon="7.56801013980548" lat="45.6169960504677">
        <ele>2024</ele>
      </trkpt>
      <trkpt lon="7.56811406465417" lat="45.6169796232744">
        <ele>2023</ele>
      </trkpt>
      <trkpt lon="7.56821443359867" lat="45.6169770102847">
        <ele>2023</ele>
      </trkpt>
      <trkpt lon="7.56831914151319" lat="45.6169751723562">
        <ele>2023</ele>
      </trkpt>
      <trkpt lon="7.56839189324481" lat="45.6169691534593">
        <ele>2023</ele>
      </trkpt>
      <trkpt lon="7.56846218101416" lat="45.6169640928963">
        <ele>2023</ele>
      </trkpt>
      <trkpt lon="7.56916036001226" lat="45.6168413381763">
        <ele>2018</ele>
      </trkpt>
      <trkpt lon="7.56973885094204" lat="45.6168250905507">
        <ele>2013</ele>
      </trkpt>
      <trkpt lon="7.56984441191323" lat="45.6168099411831">
        <ele>2012</ele>
      </trkpt>
      <trkpt lon="7.57002166940993" lat="45.6167696779818">
        <ele>2011</ele>
      </trkpt>
      <trkpt lon="7.57019454624097" lat="45.6167300758661">
        <ele>2009.6</ele>
      </trkpt>
      <trkpt lon="7.57040719082212" lat="45.6166801738727">
        <ele>2008</ele>
      </trkpt>
      <trkpt lon="7.57052563555525" lat="45.6166577133333">
        <ele>2007</ele>
      </trkpt>
      <trkpt lon="7.57067385874593" lat="45.6166342752777">
        <ele>2005</ele>
      </trkpt>
      <trkpt lon="7.57078741774405" lat="45.6165870001757">
        <ele>2004</ele>
      </trkpt>
      <trkpt lon="7.57089617351804" lat="45.6165571282448">
        <ele>2004</ele>
      </trkpt>
      <trkpt lon="7.5712034179684" lat="45.6164791542298">
        <ele>2002</ele>
      </trkpt>
      <trkpt lon="7.57158518054135" lat="45.6164112922977">
        <ele>2001</ele>
      </trkpt>
      <trkpt lon="7.57190909083972" lat="45.6163941894246">
        <ele>2000</ele>
      </trkpt>
      <trkpt lon="7.5721761918499" lat="45.6163614356101">
        <ele>2000</ele>
      </trkpt>
      <trkpt lon="7.57228851435132" lat="45.6163325054039">
        <ele>1999</ele>
      </trkpt>
      <trkpt lon="7.57255431214395" lat="45.6163207965527">
        <ele>2000</ele>
      </trkpt>
      <trkpt lon="7.57284586555126" lat="45.6163353302785">
        <ele>1999</ele>
      </trkpt>
      <trkpt lon="7.57295121743248" lat="45.6163587013261">
        <ele>1998</ele>
      </trkpt>
      <trkpt lon="7.57309166201762" lat="45.6163688251543">
        <ele>1998.78</ele>
      </trkpt>
      <trkpt lon="7.5732550984084" lat="45.6163979607949">
        <ele>1998.98</ele>
      </trkpt>
      <trkpt lon="7.57334403633588" lat="45.6164060007419">
        <ele>1998.6</ele>
      </trkpt>
      <trkpt lon="7.57347113587967" lat="45.6164315331643">
        <ele>1999</ele>
      </trkpt>
      <trkpt lon="7.57355019014975" lat="45.6164449398185">
        <ele>1998.8</ele>
      </trkpt>
      <trkpt lon="7.57362697773497" lat="45.616456701965">
        <ele>1998</ele>
      </trkpt>
      <trkpt lon="7.57367800613521" lat="45.6164828114483">
        <ele>1997</ele>
      </trkpt>
      <trkpt lon="7.5737668735746" lat="45.6165442277427">
        <ele>1995.21</ele>
      </trkpt>
      <trkpt lon="7.57388398958012" lat="45.6165689128255">
        <ele>1994.31</ele>
      </trkpt>
      <trkpt lon="7.57397720243624" lat="45.6165854669175">
        <ele>1993.04</ele>
      </trkpt>
      <trkpt lon="7.57410838786984" lat="45.6166269803383">
        <ele>1989.93</ele>
      </trkpt>
      <trkpt lon="7.5741651443388" lat="45.6166446979982">
        <ele>1988.27</ele>
      </trkpt>
      <trkpt lon="7.57426313530245" lat="45.6166497935134">
        <ele>1986.84</ele>
      </trkpt>
      <trkpt lon="7.5743297557713" lat="45.6166730364076">
        <ele>1985</ele>
      </trkpt>
      <trkpt lon="7.57445990804048" lat="45.6167047245704">
        <ele>1982.94</ele>
      </trkpt>
      <trkpt lon="7.57455163995885" lat="45.6167391735446">
        <ele>1981.14</ele>
      </trkpt>
      <trkpt lon="7.57470765338127" lat="45.6167980959771">
        <ele>1978.01</ele>
      </trkpt>
      <trkpt lon="7.5747693320223" lat="45.6168239777793">
        <ele>1977.21</ele>
      </trkpt>
      <trkpt lon="7.57487427871706" lat="45.6168279872229">
        <ele>1977.16</ele>
      </trkpt>
      <trkpt lon="7.57499458713946" lat="45.6168178770132">
        <ele>1973</ele>
      </trkpt>
      <trkpt lon="7.57516220770947" lat="45.6168084478311">
        <ele>1971.14</ele>
      </trkpt>
      <trkpt lon="7.57529639106033" lat="45.6168177715788">
        <ele>1968.1</ele>
      </trkpt>
      <trkpt lon="7.5754172851674" lat="45.6168301702765">
        <ele>1966.64</ele>
      </trkpt>
      <trkpt lon="7.57556102681883" lat="45.6168520360996">
        <ele>1963.8</ele>
      </trkpt>
      <trkpt lon="7.57564703433738" lat="45.6168492396337">
        <ele>1962.57</ele>
      </trkpt>
      <trkpt lon="7.57575525923688" lat="45.6168351069839">
        <ele>1961.06</ele>
      </trkpt>
      <trkpt lon="7.57586065380514" lat="45.61680626838">
        <ele>1960</ele>
      </trkpt>
      <trkpt lon="7.57594171165265" lat="45.6167809962988">
        <ele>1958.92</ele>
      </trkpt>
      <trkpt lon="7.57599102171657" lat="45.6167483959496">
        <ele>1958.01</ele>
      </trkpt>
      <trkpt lon="7.57601696447971" lat="45.6167217177474">
        <ele>1957.12</ele>
      </trkpt>
      <trkpt lon="7.57602000409956" lat="45.6166877308072">
        <ele>1955.95</ele>
      </trkpt>
      <trkpt lon="7.57599992651552" lat="45.6166549881206">
        <ele>1955.77</ele>
      </trkpt>
      <trkpt lon="7.5759915294552" lat="45.6166371514782">
        <ele>1955.47</ele>
      </trkpt>
      <trkpt lon="7.57599201873261" lat="45.6166178065499">
        <ele>1955.11</ele>
      </trkpt>
      <trkpt lon="7.57600390576882" lat="45.6165839308087">
        <ele>1955</ele>
      </trkpt>
      <trkpt lon="7.57602899864689" lat="45.6165503996475">
        <ele>1954.74</ele>
      </trkpt>
      <trkpt lon="7.5760779723357" lat="45.6165309385158">
        <ele>1953.85</ele>
      </trkpt>
      <trkpt lon="7.57612337909861" lat="45.6165207025827">
        <ele>1953</ele>
      </trkpt>
      <trkpt lon="7.57616082158696" lat="45.6165211696211">
        <ele>1952</ele>
      </trkpt>
      <trkpt lon="7.57620145848445" lat="45.6165270757165">
        <ele>1951.04</ele>
      </trkpt>
      <trkpt lon="7.57624842035553" lat="45.6165415237551">
        <ele>1950.19</ele>
      </trkpt>
      <trkpt lon="7.57628666258906" lat="45.616555952265">
        <ele>1949.69</ele>
      </trkpt>
      <trkpt lon="7.57632353518295" lat="45.6165788226415">
        <ele>1949</ele>
      </trkpt>
      <trkpt lon="7.57634381014464" lat="45.6166038290236">
        <ele>1948.28</ele>
      </trkpt>
      <trkpt lon="7.57637384078638" lat="45.6166335467295">
        <ele>1947.21</ele>
      </trkpt>
      <trkpt lon="7.57639528801186" lat="45.6166577558804">
        <ele>1947</ele>
      </trkpt>
      <trkpt lon="7.57642771242484" lat="45.6167246773267">
        <ele>1946</ele>
      </trkpt>
      <trkpt lon="7.57644359003794" lat="45.6167511587037">
        <ele>1944.73</ele>
      </trkpt>
      <trkpt lon="7.57647360588902" lat="45.6168270497979">
        <ele>1943</ele>
      </trkpt>
      <trkpt lon="7.57651481656023" lat="45.6168964213906">
        <ele>1941.01</ele>
      </trkpt>
      <trkpt lon="7.57658255011658" lat="45.6169619820309">
        <ele>1939.99</ele>
      </trkpt>
      <trkpt lon="7.57664044181662" lat="45.6170260703172">
        <ele>1939</ele>
      </trkpt>
      <trkpt lon="7.57670155582367" lat="45.6170894780617">
        <ele>1939</ele>
      </trkpt>
      <trkpt lon="7.57679061517666" lat="45.617138471822">
        <ele>1937.14</ele>
      </trkpt>
      <trkpt lon="7.57680613476839" lat="45.6171485666706">
        <ele>1937</ele>
      </trkpt>
      <trkpt lon="7.57700904105375" lat="45.6171995199082">
        <ele>1934.05</ele>
      </trkpt>
      <trkpt lon="7.5771337160437" lat="45.6171994544386">
        <ele>1932.86</ele>
      </trkpt>
      <trkpt lon="7.57728811478334" lat="45.6171549325763">
        <ele>1930.06</ele>
      </trkpt>
      <trkpt lon="7.57746307968861" lat="45.6171594510392">
        <ele>1928</ele>
      </trkpt>
      <trkpt lon="7.57765724806546" lat="45.6171502582293">
        <ele>1926.24</ele>
      </trkpt>
      <trkpt lon="7.57769612423672" lat="45.6171344498705">
        <ele>1926.29</ele>
      </trkpt>
      <trkpt lon="7.57774858671178" lat="45.6171242140052">
        <ele>1926</ele>
      </trkpt>
      <trkpt lon="7.57782884977768" lat="45.6171153117742">
        <ele>1926.3</ele>
      </trkpt>
      <trkpt lon="7.57790615970229" lat="45.6171216737893">
        <ele>1926</ele>
      </trkpt>
      <trkpt lon="7.57801890079484" lat="45.6171369391476">
        <ele>1926</ele>
      </trkpt>
      <trkpt lon="7.57813813614047" lat="45.6171693883357">
        <ele>1926</ele>
      </trkpt>
      <trkpt lon="7.57824575778171" lat="45.61717918684">
        <ele>1925.72</ele>
      </trkpt>
      <trkpt lon="7.57843103237826" lat="45.6171258678301">
        <ele>1925.13</ele>
      </trkpt>
      <trkpt lon="7.57862529884936" lat="45.6170721211181">
        <ele>1925</ele>
      </trkpt>
      <trkpt lon="7.57870275680778" lat="45.6170370793111">
        <ele>1924</ele>
      </trkpt>
      <trkpt lon="7.57873776908793" lat="45.6170169930293">
        <ele>1923.42</ele>
      </trkpt>
      <trkpt lon="7.57873776908793" lat="45.6170169930293">
        <ele>1923.42</ele>
      </trkpt>
      <trkpt lon="7.57886219209245" lat="45.6169760570804">
        <ele>1922</ele>
      </trkpt>
      <trkpt lon="7.57897494489911" lat="45.6169604494369">
        <ele>1922</ele>
      </trkpt>
      <trkpt lon="7.57914225411081" lat="45.6169633400072">
        <ele>1922.99</ele>
      </trkpt>
      <trkpt lon="7.57948992200354" lat="45.6170111390012">
        <ele>1920.09</ele>
      </trkpt>
      <trkpt lon="7.57974191684999" lat="45.6169924020617">
        <ele>1918</ele>
      </trkpt>
      <trkpt lon="7.58028720020872" lat="45.6170417557725">
        <ele>1917</ele>
      </trkpt>
      <trkpt lon="7.58061397280506" lat="45.6171094522903">
        <ele>1917</ele>
      </trkpt>
      <trkpt lon="7.58091404796928" lat="45.61715755639">
        <ele>1916</ele>
      </trkpt>
      <trkpt lon="7.58098841239392" lat="45.6172146446579">
        <ele>1916</ele>
      </trkpt>
      <trkpt lon="7.5812020994772" lat="45.6172654563288">
        <ele>1915</ele>
      </trkpt>
      <trkpt lon="7.58139054991312" lat="45.6173150510597">
        <ele>1913</ele>
      </trkpt>
      <trkpt lon="7.58181680999612" lat="45.617425385722">
        <ele>1906</ele>
      </trkpt>
      <trkpt lon="7.58192979284699" lat="45.61743623986">
        <ele>1905</ele>
      </trkpt>
      <trkpt lon="7.58200808231919" lat="45.6174953559946">
        <ele>1904</ele>
      </trkpt>
      <trkpt lon="7.58212047005188" lat="45.6175400470927">
        <ele>1902.31</ele>
      </trkpt>
      <trkpt lon="7.58218183504695" lat="45.6175531396799">
        <ele>1902</ele>
      </trkpt>
      <trkpt lon="7.58223709478821" lat="45.6175438344206">
        <ele>1901.89</ele>
      </trkpt>
      <trkpt lon="7.58228440971562" lat="45.6175444210013">
        <ele>1901</ele>
      </trkpt>
      <trkpt lon="7.58238691131001" lat="45.6175792673113">
        <ele>1900.08</ele>
      </trkpt>
      <trkpt lon="7.58251184126406" lat="45.6176098026168">
        <ele>1899.06</ele>
      </trkpt>
      <trkpt lon="7.5826158096997" lat="45.6176373737571">
        <ele>1898</ele>
      </trkpt>
      <trkpt lon="7.58269713521609" lat="45.6177033706503">
        <ele>1897</ele>
      </trkpt>
      <trkpt lon="7.58275715300856" lat="45.6177139270494">
        <ele>1896.45</ele>
      </trkpt>
      <trkpt lon="7.58284144338561" lat="45.6177335144655">
        <ele>1896</ele>
      </trkpt>
      <trkpt lon="7.58288377438708" lat="45.6177587932887">
        <ele>1895.68</ele>
      </trkpt>
      <trkpt lon="7.58291647431239" lat="45.6177997918608">
        <ele>1895</ele>
      </trkpt>
      <trkpt lon="7.58297485240513" lat="45.6178500214685">
        <ele>1895</ele>
      </trkpt>
      <trkpt lon="7.58307550113544" lat="45.6178871844858">
        <ele>1894</ele>
      </trkpt>
      <trkpt lon="7.58316707746725" lat="45.6179230640501">
        <ele>1893</ele>
      </trkpt>
      <trkpt lon="7.58323263409102" lat="45.6179428679583">
        <ele>1892.06</ele>
      </trkpt>
      <trkpt lon="7.58332491842553" lat="45.6179964896442">
        <ele>1891.14</ele>
      </trkpt>
      <trkpt lon="7.58337235199879" lat="45.6180381217073">
        <ele>1891</ele>
      </trkpt>
      <trkpt lon="7.5833753046446" lat="45.6180482386579">
        <ele>1890.92</ele>
      </trkpt>
      <trkpt lon="7.58338556806643" lat="45.6180838313222">
        <ele>1890.46</ele>
      </trkpt>
      <trkpt lon="7.58343442608407" lat="45.6181555447144">
        <ele>1890</ele>
      </trkpt>
      <trkpt lon="7.58345842345002" lat="45.6181754621148">
        <ele>1890</ele>
      </trkpt>
      <trkpt lon="7.58361202372898" lat="45.6183357843075">
        <ele>1888.69</ele>
      </trkpt>
      <trkpt lon="7.58372093011645" lat="45.6184169735162">
        <ele>1887</ele>
      </trkpt>
      <trkpt lon="7.58382516036109" lat="45.6185513890244">
        <ele>1883</ele>
      </trkpt>
      <trkpt lon="7.58385141061045" lat="45.6185684563745">
        <ele>1882.6</ele>
      </trkpt>
      <trkpt lon="7.58392239506437" lat="45.6185917493119">
        <ele>1881.03</ele>
      </trkpt>
      <trkpt lon="7.58400641300068" lat="45.6186222231115">
        <ele>1879.72</ele>
      </trkpt>
      <trkpt lon="7.58405860253785" lat="45.6186483437175">
        <ele>1878.66</ele>
      </trkpt>
      <trkpt lon="7.58408572222965" lat="45.6186665027702">
        <ele>1877.59</ele>
      </trkpt>
      <trkpt lon="7.58410089461976" lat="45.6186751503567">
        <ele>1877</ele>
      </trkpt>
      <trkpt lon="7.58418684842149" lat="45.6187204106595">
        <ele>1874.79</ele>
      </trkpt>
      <trkpt lon="7.58421052340699" lat="45.6187480671412">
        <ele>1874.64</ele>
      </trkpt>
      <trkpt lon="7.5842991723115" lat="45.6187626683622">
        <ele>1873.13</ele>
      </trkpt>
      <trkpt lon="7.58437929885949" lat="45.618774461097">
        <ele>1872.37</ele>
      </trkpt>
      <trkpt lon="7.58444259425574" lat="45.6187976595136">
        <ele>1871</ele>
      </trkpt>
      <trkpt lon="7.58450818056247" lat="45.6188621978854">
        <ele>1868</ele>
      </trkpt>
      <trkpt lon="7.58455993920082" lat="45.6189054133634">
        <ele>1868.43</ele>
      </trkpt>
      <trkpt lon="7.58459931755478" lat="45.6189206641272">
        <ele>1868.78</ele>
      </trkpt>
      <trkpt lon="7.58465321907185" lat="45.6189042281191">
        <ele>1868.85</ele>
      </trkpt>
      <trkpt lon="7.58473433291579" lat="45.6188564499142">
        <ele>1869.96</ele>
      </trkpt>
      <trkpt lon="7.5848613531262" lat="45.6188193196418">
        <ele>1870</ele>
      </trkpt>
      <trkpt lon="7.58488509265043" lat="45.6188137613963">
        <ele>1869.28</ele>
      </trkpt>
      <trkpt lon="7.58492626618404" lat="45.6187933918331">
        <ele>1869</ele>
      </trkpt>
      <trkpt lon="7.58503056355224" lat="45.6187621892698">
        <ele>1868.14</ele>
      </trkpt>
      <trkpt lon="7.58508919561971" lat="45.6187513951163">
        <ele>1867.22</ele>
      </trkpt>
      <trkpt lon="7.58514596400166" lat="45.6187280645171">
        <ele>1866.24</ele>
      </trkpt>
      <trkpt lon="7.58519956289767" lat="45.6187032560724">
        <ele>1865</ele>
      </trkpt>
      <trkpt lon="7.58523855582787" lat="45.6186828587098">
        <ele>1863.88</ele>
      </trkpt>
      <trkpt lon="7.58530136552415" lat="45.6186844454647">
        <ele>1862.47</ele>
      </trkpt>
      <trkpt lon="7.58535286651937" lat="45.6186920128176">
        <ele>1862</ele>
      </trkpt>
      <trkpt lon="7.58540948388587" lat="45.618720527971">
        <ele>1859.91</ele>
      </trkpt>
      <trkpt lon="7.58545261194619" lat="45.618755084814">
        <ele>1859</ele>
      </trkpt>
      <trkpt lon="7.58551929635147" lat="45.6187759832051">
        <ele>1857.39</ele>
      </trkpt>
      <trkpt lon="7.5855764196765" lat="45.6187844311899">
        <ele>1856.41</ele>
      </trkpt>
      <trkpt lon="7.58565913548648" lat="45.6187800568745">
        <ele>1855.11</ele>
      </trkpt>
      <trkpt lon="7.58572740925311" lat="45.6187785602707">
        <ele>1854.65</ele>
      </trkpt>
      <trkpt lon="7.58579326889507" lat="45.6187863972129">
        <ele>1854.91</ele>
      </trkpt>
      <trkpt lon="7.58582401945061" lat="45.6187928976727">
        <ele>1853.52</ele>
      </trkpt>
      <trkpt lon="7.58588621486674" lat="45.6188138293548">
        <ele>1852.13</ele>
      </trkpt>
      <trkpt lon="7.58593969342661" lat="45.618834563726">
        <ele>1851.61</ele>
      </trkpt>
      <trkpt lon="7.58596421869087" lat="45.6188489087685">
        <ele>1851.57</ele>
      </trkpt>
      <trkpt lon="7.58600911641543" lat="45.6188742181727">
        <ele>1851.35</ele>
      </trkpt>
      <trkpt lon="7.58620440313772" lat="45.6189226296061">
        <ele>1848.07</ele>
      </trkpt>
      <trkpt lon="7.5867010833411" lat="45.6187938533499">
        <ele>1839.34</ele>
      </trkpt>
      <trkpt lon="7.58700328041861" lat="45.6188602384871">
        <ele>1834.21</ele>
      </trkpt>
      <trkpt lon="7.58706893394005" lat="45.6188967844858">
        <ele>1833.05</ele>
      </trkpt>
      <trkpt lon="7.58717240921551" lat="45.6190003158734">
        <ele>1831</ele>
      </trkpt>
      <trkpt lon="7.58760925529583" lat="45.6189862752734">
        <ele>1821.03</ele>
      </trkpt>
      <trkpt lon="7.58761295308061" lat="45.6189616607983">
        <ele>1821.7</ele>
      </trkpt>
      <trkpt lon="7.58753137696983" lat="45.6189258174421">
        <ele>1822.58</ele>
      </trkpt>
      <trkpt lon="7.58760874885071" lat="45.6188889700329">
        <ele>1819.5</ele>
      </trkpt>
      <trkpt lon="7.58768501746923" lat="45.6188756926528">
        <ele>1816.44</ele>
      </trkpt>
      <trkpt lon="7.58774003197197" lat="45.6189067939673">
        <ele>1815.9</ele>
      </trkpt>
      <trkpt lon="7.58783340060393" lat="45.6189122700031">
        <ele>1813.72</ele>
      </trkpt>
      <trkpt lon="7.58794670761368" lat="45.6189665974645">
        <ele>1811.44</ele>
      </trkpt>
      <trkpt lon="7.58797057143783" lat="45.6189970456852">
        <ele>1812.2</ele>
      </trkpt>
      <trkpt lon="7.58812851307003" lat="45.6190360815228">
        <ele>1807.27</ele>
      </trkpt>
      <trkpt lon="7.5881987103802" lat="45.6191113868775">
        <ele>1806.08</ele>
      </trkpt>
      <trkpt lon="7.58847391464706" lat="45.6192056974607">
        <ele>1798.01</ele>
      </trkpt>
      <trkpt lon="7.58860169268399" lat="45.6193376992455">
        <ele>1794.28</ele>
      </trkpt>
      <trkpt lon="7.58870446383286" lat="45.6193672315349">
        <ele>1792.56</ele>
      </trkpt>
      <trkpt lon="7.58872540589073" lat="45.6193710012759">
        <ele>1792.51</ele>
      </trkpt>
      <trkpt lon="7.58876823262857" lat="45.6193306673353">
        <ele>1788</ele>
      </trkpt>
      <trkpt lon="7.58912974119026" lat="45.619303089558">
        <ele>1775.79</ele>
      </trkpt>
      <trkpt lon="7.58921538184679" lat="45.6193099072201">
        <ele>1771.77</ele>
      </trkpt>
      <trkpt lon="7.58934142031718" lat="45.6193323478873">
        <ele>1766.92</ele>
      </trkpt>
      <trkpt lon="7.58945036621688" lat="45.619381666847">
        <ele>1765.81</ele>
      </trkpt>
      <trkpt lon="7.58951161722948" lat="45.6193994345512">
        <ele>1763.9</ele>
      </trkpt>
      <trkpt lon="7.58959585478397" lat="45.6194212692458">
        <ele>1762.1</ele>
      </trkpt>
      <trkpt lon="7.58963978894479" lat="45.6194288309702">
        <ele>1761.08</ele>
      </trkpt>
      <trkpt lon="7.58965402259061" lat="45.6194290061115">
        <ele>1761.06</ele>
      </trkpt>
      <trkpt lon="7.58974917220386" lat="45.6194147011092">
        <ele>1758.24</ele>
      </trkpt>
      <trkpt lon="7.58978468706924" lat="45.6194050567625">
        <ele>1756.57</ele>
      </trkpt>
      <trkpt lon="7.58985493015674" lat="45.6194121353942">
        <ele>1757</ele>
      </trkpt>
      <trkpt lon="7.58990580554974" lat="45.619449847947">
        <ele>1758.08</ele>
      </trkpt>
      <trkpt lon="7.5899811705696" lat="45.6194775993724">
        <ele>1756.54</ele>
      </trkpt>
      <trkpt lon="7.58999664249721" lat="45.6195102836801">
        <ele>1757.71</ele>
      </trkpt>
      <trkpt lon="7.59012113280487" lat="45.6195791477273">
        <ele>1755.53</ele>
      </trkpt>
      <trkpt lon="7.59036223584555" lat="45.6195552105512">
        <ele>1747.63</ele>
      </trkpt>
      <trkpt lon="7.59049619351088" lat="45.6195994407339">
        <ele>1747.74</ele>
      </trkpt>
      <trkpt lon="7.59059344290681" lat="45.6195986583155">
        <ele>1744.86</ele>
      </trkpt>
      <trkpt lon="7.59084855013259" lat="45.6196608540054">
        <ele>1738.14</ele>
      </trkpt>
      <trkpt lon="7.59095339694561" lat="45.6196587271816">
        <ele>1734</ele>
      </trkpt>
      <trkpt lon="7.5911936203023" lat="45.6197314479943">
        <ele>1725.87</ele>
      </trkpt>
      <trkpt lon="7.59136666163736" lat="45.6198028875732">
        <ele>1722.34</ele>
      </trkpt>
      <trkpt lon="7.59159585021323" lat="45.6199372181695">
        <ele>1716.58</ele>
      </trkpt>
      <trkpt lon="7.59166507354057" lat="45.6199593138375">
        <ele>1715.04</ele>
      </trkpt>
      <trkpt lon="7.59169768181851" lat="45.6199992290481">
        <ele>1715.76</ele>
      </trkpt>
      <trkpt lon="7.59179096982838" lat="45.6200080301671">
        <ele>1711.85</ele>
      </trkpt>
      <trkpt lon="7.59182172842412" lat="45.6200295615622">
        <ele>1709.7</ele>
      </trkpt>
      <trkpt lon="7.59182927489659" lat="45.6200765517106">
        <ele>1708.52</ele>
      </trkpt>
      <trkpt lon="7.5919781625863" lat="45.6201649748199">
        <ele>1701.64</ele>
      </trkpt>
      <trkpt lon="7.59211728853767" lat="45.6202744316999">
        <ele>1699.91</ele>
      </trkpt>
      <trkpt lon="7.59219339043336" lat="45.6204061524256">
        <ele>1701.84</ele>
      </trkpt>
      <trkpt lon="7.59229856418278" lat="45.6204475044811">
        <ele>1697.41</ele>
      </trkpt>
      <trkpt lon="7.59234768619033" lat="45.6205143566421">
        <ele>1697.6</ele>
      </trkpt>
      <trkpt lon="7.59239209938869" lat="45.6206002314606">
        <ele>1696.93</ele>
      </trkpt>
      <trkpt lon="7.5924167226311" lat="45.6207182680124">
        <ele>1697.7</ele>
      </trkpt>
      <trkpt lon="7.59252018081472" lat="45.6208435749501">
        <ele>1690.59</ele>
      </trkpt>
      <trkpt lon="7.59259868175458" lat="45.6208846878544">
        <ele>1688.51</ele>
      </trkpt>
      <trkpt lon="7.59267029834205" lat="45.6209701768135">
        <ele>1688.89</ele>
      </trkpt>
      <trkpt lon="7.59277179724451" lat="45.6209995118635">
        <ele>1690.37</ele>
      </trkpt>
      <trkpt lon="7.59294149803097" lat="45.6210098832011">
        <ele>1688.74</ele>
      </trkpt>
      <trkpt lon="7.59306683057748" lat="45.621050402096">
        <ele>1686.15</ele>
      </trkpt>
      <trkpt lon="7.59317111174287" lat="45.6211377358601">
        <ele>1682.02</ele>
      </trkpt>
      <trkpt lon="7.59320768050552" lat="45.6212142437">
        <ele>1682.33</ele>
      </trkpt>
      <trkpt lon="7.5932703391762" lat="45.6212682095545">
        <ele>1683.56</ele>
      </trkpt>
      <trkpt lon="7.59344660421534" lat="45.6212674112285">
        <ele>1681.88</ele>
      </trkpt>
      <trkpt lon="7.59381742284272" lat="45.6213040184952">
        <ele>1681.02</ele>
      </trkpt>
      <trkpt lon="7.59385970389786" lat="45.621326502803">
        <ele>1683.21</ele>
      </trkpt>
      <trkpt lon="7.5939377305583" lat="45.6213301647565">
        <ele>1681.46</ele>
      </trkpt>
      <trkpt lon="7.59406761017045" lat="45.621383878473">
        <ele>1680.49</ele>
      </trkpt>
      <trkpt lon="7.59417093005086" lat="45.621479029092">
        <ele>1681.58</ele>
      </trkpt>
      <trkpt lon="7.59436088800965" lat="45.6215719165978">
        <ele>1679.03</ele>
      </trkpt>
      <trkpt lon="7.59459011251336" lat="45.6217156918777">
        <ele>1674.91</ele>
      </trkpt>
      <trkpt lon="7.59469231710992" lat="45.6218810359261">
        <ele>1667</ele>
      </trkpt>
      <trkpt lon="7.59467143015013" lat="45.6219007612237">
        <ele>1668.4</ele>
      </trkpt>
      <trkpt lon="7.59474063556113" lat="45.6221291565479">
        <ele>1662.75</ele>
      </trkpt>
      <trkpt lon="7.59491763915049" lat="45.6222888511726">
        <ele>1646.88</ele>
      </trkpt>
      <trkpt lon="7.59500292929168" lat="45.6224639786391">
        <ele>1642.33</ele>
      </trkpt>
      <trkpt lon="7.59509749737944" lat="45.6224987137589">
        <ele>1637.13</ele>
      </trkpt>
      <trkpt lon="7.59506912220074" lat="45.6226178970529">
        <ele>1638.88</ele>
      </trkpt>
      <trkpt lon="7.59516803796787" lat="45.6227764520095">
        <ele>1635.58</ele>
      </trkpt>
      <trkpt lon="7.5952335559359" lat="45.6229265814322">
        <ele>1633.88</ele>
      </trkpt>
      <trkpt lon="7.59531765635927" lat="45.6230005229975">
        <ele>1631.14</ele>
      </trkpt>
      <trkpt lon="7.59553193803916" lat="45.6230442928296">
        <ele>1626.12</ele>
      </trkpt>
      <trkpt lon="7.59578567915931" lat="45.6232185218926">
        <ele>1617.47</ele>
      </trkpt>
      <trkpt lon="7.59587233756632" lat="45.6233132862309">
        <ele>1619.79</ele>
      </trkpt>
      <trkpt lon="7.59600694574374" lat="45.6233320435541">
        <ele>1614.89</ele>
      </trkpt>
      <trkpt lon="7.59612447930332" lat="45.6234541005454">
        <ele>1614.4</ele>
      </trkpt>
      <trkpt lon="7.59634970489673" lat="45.6235375159288">
        <ele>1608.51</ele>
      </trkpt>
      <trkpt lon="7.59636792424746" lat="45.6235630334153">
        <ele>1610.18</ele>
      </trkpt>
      <trkpt lon="7.59644655098632" lat="45.6235633675128">
        <ele>1606.09</ele>
      </trkpt>
      <trkpt lon="7.5966016578919" lat="45.6236705856014">
        <ele>1606.72</ele>
      </trkpt>
      <trkpt lon="7.59673138499902" lat="45.6237101628482">
        <ele>1605.79</ele>
      </trkpt>
      <trkpt lon="7.59686777814632" lat="45.6236471208997">
        <ele>1598.41</ele>
      </trkpt>
      <trkpt lon="7.59691755147375" lat="45.623647104711">
        <ele>1595.97</ele>
      </trkpt>
      <trkpt lon="7.59702266147735" lat="45.6236810676904">
        <ele>1593.66</ele>
      </trkpt>
      <trkpt lon="7.59715310113956" lat="45.6237897800242">
        <ele>1591.41</ele>
      </trkpt>
      <trkpt lon="7.59747208462483" lat="45.6240024301296">
        <ele>1585.59</ele>
      </trkpt>
      <trkpt lon="7.59756585574887" lat="45.6240230232178">
        <ele>1586.82</ele>
      </trkpt>
      <trkpt lon="7.59773565432959" lat="45.6240042271527">
        <ele>1583.71</ele>
      </trkpt>
      <trkpt lon="7.598017195295" lat="45.6239334252919">
        <ele>1581.58</ele>
      </trkpt>
      <trkpt lon="7.59814508949959" lat="45.6239488546887">
        <ele>1579.79</ele>
      </trkpt>
      <trkpt lon="7.59821642747392" lat="45.6240768252744">
        <ele>1577.5</ele>
      </trkpt>
      <trkpt lon="7.59832206815729" lat="45.624105032558">
        <ele>1573.36</ele>
      </trkpt>
      <trkpt lon="7.598373766629" lat="45.6240998162564">
        <ele>1572.58</ele>
      </trkpt>
      <trkpt lon="7.598373766629" lat="45.6240998162564">
        <ele>1572.58</ele>
      </trkpt>
      <trkpt lon="7.59841724101302" lat="45.6240385151254">
        <ele>1570.71</ele>
      </trkpt>
      <trkpt lon="7.59849862492482" lat="45.6239591361241">
        <ele>1568.35</ele>
      </trkpt>
      <trkpt lon="7.59856995221507" lat="45.6239229275615">
        <ele>1564.74</ele>
      </trkpt>
      <trkpt lon="7.59886604552239" lat="45.6238910046006">
        <ele>1568.23</ele>
      </trkpt>
      <trkpt lon="7.59904404079556" lat="45.6239086706466">
        <ele>1565.79</ele>
      </trkpt>
      <trkpt lon="7.59915399532729" lat="45.6239438614814">
        <ele>1566.45</ele>
      </trkpt>
      <trkpt lon="7.5992845046869" lat="45.6240397040462">
        <ele>1566.44</ele>
      </trkpt>
      <trkpt lon="7.59949458260644" lat="45.6241290472115">
        <ele>1567</ele>
      </trkpt>
      <trkpt lon="7.59975133002203" lat="45.6241265246154">
        <ele>1563.67</ele>
      </trkpt>
      <trkpt lon="7.59997073968426" lat="45.6241656693798">
        <ele>1558.03</ele>
      </trkpt>
      <trkpt lon="7.60025252686379" lat="45.624146799389">
        <ele>1555.18</ele>
      </trkpt>
      <trkpt lon="7.60035856190724" lat="45.624179781797">
        <ele>1552.63</ele>
      </trkpt>
      <trkpt lon="7.60056152784808" lat="45.6241631888839">
        <ele>1558.16</ele>
      </trkpt>
      <trkpt lon="7.60058999751541" lat="45.6241841480204">
        <ele>1555.08</ele>
      </trkpt>
      <trkpt lon="7.60081272946415" lat="45.624223781718">
        <ele>1551.39</ele>
      </trkpt>
      <trkpt lon="7.60107428460207" lat="45.6241157342794">
        <ele>1552.45</ele>
      </trkpt>
      <trkpt lon="7.60119916939369" lat="45.6240407558074">
        <ele>1551.45</ele>
      </trkpt>
      <trkpt lon="7.60134756772085" lat="45.624010620361">
        <ele>1548.31</ele>
      </trkpt>
      <trkpt lon="7.60144130548294" lat="45.6240326495963">
        <ele>1548.04</ele>
      </trkpt>
      <trkpt lon="7.6015170766775" lat="45.6240291669031">
        <ele>1548.49</ele>
      </trkpt>
      <trkpt lon="7.60158431868941" lat="45.6239456515503">
        <ele>1546.83</ele>
      </trkpt>
      <trkpt lon="7.60183151210217" lat="45.623852726578">
        <ele>1544</ele>
      </trkpt>
      <trkpt lon="7.60203951882955" lat="45.6236023472507">
        <ele>1538</ele>
      </trkpt>
      <trkpt lon="7.60225860297009" lat="45.6235255501935">
        <ele>1534.03</ele>
      </trkpt>
      <trkpt lon="7.6023379256236" lat="45.6234513629702">
        <ele>1532</ele>
      </trkpt>
      <trkpt lon="7.60249534403258" lat="45.6233988326002">
        <ele>1530.52</ele>
      </trkpt>
      <trkpt lon="7.60269452276367" lat="45.6232919095905">
        <ele>1530</ele>
      </trkpt>
      <trkpt lon="7.60271829059183" lat="45.6232594367762">
        <ele>1528.95</ele>
      </trkpt>
      <trkpt lon="7.60272691752237" lat="45.6231703429414">
        <ele>1525.99</ele>
      </trkpt>
      <trkpt lon="7.60264931630653" lat="45.623144372095">
        <ele>1524.59</ele>
      </trkpt>
      <trkpt lon="7.60265003951622" lat="45.6230946041778">
        <ele>1522.3</ele>
      </trkpt>
      <trkpt lon="7.60270622581047" lat="45.6230068136108">
        <ele>1517.38</ele>
      </trkpt>
      <trkpt lon="7.60281197683265" lat="45.6229324099693">
        <ele>1513.71</ele>
      </trkpt>
      <trkpt lon="7.60278933511678" lat="45.6229091786092">
        <ele>1512.04</ele>
      </trkpt>
      <trkpt lon="7.60271926181417" lat="45.6228848300984">
        <ele>1511.26</ele>
      </trkpt>
      <trkpt lon="7.6027142596328" lat="45.6228485846901">
        <ele>1511.38</ele>
      </trkpt>
      <trkpt lon="7.60274816132076" lat="45.6228006643607">
        <ele>1510.1</ele>
      </trkpt>
      <trkpt lon="7.60278027271699" lat="45.622680264405">
        <ele>1506.99</ele>
      </trkpt>
      <trkpt lon="7.60276227283266" lat="45.6225115488582">
        <ele>1503.37</ele>
      </trkpt>
      <trkpt lon="7.60272598653431" lat="45.6224798699313">
        <ele>1502.9</ele>
      </trkpt>
      <trkpt lon="7.60272156785369" lat="45.6224357104398">
        <ele>1501.09</ele>
      </trkpt>
      <trkpt lon="7.60278209200591" lat="45.6224056685958">
        <ele>1499.07</ele>
      </trkpt>
      <trkpt lon="7.60282565414573" lat="45.6224025106013">
        <ele>1498.12</ele>
      </trkpt>
      <trkpt lon="7.60289868327257" lat="45.6224164560998">
        <ele>1495.61</ele>
      </trkpt>
      <trkpt lon="7.60292910280357" lat="45.6224466210432">
        <ele>1495.17</ele>
      </trkpt>
      <trkpt lon="7.60295277550523" lat="45.6224489824415">
        <ele>1494.76</ele>
      </trkpt>
      <trkpt lon="7.60299599423138" lat="45.6223926230995">
        <ele>1492.44</ele>
      </trkpt>
      <trkpt lon="7.60307550800223" lat="45.6223467921501">
        <ele>1488.78</ele>
      </trkpt>
      <trkpt lon="7.60315051807777" lat="45.6223428483269">
        <ele>1486.86</ele>
      </trkpt>
      <trkpt lon="7.60319540209463" lat="45.6223588797188">
        <ele>1486.59</ele>
      </trkpt>
      <trkpt lon="7.60329961191872" lat="45.6222587115228">
        <ele>1480.96</ele>
      </trkpt>
      <trkpt lon="7.60341110420653" lat="45.6222113808428">
        <ele>1478</ele>
      </trkpt>
      <trkpt lon="7.60346011671904" lat="45.6221953281304">
        <ele>1477.26</ele>
      </trkpt>
      <trkpt lon="7.6035410413281" lat="45.6221650836995">
        <ele>1474.92</ele>
      </trkpt>
      <trkpt lon="7.60362341600236" lat="45.6221331475731">
        <ele>1472.76</ele>
      </trkpt>
      <trkpt lon="7.60373128677196" lat="45.622045626954">
        <ele>1469.6</ele>
      </trkpt>
      <trkpt lon="7.60373128677196" lat="45.622045626954">
        <ele>1469.6</ele>
      </trkpt>
      <trkpt lon="7.60391366261472" lat="45.6220675681498">
        <ele>1466.51</ele>
      </trkpt>
      <trkpt lon="7.60410928241628" lat="45.6221294577045">
        <ele>1463.7</ele>
      </trkpt>
      <trkpt lon="7.60433783039213" lat="45.6222084868974">
        <ele>1460.54</ele>
      </trkpt>
      <trkpt lon="7.60441215400244" lat="45.6222219073952">
        <ele>1459.15</ele>
      </trkpt>
      <trkpt lon="7.60458990761817" lat="45.6222388400867">
        <ele>1457.98</ele>
      </trkpt>
      <trkpt lon="7.60470422643891" lat="45.6222585083488">
        <ele>1456.37</ele>
      </trkpt>
      <trkpt lon="7.60482683965435" lat="45.6222901603268">
        <ele>1456</ele>
      </trkpt>
      <trkpt lon="7.60532568869985" lat="45.622337205198">
        <ele>1452</ele>
      </trkpt>
      <trkpt lon="7.60555143804261" lat="45.6223430214032">
        <ele>1450.92</ele>
      </trkpt>
      <trkpt lon="7.60576751935748" lat="45.622407586222">
        <ele>1445</ele>
      </trkpt>
      <trkpt lon="7.60589251879626" lat="45.6224362048129">
        <ele>1449</ele>
      </trkpt>
      <trkpt lon="7.60589251879626" lat="45.6224362048129">
        <ele>1449</ele>
      </trkpt>
      <trkpt lon="7.60592713207294" lat="45.6223646200035">
        <ele>1448.03</ele>
      </trkpt>
      <trkpt lon="7.60606662849933" lat="45.621994764777">
        <ele>1445.22</ele>
      </trkpt>
      <trkpt lon="7.60612820133203" lat="45.6218911960853">
        <ele>1444</ele>
      </trkpt>
      <trkpt lon="7.60624044185464" lat="45.6217928335675">
        <ele>1443</ele>
      </trkpt>
      <trkpt lon="7.60653260987735" lat="45.6216287127839">
        <ele>1442</ele>
      </trkpt>
      <trkpt lon="7.60653260987735" lat="45.6216287127839">
        <ele>1442</ele>
      </trkpt>
      <trkpt lon="7.60631521780369" lat="45.6215446002365">
        <ele>1442</ele>
      </trkpt>
      <trkpt lon="7.6060082131725" lat="45.6214326639028">
        <ele>1440.81</ele>
      </trkpt>
      <trkpt lon="7.60596143221489" lat="45.6214000487404">
        <ele>1443</ele>
      </trkpt>
      <trkpt lon="7.606103493499" lat="45.6212681189945">
        <ele>1441.99</ele>
      </trkpt>
      <trkpt lon="7.60643596935992" lat="45.6208905376497">
        <ele>1439</ele>
      </trkpt>
      <trkpt lon="7.60647609624421" lat="45.6208396311936">
        <ele>1439</ele>
      </trkpt>
      <trkpt lon="7.60657634175416" lat="45.6206143903551">
        <ele>1439</ele>
      </trkpt>
      <trkpt lon="7.60662205750779" lat="45.6205708424719">
        <ele>1438.25</ele>
      </trkpt>
      <trkpt lon="7.60669289602484" lat="45.6205281420738">
        <ele>1438</ele>
      </trkpt>
      <trkpt lon="7.6067777455848" lat="45.6205048756347">
        <ele>1438</ele>
      </trkpt>
      <trkpt lon="7.60691384911673" lat="45.620478723504">
        <ele>1437</ele>
      </trkpt>
      <trkpt lon="7.60698883973516" lat="45.6204754074741">
        <ele>1437</ele>
      </trkpt>
      <trkpt lon="7.60712047601403" lat="45.6204742225979">
        <ele>1437</ele>
      </trkpt>
      <trkpt lon="7.60736656319506" lat="45.6204146679023">
        <ele>1435.76</ele>
      </trkpt>
      <trkpt lon="7.60758309907725" lat="45.6203880526439">
        <ele>1435</ele>
      </trkpt>
      <trkpt lon="7.60793145143249" lat="45.620378977984">
        <ele>1434</ele>
      </trkpt>
      <trkpt lon="7.60851607251461" lat="45.6203907838997">
        <ele>1432</ele>
      </trkpt>
      <trkpt lon="7.6092410527991" lat="45.6203754015881">
        <ele>1430</ele>
      </trkpt>
      <trkpt lon="7.60953285350863" lat="45.6203863324457">
        <ele>1429</ele>
      </trkpt>
      <trkpt lon="7.60969798139776" lat="45.6204261489272">
        <ele>1429</ele>
      </trkpt>
      <trkpt lon="7.60969798139776" lat="45.6204261489272">
        <ele>1429</ele>
      </trkpt>
      <trkpt lon="7.60987768487935" lat="45.6204521874228">
        <ele>1430</ele>
      </trkpt>
      <trkpt lon="7.60987768487935" lat="45.6204521874228">
        <ele>1430</ele>
      </trkpt>
      <trkpt lon="7.61011885059111" lat="45.6206331609789">
        <ele>1426.97</ele>
      </trkpt>
      <trkpt lon="7.61067327225607" lat="45.6208654693974">
        <ele>1424</ele>
      </trkpt>
      <trkpt lon="7.61077445731135" lat="45.6208923516044">
        <ele>1423</ele>
      </trkpt>
      <trkpt lon="7.61095998080793" lat="45.6208957784735">
        <ele>1421.99</ele>
      </trkpt>
      <trkpt lon="7.61113797937281" lat="45.6208871438544">
        <ele>1421.55</ele>
      </trkpt>
      <trkpt lon="7.61162718259277" lat="45.6208516865478">
        <ele>1420</ele>
      </trkpt>
      <trkpt lon="7.61193669531917" lat="45.6208363669123">
        <ele>1419.91</ele>
      </trkpt>
      <trkpt lon="7.61225002714544" lat="45.620843053425">
        <ele>1418.74</ele>
      </trkpt>
      <trkpt lon="7.61258019128202" lat="45.6209213224635">
        <ele>1418</ele>
      </trkpt>
      <trkpt lon="7.61290780713764" lat="45.6210509538864">
        <ele>1416.72</ele>
      </trkpt>
      <trkpt lon="7.61305124791806" lat="45.6211172319392">
        <ele>1416</ele>
      </trkpt>
      <trkpt lon="7.61320393623622" lat="45.6211778627158">
        <ele>1415.98</ele>
      </trkpt>
      <trkpt lon="7.61336884687297" lat="45.621247463281">
        <ele>1415</ele>
      </trkpt>
      <trkpt lon="7.61368853252064" lat="45.6213502633943">
        <ele>1413</ele>
      </trkpt>
      <trkpt lon="7.613963854018" lat="45.6214159815888">
        <ele>1412.94</ele>
      </trkpt>
      <trkpt lon="7.61531388474043" lat="45.6216624202303">
        <ele>1410</ele>
      </trkpt>
      <trkpt lon="7.61566890031051" lat="45.6216955272554">
        <ele>1409</ele>
      </trkpt>
      <trkpt lon="7.6159497765662" lat="45.6216660764319">
        <ele>1409</ele>
      </trkpt>
      <trkpt lon="7.61663845437615" lat="45.6215939506702">
        <ele>1406</ele>
      </trkpt>
      <trkpt lon="7.61693768620083" lat="45.6215847033113">
        <ele>1406</ele>
      </trkpt>
      <trkpt lon="7.6172816405945" lat="45.6216085794412">
        <ele>1408</ele>
      </trkpt>
      <trkpt lon="7.61740762850391" lat="45.6216597902789">
        <ele>1407</ele>
      </trkpt>
      <trkpt lon="7.61740762850391" lat="45.6216597902789">
        <ele>1407</ele>
      </trkpt>
      <trkpt lon="7.61747316904511" lat="45.6216496934312">
        <ele>1407</ele>
      </trkpt>
      <trkpt lon="7.6176730833222" lat="45.621714938667">
        <ele>1406.58</ele>
      </trkpt>
      <trkpt lon="7.61798716124653" lat="45.6217801266648">
        <ele>1407</ele>
      </trkpt>
      <trkpt lon="7.61875384684648" lat="45.6221093840164">
        <ele>1408.12</ele>
      </trkpt>
      <trkpt lon="7.61896449588362" lat="45.6221137305944">
        <ele>1409.11</ele>
      </trkpt>
      <trkpt lon="7.61922980034815" lat="45.6220444813933">
        <ele>1409.3</ele>
      </trkpt>
    </trkseg>
  </trk>
</gpx>
