<?xml version="1.0" encoding="UTF-8"?>
<gpx xmlns="http://www.topografix.com/GPX/1/1" creator="INVA x RAVdA" version="1.1" xmlns:xsi="http://www.w3.org/2001/XMLSchema-instance" xsi:schemaLocation="http://www.topografix.com/GPX/1/1 http://www.topografix.com/GPX/1/1/gpx.xsd">
  <trk>
    <name>RAVDA - Catasto Sentieri</name>
    <desc>Percorso personalizzato</desc>
    <trkseg>
      <trkpt lon="7.86218991404813" lat="45.6220183340286">
        <ele>1371.93</ele>
      </trkpt>
      <trkpt lon="7.86160989538717" lat="45.6215983345218">
        <ele>1360.96</ele>
      </trkpt>
      <trkpt lon="7.86145992726053" lat="45.6213583131251">
        <ele>1362.92</ele>
      </trkpt>
      <trkpt lon="7.86143987230312" lat="45.6210183293297">
        <ele>1357.91</ele>
      </trkpt>
      <trkpt lon="7.86098989743224" lat="45.620638234854">
        <ele>1338.11</ele>
      </trkpt>
      <trkpt lon="7.86096989278899" lat="45.6205682801147">
        <ele>1334.17</ele>
      </trkpt>
      <trkpt lon="7.86124992119297" lat="45.6204282264697">
        <ele>1335.27</ele>
      </trkpt>
      <trkpt lon="7.86141993539024" lat="45.6201782551026">
        <ele>1333.74</ele>
      </trkpt>
      <trkpt lon="7.861409901908" lat="45.6198882365566">
        <ele>1338</ele>
      </trkpt>
      <trkpt lon="7.86224996075598" lat="45.6195382801757">
        <ele>1356.76</ele>
      </trkpt>
      <trkpt lon="7.8623579821194" lat="45.619277249603">
        <ele>1364.53</ele>
      </trkpt>
      <trkpt lon="7.8623579821194" lat="45.619277249603">
        <ele>1364.53</ele>
      </trkpt>
      <trkpt lon="7.86261001407463" lat="45.6192082919338">
        <ele>1368.2</ele>
      </trkpt>
      <trkpt lon="7.86291996744298" lat="45.6188182183594">
        <ele>1383.26</ele>
      </trkpt>
      <trkpt lon="7.86343998355585" lat="45.6187282543869">
        <ele>1381.82</ele>
      </trkpt>
      <trkpt lon="7.86355993933517" lat="45.6185682403734">
        <ele>1389.36</ele>
      </trkpt>
      <trkpt lon="7.86387003390963" lat="45.6184882468689">
        <ele>1394.35</ele>
      </trkpt>
      <trkpt lon="7.86394003876882" lat="45.618318284904">
        <ele>1401.23</ele>
      </trkpt>
      <trkpt lon="7.86415999914725" lat="45.618179250155">
        <ele>1406.31</ele>
      </trkpt>
      <trkpt lon="7.86451002279746" lat="45.6180782287222">
        <ele>1405.11</ele>
      </trkpt>
      <trkpt lon="7.86492005220917" lat="45.617749268762">
        <ele>1414</ele>
      </trkpt>
      <trkpt lon="7.86546003182049" lat="45.61755922467">
        <ele>1415.52</ele>
      </trkpt>
      <trkpt lon="7.86574521804586" lat="45.6173083210471">
        <ele>1419.21</ele>
      </trkpt>
      <trkpt lon="7.86580917034807" lat="45.617406254692">
        <ele>1418.32</ele>
      </trkpt>
      <trkpt lon="7.86598259243248" lat="45.6174693635019">
        <ele>1422.19</ele>
      </trkpt>
      <trkpt lon="7.86637004461745" lat="45.6172291944614">
        <ele>1432</ele>
      </trkpt>
      <trkpt lon="7.86639005197589" lat="45.6171592762168">
        <ele>1434.86</ele>
      </trkpt>
      <trkpt lon="7.86651008617742" lat="45.6171092510983">
        <ele>1438.55</ele>
      </trkpt>
      <trkpt lon="7.8666601348766" lat="45.6169192005014">
        <ele>1447</ele>
      </trkpt>
      <trkpt lon="7.86677011071292" lat="45.6168592667027">
        <ele>1450.41</ele>
      </trkpt>
      <trkpt lon="7.86684899506586" lat="45.6168973128637">
        <ele>1451.52</ele>
      </trkpt>
      <trkpt lon="7.86684899506586" lat="45.6168973128637">
        <ele>1451.52</ele>
      </trkpt>
      <trkpt lon="7.86691847330756" lat="45.6168100640979">
        <ele>1452.9</ele>
      </trkpt>
      <trkpt lon="7.86696067233556" lat="45.616765477262">
        <ele>1453</ele>
      </trkpt>
      <trkpt lon="7.86730340728323" lat="45.6165033489052">
        <ele>1456</ele>
      </trkpt>
      <trkpt lon="7.8673347476541" lat="45.6164629759609">
        <ele>1456.04</ele>
      </trkpt>
      <trkpt lon="7.86732086497131" lat="45.6164135134656">
        <ele>1456.86</ele>
      </trkpt>
      <trkpt lon="7.86721559580913" lat="45.6162780868107">
        <ele>1457</ele>
      </trkpt>
      <trkpt lon="7.86727827099172" lat="45.6161975187045">
        <ele>1458</ele>
      </trkpt>
      <trkpt lon="7.86757036075835" lat="45.6159151754634">
        <ele>1460.13</ele>
      </trkpt>
      <trkpt lon="7.86773688303074" lat="45.6158175468069">
        <ele>1463.47</ele>
      </trkpt>
      <trkpt lon="7.86789581406263" lat="45.6156892395239">
        <ele>1466</ele>
      </trkpt>
      <trkpt lon="7.86800906881463" lat="45.6155744293681">
        <ele>1467.74</ele>
      </trkpt>
      <trkpt lon="7.86805924051339" lat="45.615515881144">
        <ele>1468</ele>
      </trkpt>
      <trkpt lon="7.86806528004052" lat="45.6154899277673">
        <ele>1468.15</ele>
      </trkpt>
      <trkpt lon="7.86804914408997" lat="45.6154631241571">
        <ele>1469</ele>
      </trkpt>
      <trkpt lon="7.86804914408997" lat="45.6154631241571">
        <ele>1469</ele>
      </trkpt>
      <trkpt lon="7.86814015588558" lat="45.6153892287128">
        <ele>1471</ele>
      </trkpt>
      <trkpt lon="7.86828013091109" lat="45.6151192371083">
        <ele>1478.07</ele>
      </trkpt>
      <trkpt lon="7.86886013615767" lat="45.6147992401107">
        <ele>1494.04</ele>
      </trkpt>
      <trkpt lon="7.86915898617296" lat="45.6145690760323">
        <ele>1506.57</ele>
      </trkpt>
      <trkpt lon="7.86947021165203" lat="45.6143292201604">
        <ele>1510</ele>
      </trkpt>
      <trkpt lon="7.86992024824488" lat="45.6138191810015">
        <ele>1520.12</ele>
      </trkpt>
      <trkpt lon="7.87028019948498" lat="45.6137392129737">
        <ele>1523.26</ele>
      </trkpt>
      <trkpt lon="7.87065019481164" lat="45.613689226356">
        <ele>1538.19</ele>
      </trkpt>
      <trkpt lon="7.87095028858171" lat="45.6136391779575">
        <ele>1545.04</ele>
      </trkpt>
      <trkpt lon="7.87180028668079" lat="45.6127091403284">
        <ele>1580.37</ele>
      </trkpt>
      <trkpt lon="7.87190025292918" lat="45.6125591819343">
        <ele>1587.76</ele>
      </trkpt>
      <trkpt lon="7.87181034427772" lat="45.6123291308106">
        <ele>1597.49</ele>
      </trkpt>
      <trkpt lon="7.87251027972579" lat="45.6114491791265">
        <ele>1624.04</ele>
      </trkpt>
      <trkpt lon="7.87335038993069" lat="45.6110291154163">
        <ele>1648.09</ele>
      </trkpt>
      <trkpt lon="7.87353036280323" lat="45.6110591540071">
        <ele>1654.57</ele>
      </trkpt>
      <trkpt lon="7.87375039361487" lat="45.6108691540807">
        <ele>1661.95</ele>
      </trkpt>
      <trkpt lon="7.87371037638212" lat="45.6107091718734">
        <ele>1659.16</ele>
      </trkpt>
      <trkpt lon="7.87418041360424" lat="45.6106191157532">
        <ele>1666.78</ele>
      </trkpt>
      <trkpt lon="7.87404035628466" lat="45.6105491487561">
        <ele>1667.9</ele>
      </trkpt>
      <trkpt lon="7.87433039556922" lat="45.6102891782842">
        <ele>1673</ele>
      </trkpt>
      <trkpt lon="7.87455035952768" lat="45.6096791038419">
        <ele>1697.28</ele>
      </trkpt>
      <trkpt lon="7.87533044139735" lat="45.6087891248934">
        <ele>1720.01</ele>
      </trkpt>
      <trkpt lon="7.87528047827247" lat="45.6085491183449">
        <ele>1730.57</ele>
      </trkpt>
      <trkpt lon="7.87499041909972" lat="45.6082591304604">
        <ele>1750.17</ele>
      </trkpt>
      <trkpt lon="7.87544044237438" lat="45.6081490708651">
        <ele>1759</ele>
      </trkpt>
      <trkpt lon="7.8756404790707" lat="45.6079190864033">
        <ele>1771</ele>
      </trkpt>
      <trkpt lon="7.87566042519301" lat="45.6075690555177">
        <ele>1776.75</ele>
      </trkpt>
      <trkpt lon="7.87587049066534" lat="45.6072991145856">
        <ele>1780.76</ele>
      </trkpt>
      <trkpt lon="7.8758304313152" lat="45.6070190626748">
        <ele>1787.98</ele>
      </trkpt>
      <trkpt lon="7.87621049735505" lat="45.6061990372312">
        <ele>1798.37</ele>
      </trkpt>
      <trkpt lon="7.87656048997585" lat="45.6059790766782">
        <ele>1802.93</ele>
      </trkpt>
      <trkpt lon="7.87733959165769" lat="45.6046390252284">
        <ele>1846.63</ele>
      </trkpt>
      <trkpt lon="7.8773195477417" lat="45.604158987896">
        <ele>1863.35</ele>
      </trkpt>
      <trkpt lon="7.87791954483795" lat="45.6037089878025">
        <ele>1886.94</ele>
      </trkpt>
      <trkpt lon="7.87807961766054" lat="45.6032889564866">
        <ele>1900.76</ele>
      </trkpt>
      <trkpt lon="7.87871968457415" lat="45.6030090110769">
        <ele>1926.47</ele>
      </trkpt>
      <trkpt lon="7.87908963455176" lat="45.6027190294995">
        <ele>1941</ele>
      </trkpt>
      <trkpt lon="7.87981970625079" lat="45.6024389738356">
        <ele>1951</ele>
      </trkpt>
      <trkpt lon="7.88075972158002" lat="45.6022989514963">
        <ele>1964.26</ele>
      </trkpt>
      <trkpt lon="7.88114969428802" lat="45.6021490375413">
        <ele>1976.66</ele>
      </trkpt>
      <trkpt lon="7.88164971802754" lat="45.6023589754049">
        <ele>1994.22</ele>
      </trkpt>
      <trkpt lon="7.88193972784838" lat="45.6023290496405">
        <ele>2002.03</ele>
      </trkpt>
      <trkpt lon="7.88222975408177" lat="45.6021689705847">
        <ele>2013.57</ele>
      </trkpt>
      <trkpt lon="7.88173971247749" lat="45.6018890171571">
        <ele>2020.91</ele>
      </trkpt>
      <trkpt lon="7.88191971190242" lat="45.6018390231677">
        <ele>2027.08</ele>
      </trkpt>
      <trkpt lon="7.88216871490734" lat="45.6018269696858">
        <ele>2034.02</ele>
      </trkpt>
      <trkpt lon="7.88216871490734" lat="45.6018269696858">
        <ele>2034.02</ele>
      </trkpt>
      <trkpt lon="7.88217971550118" lat="45.6018089832249">
        <ele>2034.21</ele>
      </trkpt>
      <trkpt lon="7.88282978121504" lat="45.6018889720129">
        <ele>2033.55</ele>
      </trkpt>
      <trkpt lon="7.88303980281874" lat="45.6020190189746">
        <ele>2037.1</ele>
      </trkpt>
      <trkpt lon="7.88537985257814" lat="45.6019990324876">
        <ele>2051.11</ele>
      </trkpt>
      <trkpt lon="7.88597982576917" lat="45.6017790520993">
        <ele>2059.34</ele>
      </trkpt>
      <trkpt lon="7.88777988720468" lat="45.601539077112">
        <ele>2089.47</ele>
      </trkpt>
      <trkpt lon="7.88817985749072" lat="45.6012390094545">
        <ele>2089.99</ele>
      </trkpt>
      <trkpt lon="7.88842987617524" lat="45.601279068411">
        <ele>2098</ele>
      </trkpt>
      <trkpt lon="7.88849983322593" lat="45.6011390627607">
        <ele>2101.39</ele>
      </trkpt>
      <trkpt lon="7.89020989052718" lat="45.6001490262773">
        <ele>2103.31</ele>
      </trkpt>
      <trkpt lon="7.89103997918386" lat="45.5995389937777">
        <ele>2095.32</ele>
      </trkpt>
      <trkpt lon="7.89116993201492" lat="45.5993990303681">
        <ele>2103.17</ele>
      </trkpt>
      <trkpt lon="7.89119005087553" lat="45.5988789701865">
        <ele>2104.73</ele>
      </trkpt>
      <trkpt lon="7.89155903077731" lat="45.5989070327533">
        <ele>2116.21</ele>
      </trkpt>
      <trkpt lon="7.89155903077731" lat="45.5989070327533">
        <ele>2116.21</ele>
      </trkpt>
      <trkpt lon="7.89151529886006" lat="45.5990703364653">
        <ele>2123.27</ele>
      </trkpt>
      <trkpt lon="7.89164535634602" lat="45.5991202945263">
        <ele>2125.98</ele>
      </trkpt>
      <trkpt lon="7.89163536787904" lat="45.5992303694367">
        <ele>2133.18</ele>
      </trkpt>
      <trkpt lon="7.89181533901032" lat="45.5993502964104">
        <ele>2138.07</ele>
      </trkpt>
      <trkpt lon="7.89203529940205" lat="45.5996403697356">
        <ele>2137</ele>
      </trkpt>
      <trkpt lon="7.89195530382183" lat="45.599750307863">
        <ele>2142.81</ele>
      </trkpt>
      <trkpt lon="7.8921653249096" lat="45.6000503646791">
        <ele>2158.84</ele>
      </trkpt>
      <trkpt lon="7.89212524869306" lat="45.6002103738985">
        <ele>2162.04</ele>
      </trkpt>
      <trkpt lon="7.89248531278977" lat="45.6004703922463">
        <ele>2169.52</ele>
      </trkpt>
      <trkpt lon="7.89229535028674" lat="45.6006104050842">
        <ele>2176.38</ele>
      </trkpt>
      <trkpt lon="7.89260535525906" lat="45.6007103494613">
        <ele>2181</ele>
      </trkpt>
      <trkpt lon="7.89245536153982" lat="45.6009304091498">
        <ele>2192.45</ele>
      </trkpt>
      <trkpt lon="7.89226526266352" lat="45.6013704212403">
        <ele>2193.02</ele>
      </trkpt>
      <trkpt lon="7.89218525861909" lat="45.6016304048293">
        <ele>2200.59</ele>
      </trkpt>
      <trkpt lon="7.89234531612748" lat="45.6015703909511">
        <ele>2204</ele>
      </trkpt>
      <trkpt lon="7.89236528168798" lat="45.6016504209436">
        <ele>2205.56</ele>
      </trkpt>
      <trkpt lon="7.89208527169785" lat="45.6025604023955">
        <ele>2223.72</ele>
      </trkpt>
      <trkpt lon="7.89163518679479" lat="45.6028403746225">
        <ele>2234.23</ele>
      </trkpt>
      <trkpt lon="7.89143517251628" lat="45.6030603977216">
        <ele>2248.61</ele>
      </trkpt>
      <trkpt lon="7.891055178775" lat="45.6031603993995">
        <ele>2260.33</ele>
      </trkpt>
      <trkpt lon="7.89123520765785" lat="45.6033103910237">
        <ele>2281.66</ele>
      </trkpt>
      <trkpt lon="7.89141518156154" lat="45.6038604761004">
        <ele>2277.43</ele>
      </trkpt>
      <trkpt lon="7.89075522208489" lat="45.6040204071758">
        <ele>2304.1</ele>
      </trkpt>
      <trkpt lon="7.89074522211858" lat="45.6041504631476">
        <ele>2302.2</ele>
      </trkpt>
      <trkpt lon="7.89142839689881" lat="45.6049472870496">
        <ele>2311.49</ele>
      </trkpt>
      <trkpt lon="7.89142839689881" lat="45.6049472870496">
        <ele>2311.49</ele>
      </trkpt>
      <trkpt lon="7.89171517492971" lat="45.6055505244918">
        <ele>2297.02</ele>
      </trkpt>
      <trkpt lon="7.89237518014122" lat="45.6060405459685">
        <ele>2304.48</ele>
      </trkpt>
      <trkpt lon="7.89231516200642" lat="45.6061905491898">
        <ele>2299.64</ele>
      </trkpt>
      <trkpt lon="7.89245519555377" lat="45.606340512654">
        <ele>2300.61</ele>
      </trkpt>
      <trkpt lon="7.89232513302797" lat="45.6065505028348">
        <ele>2297.7</ele>
      </trkpt>
      <trkpt lon="7.89254516745138" lat="45.6068905329824">
        <ele>2300.42</ele>
      </trkpt>
      <trkpt lon="7.89309525186788" lat="45.6071805622397">
        <ele>2296.73</ele>
      </trkpt>
      <trkpt lon="7.89347516190422" lat="45.6075295191403">
        <ele>2292.88</ele>
      </trkpt>
      <trkpt lon="7.89401522839847" lat="45.6077295293582">
        <ele>2289.44</ele>
      </trkpt>
      <trkpt lon="7.8942852482392" lat="45.6080195448294">
        <ele>2288.66</ele>
      </trkpt>
      <trkpt lon="7.89523519964554" lat="45.6081795912844">
        <ele>2270</ele>
      </trkpt>
      <trkpt lon="7.8952951675828" lat="45.6084695519705">
        <ele>2268.22</ele>
      </trkpt>
      <trkpt lon="7.8958152180601" lat="45.6088996039284">
        <ele>2236.3</ele>
      </trkpt>
      <trkpt lon="7.89587524426781" lat="45.6090495999631">
        <ele>2252.71</ele>
      </trkpt>
      <trkpt lon="7.89654526062108" lat="45.6095495967898">
        <ele>2218.07</ele>
      </trkpt>
      <trkpt lon="7.89666521910361" lat="45.6101096232154">
        <ele>2238.73</ele>
      </trkpt>
      <trkpt lon="7.89685522895841" lat="45.6102496202388">
        <ele>2201.81</ele>
      </trkpt>
      <trkpt lon="7.89680520471344" lat="45.6104396884588">
        <ele>2223.23</ele>
      </trkpt>
      <trkpt lon="7.89695518564091" lat="45.6104496873665">
        <ele>2203</ele>
      </trkpt>
      <trkpt lon="7.89686525708573" lat="45.610529646864">
        <ele>2207.96</ele>
      </trkpt>
      <trkpt lon="7.89687520316793" lat="45.6110296540543">
        <ele>2235</ele>
      </trkpt>
      <trkpt lon="7.89670519827806" lat="45.6112296324903">
        <ele>2247</ele>
      </trkpt>
      <trkpt lon="7.89662516451174" lat="45.6115897075032">
        <ele>2252.84</ele>
      </trkpt>
      <trkpt lon="7.89682513020751" lat="45.6118696776081">
        <ele>2241.17</ele>
      </trkpt>
      <trkpt lon="7.8967851557367" lat="45.6119396789975">
        <ele>2240</ele>
      </trkpt>
      <trkpt lon="7.8969651681464" lat="45.61207967037">
        <ele>2236</ele>
      </trkpt>
      <trkpt lon="7.89693524609436" lat="45.6121797420608">
        <ele>2235.71</ele>
      </trkpt>
      <trkpt lon="7.89716519107445" lat="45.6125597316496">
        <ele>2223</ele>
      </trkpt>
      <trkpt lon="7.8973029761369" lat="45.6124857255375">
        <ele>2221</ele>
      </trkpt>
      <trkpt lon="7.8973029761369" lat="45.6124857255375">
        <ele>2221</ele>
      </trkpt>
      <trkpt lon="7.89742988911901" lat="45.6126783982915">
        <ele>2205.95</ele>
      </trkpt>
      <trkpt lon="7.89771982381165" lat="45.612798390208">
        <ele>2185</ele>
      </trkpt>
      <trkpt lon="7.89772980026004" lat="45.6128784145504">
        <ele>2184.45</ele>
      </trkpt>
      <trkpt lon="7.89822983711566" lat="45.6131284228746">
        <ele>2164</ele>
      </trkpt>
      <trkpt lon="7.89838991684854" lat="45.6130684006625">
        <ele>2157.03</ele>
      </trkpt>
      <trkpt lon="7.89855993181161" lat="45.6132084752752">
        <ele>2147</ele>
      </trkpt>
      <trkpt lon="7.89883985219405" lat="45.6137684198955">
        <ele>2120</ele>
      </trkpt>
      <trkpt lon="7.89909990805413" lat="45.6139084620341">
        <ele>2111</ele>
      </trkpt>
      <trkpt lon="7.89908982448944" lat="45.6143385200427">
        <ele>2104</ele>
      </trkpt>
      <trkpt lon="7.89939990148661" lat="45.6148785005577">
        <ele>2139.89</ele>
      </trkpt>
      <trkpt lon="7.8996798901555" lat="45.6150685080402">
        <ele>2105</ele>
      </trkpt>
      <trkpt lon="7.89963987724561" lat="45.6152584930214">
        <ele>2131.23</ele>
      </trkpt>
      <trkpt lon="7.90034949406699" lat="45.6159231138406">
        <ele>2113</ele>
      </trkpt>
      <trkpt lon="7.90034949406699" lat="45.6159231138406">
        <ele>2113</ele>
      </trkpt>
      <trkpt lon="7.90039904810148" lat="45.6160585149627">
        <ele>2117.72</ele>
      </trkpt>
      <trkpt lon="7.90052158192011" lat="45.6161743662871">
        <ele>2123.22</ele>
      </trkpt>
      <trkpt lon="7.90054808800109" lat="45.6163209758062">
        <ele>2129.06</ele>
      </trkpt>
      <trkpt lon="7.90067478787674" lat="45.6164730503094">
        <ele>2134</ele>
      </trkpt>
      <trkpt lon="7.90071558107249" lat="45.6165843340709">
        <ele>2137.37</ele>
      </trkpt>
      <trkpt lon="7.90082473690134" lat="45.616695735155">
        <ele>2133.57</ele>
      </trkpt>
      <trkpt lon="7.90114845999118" lat="45.6168799484645">
        <ele>2139.65</ele>
      </trkpt>
      <trkpt lon="7.90144896247205" lat="45.6170975123964">
        <ele>2124</ele>
      </trkpt>
      <trkpt lon="7.90153347290305" lat="45.6172297387722">
        <ele>2120.57</ele>
      </trkpt>
      <trkpt lon="7.90162867087557" lat="45.6173004998057">
        <ele>2121</ele>
      </trkpt>
      <trkpt lon="7.9017022641279" lat="45.6174465736499">
        <ele>2123</ele>
      </trkpt>
      <trkpt lon="7.90177434287098" lat="45.6174796696204">
        <ele>2121.68</ele>
      </trkpt>
      <trkpt lon="7.90181576435068" lat="45.617565574968">
        <ele>2121</ele>
      </trkpt>
      <trkpt lon="7.90209868801227" lat="45.6178166312465">
        <ele>2125</ele>
      </trkpt>
      <trkpt lon="7.9021076511933" lat="45.6178634325166">
        <ele>2127.15</ele>
      </trkpt>
      <trkpt lon="7.90214404034739" lat="45.617891594688">
        <ele>2129</ele>
      </trkpt>
      <trkpt lon="7.90211680748581" lat="45.6179791827558">
        <ele>2134</ele>
      </trkpt>
      <trkpt lon="7.90212318850921" lat="45.6181056165723">
        <ele>2138</ele>
      </trkpt>
      <trkpt lon="7.90214388256459" lat="45.6181494678798">
        <ele>2143</ele>
      </trkpt>
      <trkpt lon="7.90210276325163" lat="45.6182386336328">
        <ele>2145</ele>
      </trkpt>
      <trkpt lon="7.90214855226613" lat="45.6182847991274">
        <ele>2146.28</ele>
      </trkpt>
      <trkpt lon="7.90223830645115" lat="45.6186018635652">
        <ele>2155</ele>
      </trkpt>
      <trkpt lon="7.90235899317628" lat="45.6188521682754">
        <ele>2165.66</ele>
      </trkpt>
      <trkpt lon="7.90234854691216" lat="45.6189339758017">
        <ele>2169</ele>
      </trkpt>
      <trkpt lon="7.90237007930752" lat="45.619007088969">
        <ele>2173</ele>
      </trkpt>
      <trkpt lon="7.90231972367391" lat="45.619096435194">
        <ele>2178</ele>
      </trkpt>
      <trkpt lon="7.90231570358712" lat="45.6191249303212">
        <ele>2180.01</ele>
      </trkpt>
      <trkpt lon="7.9023385455162" lat="45.6191376614172">
        <ele>2182</ele>
      </trkpt>
      <trkpt lon="7.90231546937744" lat="45.6191698425669">
        <ele>2182</ele>
      </trkpt>
      <trkpt lon="7.90232649637775" lat="45.6192226023409">
        <ele>2186.62</ele>
      </trkpt>
      <trkpt lon="7.9024587902523" lat="45.6194040720866">
        <ele>2192.81</ele>
      </trkpt>
      <trkpt lon="7.90247550036762" lat="45.6194746212541">
        <ele>2193</ele>
      </trkpt>
      <trkpt lon="7.90257284947195" lat="45.6196327122964">
        <ele>2201</ele>
      </trkpt>
      <trkpt lon="7.90268734236618" lat="45.619701048453">
        <ele>2208</ele>
      </trkpt>
      <trkpt lon="7.90283180657579" lat="45.6198505925069">
        <ele>2215.62</ele>
      </trkpt>
      <trkpt lon="7.90295777769197" lat="45.6199092257497">
        <ele>2219</ele>
      </trkpt>
      <trkpt lon="7.9030482040386" lat="45.6200869644456">
        <ele>2223</ele>
      </trkpt>
      <trkpt lon="7.90305977475856" lat="45.6201777140754">
        <ele>2228</ele>
      </trkpt>
      <trkpt lon="7.90309451046978" lat="45.620238263162">
        <ele>2231</ele>
      </trkpt>
      <trkpt lon="7.90326738383475" lat="45.6203780877968">
        <ele>2230.31</ele>
      </trkpt>
      <trkpt lon="7.90328587238695" lat="45.6204167000619">
        <ele>2233</ele>
      </trkpt>
      <trkpt lon="7.90349654009811" lat="45.6206050401746">
        <ele>2235</ele>
      </trkpt>
      <trkpt lon="7.90358711320404" lat="45.6206636064111">
        <ele>2233.51</ele>
      </trkpt>
      <trkpt lon="7.90372508478642" lat="45.6207120033983">
        <ele>2228</ele>
      </trkpt>
      <trkpt lon="7.90386236057503" lat="45.6208291632307">
        <ele>2221</ele>
      </trkpt>
      <trkpt lon="7.90402734860791" lat="45.6209197643221">
        <ele>2221.64</ele>
      </trkpt>
      <trkpt lon="7.90420590712908" lat="45.6209721534647">
        <ele>2224</ele>
      </trkpt>
      <trkpt lon="7.90484440536256" lat="45.6212244520606">
        <ele>2224.07</ele>
      </trkpt>
      <trkpt lon="7.9050930220083" lat="45.6213681497392">
        <ele>2229</ele>
      </trkpt>
      <trkpt lon="7.90518256769618" lat="45.6214069932444">
        <ele>2230.29</ele>
      </trkpt>
      <trkpt lon="7.90523109368904" lat="45.6214115966022">
        <ele>2229.14</ele>
      </trkpt>
      <trkpt lon="7.90545232277825" lat="45.6215983256641">
        <ele>2233</ele>
      </trkpt>
      <trkpt lon="7.90572805473321" lat="45.6216999780931">
        <ele>2232</ele>
      </trkpt>
      <trkpt lon="7.90586520072309" lat="45.6217779785996">
        <ele>2233.98</ele>
      </trkpt>
      <trkpt lon="7.90594005674158" lat="45.6218401725556">
        <ele>2238</ele>
      </trkpt>
      <trkpt lon="7.90598375904539" lat="45.6219148498634">
        <ele>2240</ele>
      </trkpt>
      <trkpt lon="7.90608696505882" lat="45.6220098976996">
        <ele>2246</ele>
      </trkpt>
      <trkpt lon="7.90614611194965" lat="45.6220949809739">
        <ele>2247</ele>
      </trkpt>
      <trkpt lon="7.90628586586085" lat="45.622197221008">
        <ele>2249</ele>
      </trkpt>
      <trkpt lon="7.90639675207068" lat="45.6223196140542">
        <ele>2251.59</ele>
      </trkpt>
      <trkpt lon="7.90668994099756" lat="45.6223683264209">
        <ele>2249.7</ele>
      </trkpt>
    </trkseg>
  </trk>
</gpx>
