<?xml version="1.0" encoding="UTF-8"?>
<gpx version="1.1" creator="sentieri-vda" xmlns="http://www.topografix.com/GPX/1/1">
  <metadata>
    <name>TAPPA  09: Valtournenche - Rifugio Barmasse</name>
    <desc>Catasto Sentieri VdA — AV1_S9</desc>
    <author><name>Regione Autonoma Valle d'Aosta</name></author>
  </metadata>
  <trk>
    <name>TAPPA  09: Valtournenche - Rifugio Barmasse</name>
    <src>Catasto Sentieri VdA (AV1_S9)</src>
    <trkseg>
      <trkpt lat="45.8760108" lon="7.5943114">
        <ele>1528</ele>
      </trkpt>
      <trkpt lat="45.8762059" lon="7.5942770">
        <ele>1530</ele>
      </trkpt>
      <trkpt lat="45.8762513" lon="7.5942949">
        <ele>1531</ele>
      </trkpt>
      <trkpt lat="45.8763783" lon="7.5944800">
        <ele>1533</ele>
      </trkpt>
      <trkpt lat="45.8764583" lon="7.5945500">
        <ele>1534</ele>
      </trkpt>
      <trkpt lat="45.8767283" lon="7.5946500">
        <ele>1536</ele>
      </trkpt>
      <trkpt lat="45.8767583" lon="7.5946400">
        <ele>1537</ele>
      </trkpt>
      <trkpt lat="45.8767783" lon="7.5945900">
        <ele>1539</ele>
      </trkpt>
      <trkpt lat="45.8768483" lon="7.5945600">
        <ele>1540</ele>
      </trkpt>
      <trkpt lat="45.8768383" lon="7.5945500">
        <ele>1542</ele>
      </trkpt>
      <trkpt lat="45.8768483" lon="7.5945400">
        <ele>1543</ele>
      </trkpt>
      <trkpt lat="45.8769383" lon="7.5945800">
        <ele>1545</ele>
      </trkpt>
      <trkpt lat="45.8769483" lon="7.5946800">
        <ele>1546</ele>
      </trkpt>
      <trkpt lat="45.8769983" lon="7.5947300">
        <ele>1548</ele>
      </trkpt>
      <trkpt lat="45.8770984" lon="7.5949900">
        <ele>1549</ele>
      </trkpt>
      <trkpt lat="45.8771683" lon="7.5951000">
        <ele>1551</ele>
      </trkpt>
      <trkpt lat="45.8771883" lon="7.5951600">
        <ele>1552</ele>
      </trkpt>
      <trkpt lat="45.8772083" lon="7.5952500">
        <ele>1554</ele>
      </trkpt>
      <trkpt lat="45.8772083" lon="7.5953500">
        <ele>1555</ele>
      </trkpt>
      <trkpt lat="45.8772183" lon="7.5953500">
        <ele>1557</ele>
      </trkpt>
      <trkpt lat="45.8772083" lon="7.5954800">
        <ele>1559</ele>
      </trkpt>
      <trkpt lat="45.8772283" lon="7.5956000">
        <ele>1560</ele>
      </trkpt>
      <trkpt lat="45.8773383" lon="7.5957800">
        <ele>1562</ele>
      </trkpt>
      <trkpt lat="45.8773183" lon="7.5959300">
        <ele>1563</ele>
      </trkpt>
      <trkpt lat="45.8773383" lon="7.5960300">
        <ele>1565</ele>
      </trkpt>
      <trkpt lat="45.8773683" lon="7.5960600">
        <ele>1566</ele>
      </trkpt>
      <trkpt lat="45.8774083" lon="7.5960500">
        <ele>1568</ele>
      </trkpt>
      <trkpt lat="45.8775199" lon="7.5959680">
        <ele>1569</ele>
      </trkpt>
      <trkpt lat="45.8774573" lon="7.5961026">
        <ele>1571</ele>
      </trkpt>
      <trkpt lat="45.8774587" lon="7.5962202">
        <ele>1572</ele>
      </trkpt>
      <trkpt lat="45.8776255" lon="7.5961290">
        <ele>1574</ele>
      </trkpt>
      <trkpt lat="45.8778308" lon="7.5959755">
        <ele>1575</ele>
      </trkpt>
      <trkpt lat="45.8780373" lon="7.5959192">
        <ele>1577</ele>
      </trkpt>
      <trkpt lat="45.8782373" lon="7.5959193">
        <ele>1578</ele>
      </trkpt>
      <trkpt lat="45.8784073" lon="7.5958025">
        <ele>1580</ele>
      </trkpt>
      <trkpt lat="45.8786037" lon="7.5955009">
        <ele>1581</ele>
      </trkpt>
      <trkpt lat="45.8786750" lon="7.5954940">
        <ele>1583</ele>
      </trkpt>
      <trkpt lat="45.8787877" lon="7.5956548">
        <ele>1584</ele>
      </trkpt>
      <trkpt lat="45.8791598" lon="7.5959932">
        <ele>1586</ele>
      </trkpt>
      <trkpt lat="45.8791753" lon="7.5960900">
        <ele>1587</ele>
      </trkpt>
      <trkpt lat="45.8790916" lon="7.5962557">
        <ele>1589</ele>
      </trkpt>
      <trkpt lat="45.8788421" lon="7.5965893">
        <ele>1591</ele>
      </trkpt>
      <trkpt lat="45.8787140" lon="7.5969250">
        <ele>1592</ele>
      </trkpt>
      <trkpt lat="45.8786632" lon="7.5971513">
        <ele>1594</ele>
      </trkpt>
      <trkpt lat="45.8787008" lon="7.5972986">
        <ele>1595</ele>
      </trkpt>
      <trkpt lat="45.8787733" lon="7.5973889">
        <ele>1597</ele>
      </trkpt>
      <trkpt lat="45.8789412" lon="7.5973898">
        <ele>1598</ele>
      </trkpt>
      <trkpt lat="45.8790863" lon="7.5972787">
        <ele>1600</ele>
      </trkpt>
      <trkpt lat="45.8792849" lon="7.5971612">
        <ele>1601</ele>
      </trkpt>
      <trkpt lat="45.8792783" lon="7.5973200">
        <ele>1603</ele>
      </trkpt>
      <trkpt lat="45.8793083" lon="7.5974600">
        <ele>1604</ele>
      </trkpt>
      <trkpt lat="45.8793383" lon="7.5975300">
        <ele>1606</ele>
      </trkpt>
      <trkpt lat="45.8794583" lon="7.5976800">
        <ele>1607</ele>
      </trkpt>
      <trkpt lat="45.8795283" lon="7.5978800">
        <ele>1609</ele>
      </trkpt>
      <trkpt lat="45.8795783" lon="7.5979600">
        <ele>1610</ele>
      </trkpt>
      <trkpt lat="45.8795883" lon="7.5981400">
        <ele>1612</ele>
      </trkpt>
      <trkpt lat="45.8795942" lon="7.5981851">
        <ele>1613</ele>
      </trkpt>
      <trkpt lat="45.8795936" lon="7.5982102">
        <ele>1615</ele>
      </trkpt>
      <trkpt lat="45.8795798" lon="7.5982711">
        <ele>1616</ele>
      </trkpt>
      <trkpt lat="45.8795870" lon="7.5983660">
        <ele>1618</ele>
      </trkpt>
      <trkpt lat="45.8795742" lon="7.5984078">
        <ele>1620</ele>
      </trkpt>
      <trkpt lat="45.8795532" lon="7.5984654">
        <ele>1621</ele>
      </trkpt>
      <trkpt lat="45.8795385" lon="7.5985488">
        <ele>1623</ele>
      </trkpt>
      <trkpt lat="45.8795311" lon="7.5986354">
        <ele>1624</ele>
      </trkpt>
      <trkpt lat="45.8794984" lon="7.5988213">
        <ele>1626</ele>
      </trkpt>
      <trkpt lat="45.8794983" lon="7.5988213">
        <ele>1627</ele>
      </trkpt>
      <trkpt lat="45.8794984" lon="7.5988388">
        <ele>1629</ele>
      </trkpt>
      <trkpt lat="45.8794716" lon="7.5989333">
        <ele>1630</ele>
      </trkpt>
      <trkpt lat="45.8794183" lon="7.5991500">
        <ele>1632</ele>
      </trkpt>
      <trkpt lat="45.8794284" lon="7.5992600">
        <ele>1633</ele>
      </trkpt>
      <trkpt lat="45.8794277" lon="7.5993204">
        <ele>1635</ele>
      </trkpt>
      <trkpt lat="45.8794177" lon="7.5994604">
        <ele>1636</ele>
      </trkpt>
      <trkpt lat="45.8793973" lon="7.5995303">
        <ele>1638</ele>
      </trkpt>
      <trkpt lat="45.8793373" lon="7.5996003">
        <ele>1639</ele>
      </trkpt>
      <trkpt lat="45.8792900" lon="7.5997037">
        <ele>1641</ele>
      </trkpt>
      <trkpt lat="45.8792384" lon="7.5998900">
        <ele>1642</ele>
      </trkpt>
      <trkpt lat="45.8792184" lon="7.5999200">
        <ele>1644</ele>
      </trkpt>
      <trkpt lat="45.8791584" lon="7.5999900">
        <ele>1645</ele>
      </trkpt>
      <trkpt lat="45.8791183" lon="7.6000000">
        <ele>1647</ele>
      </trkpt>
      <trkpt lat="45.8790983" lon="7.6000400">
        <ele>1648</ele>
      </trkpt>
      <trkpt lat="45.8789883" lon="7.6000601">
        <ele>1650</ele>
      </trkpt>
      <trkpt lat="45.8788983" lon="7.6000501">
        <ele>1652</ele>
      </trkpt>
      <trkpt lat="45.8786810" lon="7.6002281">
        <ele>1653</ele>
      </trkpt>
      <trkpt lat="45.8785583" lon="7.6002400">
        <ele>1655</ele>
      </trkpt>
      <trkpt lat="45.8785183" lon="7.6002900">
        <ele>1656</ele>
      </trkpt>
      <trkpt lat="45.8784183" lon="7.6003200">
        <ele>1658</ele>
      </trkpt>
      <trkpt lat="45.8782283" lon="7.6003300">
        <ele>1659</ele>
      </trkpt>
      <trkpt lat="45.8781083" lon="7.6002600">
        <ele>1661</ele>
      </trkpt>
      <trkpt lat="45.8781048" lon="7.6002495">
        <ele>1662</ele>
      </trkpt>
      <trkpt lat="45.8780371" lon="7.6002356">
        <ele>1664</ele>
      </trkpt>
      <trkpt lat="45.8779604" lon="7.6002358">
        <ele>1665</ele>
      </trkpt>
      <trkpt lat="45.8779051" lon="7.6002631">
        <ele>1667</ele>
      </trkpt>
      <trkpt lat="45.8778078" lon="7.6003053">
        <ele>1668</ele>
      </trkpt>
      <trkpt lat="45.8776911" lon="7.6003394">
        <ele>1670</ele>
      </trkpt>
      <trkpt lat="45.8776032" lon="7.6003623">
        <ele>1671</ele>
      </trkpt>
      <trkpt lat="45.8775297" lon="7.6003780">
        <ele>1673</ele>
      </trkpt>
      <trkpt lat="45.8774683" lon="7.6003100">
        <ele>1674</ele>
      </trkpt>
      <trkpt lat="45.8771283" lon="7.6000500">
        <ele>1676</ele>
      </trkpt>
      <trkpt lat="45.8770783" lon="7.6000600">
        <ele>1677</ele>
      </trkpt>
      <trkpt lat="45.8769156" lon="7.6000632">
        <ele>1679</ele>
      </trkpt>
      <trkpt lat="45.8768583" lon="7.6000600">
        <ele>1681</ele>
      </trkpt>
      <trkpt lat="45.8767685" lon="7.6000790">
        <ele>1682</ele>
      </trkpt>
      <trkpt lat="45.8767120" lon="7.6001046">
        <ele>1684</ele>
      </trkpt>
      <trkpt lat="45.8765783" lon="7.6000600">
        <ele>1685</ele>
      </trkpt>
      <trkpt lat="45.8765183" lon="7.6000200">
        <ele>1687</ele>
      </trkpt>
      <trkpt lat="45.8761883" lon="7.5999200">
        <ele>1688</ele>
      </trkpt>
      <trkpt lat="45.8758483" lon="7.5997400">
        <ele>1690</ele>
      </trkpt>
      <trkpt lat="45.8757183" lon="7.5995700">
        <ele>1691</ele>
      </trkpt>
      <trkpt lat="45.8755783" lon="7.5995400">
        <ele>1693</ele>
      </trkpt>
      <trkpt lat="45.8753484" lon="7.5995700">
        <ele>1694</ele>
      </trkpt>
      <trkpt lat="45.8752383" lon="7.5996500">
        <ele>1696</ele>
      </trkpt>
      <trkpt lat="45.8751712" lon="7.5996819">
        <ele>1697</ele>
      </trkpt>
      <trkpt lat="45.8749712" lon="7.5997519">
        <ele>1699</ele>
      </trkpt>
      <trkpt lat="45.8748312" lon="7.5998419">
        <ele>1700</ele>
      </trkpt>
      <trkpt lat="45.8747168" lon="7.5998880">
        <ele>1702</ele>
      </trkpt>
      <trkpt lat="45.8745855" lon="7.5999689">
        <ele>1703</ele>
      </trkpt>
      <trkpt lat="45.8745055" lon="7.6000089">
        <ele>1705</ele>
      </trkpt>
      <trkpt lat="45.8744250" lon="7.6000042">
        <ele>1706</ele>
      </trkpt>
      <trkpt lat="45.8743643" lon="7.5999881">
        <ele>1708</ele>
      </trkpt>
      <trkpt lat="45.8741744" lon="7.6000681">
        <ele>1709</ele>
      </trkpt>
      <trkpt lat="45.8741183" lon="7.6000800">
        <ele>1711</ele>
      </trkpt>
      <trkpt lat="45.8740883" lon="7.6001000">
        <ele>1713</ele>
      </trkpt>
      <trkpt lat="45.8739583" lon="7.6001401">
        <ele>1714</ele>
      </trkpt>
      <trkpt lat="45.8739183" lon="7.6001301">
        <ele>1716</ele>
      </trkpt>
      <trkpt lat="45.8738783" lon="7.6001601">
        <ele>1717</ele>
      </trkpt>
      <trkpt lat="45.8737883" lon="7.6001301">
        <ele>1719</ele>
      </trkpt>
      <trkpt lat="45.8736783" lon="7.6001401">
        <ele>1720</ele>
      </trkpt>
      <trkpt lat="45.8736083" lon="7.6001800">
        <ele>1722</ele>
      </trkpt>
      <trkpt lat="45.8735035" lon="7.6002345">
        <ele>1723</ele>
      </trkpt>
      <trkpt lat="45.8734335" lon="7.6002845">
        <ele>1725</ele>
      </trkpt>
      <trkpt lat="45.8733739" lon="7.6002731">
        <ele>1726</ele>
      </trkpt>
      <trkpt lat="45.8732315" lon="7.6003839">
        <ele>1728</ele>
      </trkpt>
      <trkpt lat="45.8730783" lon="7.6004200">
        <ele>1729</ele>
      </trkpt>
      <trkpt lat="45.8729583" lon="7.6005100">
        <ele>1731</ele>
      </trkpt>
      <trkpt lat="45.8729283" lon="7.6005000">
        <ele>1732</ele>
      </trkpt>
      <trkpt lat="45.8727883" lon="7.6005700">
        <ele>1734</ele>
      </trkpt>
      <trkpt lat="45.8727483" lon="7.6005600">
        <ele>1735</ele>
      </trkpt>
      <trkpt lat="45.8726783" lon="7.6006400">
        <ele>1737</ele>
      </trkpt>
      <trkpt lat="45.8725347" lon="7.6007292">
        <ele>1738</ele>
      </trkpt>
      <trkpt lat="45.8724247" lon="7.6008292">
        <ele>1740</ele>
      </trkpt>
      <trkpt lat="45.8723983" lon="7.6008500">
        <ele>1742</ele>
      </trkpt>
      <trkpt lat="45.8723583" lon="7.6008700">
        <ele>1743</ele>
      </trkpt>
      <trkpt lat="45.8719383" lon="7.6013700">
        <ele>1745</ele>
      </trkpt>
      <trkpt lat="45.8718383" lon="7.6014400">
        <ele>1746</ele>
      </trkpt>
      <trkpt lat="45.8718283" lon="7.6014800">
        <ele>1748</ele>
      </trkpt>
      <trkpt lat="45.8717583" lon="7.6015500">
        <ele>1749</ele>
      </trkpt>
      <trkpt lat="45.8716783" lon="7.6016900">
        <ele>1751</ele>
      </trkpt>
      <trkpt lat="45.8716283" lon="7.6017200">
        <ele>1752</ele>
      </trkpt>
      <trkpt lat="45.8716217" lon="7.6018318">
        <ele>1754</ele>
      </trkpt>
      <trkpt lat="45.8715607" lon="7.6020289">
        <ele>1755</ele>
      </trkpt>
      <trkpt lat="45.8714276" lon="7.6025035">
        <ele>1757</ele>
      </trkpt>
      <trkpt lat="45.8713983" lon="7.6027200">
        <ele>1758</ele>
      </trkpt>
      <trkpt lat="45.8713883" lon="7.6030700">
        <ele>1760</ele>
      </trkpt>
      <trkpt lat="45.8714583" lon="7.6034500">
        <ele>1761</ele>
      </trkpt>
      <trkpt lat="45.8714683" lon="7.6036500">
        <ele>1763</ele>
      </trkpt>
      <trkpt lat="45.8714783" lon="7.6036800">
        <ele>1764</ele>
      </trkpt>
      <trkpt lat="45.8715008" lon="7.6037216">
        <ele>1766</ele>
      </trkpt>
      <trkpt lat="45.8715370" lon="7.6037207">
        <ele>1767</ele>
      </trkpt>
      <trkpt lat="45.8715506" lon="7.6037472">
        <ele>1769</ele>
      </trkpt>
      <trkpt lat="45.8716209" lon="7.6039736">
        <ele>1771</ele>
      </trkpt>
      <trkpt lat="45.8716461" lon="7.6040427">
        <ele>1772</ele>
      </trkpt>
      <trkpt lat="45.8717861" lon="7.6043927">
        <ele>1774</ele>
      </trkpt>
      <trkpt lat="45.8718016" lon="7.6045000">
        <ele>1775</ele>
      </trkpt>
      <trkpt lat="45.8716583" lon="7.6049700">
        <ele>1777</ele>
      </trkpt>
      <trkpt lat="45.8716983" lon="7.6051500">
        <ele>1778</ele>
      </trkpt>
      <trkpt lat="45.8717283" lon="7.6052100">
        <ele>1780</ele>
      </trkpt>
      <trkpt lat="45.8717183" lon="7.6053200">
        <ele>1781</ele>
      </trkpt>
      <trkpt lat="45.8717383" lon="7.6054500">
        <ele>1783</ele>
      </trkpt>
      <trkpt lat="45.8717583" lon="7.6054700">
        <ele>1784</ele>
      </trkpt>
      <trkpt lat="45.8717583" lon="7.6055900">
        <ele>1786</ele>
      </trkpt>
      <trkpt lat="45.8717483" lon="7.6056000">
        <ele>1787</ele>
      </trkpt>
      <trkpt lat="45.8717583" lon="7.6057200">
        <ele>1789</ele>
      </trkpt>
      <trkpt lat="45.8717283" lon="7.6057600">
        <ele>1790</ele>
      </trkpt>
      <trkpt lat="45.8717083" lon="7.6058400">
        <ele>1792</ele>
      </trkpt>
      <trkpt lat="45.8717283" lon="7.6059300">
        <ele>1793</ele>
      </trkpt>
      <trkpt lat="45.8717883" lon="7.6060400">
        <ele>1795</ele>
      </trkpt>
      <trkpt lat="45.8718983" lon="7.6061600">
        <ele>1796</ele>
      </trkpt>
      <trkpt lat="45.8719483" lon="7.6062500">
        <ele>1798</ele>
      </trkpt>
      <trkpt lat="45.8719883" lon="7.6062800">
        <ele>1799</ele>
      </trkpt>
      <trkpt lat="45.8720083" lon="7.6062700">
        <ele>1801</ele>
      </trkpt>
      <trkpt lat="45.8720083" lon="7.6063000">
        <ele>1803</ele>
      </trkpt>
      <trkpt lat="45.8720383" lon="7.6063600">
        <ele>1804</ele>
      </trkpt>
      <trkpt lat="45.8720083" lon="7.6064200">
        <ele>1806</ele>
      </trkpt>
      <trkpt lat="45.8719983" lon="7.6065000">
        <ele>1807</ele>
      </trkpt>
      <trkpt lat="45.8719483" lon="7.6065000">
        <ele>1809</ele>
      </trkpt>
      <trkpt lat="45.8719983" lon="7.6067400">
        <ele>1810</ele>
      </trkpt>
      <trkpt lat="45.8720748" lon="7.6069264">
        <ele>1812</ele>
      </trkpt>
      <trkpt lat="45.8721478" lon="7.6070566">
        <ele>1813</ele>
      </trkpt>
      <trkpt lat="45.8722141" lon="7.6071833">
        <ele>1815</ele>
      </trkpt>
      <trkpt lat="45.8722966" lon="7.6073079">
        <ele>1816</ele>
      </trkpt>
      <trkpt lat="45.8723727" lon="7.6074107">
        <ele>1818</ele>
      </trkpt>
      <trkpt lat="45.8724249" lon="7.6075426">
        <ele>1819</ele>
      </trkpt>
      <trkpt lat="45.8724755" lon="7.6077387">
        <ele>1821</ele>
      </trkpt>
      <trkpt lat="45.8724925" lon="7.6079095">
        <ele>1822</ele>
      </trkpt>
      <trkpt lat="45.8725077" lon="7.6079472">
        <ele>1824</ele>
      </trkpt>
      <trkpt lat="45.8725328" lon="7.6080049">
        <ele>1825</ele>
      </trkpt>
      <trkpt lat="45.8725200" lon="7.6080721">
        <ele>1827</ele>
      </trkpt>
      <trkpt lat="45.8725630" lon="7.6080832">
        <ele>1828</ele>
      </trkpt>
      <trkpt lat="45.8726283" lon="7.6080701">
        <ele>1830</ele>
      </trkpt>
      <trkpt lat="45.8726968" lon="7.6081553">
        <ele>1832</ele>
      </trkpt>
      <trkpt lat="45.8727983" lon="7.6081801">
        <ele>1833</ele>
      </trkpt>
      <trkpt lat="45.8728583" lon="7.6082001">
        <ele>1835</ele>
      </trkpt>
      <trkpt lat="45.8728983" lon="7.6081701">
        <ele>1836</ele>
      </trkpt>
      <trkpt lat="45.8729183" lon="7.6082101">
        <ele>1838</ele>
      </trkpt>
      <trkpt lat="45.8729683" lon="7.6082101">
        <ele>1839</ele>
      </trkpt>
      <trkpt lat="45.8729683" lon="7.6082401">
        <ele>1841</ele>
      </trkpt>
      <trkpt lat="45.8730383" lon="7.6081700">
        <ele>1842</ele>
      </trkpt>
      <trkpt lat="45.8730783" lon="7.6081700">
        <ele>1844</ele>
      </trkpt>
      <trkpt lat="45.8731083" lon="7.6082100">
        <ele>1845</ele>
      </trkpt>
      <trkpt lat="45.8730983" lon="7.6083201">
        <ele>1847</ele>
      </trkpt>
      <trkpt lat="45.8730183" lon="7.6084301">
        <ele>1848</ele>
      </trkpt>
      <trkpt lat="45.8730083" lon="7.6084701">
        <ele>1850</ele>
      </trkpt>
      <trkpt lat="45.8730183" lon="7.6085601">
        <ele>1851</ele>
      </trkpt>
      <trkpt lat="45.8729983" lon="7.6086000">
        <ele>1853</ele>
      </trkpt>
      <trkpt lat="45.8729883" lon="7.6088800">
        <ele>1854</ele>
      </trkpt>
      <trkpt lat="45.8729583" lon="7.6089200">
        <ele>1856</ele>
      </trkpt>
      <trkpt lat="45.8729883" lon="7.6089700">
        <ele>1857</ele>
      </trkpt>
      <trkpt lat="45.8729883" lon="7.6092800">
        <ele>1859</ele>
      </trkpt>
      <trkpt lat="45.8730583" lon="7.6097500">
        <ele>1860</ele>
      </trkpt>
      <trkpt lat="45.8730983" lon="7.6098400">
        <ele>1862</ele>
      </trkpt>
      <trkpt lat="45.8731383" lon="7.6100000">
        <ele>1864</ele>
      </trkpt>
      <trkpt lat="45.8732883" lon="7.6102400">
        <ele>1865</ele>
      </trkpt>
      <trkpt lat="45.8732883" lon="7.6102600">
        <ele>1867</ele>
      </trkpt>
      <trkpt lat="45.8732583" lon="7.6102900">
        <ele>1868</ele>
      </trkpt>
      <trkpt lat="45.8732783" lon="7.6104100">
        <ele>1870</ele>
      </trkpt>
      <trkpt lat="45.8733183" lon="7.6105000">
        <ele>1871</ele>
      </trkpt>
      <trkpt lat="45.8733383" lon="7.6105900">
        <ele>1873</ele>
      </trkpt>
      <trkpt lat="45.8733283" lon="7.6106200">
        <ele>1874</ele>
      </trkpt>
      <trkpt lat="45.8733783" lon="7.6107600">
        <ele>1876</ele>
      </trkpt>
      <trkpt lat="45.8734583" lon="7.6108500">
        <ele>1877</ele>
      </trkpt>
      <trkpt lat="45.8735283" lon="7.6110200">
        <ele>1879</ele>
      </trkpt>
      <trkpt lat="45.8736183" lon="7.6111400">
        <ele>1880</ele>
      </trkpt>
      <trkpt lat="45.8736583" lon="7.6113000">
        <ele>1882</ele>
      </trkpt>
      <trkpt lat="45.8737583" lon="7.6115100">
        <ele>1883</ele>
      </trkpt>
      <trkpt lat="45.8737883" lon="7.6115100">
        <ele>1885</ele>
      </trkpt>
      <trkpt lat="45.8738183" lon="7.6115500">
        <ele>1886</ele>
      </trkpt>
      <trkpt lat="45.8738283" lon="7.6116700">
        <ele>1888</ele>
      </trkpt>
      <trkpt lat="45.8738783" lon="7.6118300">
        <ele>1889</ele>
      </trkpt>
      <trkpt lat="45.8738883" lon="7.6119100">
        <ele>1891</ele>
      </trkpt>
      <trkpt lat="45.8739583" lon="7.6120700">
        <ele>1893</ele>
      </trkpt>
      <trkpt lat="45.8739883" lon="7.6122300">
        <ele>1894</ele>
      </trkpt>
      <trkpt lat="45.8740283" lon="7.6123100">
        <ele>1896</ele>
      </trkpt>
      <trkpt lat="45.8740683" lon="7.6123500">
        <ele>1897</ele>
      </trkpt>
      <trkpt lat="45.8741383" lon="7.6123400">
        <ele>1899</ele>
      </trkpt>
      <trkpt lat="45.8742283" lon="7.6124300">
        <ele>1900</ele>
      </trkpt>
      <trkpt lat="45.8743183" lon="7.6124800">
        <ele>1902</ele>
      </trkpt>
      <trkpt lat="45.8743582" lon="7.6125600">
        <ele>1903</ele>
      </trkpt>
      <trkpt lat="45.8744083" lon="7.6125900">
        <ele>1905</ele>
      </trkpt>
      <trkpt lat="45.8744983" lon="7.6127000">
        <ele>1906</ele>
      </trkpt>
      <trkpt lat="45.8745383" lon="7.6127900">
        <ele>1908</ele>
      </trkpt>
      <trkpt lat="45.8747283" lon="7.6128400">
        <ele>1909</ele>
      </trkpt>
      <trkpt lat="45.8748083" lon="7.6128400">
        <ele>1911</ele>
      </trkpt>
      <trkpt lat="45.8748783" lon="7.6129600">
        <ele>1912</ele>
      </trkpt>
      <trkpt lat="45.8748783" lon="7.6129900">
        <ele>1914</ele>
      </trkpt>
      <trkpt lat="45.8749083" lon="7.6130400">
        <ele>1915</ele>
      </trkpt>
      <trkpt lat="45.8749183" lon="7.6131500">
        <ele>1917</ele>
      </trkpt>
      <trkpt lat="45.8748583" lon="7.6133300">
        <ele>1918</ele>
      </trkpt>
      <trkpt lat="45.8748583" lon="7.6133700">
        <ele>1920</ele>
      </trkpt>
      <trkpt lat="45.8749183" lon="7.6135000">
        <ele>1921</ele>
      </trkpt>
      <trkpt lat="45.8750083" lon="7.6136000">
        <ele>1923</ele>
      </trkpt>
      <trkpt lat="45.8750083" lon="7.6136300">
        <ele>1925</ele>
      </trkpt>
      <trkpt lat="45.8751083" lon="7.6137600">
        <ele>1926</ele>
      </trkpt>
      <trkpt lat="45.8751083" lon="7.6137800">
        <ele>1928</ele>
      </trkpt>
      <trkpt lat="45.8751783" lon="7.6138200">
        <ele>1929</ele>
      </trkpt>
      <trkpt lat="45.8753083" lon="7.6139500">
        <ele>1931</ele>
      </trkpt>
      <trkpt lat="45.8753083" lon="7.6141000">
        <ele>1932</ele>
      </trkpt>
      <trkpt lat="45.8753283" lon="7.6141700">
        <ele>1934</ele>
      </trkpt>
      <trkpt lat="45.8753683" lon="7.6142600">
        <ele>1935</ele>
      </trkpt>
      <trkpt lat="45.8754383" lon="7.6143600">
        <ele>1937</ele>
      </trkpt>
      <trkpt lat="45.8754583" lon="7.6144900">
        <ele>1938</ele>
      </trkpt>
      <trkpt lat="45.8754383" lon="7.6145900">
        <ele>1940</ele>
      </trkpt>
      <trkpt lat="45.8753883" lon="7.6145600">
        <ele>1941</ele>
      </trkpt>
      <trkpt lat="45.8753383" lon="7.6146100">
        <ele>1943</ele>
      </trkpt>
      <trkpt lat="45.8753683" lon="7.6149401">
        <ele>1944</ele>
      </trkpt>
      <trkpt lat="45.8753983" lon="7.6150101">
        <ele>1946</ele>
      </trkpt>
      <trkpt lat="45.8754083" lon="7.6151201">
        <ele>1947</ele>
      </trkpt>
      <trkpt lat="45.8753983" lon="7.6152500">
        <ele>1949</ele>
      </trkpt>
      <trkpt lat="45.8753829" lon="7.6153938">
        <ele>1950</ele>
      </trkpt>
      <trkpt lat="45.8753958" lon="7.6154719">
        <ele>1952</ele>
      </trkpt>
      <trkpt lat="45.8753893" lon="7.6155232">
        <ele>1954</ele>
      </trkpt>
      <trkpt lat="45.8753967" lon="7.6155469">
        <ele>1955</ele>
      </trkpt>
      <trkpt lat="45.8753853" lon="7.6155881">
        <ele>1957</ele>
      </trkpt>
      <trkpt lat="45.8754349" lon="7.6157539">
        <ele>1958</ele>
      </trkpt>
      <trkpt lat="45.8754891" lon="7.6159026">
        <ele>1960</ele>
      </trkpt>
      <trkpt lat="45.8755041" lon="7.6159602">
        <ele>1961</ele>
      </trkpt>
      <trkpt lat="45.8754966" lon="7.6161308">
        <ele>1963</ele>
      </trkpt>
      <trkpt lat="45.8754742" lon="7.6162439">
        <ele>1964</ele>
      </trkpt>
      <trkpt lat="45.8754448" lon="7.6163708">
        <ele>1966</ele>
      </trkpt>
      <trkpt lat="45.8754253" lon="7.6165315">
        <ele>1967</ele>
      </trkpt>
      <trkpt lat="45.8754171" lon="7.6166442">
        <ele>1969</ele>
      </trkpt>
      <trkpt lat="45.8754426" lon="7.6167833">
        <ele>1970</ele>
      </trkpt>
      <trkpt lat="45.8754806" lon="7.6169665">
        <ele>1972</ele>
      </trkpt>
      <trkpt lat="45.8754809" lon="7.6169938">
        <ele>1973</ele>
      </trkpt>
      <trkpt lat="45.8754473" lon="7.6169741">
        <ele>1975</ele>
      </trkpt>
      <trkpt lat="45.8753873" lon="7.6169347">
        <ele>1976</ele>
      </trkpt>
      <trkpt lat="45.8753348" lon="7.6169258">
        <ele>1978</ele>
      </trkpt>
      <trkpt lat="45.8753184" lon="7.6169432">
        <ele>1979</ele>
      </trkpt>
      <trkpt lat="45.8753503" lon="7.6170277">
        <ele>1981</ele>
      </trkpt>
      <trkpt lat="45.8753986" lon="7.6170776">
        <ele>1983</ele>
      </trkpt>
      <trkpt lat="45.8754457" lon="7.6172333">
        <ele>1984</ele>
      </trkpt>
      <trkpt lat="45.8754681" lon="7.6173111">
        <ele>1986</ele>
      </trkpt>
      <trkpt lat="45.8754970" lon="7.6173445">
        <ele>1987</ele>
      </trkpt>
      <trkpt lat="45.8755197" lon="7.6174428">
        <ele>1989</ele>
      </trkpt>
      <trkpt lat="45.8755336" lon="7.6176095">
        <ele>1990</ele>
      </trkpt>
      <trkpt lat="45.8755420" lon="7.6179127">
        <ele>1992</ele>
      </trkpt>
      <trkpt lat="45.8755732" lon="7.6181268">
        <ele>1993</ele>
      </trkpt>
      <trkpt lat="45.8756181" lon="7.6182995">
        <ele>1995</ele>
      </trkpt>
      <trkpt lat="45.8756829" lon="7.6185331">
        <ele>1996</ele>
      </trkpt>
      <trkpt lat="45.8757413" lon="7.6188317">
        <ele>1998</ele>
      </trkpt>
      <trkpt lat="45.8757995" lon="7.6191201">
        <ele>1999</ele>
      </trkpt>
      <trkpt lat="45.8758451" lon="7.6193439">
        <ele>2001</ele>
      </trkpt>
      <trkpt lat="45.8758971" lon="7.6195131">
        <ele>2002</ele>
      </trkpt>
      <trkpt lat="45.8759630" lon="7.6196410">
        <ele>2004</ele>
      </trkpt>
      <trkpt lat="45.8760138" lon="7.6197114">
        <ele>2005</ele>
      </trkpt>
      <trkpt lat="45.8760525" lon="7.6197581">
        <ele>2007</ele>
      </trkpt>
      <trkpt lat="45.8760919" lon="7.6198663">
        <ele>2008</ele>
      </trkpt>
      <trkpt lat="45.8761342" lon="7.6200118">
        <ele>2010</ele>
      </trkpt>
      <trkpt lat="45.8761712" lon="7.6201200">
        <ele>2011</ele>
      </trkpt>
      <trkpt lat="45.8761984" lon="7.6202080">
        <ele>2013</ele>
      </trkpt>
      <trkpt lat="45.8762166" lon="7.6203337">
        <ele>2015</ele>
      </trkpt>
      <trkpt lat="45.8762371" lon="7.6204525">
        <ele>2016</ele>
      </trkpt>
      <trkpt lat="45.8762981" lon="7.6205737">
        <ele>2018</ele>
      </trkpt>
      <trkpt lat="45.8763692" lon="7.6207424">
        <ele>2019</ele>
      </trkpt>
      <trkpt lat="45.8764013" lon="7.6208405">
        <ele>2021</ele>
      </trkpt>
      <trkpt lat="45.8764260" lon="7.6209081">
        <ele>2022</ele>
      </trkpt>
      <trkpt lat="45.8764567" lon="7.6209885">
        <ele>2024</ele>
      </trkpt>
      <trkpt lat="45.8765027" lon="7.6210488">
        <ele>2025</ele>
      </trkpt>
      <trkpt lat="45.8765892" lon="7.6211148">
        <ele>2027</ele>
      </trkpt>
      <trkpt lat="45.8767002" lon="7.6211342">
        <ele>2028</ele>
      </trkpt>
      <trkpt lat="45.8767577" lon="7.6211652">
        <ele>2030</ele>
      </trkpt>
      <trkpt lat="45.8768304" lon="7.6212708">
        <ele>2031</ele>
      </trkpt>
      <trkpt lat="45.8769383" lon="7.6213295">
        <ele>2033</ele>
      </trkpt>
      <trkpt lat="45.8769770" lon="7.6213831">
        <ele>2034</ele>
      </trkpt>
      <trkpt lat="45.8771012" lon="7.6214107">
        <ele>2036</ele>
      </trkpt>
      <trkpt lat="45.8771324" lon="7.6214304">
        <ele>2037</ele>
      </trkpt>
      <trkpt lat="45.8772174" lon="7.6215664">
        <ele>2039</ele>
      </trkpt>
      <trkpt lat="45.8772498" lon="7.6215860">
        <ele>2040</ele>
      </trkpt>
      <trkpt lat="45.8772963" lon="7.6215951">
        <ele>2042</ele>
      </trkpt>
      <trkpt lat="45.8773596" lon="7.6216072">
        <ele>2044</ele>
      </trkpt>
      <trkpt lat="45.8774085" lon="7.6216128">
        <ele>2045</ele>
      </trkpt>
      <trkpt lat="45.8774385" lon="7.6216325">
        <ele>2047</ele>
      </trkpt>
      <trkpt lat="45.8774703" lon="7.6217084">
        <ele>2048</ele>
      </trkpt>
      <trkpt lat="45.8775592" lon="7.6218665">
        <ele>2050</ele>
      </trkpt>
      <trkpt lat="45.8776704" lon="7.6220103">
        <ele>2051</ele>
      </trkpt>
      <trkpt lat="45.8777572" lon="7.6220968">
        <ele>2053</ele>
      </trkpt>
      <trkpt lat="45.8778412" lon="7.6221493">
        <ele>2054</ele>
      </trkpt>
      <trkpt lat="45.8779047" lon="7.6222841">
        <ele>2056</ele>
      </trkpt>
      <trkpt lat="45.8779530" lon="7.6223409">
        <ele>2057</ele>
      </trkpt>
      <trkpt lat="45.8779938" lon="7.6223671">
        <ele>2059</ele>
      </trkpt>
      <trkpt lat="45.8780317" lon="7.6223491">
        <ele>2060</ele>
      </trkpt>
      <trkpt lat="45.8780764" lon="7.6223037">
        <ele>2062</ele>
      </trkpt>
      <trkpt lat="45.8782113" lon="7.6222356">
        <ele>2063</ele>
      </trkpt>
      <trkpt lat="45.8782656" lon="7.6221933">
        <ele>2065</ele>
      </trkpt>
      <trkpt lat="45.8783535" lon="7.6221775">
        <ele>2066</ele>
      </trkpt>
      <trkpt lat="45.8784726" lon="7.6221780">
        <ele>2068</ele>
      </trkpt>
      <trkpt lat="45.8785540" lon="7.6222135">
        <ele>2069</ele>
      </trkpt>
      <trkpt lat="45.8787208" lon="7.6222196">
        <ele>2071</ele>
      </trkpt>
      <trkpt lat="45.8788355" lon="7.6222543">
        <ele>2072</ele>
      </trkpt>
      <trkpt lat="45.8790094" lon="7.6222602">
        <ele>2074</ele>
      </trkpt>
      <trkpt lat="45.8790734" lon="7.6222382">
        <ele>2076</ele>
      </trkpt>
      <trkpt lat="45.8791829" lon="7.6222354">
        <ele>2077</ele>
      </trkpt>
      <trkpt lat="45.8793539" lon="7.6221937">
        <ele>2079</ele>
      </trkpt>
      <trkpt lat="45.8795199" lon="7.6221385">
        <ele>2080</ele>
      </trkpt>
      <trkpt lat="45.8796500" lon="7.6220637">
        <ele>2082</ele>
      </trkpt>
      <trkpt lat="45.8797097" lon="7.6220792">
        <ele>2083</ele>
      </trkpt>
      <trkpt lat="45.8798009" lon="7.6221349">
        <ele>2085</ele>
      </trkpt>
      <trkpt lat="45.8799593" lon="7.6222367">
        <ele>2086</ele>
      </trkpt>
      <trkpt lat="45.8800169" lon="7.6222762">
        <ele>2088</ele>
      </trkpt>
      <trkpt lat="45.8800870" lon="7.6223631">
        <ele>2089</ele>
      </trkpt>
      <trkpt lat="45.8801351" lon="7.6224063">
        <ele>2091</ele>
      </trkpt>
      <trkpt lat="45.8801569" lon="7.6224364">
        <ele>2092</ele>
      </trkpt>
      <trkpt lat="45.8801312" lon="7.6224711">
        <ele>2094</ele>
      </trkpt>
      <trkpt lat="45.8800888" lon="7.6225097">
        <ele>2095</ele>
      </trkpt>
      <trkpt lat="45.8800205" lon="7.6225727">
        <ele>2097</ele>
      </trkpt>
      <trkpt lat="45.8799779" lon="7.6225977">
        <ele>2098</ele>
      </trkpt>
      <trkpt lat="45.8799786" lon="7.6226522">
        <ele>2100</ele>
      </trkpt>
      <trkpt lat="45.8800219" lon="7.6226886">
        <ele>2101</ele>
      </trkpt>
      <trkpt lat="45.8800839" lon="7.6227007">
        <ele>2103</ele>
      </trkpt>
      <trkpt lat="45.8801580" lon="7.6227228">
        <ele>2105</ele>
      </trkpt>
      <trkpt lat="45.8801986" lon="7.6227354">
        <ele>2106</ele>
      </trkpt>
      <trkpt lat="45.8802037" lon="7.6227626">
        <ele>2108</ele>
      </trkpt>
      <trkpt lat="45.8801348" lon="7.6227745">
        <ele>2109</ele>
      </trkpt>
      <trkpt lat="45.8800544" lon="7.6228242">
        <ele>2111</ele>
      </trkpt>
      <trkpt lat="45.8800355" lon="7.6228315">
        <ele>2112</ele>
      </trkpt>
      <trkpt lat="45.8800334" lon="7.6228520">
        <ele>2114</ele>
      </trkpt>
      <trkpt lat="45.8800711" lon="7.6228827">
        <ele>2115</ele>
      </trkpt>
      <trkpt lat="45.8801161" lon="7.6229259">
        <ele>2117</ele>
      </trkpt>
      <trkpt lat="45.8801524" lon="7.6229887">
        <ele>2118</ele>
      </trkpt>
      <trkpt lat="45.8801962" lon="7.6230375">
        <ele>2120</ele>
      </trkpt>
      <trkpt lat="45.8802503" lon="7.6230717">
        <ele>2121</ele>
      </trkpt>
      <trkpt lat="45.8803173" lon="7.6230939">
        <ele>2123</ele>
      </trkpt>
      <trkpt lat="45.8803943" lon="7.6231664">
        <ele>2124</ele>
      </trkpt>
      <trkpt lat="45.8802928" lon="7.6233372">
        <ele>2126</ele>
      </trkpt>
      <trkpt lat="45.8802308" lon="7.6234185">
        <ele>2127</ele>
      </trkpt>
      <trkpt lat="45.8801860" lon="7.6234365">
        <ele>2129</ele>
      </trkpt>
      <trkpt lat="45.8801546" lon="7.6234389">
        <ele>2130</ele>
      </trkpt>
      <trkpt lat="45.8800961" lon="7.6234440">
        <ele>2132</ele>
      </trkpt>
      <trkpt lat="45.8799927" lon="7.6234477">
        <ele>2133</ele>
      </trkpt>
      <trkpt lat="45.8797139" lon="7.6234655">
        <ele>2135</ele>
      </trkpt>
      <trkpt lat="45.8796646" lon="7.6234889">
        <ele>2137</ele>
      </trkpt>
      <trkpt lat="45.8795621" lon="7.6235691">
        <ele>2138</ele>
      </trkpt>
      <trkpt lat="45.8794642" lon="7.6236613">
        <ele>2140</ele>
      </trkpt>
      <trkpt lat="45.8793220" lon="7.6238066">
        <ele>2141</ele>
      </trkpt>
      <trkpt lat="45.8792820" lon="7.6238491">
        <ele>2143</ele>
      </trkpt>
      <trkpt lat="45.8792110" lon="7.6239342">
        <ele>2144</ele>
      </trkpt>
      <trkpt lat="45.8791800" lon="7.6239760">
        <ele>2146</ele>
      </trkpt>
      <trkpt lat="45.8791400" lon="7.6240153">
        <ele>2147</ele>
      </trkpt>
      <trkpt lat="45.8790997" lon="7.6240348">
        <ele>2149</ele>
      </trkpt>
      <trkpt lat="45.8789116" lon="7.6241095">
        <ele>2150</ele>
      </trkpt>
      <trkpt lat="45.8788175" lon="7.6241428">
        <ele>2152</ele>
      </trkpt>
      <trkpt lat="45.8786429" lon="7.6242156">
        <ele>2153</ele>
      </trkpt>
      <trkpt lat="45.8784682" lon="7.6242536">
        <ele>2155</ele>
      </trkpt>
      <trkpt lat="45.8780057" lon="7.6243678">
        <ele>2156</ele>
      </trkpt>
      <trkpt lat="45.8777895" lon="7.6243567">
        <ele>2158</ele>
      </trkpt>
      <trkpt lat="45.8777126" lon="7.6243183">
        <ele>2159</ele>
      </trkpt>
      <trkpt lat="45.8774671" lon="7.6241166">
        <ele>2161</ele>
      </trkpt>
      <trkpt lat="45.8773411" lon="7.6241112">
        <ele>2162</ele>
      </trkpt>
      <trkpt lat="45.8772828" lon="7.6241296">
        <ele>2164</ele>
      </trkpt>
    </trkseg>
  </trk>
</gpx>
