<?xml version="1.0" encoding="UTF-8"?>
<gpx version="1.1" creator="sentieri-vda" xmlns="http://www.topografix.com/GPX/1/1">
  <metadata>
    <name>deviazione Gressoney-La-Trinité</name>
    <desc>Catasto Sentieri VdA — GSW_S2</desc>
    <author><name>Regione Autonoma Valle d'Aosta</name></author>
  </metadata>
  <trk>
    <name>deviazione Gressoney-La-Trinité</name>
    <src>Catasto Sentieri VdA (GSW_S2)</src>
    <trkseg>
      <trkpt lat="45.8204882" lon="7.8260579">
        <ele>1607</ele>
      </trkpt>
      <trkpt lat="45.8205317" lon="7.8261563">
        <ele>1607</ele>
      </trkpt>
      <trkpt lat="45.8206267" lon="7.8262574">
        <ele>1607</ele>
      </trkpt>
      <trkpt lat="45.8209361" lon="7.8264276">
        <ele>1607</ele>
      </trkpt>
      <trkpt lat="45.8210146" lon="7.8265020">
        <ele>1607</ele>
      </trkpt>
      <trkpt lat="45.8211598" lon="7.8265362">
        <ele>1607</ele>
      </trkpt>
      <trkpt lat="45.8214054" lon="7.8265794">
        <ele>1607</ele>
      </trkpt>
      <trkpt lat="45.8216556" lon="7.8266524">
        <ele>1607</ele>
      </trkpt>
      <trkpt lat="45.8218635" lon="7.8267224">
        <ele>1607</ele>
      </trkpt>
      <trkpt lat="45.8219679" lon="7.8267428">
        <ele>1607</ele>
      </trkpt>
      <trkpt lat="45.8221535" lon="7.8268230">
        <ele>1607</ele>
      </trkpt>
      <trkpt lat="45.8231320" lon="7.8269829">
        <ele>1607</ele>
      </trkpt>
      <trkpt lat="45.8235248" lon="7.8271324">
        <ele>1607</ele>
      </trkpt>
      <trkpt lat="45.8237922" lon="7.8273173">
        <ele>1607</ele>
      </trkpt>
      <trkpt lat="45.8241893" lon="7.8275097">
        <ele>1607</ele>
      </trkpt>
      <trkpt lat="45.8243763" lon="7.8276110">
        <ele>1607</ele>
      </trkpt>
      <trkpt lat="45.8247276" lon="7.8276340">
        <ele>1607</ele>
      </trkpt>
      <trkpt lat="45.8252822" lon="7.8275764">
        <ele>1607</ele>
      </trkpt>
      <trkpt lat="45.8254039" lon="7.8275354">
        <ele>1607</ele>
      </trkpt>
      <trkpt lat="45.8255860" lon="7.8274142">
        <ele>1607</ele>
      </trkpt>
      <trkpt lat="45.8257057" lon="7.8273617">
        <ele>1607</ele>
      </trkpt>
      <trkpt lat="45.8260816" lon="7.8273955">
        <ele>1608</ele>
      </trkpt>
      <trkpt lat="45.8266266" lon="7.8275960">
        <ele>1608</ele>
      </trkpt>
      <trkpt lat="45.8270225" lon="7.8275139">
        <ele>1608</ele>
      </trkpt>
      <trkpt lat="45.8273423" lon="7.8276391">
        <ele>1608</ele>
      </trkpt>
      <trkpt lat="45.8275797" lon="7.8276882">
        <ele>1608</ele>
      </trkpt>
      <trkpt lat="45.8277196" lon="7.8277558">
        <ele>1608</ele>
      </trkpt>
      <trkpt lat="45.8277837" lon="7.8277852">
        <ele>1608</ele>
      </trkpt>
      <trkpt lat="45.8278108" lon="7.8277626">
        <ele>1608</ele>
      </trkpt>
      <trkpt lat="45.8278541" lon="7.8277543">
        <ele>1608</ele>
      </trkpt>
      <trkpt lat="45.8279290" lon="7.8277509">
        <ele>1608</ele>
      </trkpt>
      <trkpt lat="45.8279222" lon="7.8275402">
        <ele>1608</ele>
      </trkpt>
      <trkpt lat="45.8279220" lon="7.8275381">
        <ele>1608</ele>
      </trkpt>
      <trkpt lat="45.8278898" lon="7.8272338">
        <ele>1608</ele>
      </trkpt>
      <trkpt lat="45.8278148" lon="7.8268615">
        <ele>1608</ele>
      </trkpt>
      <trkpt lat="45.8277310" lon="7.8265107">
        <ele>1608</ele>
      </trkpt>
      <trkpt lat="45.8279390" lon="7.8264859">
        <ele>1608</ele>
      </trkpt>
      <trkpt lat="45.8278997" lon="7.8259197">
        <ele>1608</ele>
      </trkpt>
      <trkpt lat="45.8278767" lon="7.8254326">
        <ele>1608</ele>
      </trkpt>
      <trkpt lat="45.8278663" lon="7.8252976">
        <ele>1608</ele>
      </trkpt>
      <trkpt lat="45.8277810" lon="7.8248422">
        <ele>1608</ele>
      </trkpt>
      <trkpt lat="45.8276060" lon="7.8240591">
        <ele>1608</ele>
      </trkpt>
      <trkpt lat="45.8275907" lon="7.8238804">
        <ele>1608</ele>
      </trkpt>
      <trkpt lat="45.8276078" lon="7.8237984">
        <ele>1608</ele>
      </trkpt>
      <trkpt lat="45.8276345" lon="7.8237501">
        <ele>1608</ele>
      </trkpt>
      <trkpt lat="45.8276626" lon="7.8237247">
        <ele>1608</ele>
      </trkpt>
      <trkpt lat="45.8276973" lon="7.8237171">
        <ele>1608</ele>
      </trkpt>
      <trkpt lat="45.8276561" lon="7.8232450">
        <ele>1608</ele>
      </trkpt>
      <trkpt lat="45.8276194" lon="7.8231773">
        <ele>1608</ele>
      </trkpt>
      <trkpt lat="45.8275515" lon="7.8231337">
        <ele>1608</ele>
      </trkpt>
      <trkpt lat="45.8274389" lon="7.8231292">
        <ele>1608</ele>
      </trkpt>
      <trkpt lat="45.8273405" lon="7.8231856">
        <ele>1608</ele>
      </trkpt>
      <trkpt lat="45.8271721" lon="7.8234414">
        <ele>1608</ele>
      </trkpt>
      <trkpt lat="45.8271323" lon="7.8235062">
        <ele>1608</ele>
      </trkpt>
      <trkpt lat="45.8270505" lon="7.8237224">
        <ele>1608</ele>
      </trkpt>
      <trkpt lat="45.8270045" lon="7.8238527">
        <ele>1608</ele>
      </trkpt>
      <trkpt lat="45.8270038" lon="7.8238532">
        <ele>1608</ele>
      </trkpt>
      <trkpt lat="45.8269272" lon="7.8239116">
        <ele>1608</ele>
      </trkpt>
      <trkpt lat="45.8261386" lon="7.8242182">
        <ele>1608</ele>
      </trkpt>
      <trkpt lat="45.8257224" lon="7.8244317">
        <ele>1608</ele>
      </trkpt>
      <trkpt lat="45.8256761" lon="7.8244653">
        <ele>1608</ele>
      </trkpt>
      <trkpt lat="45.8256347" lon="7.8245068">
        <ele>1608</ele>
      </trkpt>
      <trkpt lat="45.8256288" lon="7.8244933">
        <ele>1608</ele>
      </trkpt>
      <trkpt lat="45.8256223" lon="7.8244798">
        <ele>1609</ele>
      </trkpt>
      <trkpt lat="45.8256131" lon="7.8244682">
        <ele>1609</ele>
      </trkpt>
      <trkpt lat="45.8256020" lon="7.8244558">
        <ele>1609</ele>
      </trkpt>
      <trkpt lat="45.8255802" lon="7.8244405">
        <ele>1609</ele>
      </trkpt>
      <trkpt lat="45.8255563" lon="7.8244296">
        <ele>1609</ele>
      </trkpt>
      <trkpt lat="45.8255360" lon="7.8244275">
        <ele>1609</ele>
      </trkpt>
      <trkpt lat="45.8255184" lon="7.8244342">
        <ele>1609</ele>
      </trkpt>
      <trkpt lat="45.8255012" lon="7.8244402">
        <ele>1609</ele>
      </trkpt>
      <trkpt lat="45.8254894" lon="7.8244499">
        <ele>1609</ele>
      </trkpt>
      <trkpt lat="45.8254750" lon="7.8244616">
        <ele>1609</ele>
      </trkpt>
      <trkpt lat="45.8254624" lon="7.8244795">
        <ele>1609</ele>
      </trkpt>
      <trkpt lat="45.8254494" lon="7.8245057">
        <ele>1609</ele>
      </trkpt>
      <trkpt lat="45.8254413" lon="7.8245311">
        <ele>1609</ele>
      </trkpt>
      <trkpt lat="45.8254371" lon="7.8245558">
        <ele>1609</ele>
      </trkpt>
      <trkpt lat="45.8254350" lon="7.8245754">
        <ele>1609</ele>
      </trkpt>
      <trkpt lat="45.8254361" lon="7.8245967">
        <ele>1609</ele>
      </trkpt>
      <trkpt lat="45.8254043" lon="7.8245981">
        <ele>1609</ele>
      </trkpt>
      <trkpt lat="45.8253593" lon="7.8246024">
        <ele>1609</ele>
      </trkpt>
      <trkpt lat="45.8252724" lon="7.8246223">
        <ele>1609</ele>
      </trkpt>
      <trkpt lat="45.8247501" lon="7.8248514">
        <ele>1609</ele>
      </trkpt>
      <trkpt lat="45.8240217" lon="7.8251542">
        <ele>1609</ele>
      </trkpt>
      <trkpt lat="45.8237577" lon="7.8252197">
        <ele>1609</ele>
      </trkpt>
    </trkseg>
  </trk>
</gpx>
