<?xml version="1.0" encoding="UTF-8"?>
<gpx version="1.1" creator="sentieri-vda" xmlns="http://www.topografix.com/GPX/1/1">
  <metadata>
    <name>TAPPA 7: Arnad - Donnas</name>
    <desc>Catasto Sentieri VdA — PCV_S7</desc>
    <author><name>Regione Autonoma Valle d'Aosta</name></author>
  </metadata>
  <trk>
    <name>TAPPA 7: Arnad - Donnas</name>
    <src>Catasto Sentieri VdA (PCV_S7)</src>
    <trkseg>
      <trkpt lat="45.6329034" lon="7.7238519">
        <ele>407</ele>
      </trkpt>
      <trkpt lat="45.6329420" lon="7.7237636">
        <ele>407</ele>
      </trkpt>
      <trkpt lat="45.6329760" lon="7.7236791">
        <ele>406</ele>
      </trkpt>
      <trkpt lat="45.6330996" lon="7.7234670">
        <ele>406</ele>
      </trkpt>
      <trkpt lat="45.6333236" lon="7.7231526">
        <ele>405</ele>
      </trkpt>
      <trkpt lat="45.6333705" lon="7.7230687">
        <ele>405</ele>
      </trkpt>
      <trkpt lat="45.6334278" lon="7.7229750">
        <ele>405</ele>
      </trkpt>
      <trkpt lat="45.6334473" lon="7.7229050">
        <ele>404</ele>
      </trkpt>
      <trkpt lat="45.6334664" lon="7.7228021">
        <ele>404</ele>
      </trkpt>
      <trkpt lat="45.6334917" lon="7.7226504">
        <ele>404</ele>
      </trkpt>
      <trkpt lat="45.6335515" lon="7.7223660">
        <ele>403</ele>
      </trkpt>
      <trkpt lat="45.6336032" lon="7.7221535">
        <ele>403</ele>
      </trkpt>
      <trkpt lat="45.6336815" lon="7.7219196">
        <ele>402</ele>
      </trkpt>
      <trkpt lat="45.6337601" lon="7.7217001">
        <ele>402</ele>
      </trkpt>
      <trkpt lat="45.6338295" lon="7.7214716">
        <ele>402</ele>
      </trkpt>
      <trkpt lat="45.6338945" lon="7.7212472">
        <ele>401</ele>
      </trkpt>
      <trkpt lat="45.6339416" lon="7.7210256">
        <ele>401</ele>
      </trkpt>
      <trkpt lat="45.6339883" lon="7.7207760">
        <ele>400</ele>
      </trkpt>
      <trkpt lat="45.6340311" lon="7.7205870">
        <ele>400</ele>
      </trkpt>
      <trkpt lat="45.6340911" lon="7.7203142">
        <ele>400</ele>
      </trkpt>
      <trkpt lat="45.6341526" lon="7.7201777">
        <ele>399</ele>
      </trkpt>
      <trkpt lat="45.6342542" lon="7.7200090">
        <ele>399</ele>
      </trkpt>
      <trkpt lat="45.6343245" lon="7.7198578">
        <ele>399</ele>
      </trkpt>
      <trkpt lat="45.6343681" lon="7.7197357">
        <ele>398</ele>
      </trkpt>
      <trkpt lat="45.6344237" lon="7.7194699">
        <ele>398</ele>
      </trkpt>
      <trkpt lat="45.6344974" lon="7.7192248">
        <ele>397</ele>
      </trkpt>
      <trkpt lat="45.6345661" lon="7.7189274">
        <ele>397</ele>
      </trkpt>
      <trkpt lat="45.6346272" lon="7.7187568">
        <ele>397</ele>
      </trkpt>
      <trkpt lat="45.6346757" lon="7.7186727">
        <ele>396</ele>
      </trkpt>
      <trkpt lat="45.6347201" lon="7.7186171">
        <ele>396</ele>
      </trkpt>
      <trkpt lat="45.6347826" lon="7.7185724">
        <ele>395</ele>
      </trkpt>
      <trkpt lat="45.6348809" lon="7.7185064">
        <ele>395</ele>
      </trkpt>
      <trkpt lat="45.6349211" lon="7.7184818">
        <ele>395</ele>
      </trkpt>
      <trkpt lat="45.6349970" lon="7.7184296">
        <ele>394</ele>
      </trkpt>
      <trkpt lat="45.6351535" lon="7.7183358">
        <ele>394</ele>
      </trkpt>
      <trkpt lat="45.6352517" lon="7.7182626">
        <ele>394</ele>
      </trkpt>
      <trkpt lat="45.6352919" lon="7.7182336">
        <ele>393</ele>
      </trkpt>
      <trkpt lat="45.6353945" lon="7.7181519">
        <ele>393</ele>
      </trkpt>
      <trkpt lat="45.6355597" lon="7.7180367">
        <ele>392</ele>
      </trkpt>
      <trkpt lat="45.6356114" lon="7.7182340">
        <ele>392</ele>
      </trkpt>
      <trkpt lat="45.6358155" lon="7.7187766">
        <ele>392</ele>
      </trkpt>
      <trkpt lat="45.6358949" lon="7.7189810">
        <ele>391</ele>
      </trkpt>
      <trkpt lat="45.6358349" lon="7.7190552">
        <ele>391</ele>
      </trkpt>
      <trkpt lat="45.6358386" lon="7.7191263">
        <ele>390</ele>
      </trkpt>
      <trkpt lat="45.6358625" lon="7.7192056">
        <ele>390</ele>
      </trkpt>
      <trkpt lat="45.6359604" lon="7.7194198">
        <ele>390</ele>
      </trkpt>
      <trkpt lat="45.6360101" lon="7.7195402">
        <ele>389</ele>
      </trkpt>
      <trkpt lat="45.6360451" lon="7.7196718">
        <ele>389</ele>
      </trkpt>
      <trkpt lat="45.6360658" lon="7.7197642">
        <ele>389</ele>
      </trkpt>
      <trkpt lat="45.6360792" lon="7.7198287">
        <ele>388</ele>
      </trkpt>
      <trkpt lat="45.6360859" lon="7.7198729">
        <ele>388</ele>
      </trkpt>
      <trkpt lat="45.6360861" lon="7.7198735">
        <ele>387</ele>
      </trkpt>
      <trkpt lat="45.6361234" lon="7.7199922">
        <ele>387</ele>
      </trkpt>
      <trkpt lat="45.6361647" lon="7.7201060">
        <ele>387</ele>
      </trkpt>
      <trkpt lat="45.6362175" lon="7.7202488">
        <ele>386</ele>
      </trkpt>
      <trkpt lat="45.6362559" lon="7.7203456">
        <ele>386</ele>
      </trkpt>
      <trkpt lat="45.6363348" lon="7.7205424">
        <ele>385</ele>
      </trkpt>
      <trkpt lat="45.6363833" lon="7.7206860">
        <ele>385</ele>
      </trkpt>
      <trkpt lat="45.6364061" lon="7.7207941">
        <ele>385</ele>
      </trkpt>
      <trkpt lat="45.6364207" lon="7.7208586">
        <ele>384</ele>
      </trkpt>
      <trkpt lat="45.6365065" lon="7.7210621">
        <ele>384</ele>
      </trkpt>
      <trkpt lat="45.6365518" lon="7.7211669">
        <ele>383</ele>
      </trkpt>
      <trkpt lat="45.6365784" lon="7.7212346">
        <ele>383</ele>
      </trkpt>
      <trkpt lat="45.6366436" lon="7.7213703">
        <ele>383</ele>
      </trkpt>
      <trkpt lat="45.6366807" lon="7.7214336">
        <ele>382</ele>
      </trkpt>
      <trkpt lat="45.6367306" lon="7.7214601">
        <ele>382</ele>
      </trkpt>
      <trkpt lat="45.6367906" lon="7.7214704">
        <ele>382</ele>
      </trkpt>
      <trkpt lat="45.6368227" lon="7.7215138">
        <ele>381</ele>
      </trkpt>
      <trkpt lat="45.6368689" lon="7.7216190">
        <ele>381</ele>
      </trkpt>
      <trkpt lat="45.6368920" lon="7.7216744">
        <ele>380</ele>
      </trkpt>
      <trkpt lat="45.6369152" lon="7.7217298">
        <ele>380</ele>
      </trkpt>
      <trkpt lat="45.6369339" lon="7.7217917">
        <ele>380</ele>
      </trkpt>
      <trkpt lat="45.6369525" lon="7.7218537">
        <ele>379</ele>
      </trkpt>
      <trkpt lat="45.6369760" lon="7.7219359">
        <ele>379</ele>
      </trkpt>
      <trkpt lat="45.6369994" lon="7.7220182">
        <ele>378</ele>
      </trkpt>
      <trkpt lat="45.6370142" lon="7.7221349">
        <ele>378</ele>
      </trkpt>
      <trkpt lat="45.6370128" lon="7.7222093">
        <ele>378</ele>
      </trkpt>
      <trkpt lat="45.6370114" lon="7.7222837">
        <ele>377</ele>
      </trkpt>
      <trkpt lat="45.6370077" lon="7.7223580">
        <ele>377</ele>
      </trkpt>
      <trkpt lat="45.6370040" lon="7.7224323">
        <ele>377</ele>
      </trkpt>
      <trkpt lat="45.6369961" lon="7.7225267">
        <ele>376</ele>
      </trkpt>
      <trkpt lat="45.6369925" lon="7.7226122">
        <ele>376</ele>
      </trkpt>
      <trkpt lat="45.6369979" lon="7.7226870">
        <ele>375</ele>
      </trkpt>
      <trkpt lat="45.6370216" lon="7.7227943">
        <ele>375</ele>
      </trkpt>
      <trkpt lat="45.6370449" lon="7.7228672">
        <ele>375</ele>
      </trkpt>
      <trkpt lat="45.6370866" lon="7.7229761">
        <ele>374</ele>
      </trkpt>
      <trkpt lat="45.6371327" lon="7.7230741">
        <ele>374</ele>
      </trkpt>
      <trkpt lat="45.6371650" lon="7.7231419">
        <ele>373</ele>
      </trkpt>
      <trkpt lat="45.6371926" lon="7.7231962">
        <ele>373</ele>
      </trkpt>
      <trkpt lat="45.6372342" lon="7.7232987">
        <ele>373</ele>
      </trkpt>
      <trkpt lat="45.6372663" lon="7.7233501">
        <ele>372</ele>
      </trkpt>
      <trkpt lat="45.6373163" lon="7.7233983">
        <ele>372</ele>
      </trkpt>
      <trkpt lat="45.6373661" lon="7.7234232">
        <ele>372</ele>
      </trkpt>
      <trkpt lat="45.6374520" lon="7.7234513">
        <ele>371</ele>
      </trkpt>
      <trkpt lat="45.6375018" lon="7.7234795">
        <ele>371</ele>
      </trkpt>
      <trkpt lat="45.6375516" lon="7.7235076">
        <ele>370</ele>
      </trkpt>
      <trkpt lat="45.6376174" lon="7.7235560">
        <ele>370</ele>
      </trkpt>
      <trkpt lat="45.6376832" lon="7.7236045">
        <ele>370</ele>
      </trkpt>
      <trkpt lat="45.6377467" lon="7.7236515">
        <ele>369</ele>
      </trkpt>
      <trkpt lat="45.6377784" lon="7.7236701">
        <ele>369</ele>
      </trkpt>
      <trkpt lat="45.6378263" lon="7.7237126">
        <ele>368</ele>
      </trkpt>
      <trkpt lat="45.6378741" lon="7.7237552">
        <ele>368</ele>
      </trkpt>
      <trkpt lat="45.6379263" lon="7.7238016">
        <ele>368</ele>
      </trkpt>
      <trkpt lat="45.6379784" lon="7.7238480">
        <ele>367</ele>
      </trkpt>
      <trkpt lat="45.6380146" lon="7.7238608">
        <ele>367</ele>
      </trkpt>
      <trkpt lat="45.6380914" lon="7.7238883">
        <ele>367</ele>
      </trkpt>
      <trkpt lat="45.6381367" lon="7.7239141">
        <ele>366</ele>
      </trkpt>
      <trkpt lat="45.6381601" lon="7.7239934">
        <ele>366</ele>
      </trkpt>
      <trkpt lat="45.6381251" lon="7.7240856">
        <ele>365</ele>
      </trkpt>
      <trkpt lat="45.6380987" lon="7.7241375">
        <ele>365</ele>
      </trkpt>
      <trkpt lat="45.6380857" lon="7.7241819">
        <ele>365</ele>
      </trkpt>
      <trkpt lat="45.6380816" lon="7.7242209">
        <ele>364</ele>
      </trkpt>
      <trkpt lat="45.6380912" lon="7.7242772">
        <ele>364</ele>
      </trkpt>
      <trkpt lat="45.6381056" lon="7.7243551">
        <ele>363</ele>
      </trkpt>
      <trkpt lat="45.6381200" lon="7.7244330">
        <ele>363</ele>
      </trkpt>
      <trkpt lat="45.6381341" lon="7.7244908">
        <ele>363</ele>
      </trkpt>
      <trkpt lat="45.6381602" lon="7.7246093">
        <ele>362</ele>
      </trkpt>
      <trkpt lat="45.6381863" lon="7.7247278">
        <ele>362</ele>
      </trkpt>
      <trkpt lat="45.6382052" lon="7.7248109">
        <ele>362</ele>
      </trkpt>
      <trkpt lat="45.6382241" lon="7.7248941">
        <ele>361</ele>
      </trkpt>
      <trkpt lat="45.6382451" lon="7.7249514">
        <ele>361</ele>
      </trkpt>
      <trkpt lat="45.6382837" lon="7.7249878">
        <ele>360</ele>
      </trkpt>
      <trkpt lat="45.6383934" lon="7.7250231">
        <ele>360</ele>
      </trkpt>
      <trkpt lat="45.6385111" lon="7.7250516">
        <ele>360</ele>
      </trkpt>
      <trkpt lat="45.6386053" lon="7.7250829">
        <ele>359</ele>
      </trkpt>
      <trkpt lat="45.6386422" lon="7.7251336">
        <ele>359</ele>
      </trkpt>
      <trkpt lat="45.6386595" lon="7.7252075">
        <ele>358</ele>
      </trkpt>
      <trkpt lat="45.6387518" lon="7.7255980">
        <ele>358</ele>
      </trkpt>
      <trkpt lat="45.6387704" lon="7.7256895">
        <ele>358</ele>
      </trkpt>
      <trkpt lat="45.6388024" lon="7.7258440">
        <ele>357</ele>
      </trkpt>
      <trkpt lat="45.6390731" lon="7.7258119">
        <ele>357</ele>
      </trkpt>
      <trkpt lat="45.6392555" lon="7.7257749">
        <ele>357</ele>
      </trkpt>
      <trkpt lat="45.6392726" lon="7.7259430">
        <ele>356</ele>
      </trkpt>
      <trkpt lat="45.6392757" lon="7.7260639">
        <ele>356</ele>
      </trkpt>
      <trkpt lat="45.6392788" lon="7.7261848">
        <ele>355</ele>
      </trkpt>
      <trkpt lat="45.6392690" lon="7.7262861">
        <ele>355</ele>
      </trkpt>
      <trkpt lat="45.6392592" lon="7.7263873">
        <ele>355</ele>
      </trkpt>
      <trkpt lat="45.6392494" lon="7.7264885">
        <ele>354</ele>
      </trkpt>
      <trkpt lat="45.6392284" lon="7.7266106">
        <ele>354</ele>
      </trkpt>
      <trkpt lat="45.6392075" lon="7.7267327">
        <ele>353</ele>
      </trkpt>
      <trkpt lat="45.6391865" lon="7.7268548">
        <ele>353</ele>
      </trkpt>
      <trkpt lat="45.6391610" lon="7.7269579">
        <ele>353</ele>
      </trkpt>
      <trkpt lat="45.6391355" lon="7.7270609">
        <ele>352</ele>
      </trkpt>
      <trkpt lat="45.6391099" lon="7.7271640">
        <ele>352</ele>
      </trkpt>
      <trkpt lat="45.6390844" lon="7.7272671">
        <ele>352</ele>
      </trkpt>
      <trkpt lat="45.6390589" lon="7.7273702">
        <ele>351</ele>
      </trkpt>
      <trkpt lat="45.6390341" lon="7.7274867">
        <ele>351</ele>
      </trkpt>
      <trkpt lat="45.6390093" lon="7.7276032">
        <ele>350</ele>
      </trkpt>
      <trkpt lat="45.6389846" lon="7.7277198">
        <ele>350</ele>
      </trkpt>
      <trkpt lat="45.6389707" lon="7.7278435">
        <ele>350</ele>
      </trkpt>
      <trkpt lat="45.6389569" lon="7.7279673">
        <ele>349</ele>
      </trkpt>
      <trkpt lat="45.6389430" lon="7.7280911">
        <ele>349</ele>
      </trkpt>
      <trkpt lat="45.6389292" lon="7.7282143">
        <ele>348</ele>
      </trkpt>
      <trkpt lat="45.6389154" lon="7.7283375">
        <ele>348</ele>
      </trkpt>
      <trkpt lat="45.6389016" lon="7.7284607">
        <ele>348</ele>
      </trkpt>
      <trkpt lat="45.6388878" lon="7.7285839">
        <ele>347</ele>
      </trkpt>
      <trkpt lat="45.6388801" lon="7.7286894">
        <ele>347</ele>
      </trkpt>
      <trkpt lat="45.6388725" lon="7.7287949">
        <ele>347</ele>
      </trkpt>
      <trkpt lat="45.6388648" lon="7.7289004">
        <ele>346</ele>
      </trkpt>
      <trkpt lat="45.6388571" lon="7.7290059">
        <ele>346</ele>
      </trkpt>
      <trkpt lat="45.6388389" lon="7.7291046">
        <ele>345</ele>
      </trkpt>
      <trkpt lat="45.6388393" lon="7.7292444">
        <ele>345</ele>
      </trkpt>
      <trkpt lat="45.6389317" lon="7.7292832">
        <ele>345</ele>
      </trkpt>
      <trkpt lat="45.6390887" lon="7.7292797">
        <ele>344</ele>
      </trkpt>
      <trkpt lat="45.6391948" lon="7.7291790">
        <ele>344</ele>
      </trkpt>
      <trkpt lat="45.6393126" lon="7.7290889">
        <ele>343</ele>
      </trkpt>
      <trkpt lat="45.6394455" lon="7.7290695">
        <ele>343</ele>
      </trkpt>
      <trkpt lat="45.6395429" lon="7.7290400">
        <ele>343</ele>
      </trkpt>
      <trkpt lat="45.6395380" lon="7.7291743">
        <ele>342</ele>
      </trkpt>
      <trkpt lat="45.6395641" lon="7.7292932">
        <ele>342</ele>
      </trkpt>
      <trkpt lat="45.6396051" lon="7.7293819">
        <ele>341</ele>
      </trkpt>
      <trkpt lat="45.6396408" lon="7.7295114">
        <ele>341</ele>
      </trkpt>
      <trkpt lat="45.6396674" lon="7.7296241">
        <ele>341</ele>
      </trkpt>
      <trkpt lat="45.6396462" lon="7.7297381">
        <ele>340</ele>
      </trkpt>
      <trkpt lat="45.6396246" lon="7.7298220">
        <ele>340</ele>
      </trkpt>
      <trkpt lat="45.6395898" lon="7.7299246">
        <ele>340</ele>
      </trkpt>
      <trkpt lat="45.6395285" lon="7.7300800">
        <ele>339</ele>
      </trkpt>
      <trkpt lat="45.6395022" lon="7.7301427">
        <ele>339</ele>
      </trkpt>
      <trkpt lat="45.6394495" lon="7.7302658">
        <ele>338</ele>
      </trkpt>
      <trkpt lat="45.6394190" lon="7.7303507">
        <ele>338</ele>
      </trkpt>
      <trkpt lat="45.6393976" lon="7.7304546">
        <ele>338</ele>
      </trkpt>
      <trkpt lat="45.6393892" lon="7.7305053">
        <ele>337</ele>
      </trkpt>
      <trkpt lat="45.6393553" lon="7.7306905">
        <ele>337</ele>
      </trkpt>
      <trkpt lat="45.6393049" lon="7.7310201">
        <ele>336</ele>
      </trkpt>
      <trkpt lat="45.6392753" lon="7.7311855">
        <ele>336</ele>
      </trkpt>
      <trkpt lat="45.6392335" lon="7.7314744">
        <ele>336</ele>
      </trkpt>
      <trkpt lat="45.6393591" lon="7.7314804">
        <ele>335</ele>
      </trkpt>
      <trkpt lat="45.6395209" lon="7.7314561">
        <ele>335</ele>
      </trkpt>
      <trkpt lat="45.6395352" lon="7.7314329">
        <ele>335</ele>
      </trkpt>
      <trkpt lat="45.6396136" lon="7.7312074">
        <ele>334</ele>
      </trkpt>
      <trkpt lat="45.6397626" lon="7.7307794">
        <ele>334</ele>
      </trkpt>
      <trkpt lat="45.6398379" lon="7.7306179">
        <ele>333</ele>
      </trkpt>
      <trkpt lat="45.6400646" lon="7.7302694">
        <ele>333</ele>
      </trkpt>
      <trkpt lat="45.6404810" lon="7.7294710">
        <ele>333</ele>
      </trkpt>
      <trkpt lat="45.6405659" lon="7.7292719">
        <ele>332</ele>
      </trkpt>
      <trkpt lat="45.6406463" lon="7.7291240">
        <ele>332</ele>
      </trkpt>
      <trkpt lat="45.6407430" lon="7.7290633">
        <ele>331</ele>
      </trkpt>
      <trkpt lat="45.6408700" lon="7.7289655">
        <ele>331</ele>
      </trkpt>
      <trkpt lat="45.6409768" lon="7.7288973">
        <ele>331</ele>
      </trkpt>
      <trkpt lat="45.6410860" lon="7.7288415">
        <ele>330</ele>
      </trkpt>
      <trkpt lat="45.6411805" lon="7.7287832">
        <ele>330</ele>
      </trkpt>
      <trkpt lat="45.6412979" lon="7.7287440">
        <ele>330</ele>
      </trkpt>
      <trkpt lat="45.6414001" lon="7.7287124">
        <ele>329</ele>
      </trkpt>
      <trkpt lat="45.6414508" lon="7.7286675">
        <ele>329</ele>
      </trkpt>
      <trkpt lat="45.6415273" lon="7.7286292">
        <ele>328</ele>
      </trkpt>
      <trkpt lat="45.6415934" lon="7.7285912">
        <ele>328</ele>
      </trkpt>
      <trkpt lat="45.6416600" lon="7.7285824">
        <ele>328</ele>
      </trkpt>
      <trkpt lat="45.6417571" lon="7.7285656">
        <ele>327</ele>
      </trkpt>
      <trkpt lat="45.6418894" lon="7.7284822">
        <ele>327</ele>
      </trkpt>
      <trkpt lat="45.6420266" lon="7.7283768">
        <ele>326</ele>
      </trkpt>
      <trkpt lat="45.6419633" lon="7.7282102">
        <ele>326</ele>
      </trkpt>
      <trkpt lat="45.6419107" lon="7.7280946">
        <ele>326</ele>
      </trkpt>
      <trkpt lat="45.6418270" lon="7.7279357">
        <ele>325</ele>
      </trkpt>
      <trkpt lat="45.6417488" lon="7.7278133">
        <ele>325</ele>
      </trkpt>
      <trkpt lat="45.6417218" lon="7.7276970">
        <ele>325</ele>
      </trkpt>
      <trkpt lat="45.6417826" lon="7.7276299">
        <ele>324</ele>
      </trkpt>
      <trkpt lat="45.6419657" lon="7.7275089">
        <ele>324</ele>
      </trkpt>
      <trkpt lat="45.6420318" lon="7.7274636">
        <ele>323</ele>
      </trkpt>
      <trkpt lat="45.6421026" lon="7.7273816">
        <ele>323</ele>
      </trkpt>
    </trkseg>
  </trk>
</gpx>
