<?xml version="1.0" encoding="UTF-8"?>
<gpx version="1.1" creator="sentieri-vda" xmlns="http://www.topografix.com/GPX/1/1">
  <metadata>
    <name>Dondena - Santuario al lago Miserin</name>
    <desc>Catasto Sentieri VdA — PDS_S1</desc>
    <author><name>Regione Autonoma Valle d'Aosta</name></author>
  </metadata>
  <trk>
    <name>Dondena - Santuario al lago Miserin</name>
    <src>Catasto Sentieri VdA (PDS_S1)</src>
    <trkseg>
      <trkpt lat="45.6026772" lon="7.5223048">
        <ele>2096</ele>
      </trkpt>
      <trkpt lat="45.6026919" lon="7.5222769">
        <ele>2097</ele>
      </trkpt>
      <trkpt lat="45.6027101" lon="7.5222393">
        <ele>2098</ele>
      </trkpt>
      <trkpt lat="45.6028071" lon="7.5220784">
        <ele>2099</ele>
      </trkpt>
      <trkpt lat="45.6028178" lon="7.5220423">
        <ele>2100</ele>
      </trkpt>
      <trkpt lat="45.6028672" lon="7.5219783">
        <ele>2101</ele>
      </trkpt>
      <trkpt lat="45.6029213" lon="7.5219174">
        <ele>2102</ele>
      </trkpt>
      <trkpt lat="45.6029466" lon="7.5219023">
        <ele>2103</ele>
      </trkpt>
      <trkpt lat="45.6031323" lon="7.5217979">
        <ele>2104</ele>
      </trkpt>
      <trkpt lat="45.6031919" lon="7.5217787">
        <ele>2106</ele>
      </trkpt>
      <trkpt lat="45.6034654" lon="7.5216443">
        <ele>2107</ele>
      </trkpt>
      <trkpt lat="45.6035194" lon="7.5216192">
        <ele>2108</ele>
      </trkpt>
      <trkpt lat="45.6036444" lon="7.5216468">
        <ele>2109</ele>
      </trkpt>
      <trkpt lat="45.6037237" lon="7.5216579">
        <ele>2110</ele>
      </trkpt>
      <trkpt lat="45.6038504" lon="7.5216898">
        <ele>2111</ele>
      </trkpt>
      <trkpt lat="45.6039098" lon="7.5216905">
        <ele>2112</ele>
      </trkpt>
      <trkpt lat="45.6039456" lon="7.5216904">
        <ele>2113</ele>
      </trkpt>
      <trkpt lat="45.6039658" lon="7.5216984">
        <ele>2114</ele>
      </trkpt>
      <trkpt lat="45.6039904" lon="7.5217038">
        <ele>2115</ele>
      </trkpt>
      <trkpt lat="45.6040249" lon="7.5216863">
        <ele>2116</ele>
      </trkpt>
      <trkpt lat="45.6040636" lon="7.5216487">
        <ele>2117</ele>
      </trkpt>
      <trkpt lat="45.6041473" lon="7.5216069">
        <ele>2118</ele>
      </trkpt>
      <trkpt lat="45.6041657" lon="7.5216689">
        <ele>2119</ele>
      </trkpt>
      <trkpt lat="45.6041783" lon="7.5217142">
        <ele>2120</ele>
      </trkpt>
      <trkpt lat="45.6041882" lon="7.5217591">
        <ele>2121</ele>
      </trkpt>
      <trkpt lat="45.6041979" lon="7.5218211">
        <ele>2122</ele>
      </trkpt>
      <trkpt lat="45.6042059" lon="7.5218837">
        <ele>2124</ele>
      </trkpt>
      <trkpt lat="45.6042181" lon="7.5219555">
        <ele>2125</ele>
      </trkpt>
      <trkpt lat="45.6042276" lon="7.5220070">
        <ele>2126</ele>
      </trkpt>
      <trkpt lat="45.6042288" lon="7.5220383">
        <ele>2127</ele>
      </trkpt>
      <trkpt lat="45.6042269" lon="7.5220697">
        <ele>2128</ele>
      </trkpt>
      <trkpt lat="45.6042216" lon="7.5221095">
        <ele>2129</ele>
      </trkpt>
      <trkpt lat="45.6042158" lon="7.5221361">
        <ele>2130</ele>
      </trkpt>
      <trkpt lat="45.6042094" lon="7.5221727">
        <ele>2131</ele>
      </trkpt>
      <trkpt lat="45.6042051" lon="7.5222438">
        <ele>2132</ele>
      </trkpt>
      <trkpt lat="45.6042089" lon="7.5222602">
        <ele>2133</ele>
      </trkpt>
      <trkpt lat="45.6042097" lon="7.5222932">
        <ele>2134</ele>
      </trkpt>
      <trkpt lat="45.6042118" lon="7.5223333">
        <ele>2135</ele>
      </trkpt>
      <trkpt lat="45.6042174" lon="7.5223849">
        <ele>2136</ele>
      </trkpt>
      <trkpt lat="45.6042182" lon="7.5224152">
        <ele>2137</ele>
      </trkpt>
      <trkpt lat="45.6042162" lon="7.5224395">
        <ele>2138</ele>
      </trkpt>
      <trkpt lat="45.6042125" lon="7.5224548">
        <ele>2139</ele>
      </trkpt>
      <trkpt lat="45.6042078" lon="7.5224738">
        <ele>2140</ele>
      </trkpt>
      <trkpt lat="45.6042114" lon="7.5225464">
        <ele>2142</ele>
      </trkpt>
      <trkpt lat="45.6042177" lon="7.5225760">
        <ele>2143</ele>
      </trkpt>
      <trkpt lat="45.6042429" lon="7.5226137">
        <ele>2144</ele>
      </trkpt>
      <trkpt lat="45.6042659" lon="7.5226886">
        <ele>2145</ele>
      </trkpt>
      <trkpt lat="45.6042545" lon="7.5227127">
        <ele>2146</ele>
      </trkpt>
      <trkpt lat="45.6042405" lon="7.5227923">
        <ele>2147</ele>
      </trkpt>
      <trkpt lat="45.6042381" lon="7.5228436">
        <ele>2148</ele>
      </trkpt>
      <trkpt lat="45.6042390" lon="7.5228827">
        <ele>2149</ele>
      </trkpt>
      <trkpt lat="45.6042478" lon="7.5229122">
        <ele>2150</ele>
      </trkpt>
      <trkpt lat="45.6042788" lon="7.5229736">
        <ele>2151</ele>
      </trkpt>
      <trkpt lat="45.6042935" lon="7.5230046">
        <ele>2152</ele>
      </trkpt>
      <trkpt lat="45.6043119" lon="7.5230586">
        <ele>2153</ele>
      </trkpt>
      <trkpt lat="45.6043308" lon="7.5231209">
        <ele>2154</ele>
      </trkpt>
      <trkpt lat="45.6043560" lon="7.5231571">
        <ele>2155</ele>
      </trkpt>
      <trkpt lat="45.6043757" lon="7.5231835">
        <ele>2156</ele>
      </trkpt>
      <trkpt lat="45.6043926" lon="7.5232029">
        <ele>2157</ele>
      </trkpt>
      <trkpt lat="45.6044014" lon="7.5232297">
        <ele>2159</ele>
      </trkpt>
      <trkpt lat="45.6044005" lon="7.5232517">
        <ele>2160</ele>
      </trkpt>
      <trkpt lat="45.6043895" lon="7.5232630">
        <ele>2161</ele>
      </trkpt>
      <trkpt lat="45.6043729" lon="7.5232657">
        <ele>2162</ele>
      </trkpt>
      <trkpt lat="45.6043539" lon="7.5232612">
        <ele>2163</ele>
      </trkpt>
      <trkpt lat="45.6043415" lon="7.5232555">
        <ele>2164</ele>
      </trkpt>
      <trkpt lat="45.6043306" lon="7.5232547">
        <ele>2165</ele>
      </trkpt>
      <trkpt lat="45.6043265" lon="7.5232630">
        <ele>2166</ele>
      </trkpt>
      <trkpt lat="45.6043270" lon="7.5232762">
        <ele>2167</ele>
      </trkpt>
      <trkpt lat="45.6043342" lon="7.5232898">
        <ele>2168</ele>
      </trkpt>
      <trkpt lat="45.6043823" lon="7.5233331">
        <ele>2169</ele>
      </trkpt>
      <trkpt lat="45.6044212" lon="7.5233624">
        <ele>2170</ele>
      </trkpt>
      <trkpt lat="45.6044360" lon="7.5233677">
        <ele>2171</ele>
      </trkpt>
      <trkpt lat="45.6045512" lon="7.5234076">
        <ele>2172</ele>
      </trkpt>
      <trkpt lat="45.6045744" lon="7.5234237">
        <ele>2173</ele>
      </trkpt>
      <trkpt lat="45.6045885" lon="7.5234489">
        <ele>2174</ele>
      </trkpt>
      <trkpt lat="45.6046208" lon="7.5234987">
        <ele>2175</ele>
      </trkpt>
      <trkpt lat="45.6046688" lon="7.5235646">
        <ele>2177</ele>
      </trkpt>
      <trkpt lat="45.6047065" lon="7.5235863">
        <ele>2178</ele>
      </trkpt>
      <trkpt lat="45.6047327" lon="7.5236014">
        <ele>2179</ele>
      </trkpt>
      <trkpt lat="45.6047379" lon="7.5236176">
        <ele>2180</ele>
      </trkpt>
      <trkpt lat="45.6047560" lon="7.5236735">
        <ele>2181</ele>
      </trkpt>
      <trkpt lat="45.6047614" lon="7.5237306">
        <ele>2182</ele>
      </trkpt>
      <trkpt lat="45.6047791" lon="7.5237819">
        <ele>2183</ele>
      </trkpt>
      <trkpt lat="45.6048436" lon="7.5238386">
        <ele>2184</ele>
      </trkpt>
      <trkpt lat="45.6049015" lon="7.5238943">
        <ele>2185</ele>
      </trkpt>
      <trkpt lat="45.6049400" lon="7.5239451">
        <ele>2186</ele>
      </trkpt>
      <trkpt lat="45.6049689" lon="7.5239663">
        <ele>2187</ele>
      </trkpt>
      <trkpt lat="45.6049891" lon="7.5239768">
        <ele>2188</ele>
      </trkpt>
      <trkpt lat="45.6050076" lon="7.5239739">
        <ele>2189</ele>
      </trkpt>
      <trkpt lat="45.6050109" lon="7.5239722">
        <ele>2190</ele>
      </trkpt>
      <trkpt lat="45.6050138" lon="7.5239740">
        <ele>2191</ele>
      </trkpt>
      <trkpt lat="45.6050431" lon="7.5239622">
        <ele>2192</ele>
      </trkpt>
      <trkpt lat="45.6050954" lon="7.5239421">
        <ele>2193</ele>
      </trkpt>
      <trkpt lat="45.6051214" lon="7.5239271">
        <ele>2195</ele>
      </trkpt>
      <trkpt lat="45.6051880" lon="7.5239011">
        <ele>2196</ele>
      </trkpt>
      <trkpt lat="45.6052466" lon="7.5238941">
        <ele>2197</ele>
      </trkpt>
      <trkpt lat="45.6052984" lon="7.5238971">
        <ele>2198</ele>
      </trkpt>
      <trkpt lat="45.6053482" lon="7.5238930">
        <ele>2199</ele>
      </trkpt>
      <trkpt lat="45.6053799" lon="7.5238875">
        <ele>2200</ele>
      </trkpt>
      <trkpt lat="45.6054126" lon="7.5238963">
        <ele>2201</ele>
      </trkpt>
      <trkpt lat="45.6054662" lon="7.5239137">
        <ele>2202</ele>
      </trkpt>
      <trkpt lat="45.6055118" lon="7.5239279">
        <ele>2203</ele>
      </trkpt>
      <trkpt lat="45.6055524" lon="7.5239227">
        <ele>2204</ele>
      </trkpt>
      <trkpt lat="45.6057320" lon="7.5238813">
        <ele>2205</ele>
      </trkpt>
      <trkpt lat="45.6058368" lon="7.5238224">
        <ele>2206</ele>
      </trkpt>
      <trkpt lat="45.6059534" lon="7.5237577">
        <ele>2207</ele>
      </trkpt>
      <trkpt lat="45.6060211" lon="7.5237284">
        <ele>2208</ele>
      </trkpt>
      <trkpt lat="45.6060711" lon="7.5237117">
        <ele>2209</ele>
      </trkpt>
      <trkpt lat="45.6060957" lon="7.5237165">
        <ele>2210</ele>
      </trkpt>
      <trkpt lat="45.6061137" lon="7.5237348">
        <ele>2211</ele>
      </trkpt>
      <trkpt lat="45.6061411" lon="7.5237605">
        <ele>2213</ele>
      </trkpt>
      <trkpt lat="45.6061939" lon="7.5238406">
        <ele>2214</ele>
      </trkpt>
      <trkpt lat="45.6062316" lon="7.5238859">
        <ele>2215</ele>
      </trkpt>
      <trkpt lat="45.6062838" lon="7.5239175">
        <ele>2216</ele>
      </trkpt>
      <trkpt lat="45.6064148" lon="7.5239791">
        <ele>2217</ele>
      </trkpt>
      <trkpt lat="45.6064892" lon="7.5240024">
        <ele>2218</ele>
      </trkpt>
      <trkpt lat="45.6065597" lon="7.5240215">
        <ele>2219</ele>
      </trkpt>
      <trkpt lat="45.6066601" lon="7.5240695">
        <ele>2220</ele>
      </trkpt>
      <trkpt lat="45.6067088" lon="7.5240837">
        <ele>2221</ele>
      </trkpt>
      <trkpt lat="45.6067924" lon="7.5241096">
        <ele>2222</ele>
      </trkpt>
      <trkpt lat="45.6068431" lon="7.5241154">
        <ele>2223</ele>
      </trkpt>
      <trkpt lat="45.6069244" lon="7.5241138">
        <ele>2224</ele>
      </trkpt>
      <trkpt lat="45.6069604" lon="7.5240842">
        <ele>2225</ele>
      </trkpt>
      <trkpt lat="45.6070074" lon="7.5240742">
        <ele>2226</ele>
      </trkpt>
      <trkpt lat="45.6071004" lon="7.5240938">
        <ele>2227</ele>
      </trkpt>
      <trkpt lat="45.6071773" lon="7.5241237">
        <ele>2228</ele>
      </trkpt>
      <trkpt lat="45.6072355" lon="7.5241409">
        <ele>2229</ele>
      </trkpt>
      <trkpt lat="45.6072990" lon="7.5241778">
        <ele>2231</ele>
      </trkpt>
      <trkpt lat="45.6073654" lon="7.5242366">
        <ele>2232</ele>
      </trkpt>
      <trkpt lat="45.6074292" lon="7.5243274">
        <ele>2233</ele>
      </trkpt>
      <trkpt lat="45.6074909" lon="7.5244370">
        <ele>2234</ele>
      </trkpt>
      <trkpt lat="45.6075438" lon="7.5245260">
        <ele>2235</ele>
      </trkpt>
      <trkpt lat="45.6075966" lon="7.5246303">
        <ele>2236</ele>
      </trkpt>
      <trkpt lat="45.6076871" lon="7.5248129">
        <ele>2237</ele>
      </trkpt>
      <trkpt lat="45.6077867" lon="7.5249909">
        <ele>2238</ele>
      </trkpt>
      <trkpt lat="45.6078640" lon="7.5251056">
        <ele>2239</ele>
      </trkpt>
      <trkpt lat="45.6079367" lon="7.5251742">
        <ele>2240</ele>
      </trkpt>
      <trkpt lat="45.6080211" lon="7.5252447">
        <ele>2241</ele>
      </trkpt>
      <trkpt lat="45.6081283" lon="7.5254026">
        <ele>2242</ele>
      </trkpt>
      <trkpt lat="45.6082258" lon="7.5255300">
        <ele>2243</ele>
      </trkpt>
      <trkpt lat="45.6083574" lon="7.5256675">
        <ele>2244</ele>
      </trkpt>
      <trkpt lat="45.6084642" lon="7.5257947">
        <ele>2245</ele>
      </trkpt>
      <trkpt lat="45.6085452" lon="7.5258719">
        <ele>2246</ele>
      </trkpt>
      <trkpt lat="45.6086344" lon="7.5259554">
        <ele>2248</ele>
      </trkpt>
      <trkpt lat="45.6087599" lon="7.5260997">
        <ele>2249</ele>
      </trkpt>
      <trkpt lat="45.6088182" lon="7.5261841">
        <ele>2250</ele>
      </trkpt>
      <trkpt lat="45.6088832" lon="7.5262529">
        <ele>2251</ele>
      </trkpt>
      <trkpt lat="45.6089788" lon="7.5263561">
        <ele>2252</ele>
      </trkpt>
      <trkpt lat="45.6090242" lon="7.5263989">
        <ele>2253</ele>
      </trkpt>
      <trkpt lat="45.6090950" lon="7.5264896">
        <ele>2254</ele>
      </trkpt>
      <trkpt lat="45.6091514" lon="7.5265476">
        <ele>2255</ele>
      </trkpt>
      <trkpt lat="45.6092475" lon="7.5266904">
        <ele>2256</ele>
      </trkpt>
      <trkpt lat="45.6093220" lon="7.5268339">
        <ele>2257</ele>
      </trkpt>
      <trkpt lat="45.6094067" lon="7.5269902">
        <ele>2258</ele>
      </trkpt>
      <trkpt lat="45.6094940" lon="7.5271619">
        <ele>2259</ele>
      </trkpt>
      <trkpt lat="45.6095590" lon="7.5272902">
        <ele>2260</ele>
      </trkpt>
      <trkpt lat="45.6096268" lon="7.5273919">
        <ele>2261</ele>
      </trkpt>
      <trkpt lat="45.6096683" lon="7.5274944">
        <ele>2262</ele>
      </trkpt>
      <trkpt lat="45.6096986" lon="7.5275685">
        <ele>2263</ele>
      </trkpt>
      <trkpt lat="45.6097223" lon="7.5277264">
        <ele>2264</ele>
      </trkpt>
      <trkpt lat="45.6097469" lon="7.5278337">
        <ele>2266</ele>
      </trkpt>
      <trkpt lat="45.6097739" lon="7.5279189">
        <ele>2267</ele>
      </trkpt>
      <trkpt lat="45.6098198" lon="7.5280058">
        <ele>2268</ele>
      </trkpt>
      <trkpt lat="45.6098302" lon="7.5280309">
        <ele>2269</ele>
      </trkpt>
      <trkpt lat="45.6098351" lon="7.5280539">
        <ele>2270</ele>
      </trkpt>
      <trkpt lat="45.6098347" lon="7.5280792">
        <ele>2271</ele>
      </trkpt>
      <trkpt lat="45.6098304" lon="7.5281052">
        <ele>2272</ele>
      </trkpt>
      <trkpt lat="45.6098165" lon="7.5281265">
        <ele>2273</ele>
      </trkpt>
      <trkpt lat="45.6097947" lon="7.5281485">
        <ele>2274</ele>
      </trkpt>
      <trkpt lat="45.6097326" lon="7.5281584">
        <ele>2275</ele>
      </trkpt>
      <trkpt lat="45.6096701" lon="7.5281753">
        <ele>2276</ele>
      </trkpt>
      <trkpt lat="45.6096118" lon="7.5281930">
        <ele>2277</ele>
      </trkpt>
      <trkpt lat="45.6095776" lon="7.5282076">
        <ele>2278</ele>
      </trkpt>
      <trkpt lat="45.6095515" lon="7.5282248">
        <ele>2279</ele>
      </trkpt>
      <trkpt lat="45.6095277" lon="7.5282486">
        <ele>2280</ele>
      </trkpt>
      <trkpt lat="45.6094925" lon="7.5283035">
        <ele>2281</ele>
      </trkpt>
      <trkpt lat="45.6094714" lon="7.5283411">
        <ele>2282</ele>
      </trkpt>
      <trkpt lat="45.6093874" lon="7.5285044">
        <ele>2284</ele>
      </trkpt>
      <trkpt lat="45.6093681" lon="7.5285666">
        <ele>2285</ele>
      </trkpt>
      <trkpt lat="45.6093581" lon="7.5286330">
        <ele>2286</ele>
      </trkpt>
      <trkpt lat="45.6093620" lon="7.5286945">
        <ele>2287</ele>
      </trkpt>
      <trkpt lat="45.6093767" lon="7.5287514">
        <ele>2288</ele>
      </trkpt>
      <trkpt lat="45.6093959" lon="7.5288038">
        <ele>2289</ele>
      </trkpt>
      <trkpt lat="45.6094245" lon="7.5288647">
        <ele>2290</ele>
      </trkpt>
      <trkpt lat="45.6094455" lon="7.5289302">
        <ele>2291</ele>
      </trkpt>
      <trkpt lat="45.6094711" lon="7.5290022">
        <ele>2292</ele>
      </trkpt>
      <trkpt lat="45.6095090" lon="7.5290607">
        <ele>2293</ele>
      </trkpt>
      <trkpt lat="45.6095720" lon="7.5291538">
        <ele>2294</ele>
      </trkpt>
      <trkpt lat="45.6096131" lon="7.5292276">
        <ele>2295</ele>
      </trkpt>
      <trkpt lat="45.6096813" lon="7.5293558">
        <ele>2296</ele>
      </trkpt>
      <trkpt lat="45.6097594" lon="7.5295409">
        <ele>2297</ele>
      </trkpt>
      <trkpt lat="45.6098730" lon="7.5297758">
        <ele>2298</ele>
      </trkpt>
      <trkpt lat="45.6099666" lon="7.5299672">
        <ele>2299</ele>
      </trkpt>
      <trkpt lat="45.6100298" lon="7.5300735">
        <ele>2300</ele>
      </trkpt>
      <trkpt lat="45.6100700" lon="7.5301892">
        <ele>2302</ele>
      </trkpt>
      <trkpt lat="45.6101004" lon="7.5302743">
        <ele>2303</ele>
      </trkpt>
      <trkpt lat="45.6101372" lon="7.5303702">
        <ele>2304</ele>
      </trkpt>
      <trkpt lat="45.6101773" lon="7.5304837">
        <ele>2305</ele>
      </trkpt>
      <trkpt lat="45.6102346" lon="7.5306100">
        <ele>2306</ele>
      </trkpt>
      <trkpt lat="45.6103448" lon="7.5307965">
        <ele>2307</ele>
      </trkpt>
      <trkpt lat="45.6104145" lon="7.5309225">
        <ele>2308</ele>
      </trkpt>
      <trkpt lat="45.6104951" lon="7.5310635">
        <ele>2309</ele>
      </trkpt>
      <trkpt lat="45.6105660" lon="7.5311630">
        <ele>2310</ele>
      </trkpt>
      <trkpt lat="45.6106672" lon="7.5313454">
        <ele>2311</ele>
      </trkpt>
      <trkpt lat="45.6107462" lon="7.5314711">
        <ele>2312</ele>
      </trkpt>
      <trkpt lat="45.6108156" lon="7.5315794">
        <ele>2313</ele>
      </trkpt>
      <trkpt lat="45.6109037" lon="7.5317004">
        <ele>2314</ele>
      </trkpt>
      <trkpt lat="45.6109837" lon="7.5317336">
        <ele>2315</ele>
      </trkpt>
      <trkpt lat="45.6110518" lon="7.5317406">
        <ele>2316</ele>
      </trkpt>
      <trkpt lat="45.6111521" lon="7.5317248">
        <ele>2317</ele>
      </trkpt>
      <trkpt lat="45.6112073" lon="7.5316881">
        <ele>2318</ele>
      </trkpt>
      <trkpt lat="45.6112496" lon="7.5316121">
        <ele>2320</ele>
      </trkpt>
      <trkpt lat="45.6112888" lon="7.5315362">
        <ele>2321</ele>
      </trkpt>
      <trkpt lat="45.6113067" lon="7.5314873">
        <ele>2322</ele>
      </trkpt>
      <trkpt lat="45.6113343" lon="7.5314689">
        <ele>2323</ele>
      </trkpt>
      <trkpt lat="45.6113669" lon="7.5314747">
        <ele>2324</ele>
      </trkpt>
      <trkpt lat="45.6113906" lon="7.5315203">
        <ele>2325</ele>
      </trkpt>
      <trkpt lat="45.6114244" lon="7.5316230">
        <ele>2326</ele>
      </trkpt>
      <trkpt lat="45.6114579" lon="7.5317036">
        <ele>2327</ele>
      </trkpt>
      <trkpt lat="45.6115102" lon="7.5318300">
        <ele>2328</ele>
      </trkpt>
      <trkpt lat="45.6115421" lon="7.5319106">
        <ele>2329</ele>
      </trkpt>
      <trkpt lat="45.6115799" lon="7.5319603">
        <ele>2330</ele>
      </trkpt>
      <trkpt lat="45.6116720" lon="7.5320350">
        <ele>2331</ele>
      </trkpt>
      <trkpt lat="45.6117345" lon="7.5320818">
        <ele>2332</ele>
      </trkpt>
      <trkpt lat="45.6117787" lon="7.5321512">
        <ele>2333</ele>
      </trkpt>
      <trkpt lat="45.6118245" lon="7.5322293">
        <ele>2334</ele>
      </trkpt>
      <trkpt lat="45.6119013" lon="7.5323132">
        <ele>2335</ele>
      </trkpt>
      <trkpt lat="45.6119931" lon="7.5324143">
        <ele>2337</ele>
      </trkpt>
      <trkpt lat="45.6120915" lon="7.5324976">
        <ele>2338</ele>
      </trkpt>
      <trkpt lat="45.6121667" lon="7.5325728">
        <ele>2339</ele>
      </trkpt>
      <trkpt lat="45.6122419" lon="7.5326523">
        <ele>2340</ele>
      </trkpt>
      <trkpt lat="45.6122877" lon="7.5327260">
        <ele>2341</ele>
      </trkpt>
      <trkpt lat="45.6123058" lon="7.5328092">
        <ele>2342</ele>
      </trkpt>
      <trkpt lat="45.6123181" lon="7.5329279">
        <ele>2343</ele>
      </trkpt>
      <trkpt lat="45.6123209" lon="7.5330269">
        <ele>2344</ele>
      </trkpt>
      <trkpt lat="45.6123389" lon="7.5331300">
        <ele>2345</ele>
      </trkpt>
      <trkpt lat="45.6123967" lon="7.5332981">
        <ele>2346</ele>
      </trkpt>
      <trkpt lat="45.6124992" lon="7.5334540">
        <ele>2347</ele>
      </trkpt>
      <trkpt lat="45.6126230" lon="7.5337063">
        <ele>2348</ele>
      </trkpt>
      <trkpt lat="45.6126741" lon="7.5338371">
        <ele>2349</ele>
      </trkpt>
      <trkpt lat="45.6127211" lon="7.5340011">
        <ele>2350</ele>
      </trkpt>
      <trkpt lat="45.6127411" lon="7.5341481">
        <ele>2351</ele>
      </trkpt>
      <trkpt lat="45.6127466" lon="7.5342185">
        <ele>2352</ele>
      </trkpt>
      <trkpt lat="45.6127421" lon="7.5343485">
        <ele>2353</ele>
      </trkpt>
      <trkpt lat="45.6127354" lon="7.5345470">
        <ele>2355</ele>
      </trkpt>
      <trkpt lat="45.6127295" lon="7.5346925">
        <ele>2356</ele>
      </trkpt>
      <trkpt lat="45.6127332" lon="7.5347365">
        <ele>2357</ele>
      </trkpt>
      <trkpt lat="45.6127588" lon="7.5348019">
        <ele>2358</ele>
      </trkpt>
      <trkpt lat="45.6127971" lon="7.5348978">
        <ele>2359</ele>
      </trkpt>
      <trkpt lat="45.6128419" lon="7.5350134">
        <ele>2360</ele>
      </trkpt>
      <trkpt lat="45.6128682" lon="7.5351404">
        <ele>2361</ele>
      </trkpt>
      <trkpt lat="45.6128975" lon="7.5352520">
        <ele>2362</ele>
      </trkpt>
      <trkpt lat="45.6129635" lon="7.5354001">
        <ele>2363</ele>
      </trkpt>
      <trkpt lat="45.6130652" lon="7.5356089">
        <ele>2364</ele>
      </trkpt>
      <trkpt lat="45.6131680" lon="7.5357934">
        <ele>2365</ele>
      </trkpt>
      <trkpt lat="45.6132258" lon="7.5359593">
        <ele>2366</ele>
      </trkpt>
      <trkpt lat="45.6132911" lon="7.5361118">
        <ele>2367</ele>
      </trkpt>
      <trkpt lat="45.6133396" lon="7.5362780">
        <ele>2368</ele>
      </trkpt>
      <trkpt lat="45.6133776" lon="7.5363805">
        <ele>2369</ele>
      </trkpt>
      <trkpt lat="45.6134265" lon="7.5364563">
        <ele>2370</ele>
      </trkpt>
      <trkpt lat="45.6134905" lon="7.5365031">
        <ele>2371</ele>
      </trkpt>
      <trkpt lat="45.6135574" lon="7.5365344">
        <ele>2373</ele>
      </trkpt>
      <trkpt lat="45.6136120" lon="7.5365771">
        <ele>2374</ele>
      </trkpt>
      <trkpt lat="45.6137326" lon="7.5366929">
        <ele>2375</ele>
      </trkpt>
      <trkpt lat="45.6138607" lon="7.5368019">
        <ele>2376</ele>
      </trkpt>
      <trkpt lat="45.6139057" lon="7.5368404">
        <ele>2377</ele>
      </trkpt>
      <trkpt lat="45.6139410" lon="7.5369430">
        <ele>2378</ele>
      </trkpt>
      <trkpt lat="45.6140025" lon="7.5371616">
        <ele>2379</ele>
      </trkpt>
      <trkpt lat="45.6140320" lon="7.5372908">
        <ele>2380</ele>
      </trkpt>
      <trkpt lat="45.6140407" lon="7.5373677">
        <ele>2381</ele>
      </trkpt>
      <trkpt lat="45.6140248" lon="7.5374540">
        <ele>2382</ele>
      </trkpt>
      <trkpt lat="45.6139855" lon="7.5375255">
        <ele>2383</ele>
      </trkpt>
      <trkpt lat="45.6139178" lon="7.5376291">
        <ele>2384</ele>
      </trkpt>
      <trkpt lat="45.6138869" lon="7.5376713">
        <ele>2385</ele>
      </trkpt>
      <trkpt lat="45.6138780" lon="7.5376979">
        <ele>2386</ele>
      </trkpt>
      <trkpt lat="45.6138785" lon="7.5377398">
        <ele>2387</ele>
      </trkpt>
      <trkpt lat="45.6138996" lon="7.5378163">
        <ele>2388</ele>
      </trkpt>
      <trkpt lat="45.6139653" lon="7.5379997">
        <ele>2389</ele>
      </trkpt>
      <trkpt lat="45.6139957" lon="7.5380760">
        <ele>2391</ele>
      </trkpt>
      <trkpt lat="45.6140331" lon="7.5382182">
        <ele>2392</ele>
      </trkpt>
      <trkpt lat="45.6140935" lon="7.5384721">
        <ele>2393</ele>
      </trkpt>
      <trkpt lat="45.6141200" lon="7.5386102">
        <ele>2394</ele>
      </trkpt>
      <trkpt lat="45.6141323" lon="7.5388478">
        <ele>2395</ele>
      </trkpt>
      <trkpt lat="45.6141259" lon="7.5389493">
        <ele>2396</ele>
      </trkpt>
      <trkpt lat="45.6141440" lon="7.5391603">
        <ele>2397</ele>
      </trkpt>
      <trkpt lat="45.6141622" lon="7.5392523">
        <ele>2398</ele>
      </trkpt>
      <trkpt lat="45.6142353" lon="7.5394068">
        <ele>2399</ele>
      </trkpt>
      <trkpt lat="45.6142847" lon="7.5395245">
        <ele>2400</ele>
      </trkpt>
      <trkpt lat="45.6143151" lon="7.5395986">
        <ele>2401</ele>
      </trkpt>
      <trkpt lat="45.6143290" lon="7.5397238">
        <ele>2402</ele>
      </trkpt>
      <trkpt lat="45.6143239" lon="7.5399266">
        <ele>2403</ele>
      </trkpt>
      <trkpt lat="45.6143069" lon="7.5400482">
        <ele>2404</ele>
      </trkpt>
      <trkpt lat="45.6142700" lon="7.5401813">
        <ele>2405</ele>
      </trkpt>
      <trkpt lat="45.6142621" lon="7.5402894">
        <ele>2406</ele>
      </trkpt>
      <trkpt lat="45.6142898" lon="7.5404076">
        <ele>2407</ele>
      </trkpt>
      <trkpt lat="45.6143266" lon="7.5405036">
        <ele>2409</ele>
      </trkpt>
      <trkpt lat="45.6143599" lon="7.5406856">
        <ele>2410</ele>
      </trkpt>
      <trkpt lat="45.6143929" lon="7.5408477">
        <ele>2411</ele>
      </trkpt>
      <trkpt lat="45.6144271" lon="7.5409878">
        <ele>2412</ele>
      </trkpt>
      <trkpt lat="45.6144438" lon="7.5411173">
        <ele>2413</ele>
      </trkpt>
      <trkpt lat="45.6144834" lon="7.5413124">
        <ele>2414</ele>
      </trkpt>
      <trkpt lat="45.6145279" lon="7.5415271">
        <ele>2415</ele>
      </trkpt>
      <trkpt lat="45.6145662" lon="7.5417420">
        <ele>2416</ele>
      </trkpt>
      <trkpt lat="45.6146349" lon="7.5420353">
        <ele>2417</ele>
      </trkpt>
      <trkpt lat="45.6146752" lon="7.5421973">
        <ele>2418</ele>
      </trkpt>
      <trkpt lat="45.6147106" lon="7.5423087">
        <ele>2419</ele>
      </trkpt>
      <trkpt lat="45.6147339" lon="7.5424381">
        <ele>2420</ele>
      </trkpt>
      <trkpt lat="45.6147433" lon="7.5425656">
        <ele>2421</ele>
      </trkpt>
      <trkpt lat="45.6147580" lon="7.5427459">
        <ele>2422</ele>
      </trkpt>
      <trkpt lat="45.6147817" lon="7.5429127">
        <ele>2423</ele>
      </trkpt>
      <trkpt lat="45.6148193" lon="7.5430703">
        <ele>2424</ele>
      </trkpt>
      <trkpt lat="45.6148488" lon="7.5432281">
        <ele>2425</ele>
      </trkpt>
      <trkpt lat="45.6148968" lon="7.5434824">
        <ele>2427</ele>
      </trkpt>
      <trkpt lat="45.6149115" lon="7.5436604">
        <ele>2428</ele>
      </trkpt>
      <trkpt lat="45.6149170" lon="7.5438541">
        <ele>2429</ele>
      </trkpt>
      <trkpt lat="45.6149204" lon="7.5439972">
        <ele>2430</ele>
      </trkpt>
      <trkpt lat="45.6149152" lon="7.5441934">
        <ele>2431</ele>
      </trkpt>
      <trkpt lat="45.6149173" lon="7.5443630">
        <ele>2432</ele>
      </trkpt>
      <trkpt lat="45.6149394" lon="7.5445166">
        <ele>2433</ele>
      </trkpt>
      <trkpt lat="45.6149608" lon="7.5446493">
        <ele>2434</ele>
      </trkpt>
      <trkpt lat="45.6149806" lon="7.5448129">
        <ele>2435</ele>
      </trkpt>
      <trkpt lat="45.6149731" lon="7.5449453">
        <ele>2436</ele>
      </trkpt>
      <trkpt lat="45.6149572" lon="7.5450338">
        <ele>2437</ele>
      </trkpt>
      <trkpt lat="45.6149181" lon="7.5451251">
        <ele>2438</ele>
      </trkpt>
      <trkpt lat="45.6148784" lon="7.5451933">
        <ele>2439</ele>
      </trkpt>
      <trkpt lat="45.6148248" lon="7.5452598">
        <ele>2440</ele>
      </trkpt>
      <trkpt lat="45.6145206" lon="7.5455390">
        <ele>2441</ele>
      </trkpt>
      <trkpt lat="45.6144311" lon="7.5456179">
        <ele>2442</ele>
      </trkpt>
      <trkpt lat="45.6143002" lon="7.5457755">
        <ele>2444</ele>
      </trkpt>
      <trkpt lat="45.6142215" lon="7.5459141">
        <ele>2445</ele>
      </trkpt>
      <trkpt lat="45.6141073" lon="7.5460514">
        <ele>2446</ele>
      </trkpt>
      <trkpt lat="45.6140862" lon="7.5460894">
        <ele>2447</ele>
      </trkpt>
      <trkpt lat="45.6140703" lon="7.5461779">
        <ele>2448</ele>
      </trkpt>
      <trkpt lat="45.6140456" lon="7.5463041">
        <ele>2449</ele>
      </trkpt>
      <trkpt lat="45.6140175" lon="7.5464040">
        <ele>2450</ele>
      </trkpt>
      <trkpt lat="45.6139942" lon="7.5465147">
        <ele>2451</ele>
      </trkpt>
      <trkpt lat="45.6139894" lon="7.5466228">
        <ele>2452</ele>
      </trkpt>
      <trkpt lat="45.6139971" lon="7.5467415">
        <ele>2453</ele>
      </trkpt>
      <trkpt lat="45.6139988" lon="7.5468736">
        <ele>2454</ele>
      </trkpt>
      <trkpt lat="45.6139955" lon="7.5470720">
        <ele>2455</ele>
      </trkpt>
      <trkpt lat="45.6139811" lon="7.5472728">
        <ele>2456</ele>
      </trkpt>
      <trkpt lat="45.6139604" lon="7.5474716">
        <ele>2457</ele>
      </trkpt>
      <trkpt lat="45.6139199" lon="7.5476885">
        <ele>2458</ele>
      </trkpt>
      <trkpt lat="45.6138760" lon="7.5478835">
        <ele>2459</ele>
      </trkpt>
      <trkpt lat="45.6137885" lon="7.5481809">
        <ele>2460</ele>
      </trkpt>
      <trkpt lat="45.6137470" lon="7.5483141">
        <ele>2462</ele>
      </trkpt>
      <trkpt lat="45.6137133" lon="7.5484604">
        <ele>2463</ele>
      </trkpt>
      <trkpt lat="45.6136769" lon="7.5486441">
        <ele>2464</ele>
      </trkpt>
      <trkpt lat="45.6136431" lon="7.5487772">
        <ele>2465</ele>
      </trkpt>
      <trkpt lat="45.6135985" lon="7.5489171">
        <ele>2466</ele>
      </trkpt>
      <trkpt lat="45.6135526" lon="7.5490460">
        <ele>2467</ele>
      </trkpt>
      <trkpt lat="45.6134895" lon="7.5491908">
        <ele>2468</ele>
      </trkpt>
      <trkpt lat="45.6134748" lon="7.5492540">
        <ele>2469</ele>
      </trkpt>
      <trkpt lat="45.6134634" lon="7.5493248">
        <ele>2470</ele>
      </trkpt>
      <trkpt lat="45.6133010" lon="7.5497772">
        <ele>2471</ele>
      </trkpt>
      <trkpt lat="45.6132360" lon="7.5501357">
        <ele>2472</ele>
      </trkpt>
      <trkpt lat="45.6131581" lon="7.5503212">
        <ele>2473</ele>
      </trkpt>
      <trkpt lat="45.6131316" lon="7.5506636">
        <ele>2474</ele>
      </trkpt>
      <trkpt lat="45.6130545" lon="7.5511352">
        <ele>2475</ele>
      </trkpt>
      <trkpt lat="45.6130619" lon="7.5515209">
        <ele>2476</ele>
      </trkpt>
      <trkpt lat="45.6130444" lon="7.5516352">
        <ele>2477</ele>
      </trkpt>
      <trkpt lat="45.6128524" lon="7.5521837">
        <ele>2478</ele>
      </trkpt>
      <trkpt lat="45.6128050" lon="7.5522682">
        <ele>2480</ele>
      </trkpt>
      <trkpt lat="45.6127486" lon="7.5523327">
        <ele>2481</ele>
      </trkpt>
      <trkpt lat="45.6126957" lon="7.5523755">
        <ele>2482</ele>
      </trkpt>
      <trkpt lat="45.6126404" lon="7.5524011">
        <ele>2483</ele>
      </trkpt>
      <trkpt lat="45.6125820" lon="7.5524136">
        <ele>2484</ele>
      </trkpt>
      <trkpt lat="45.6125067" lon="7.5524163">
        <ele>2485</ele>
      </trkpt>
      <trkpt lat="45.6124474" lon="7.5524050">
        <ele>2486</ele>
      </trkpt>
      <trkpt lat="45.6124004" lon="7.5523842">
        <ele>2487</ele>
      </trkpt>
      <trkpt lat="45.6123876" lon="7.5523716">
        <ele>2488</ele>
      </trkpt>
      <trkpt lat="45.6123565" lon="7.5523413">
        <ele>2489</ele>
      </trkpt>
      <trkpt lat="45.6123226" lon="7.5522838">
        <ele>2490</ele>
      </trkpt>
      <trkpt lat="45.6122927" lon="7.5522416">
        <ele>2491</ele>
      </trkpt>
      <trkpt lat="45.6122526" lon="7.5522207">
        <ele>2492</ele>
      </trkpt>
      <trkpt lat="45.6122266" lon="7.5522222">
        <ele>2493</ele>
      </trkpt>
      <trkpt lat="45.6122170" lon="7.5522299">
        <ele>2494</ele>
      </trkpt>
      <trkpt lat="45.6121530" lon="7.5522855">
        <ele>2495</ele>
      </trkpt>
      <trkpt lat="45.6121024" lon="7.5523377">
        <ele>2496</ele>
      </trkpt>
      <trkpt lat="45.6120712" lon="7.5523760">
        <ele>2498</ele>
      </trkpt>
      <trkpt lat="45.6120599" lon="7.5523939">
        <ele>2499</ele>
      </trkpt>
      <trkpt lat="45.6120925" lon="7.5525296">
        <ele>2500</ele>
      </trkpt>
      <trkpt lat="45.6121404" lon="7.5527101">
        <ele>2501</ele>
      </trkpt>
      <trkpt lat="45.6121478" lon="7.5527673">
        <ele>2502</ele>
      </trkpt>
      <trkpt lat="45.6122437" lon="7.5528948">
        <ele>2503</ele>
      </trkpt>
      <trkpt lat="45.6123202" lon="7.5529885">
        <ele>2504</ele>
      </trkpt>
      <trkpt lat="45.6123935" lon="7.5530933">
        <ele>2505</ele>
      </trkpt>
      <trkpt lat="45.6124268" lon="7.5531573">
        <ele>2506</ele>
      </trkpt>
      <trkpt lat="45.6124392" lon="7.5532165">
        <ele>2507</ele>
      </trkpt>
      <trkpt lat="45.6124431" lon="7.5532847">
        <ele>2508</ele>
      </trkpt>
      <trkpt lat="45.6124336" lon="7.5533840">
        <ele>2509</ele>
      </trkpt>
      <trkpt lat="45.6124356" lon="7.5534875">
        <ele>2510</ele>
      </trkpt>
      <trkpt lat="45.6124576" lon="7.5536641">
        <ele>2511</ele>
      </trkpt>
      <trkpt lat="45.6125473" lon="7.5540816">
        <ele>2512</ele>
      </trkpt>
      <trkpt lat="45.6125916" lon="7.5542348">
        <ele>2513</ele>
      </trkpt>
      <trkpt lat="45.6126902" lon="7.5544896">
        <ele>2514</ele>
      </trkpt>
      <trkpt lat="45.6127786" lon="7.5547194">
        <ele>2516</ele>
      </trkpt>
      <trkpt lat="45.6129570" lon="7.5550368">
        <ele>2517</ele>
      </trkpt>
      <trkpt lat="45.6132643" lon="7.5554910">
        <ele>2518</ele>
      </trkpt>
      <trkpt lat="45.6134487" lon="7.5558211">
        <ele>2519</ele>
      </trkpt>
      <trkpt lat="45.6135092" lon="7.5559779">
        <ele>2520</ele>
      </trkpt>
      <trkpt lat="45.6135853" lon="7.5560865">
        <ele>2521</ele>
      </trkpt>
      <trkpt lat="45.6136998" lon="7.5562439">
        <ele>2522</ele>
      </trkpt>
      <trkpt lat="45.6138736" lon="7.5565858">
        <ele>2523</ele>
      </trkpt>
      <trkpt lat="45.6140456" lon="7.5570254">
        <ele>2524</ele>
      </trkpt>
      <trkpt lat="45.6140862" lon="7.5571027">
        <ele>2525</ele>
      </trkpt>
      <trkpt lat="45.6141439" lon="7.5571431">
        <ele>2526</ele>
      </trkpt>
      <trkpt lat="45.6142325" lon="7.5571783">
        <ele>2527</ele>
      </trkpt>
      <trkpt lat="45.6143036" lon="7.5571809">
        <ele>2528</ele>
      </trkpt>
      <trkpt lat="45.6143577" lon="7.5571773">
        <ele>2529</ele>
      </trkpt>
      <trkpt lat="45.6143849" lon="7.5571347">
        <ele>2530</ele>
      </trkpt>
      <trkpt lat="45.6144156" lon="7.5570698">
        <ele>2531</ele>
      </trkpt>
      <trkpt lat="45.6144649" lon="7.5568195">
        <ele>2533</ele>
      </trkpt>
      <trkpt lat="45.6145139" lon="7.5567745">
        <ele>2534</ele>
      </trkpt>
      <trkpt lat="45.6145498" lon="7.5567664">
        <ele>2535</ele>
      </trkpt>
      <trkpt lat="45.6145832" lon="7.5568286">
        <ele>2536</ele>
      </trkpt>
      <trkpt lat="45.6147022" lon="7.5569863">
        <ele>2537</ele>
      </trkpt>
      <trkpt lat="45.6147456" lon="7.5569490">
        <ele>2538</ele>
      </trkpt>
      <trkpt lat="45.6147810" lon="7.5568991">
        <ele>2539</ele>
      </trkpt>
      <trkpt lat="45.6148106" lon="7.5567521">
        <ele>2540</ele>
      </trkpt>
      <trkpt lat="45.6148260" lon="7.5565425">
        <ele>2541</ele>
      </trkpt>
      <trkpt lat="45.6147998" lon="7.5562518">
        <ele>2542</ele>
      </trkpt>
      <trkpt lat="45.6147742" lon="7.5557348">
        <ele>2543</ele>
      </trkpt>
      <trkpt lat="45.6147821" lon="7.5555652">
        <ele>2544</ele>
      </trkpt>
      <trkpt lat="45.6148513" lon="7.5549891">
        <ele>2545</ele>
      </trkpt>
      <trkpt lat="45.6149057" lon="7.5546591">
        <ele>2546</ele>
      </trkpt>
      <trkpt lat="45.6149446" lon="7.5545949">
        <ele>2547</ele>
      </trkpt>
      <trkpt lat="45.6151718" lon="7.5544183">
        <ele>2548</ele>
      </trkpt>
      <trkpt lat="45.6152905" lon="7.5541908">
        <ele>2549</ele>
      </trkpt>
      <trkpt lat="45.6153666" lon="7.5541576">
        <ele>2551</ele>
      </trkpt>
      <trkpt lat="45.6154911" lon="7.5541480">
        <ele>2552</ele>
      </trkpt>
      <trkpt lat="45.6155602" lon="7.5541539">
        <ele>2553</ele>
      </trkpt>
      <trkpt lat="45.6156191" lon="7.5541889">
        <ele>2554</ele>
      </trkpt>
      <trkpt lat="45.6157476" lon="7.5543289">
        <ele>2555</ele>
      </trkpt>
      <trkpt lat="45.6158657" lon="7.5544666">
        <ele>2556</ele>
      </trkpt>
      <trkpt lat="45.6159894" lon="7.5545920">
        <ele>2557</ele>
      </trkpt>
      <trkpt lat="45.6162022" lon="7.5548186">
        <ele>2558</ele>
      </trkpt>
      <trkpt lat="45.6162259" lon="7.5549130">
        <ele>2559</ele>
      </trkpt>
      <trkpt lat="45.6162366" lon="7.5550470">
        <ele>2560</ele>
      </trkpt>
      <trkpt lat="45.6162594" lon="7.5550732">
        <ele>2561</ele>
      </trkpt>
      <trkpt lat="45.6162866" lon="7.5550838">
        <ele>2562</ele>
      </trkpt>
      <trkpt lat="45.6163044" lon="7.5550681">
        <ele>2563</ele>
      </trkpt>
      <trkpt lat="45.6163440" lon="7.5549945">
        <ele>2564</ele>
      </trkpt>
      <trkpt lat="45.6164197" lon="7.5549546">
        <ele>2565</ele>
      </trkpt>
      <trkpt lat="45.6164606" lon="7.5549695">
        <ele>2566</ele>
      </trkpt>
      <trkpt lat="45.6164790" lon="7.5549995">
        <ele>2567</ele>
      </trkpt>
      <trkpt lat="45.6165080" lon="7.5551522">
        <ele>2569</ele>
      </trkpt>
      <trkpt lat="45.6165539" lon="7.5552507">
        <ele>2570</ele>
      </trkpt>
      <trkpt lat="45.6166587" lon="7.5553494">
        <ele>2571</ele>
      </trkpt>
      <trkpt lat="45.6167346" lon="7.5554109">
        <ele>2572</ele>
      </trkpt>
      <trkpt lat="45.6167580" lon="7.5554437">
        <ele>2573</ele>
      </trkpt>
      <trkpt lat="45.6167751" lon="7.5555061">
        <ele>2574</ele>
      </trkpt>
      <trkpt lat="45.6167805" lon="7.5555698">
        <ele>2575</ele>
      </trkpt>
      <trkpt lat="45.6167782" lon="7.5556316">
        <ele>2576</ele>
      </trkpt>
      <trkpt lat="45.6167718" lon="7.5556769">
        <ele>2577</ele>
      </trkpt>
    </trkseg>
  </trk>
</gpx>
