<?xml version="1.0" encoding="UTF-8"?>
<gpx version="1.1" creator="sentieri-vda" xmlns="http://www.topografix.com/GPX/1/1">
  <metadata>
    <name>Fontainemore - Santuario di Oropa (tratto valdostano)</name>
    <desc>Catasto Sentieri VdA — PDS_S4</desc>
    <author><name>Regione Autonoma Valle d'Aosta</name></author>
  </metadata>
  <trk>
    <name>Fontainemore - Santuario di Oropa (tratto valdostano)</name>
    <src>Catasto Sentieri VdA (PDS_S4)</src>
    <trkseg>
      <trkpt lat="45.6405511" lon="7.9398930">
        <ele>765</ele>
      </trkpt>
      <trkpt lat="45.6406181" lon="7.9397110">
        <ele>768</ele>
      </trkpt>
      <trkpt lat="45.6407181" lon="7.9397210">
        <ele>772</ele>
      </trkpt>
      <trkpt lat="45.6407581" lon="7.9396310">
        <ele>775</ele>
      </trkpt>
      <trkpt lat="45.6407481" lon="7.9393910">
        <ele>779</ele>
      </trkpt>
      <trkpt lat="45.6407781" lon="7.9392710">
        <ele>782</ele>
      </trkpt>
      <trkpt lat="45.6407381" lon="7.9390610">
        <ele>786</ele>
      </trkpt>
      <trkpt lat="45.6408381" lon="7.9389510">
        <ele>789</ele>
      </trkpt>
      <trkpt lat="45.6410181" lon="7.9389310">
        <ele>793</ele>
      </trkpt>
      <trkpt lat="45.6409781" lon="7.9388810">
        <ele>796</ele>
      </trkpt>
      <trkpt lat="45.6408781" lon="7.9388410">
        <ele>800</ele>
      </trkpt>
      <trkpt lat="45.6408481" lon="7.9387410">
        <ele>803</ele>
      </trkpt>
      <trkpt lat="45.6408881" lon="7.9386410">
        <ele>807</ele>
      </trkpt>
      <trkpt lat="45.6409981" lon="7.9386010">
        <ele>810</ele>
      </trkpt>
      <trkpt lat="45.6409881" lon="7.9385510">
        <ele>814</ele>
      </trkpt>
      <trkpt lat="45.6410681" lon="7.9384210">
        <ele>817</ele>
      </trkpt>
      <trkpt lat="45.6412881" lon="7.9381910">
        <ele>820</ele>
      </trkpt>
      <trkpt lat="45.6416781" lon="7.9382110">
        <ele>824</ele>
      </trkpt>
      <trkpt lat="45.6418381" lon="7.9382710">
        <ele>827</ele>
      </trkpt>
      <trkpt lat="45.6418681" lon="7.9382210">
        <ele>831</ele>
      </trkpt>
      <trkpt lat="45.6420181" lon="7.9382610">
        <ele>834</ele>
      </trkpt>
      <trkpt lat="45.6421081" lon="7.9381910">
        <ele>838</ele>
      </trkpt>
      <trkpt lat="45.6421681" lon="7.9381010">
        <ele>841</ele>
      </trkpt>
      <trkpt lat="45.6421681" lon="7.9380710">
        <ele>845</ele>
      </trkpt>
      <trkpt lat="45.6421281" lon="7.9380610">
        <ele>848</ele>
      </trkpt>
      <trkpt lat="45.6421781" lon="7.9379610">
        <ele>852</ele>
      </trkpt>
      <trkpt lat="45.6424281" lon="7.9376410">
        <ele>855</ele>
      </trkpt>
      <trkpt lat="45.6426281" lon="7.9376010">
        <ele>859</ele>
      </trkpt>
      <trkpt lat="45.6429181" lon="7.9375910">
        <ele>862</ele>
      </trkpt>
      <trkpt lat="45.6430181" lon="7.9375410">
        <ele>866</ele>
      </trkpt>
      <trkpt lat="45.6429981" lon="7.9374710">
        <ele>869</ele>
      </trkpt>
      <trkpt lat="45.6430881" lon="7.9374310">
        <ele>872</ele>
      </trkpt>
      <trkpt lat="45.6431781" lon="7.9373210">
        <ele>876</ele>
      </trkpt>
      <trkpt lat="45.6434381" lon="7.9371510">
        <ele>879</ele>
      </trkpt>
      <trkpt lat="45.6436781" lon="7.9370710">
        <ele>883</ele>
      </trkpt>
      <trkpt lat="45.6434981" lon="7.9369610">
        <ele>886</ele>
      </trkpt>
      <trkpt lat="45.6436581" lon="7.9368210">
        <ele>890</ele>
      </trkpt>
      <trkpt lat="45.6437281" lon="7.9366910">
        <ele>893</ele>
      </trkpt>
      <trkpt lat="45.6436881" lon="7.9365710">
        <ele>897</ele>
      </trkpt>
      <trkpt lat="45.6435781" lon="7.9366010">
        <ele>900</ele>
      </trkpt>
      <trkpt lat="45.6435881" lon="7.9364910">
        <ele>904</ele>
      </trkpt>
      <trkpt lat="45.6436381" lon="7.9364010">
        <ele>907</ele>
      </trkpt>
      <trkpt lat="45.6436281" lon="7.9363110">
        <ele>911</ele>
      </trkpt>
      <trkpt lat="45.6435481" lon="7.9361810">
        <ele>914</ele>
      </trkpt>
      <trkpt lat="45.6435681" lon="7.9359910">
        <ele>918</ele>
      </trkpt>
      <trkpt lat="45.6437081" lon="7.9356010">
        <ele>921</ele>
      </trkpt>
      <trkpt lat="45.6436981" lon="7.9355210">
        <ele>924</ele>
      </trkpt>
      <trkpt lat="45.6437181" lon="7.9355410">
        <ele>928</ele>
      </trkpt>
      <trkpt lat="45.6437281" lon="7.9354610">
        <ele>931</ele>
      </trkpt>
      <trkpt lat="45.6436881" lon="7.9353810">
        <ele>935</ele>
      </trkpt>
      <trkpt lat="45.6437881" lon="7.9351810">
        <ele>938</ele>
      </trkpt>
      <trkpt lat="45.6438781" lon="7.9350810">
        <ele>942</ele>
      </trkpt>
      <trkpt lat="45.6438881" lon="7.9350210">
        <ele>945</ele>
      </trkpt>
      <trkpt lat="45.6438281" lon="7.9350010">
        <ele>949</ele>
      </trkpt>
      <trkpt lat="45.6438181" lon="7.9348710">
        <ele>952</ele>
      </trkpt>
      <trkpt lat="45.6438681" lon="7.9347710">
        <ele>956</ele>
      </trkpt>
      <trkpt lat="45.6438881" lon="7.9347810">
        <ele>959</ele>
      </trkpt>
      <trkpt lat="45.6440381" lon="7.9344110">
        <ele>963</ele>
      </trkpt>
      <trkpt lat="45.6439981" lon="7.9342510">
        <ele>966</ele>
      </trkpt>
      <trkpt lat="45.6440481" lon="7.9339510">
        <ele>969</ele>
      </trkpt>
      <trkpt lat="45.6441381" lon="7.9337210">
        <ele>973</ele>
      </trkpt>
      <trkpt lat="45.6441781" lon="7.9333110">
        <ele>976</ele>
      </trkpt>
      <trkpt lat="45.6442281" lon="7.9332010">
        <ele>980</ele>
      </trkpt>
      <trkpt lat="45.6442881" lon="7.9331610">
        <ele>983</ele>
      </trkpt>
      <trkpt lat="45.6443581" lon="7.9329410">
        <ele>987</ele>
      </trkpt>
      <trkpt lat="45.6445681" lon="7.9328610">
        <ele>990</ele>
      </trkpt>
      <trkpt lat="45.6446281" lon="7.9327310">
        <ele>994</ele>
      </trkpt>
      <trkpt lat="45.6446281" lon="7.9326310">
        <ele>997</ele>
      </trkpt>
      <trkpt lat="45.6446581" lon="7.9326110">
        <ele>1001</ele>
      </trkpt>
      <trkpt lat="45.6446881" lon="7.9325310">
        <ele>1004</ele>
      </trkpt>
      <trkpt lat="45.6446881" lon="7.9321910">
        <ele>1008</ele>
      </trkpt>
      <trkpt lat="45.6446581" lon="7.9320610">
        <ele>1011</ele>
      </trkpt>
      <trkpt lat="45.6445981" lon="7.9320010">
        <ele>1015</ele>
      </trkpt>
      <trkpt lat="45.6446581" lon="7.9318810">
        <ele>1018</ele>
      </trkpt>
      <trkpt lat="45.6446781" lon="7.9316710">
        <ele>1021</ele>
      </trkpt>
      <trkpt lat="45.6446181" lon="7.9314610">
        <ele>1025</ele>
      </trkpt>
      <trkpt lat="45.6445981" lon="7.9312010">
        <ele>1028</ele>
      </trkpt>
      <trkpt lat="45.6446281" lon="7.9310710">
        <ele>1032</ele>
      </trkpt>
      <trkpt lat="45.6447281" lon="7.9309710">
        <ele>1035</ele>
      </trkpt>
      <trkpt lat="45.6448181" lon="7.9308310">
        <ele>1039</ele>
      </trkpt>
      <trkpt lat="45.6448281" lon="7.9307410">
        <ele>1042</ele>
      </trkpt>
      <trkpt lat="45.6449081" lon="7.9306510">
        <ele>1046</ele>
      </trkpt>
      <trkpt lat="45.6448981" lon="7.9306410">
        <ele>1049</ele>
      </trkpt>
      <trkpt lat="45.6449481" lon="7.9304910">
        <ele>1053</ele>
      </trkpt>
      <trkpt lat="45.6450681" lon="7.9303710">
        <ele>1056</ele>
      </trkpt>
      <trkpt lat="45.6451381" lon="7.9299610">
        <ele>1060</ele>
      </trkpt>
      <trkpt lat="45.6452581" lon="7.9297910">
        <ele>1063</ele>
      </trkpt>
      <trkpt lat="45.6452681" lon="7.9296910">
        <ele>1067</ele>
      </trkpt>
      <trkpt lat="45.6452481" lon="7.9296410">
        <ele>1070</ele>
      </trkpt>
      <trkpt lat="45.6453181" lon="7.9296110">
        <ele>1073</ele>
      </trkpt>
      <trkpt lat="45.6453781" lon="7.9295110">
        <ele>1077</ele>
      </trkpt>
      <trkpt lat="45.6453981" lon="7.9294410">
        <ele>1080</ele>
      </trkpt>
      <trkpt lat="45.6453781" lon="7.9293010">
        <ele>1084</ele>
      </trkpt>
      <trkpt lat="45.6453281" lon="7.9292210">
        <ele>1087</ele>
      </trkpt>
      <trkpt lat="45.6453481" lon="7.9290610">
        <ele>1091</ele>
      </trkpt>
      <trkpt lat="45.6453281" lon="7.9289910">
        <ele>1094</ele>
      </trkpt>
      <trkpt lat="45.6452181" lon="7.9289610">
        <ele>1098</ele>
      </trkpt>
      <trkpt lat="45.6451881" lon="7.9289210">
        <ele>1101</ele>
      </trkpt>
      <trkpt lat="45.6452681" lon="7.9284210">
        <ele>1105</ele>
      </trkpt>
      <trkpt lat="45.6452281" lon="7.9283110">
        <ele>1108</ele>
      </trkpt>
      <trkpt lat="45.6452661" lon="7.9281010">
        <ele>1112</ele>
      </trkpt>
      <trkpt lat="45.6452481" lon="7.9279710">
        <ele>1115</ele>
      </trkpt>
      <trkpt lat="45.6453381" lon="7.9277910">
        <ele>1119</ele>
      </trkpt>
      <trkpt lat="45.6453381" lon="7.9276310">
        <ele>1122</ele>
      </trkpt>
      <trkpt lat="45.6455981" lon="7.9271710">
        <ele>1125</ele>
      </trkpt>
      <trkpt lat="45.6457230" lon="7.9271586">
        <ele>1129</ele>
      </trkpt>
      <trkpt lat="45.6457681" lon="7.9270845">
        <ele>1132</ele>
      </trkpt>
      <trkpt lat="45.6457349" lon="7.9270697">
        <ele>1136</ele>
      </trkpt>
      <trkpt lat="45.6457206" lon="7.9270442">
        <ele>1139</ele>
      </trkpt>
      <trkpt lat="45.6457471" lon="7.9270025">
        <ele>1143</ele>
      </trkpt>
      <trkpt lat="45.6457172" lon="7.9269606">
        <ele>1146</ele>
      </trkpt>
      <trkpt lat="45.6458586" lon="7.9269047">
        <ele>1150</ele>
      </trkpt>
      <trkpt lat="45.6457919" lon="7.9268496">
        <ele>1153</ele>
      </trkpt>
      <trkpt lat="45.6457222" lon="7.9268227">
        <ele>1157</ele>
      </trkpt>
      <trkpt lat="45.6457574" lon="7.9267664">
        <ele>1160</ele>
      </trkpt>
      <trkpt lat="45.6457019" lon="7.9267397">
        <ele>1164</ele>
      </trkpt>
      <trkpt lat="45.6457164" lon="7.9266941">
        <ele>1167</ele>
      </trkpt>
      <trkpt lat="45.6456781" lon="7.9266310">
        <ele>1171</ele>
      </trkpt>
      <trkpt lat="45.6457281" lon="7.9264410">
        <ele>1174</ele>
      </trkpt>
      <trkpt lat="45.6456681" lon="7.9262810">
        <ele>1177</ele>
      </trkpt>
      <trkpt lat="45.6456981" lon="7.9256510">
        <ele>1181</ele>
      </trkpt>
      <trkpt lat="45.6462081" lon="7.9252210">
        <ele>1184</ele>
      </trkpt>
      <trkpt lat="45.6465181" lon="7.9248510">
        <ele>1188</ele>
      </trkpt>
      <trkpt lat="45.6465381" lon="7.9247210">
        <ele>1191</ele>
      </trkpt>
      <trkpt lat="45.6464581" lon="7.9245810">
        <ele>1195</ele>
      </trkpt>
      <trkpt lat="45.6465081" lon="7.9243910">
        <ele>1198</ele>
      </trkpt>
      <trkpt lat="45.6464181" lon="7.9238110">
        <ele>1202</ele>
      </trkpt>
      <trkpt lat="45.6465181" lon="7.9235010">
        <ele>1205</ele>
      </trkpt>
      <trkpt lat="45.6470081" lon="7.9228510">
        <ele>1209</ele>
      </trkpt>
      <trkpt lat="45.6470841" lon="7.9224200">
        <ele>1212</ele>
      </trkpt>
      <trkpt lat="45.6471814" lon="7.9219318">
        <ele>1216</ele>
      </trkpt>
      <trkpt lat="45.6470917" lon="7.9215191">
        <ele>1219</ele>
      </trkpt>
      <trkpt lat="45.6470904" lon="7.9213765">
        <ele>1223</ele>
      </trkpt>
      <trkpt lat="45.6470681" lon="7.9210210">
        <ele>1226</ele>
      </trkpt>
      <trkpt lat="45.6470181" lon="7.9208510">
        <ele>1229</ele>
      </trkpt>
      <trkpt lat="45.6469837" lon="7.9206739">
        <ele>1233</ele>
      </trkpt>
      <trkpt lat="45.6469591" lon="7.9205740">
        <ele>1236</ele>
      </trkpt>
      <trkpt lat="45.6469181" lon="7.9203410">
        <ele>1240</ele>
      </trkpt>
      <trkpt lat="45.6470981" lon="7.9199110">
        <ele>1243</ele>
      </trkpt>
      <trkpt lat="45.6470981" lon="7.9196910">
        <ele>1247</ele>
      </trkpt>
      <trkpt lat="45.6472766" lon="7.9196770">
        <ele>1250</ele>
      </trkpt>
      <trkpt lat="45.6472181" lon="7.9194810">
        <ele>1254</ele>
      </trkpt>
      <trkpt lat="45.6473381" lon="7.9194610">
        <ele>1257</ele>
      </trkpt>
      <trkpt lat="45.6473381" lon="7.9193810">
        <ele>1261</ele>
      </trkpt>
      <trkpt lat="45.6474281" lon="7.9194410">
        <ele>1264</ele>
      </trkpt>
      <trkpt lat="45.6475681" lon="7.9194210">
        <ele>1268</ele>
      </trkpt>
      <trkpt lat="45.6477581" lon="7.9192810">
        <ele>1271</ele>
      </trkpt>
      <trkpt lat="45.6481781" lon="7.9188410">
        <ele>1275</ele>
      </trkpt>
      <trkpt lat="45.6484166" lon="7.9181785">
        <ele>1278</ele>
      </trkpt>
      <trkpt lat="45.6485098" lon="7.9181508">
        <ele>1281</ele>
      </trkpt>
      <trkpt lat="45.6485775" lon="7.9180217">
        <ele>1285</ele>
      </trkpt>
      <trkpt lat="45.6487072" lon="7.9180044">
        <ele>1288</ele>
      </trkpt>
      <trkpt lat="45.6491253" lon="7.9176633">
        <ele>1292</ele>
      </trkpt>
      <trkpt lat="45.6496381" lon="7.9171810">
        <ele>1295</ele>
      </trkpt>
      <trkpt lat="45.6500581" lon="7.9165520">
        <ele>1299</ele>
      </trkpt>
      <trkpt lat="45.6503081" lon="7.9159220">
        <ele>1302</ele>
      </trkpt>
      <trkpt lat="45.6503281" lon="7.9155920">
        <ele>1306</ele>
      </trkpt>
      <trkpt lat="45.6505181" lon="7.9151920">
        <ele>1309</ele>
      </trkpt>
      <trkpt lat="45.6505586" lon="7.9150196">
        <ele>1313</ele>
      </trkpt>
      <trkpt lat="45.6505759" lon="7.9148513">
        <ele>1316</ele>
      </trkpt>
      <trkpt lat="45.6505772" lon="7.9146633">
        <ele>1320</ele>
      </trkpt>
      <trkpt lat="45.6506281" lon="7.9144048">
        <ele>1323</ele>
      </trkpt>
      <trkpt lat="45.6506516" lon="7.9142253">
        <ele>1326</ele>
      </trkpt>
      <trkpt lat="45.6507122" lon="7.9139936">
        <ele>1330</ele>
      </trkpt>
      <trkpt lat="45.6507381" lon="7.9137446">
        <ele>1333</ele>
      </trkpt>
      <trkpt lat="45.6508045" lon="7.9136433">
        <ele>1337</ele>
      </trkpt>
      <trkpt lat="45.6508927" lon="7.9134500">
        <ele>1340</ele>
      </trkpt>
      <trkpt lat="45.6508539" lon="7.9133747">
        <ele>1344</ele>
      </trkpt>
      <trkpt lat="45.6509164" lon="7.9133268">
        <ele>1347</ele>
      </trkpt>
      <trkpt lat="45.6509363" lon="7.9132827">
        <ele>1351</ele>
      </trkpt>
      <trkpt lat="45.6508393" lon="7.9132327">
        <ele>1354</ele>
      </trkpt>
      <trkpt lat="45.6508544" lon="7.9132045">
        <ele>1358</ele>
      </trkpt>
      <trkpt lat="45.6508290" lon="7.9131782">
        <ele>1361</ele>
      </trkpt>
      <trkpt lat="45.6505522" lon="7.9130797">
        <ele>1365</ele>
      </trkpt>
      <trkpt lat="45.6505466" lon="7.9130669">
        <ele>1368</ele>
      </trkpt>
      <trkpt lat="45.6505714" lon="7.9130413">
        <ele>1372</ele>
      </trkpt>
      <trkpt lat="45.6505620" lon="7.9129927">
        <ele>1375</ele>
      </trkpt>
      <trkpt lat="45.6505728" lon="7.9129274">
        <ele>1378</ele>
      </trkpt>
      <trkpt lat="45.6504823" lon="7.9128544">
        <ele>1382</ele>
      </trkpt>
      <trkpt lat="45.6504807" lon="7.9128205">
        <ele>1385</ele>
      </trkpt>
      <trkpt lat="45.6504480" lon="7.9127873">
        <ele>1389</ele>
      </trkpt>
      <trkpt lat="45.6504069" lon="7.9127877">
        <ele>1392</ele>
      </trkpt>
      <trkpt lat="45.6502640" lon="7.9127171">
        <ele>1396</ele>
      </trkpt>
      <trkpt lat="45.6500840" lon="7.9126985">
        <ele>1399</ele>
      </trkpt>
      <trkpt lat="45.6500240" lon="7.9127114">
        <ele>1403</ele>
      </trkpt>
      <trkpt lat="45.6499935" lon="7.9125516">
        <ele>1406</ele>
      </trkpt>
      <trkpt lat="45.6499358" lon="7.9124244">
        <ele>1410</ele>
      </trkpt>
      <trkpt lat="45.6499462" lon="7.9123370">
        <ele>1413</ele>
      </trkpt>
      <trkpt lat="45.6499764" lon="7.9122882">
        <ele>1417</ele>
      </trkpt>
      <trkpt lat="45.6500755" lon="7.9122039">
        <ele>1420</ele>
      </trkpt>
      <trkpt lat="45.6500781" lon="7.9121796">
        <ele>1424</ele>
      </trkpt>
      <trkpt lat="45.6500251" lon="7.9121435">
        <ele>1427</ele>
      </trkpt>
      <trkpt lat="45.6500299" lon="7.9121275">
        <ele>1430</ele>
      </trkpt>
      <trkpt lat="45.6500663" lon="7.9121273">
        <ele>1434</ele>
      </trkpt>
      <trkpt lat="45.6500348" lon="7.9120788">
        <ele>1437</ele>
      </trkpt>
      <trkpt lat="45.6499436" lon="7.9120461">
        <ele>1441</ele>
      </trkpt>
      <trkpt lat="45.6499043" lon="7.9120085">
        <ele>1444</ele>
      </trkpt>
      <trkpt lat="45.6496725" lon="7.9119216">
        <ele>1448</ele>
      </trkpt>
      <trkpt lat="45.6495749" lon="7.9118639">
        <ele>1451</ele>
      </trkpt>
      <trkpt lat="45.6495684" lon="7.9117985">
        <ele>1455</ele>
      </trkpt>
      <trkpt lat="45.6495344" lon="7.9118022">
        <ele>1458</ele>
      </trkpt>
      <trkpt lat="45.6495196" lon="7.9117273">
        <ele>1462</ele>
      </trkpt>
      <trkpt lat="45.6495811" lon="7.9115500">
        <ele>1465</ele>
      </trkpt>
      <trkpt lat="45.6495772" lon="7.9115252">
        <ele>1469</ele>
      </trkpt>
      <trkpt lat="45.6497481" lon="7.9113548">
        <ele>1472</ele>
      </trkpt>
      <trkpt lat="45.6498601" lon="7.9113021">
        <ele>1476</ele>
      </trkpt>
      <trkpt lat="45.6500944" lon="7.9113276">
        <ele>1479</ele>
      </trkpt>
      <trkpt lat="45.6502619" lon="7.9114319">
        <ele>1482</ele>
      </trkpt>
      <trkpt lat="45.6504150" lon="7.9114494">
        <ele>1486</ele>
      </trkpt>
      <trkpt lat="45.6505273" lon="7.9114187">
        <ele>1489</ele>
      </trkpt>
      <trkpt lat="45.6508945" lon="7.9112283">
        <ele>1493</ele>
      </trkpt>
      <trkpt lat="45.6510327" lon="7.9110981">
        <ele>1496</ele>
      </trkpt>
      <trkpt lat="45.6510701" lon="7.9110014">
        <ele>1500</ele>
      </trkpt>
      <trkpt lat="45.6510659" lon="7.9109583">
        <ele>1503</ele>
      </trkpt>
      <trkpt lat="45.6510254" lon="7.9109145">
        <ele>1507</ele>
      </trkpt>
      <trkpt lat="45.6508345" lon="7.9109335">
        <ele>1510</ele>
      </trkpt>
      <trkpt lat="45.6508221" lon="7.9109018">
        <ele>1514</ele>
      </trkpt>
      <trkpt lat="45.6509393" lon="7.9102609">
        <ele>1517</ele>
      </trkpt>
      <trkpt lat="45.6509645" lon="7.9096083">
        <ele>1521</ele>
      </trkpt>
      <trkpt lat="45.6509995" lon="7.9094422">
        <ele>1524</ele>
      </trkpt>
      <trkpt lat="45.6510000" lon="7.9093746">
        <ele>1528</ele>
      </trkpt>
      <trkpt lat="45.6508420" lon="7.9091129">
        <ele>1531</ele>
      </trkpt>
      <trkpt lat="45.6508234" lon="7.9090633">
        <ele>1534</ele>
      </trkpt>
      <trkpt lat="45.6508229" lon="7.9090068">
        <ele>1538</ele>
      </trkpt>
      <trkpt lat="45.6510829" lon="7.9083379">
        <ele>1541</ele>
      </trkpt>
      <trkpt lat="45.6511830" lon="7.9079770">
        <ele>1545</ele>
      </trkpt>
      <trkpt lat="45.6512189" lon="7.9077250">
        <ele>1548</ele>
      </trkpt>
      <trkpt lat="45.6512148" lon="7.9076006">
        <ele>1552</ele>
      </trkpt>
      <trkpt lat="45.6511834" lon="7.9074628">
        <ele>1555</ele>
      </trkpt>
      <trkpt lat="45.6512203" lon="7.9071619">
        <ele>1559</ele>
      </trkpt>
      <trkpt lat="45.6512141" lon="7.9070018">
        <ele>1562</ele>
      </trkpt>
      <trkpt lat="45.6511768" lon="7.9067610">
        <ele>1566</ele>
      </trkpt>
      <trkpt lat="45.6511870" lon="7.9066114">
        <ele>1569</ele>
      </trkpt>
      <trkpt lat="45.6512168" lon="7.9064821">
        <ele>1573</ele>
      </trkpt>
      <trkpt lat="45.6512712" lon="7.9063851">
        <ele>1576</ele>
      </trkpt>
      <trkpt lat="45.6513787" lon="7.9063232">
        <ele>1580</ele>
      </trkpt>
      <trkpt lat="45.6514496" lon="7.9062108">
        <ele>1583</ele>
      </trkpt>
      <trkpt lat="45.6516072" lon="7.9057545">
        <ele>1586</ele>
      </trkpt>
      <trkpt lat="45.6517334" lon="7.9052993">
        <ele>1590</ele>
      </trkpt>
      <trkpt lat="45.6517614" lon="7.9044693">
        <ele>1593</ele>
      </trkpt>
      <trkpt lat="45.6517956" lon="7.9042806">
        <ele>1597</ele>
      </trkpt>
      <trkpt lat="45.6520906" lon="7.9037351">
        <ele>1600</ele>
      </trkpt>
      <trkpt lat="45.6521364" lon="7.9036840">
        <ele>1604</ele>
      </trkpt>
      <trkpt lat="45.6521681" lon="7.9037006">
        <ele>1607</ele>
      </trkpt>
      <trkpt lat="45.6521821" lon="7.9037516">
        <ele>1611</ele>
      </trkpt>
      <trkpt lat="45.6521412" lon="7.9040774">
        <ele>1614</ele>
      </trkpt>
      <trkpt lat="45.6521551" lon="7.9042222">
        <ele>1618</ele>
      </trkpt>
      <trkpt lat="45.6522254" lon="7.9043233">
        <ele>1621</ele>
      </trkpt>
      <trkpt lat="45.6523317" lon="7.9043884">
        <ele>1625</ele>
      </trkpt>
      <trkpt lat="45.6524019" lon="7.9043947">
        <ele>1628</ele>
      </trkpt>
      <trkpt lat="45.6524171" lon="7.9043282">
        <ele>1632</ele>
      </trkpt>
      <trkpt lat="45.6524242" lon="7.9041315">
        <ele>1635</ele>
      </trkpt>
      <trkpt lat="45.6525706" lon="7.9034365">
        <ele>1638</ele>
      </trkpt>
      <trkpt lat="45.6526200" lon="7.9034267">
        <ele>1642</ele>
      </trkpt>
      <trkpt lat="45.6526567" lon="7.9035030">
        <ele>1645</ele>
      </trkpt>
      <trkpt lat="45.6526575" lon="7.9035884">
        <ele>1649</ele>
      </trkpt>
      <trkpt lat="45.6526877" lon="7.9037173">
        <ele>1652</ele>
      </trkpt>
      <trkpt lat="45.6527207" lon="7.9037838">
        <ele>1656</ele>
      </trkpt>
      <trkpt lat="45.6527738" lon="7.9037982">
        <ele>1659</ele>
      </trkpt>
      <trkpt lat="45.6528027" lon="7.9037054">
        <ele>1663</ele>
      </trkpt>
      <trkpt lat="45.6528405" lon="7.9034312">
        <ele>1666</ele>
      </trkpt>
      <trkpt lat="45.6528761" lon="7.9033876">
        <ele>1670</ele>
      </trkpt>
      <trkpt lat="45.6529257" lon="7.9033950">
        <ele>1673</ele>
      </trkpt>
      <trkpt lat="45.6530177" lon="7.9035986">
        <ele>1677</ele>
      </trkpt>
      <trkpt lat="45.6530496" lon="7.9036409">
        <ele>1680</ele>
      </trkpt>
      <trkpt lat="45.6530901" lon="7.9036401">
        <ele>1684</ele>
      </trkpt>
      <trkpt lat="45.6531256" lon="7.9035881">
        <ele>1687</ele>
      </trkpt>
      <trkpt lat="45.6532618" lon="7.9032433">
        <ele>1690</ele>
      </trkpt>
      <trkpt lat="45.6533878" lon="7.9032492">
        <ele>1694</ele>
      </trkpt>
      <trkpt lat="45.6534830" lon="7.9033160">
        <ele>1697</ele>
      </trkpt>
      <trkpt lat="45.6535597" lon="7.9033401">
        <ele>1701</ele>
      </trkpt>
      <trkpt lat="45.6535909" lon="7.9033054">
        <ele>1704</ele>
      </trkpt>
      <trkpt lat="45.6534988" lon="7.9026230">
        <ele>1708</ele>
      </trkpt>
      <trkpt lat="45.6535103" lon="7.9024090">
        <ele>1711</ele>
      </trkpt>
      <trkpt lat="45.6535743" lon="7.9020488">
        <ele>1715</ele>
      </trkpt>
      <trkpt lat="45.6537130" lon="7.9014990">
        <ele>1718</ele>
      </trkpt>
      <trkpt lat="45.6537009" lon="7.9011744">
        <ele>1722</ele>
      </trkpt>
      <trkpt lat="45.6537793" lon="7.9009078">
        <ele>1725</ele>
      </trkpt>
      <trkpt lat="45.6538585" lon="7.9007097">
        <ele>1729</ele>
      </trkpt>
      <trkpt lat="45.6539312" lon="7.9003236">
        <ele>1732</ele>
      </trkpt>
      <trkpt lat="45.6541106" lon="7.8983881">
        <ele>1735</ele>
      </trkpt>
      <trkpt lat="45.6542027" lon="7.8978696">
        <ele>1739</ele>
      </trkpt>
      <trkpt lat="45.6542549" lon="7.8974877">
        <ele>1742</ele>
      </trkpt>
      <trkpt lat="45.6542527" lon="7.8972567">
        <ele>1746</ele>
      </trkpt>
      <trkpt lat="45.6541190" lon="7.8964644">
        <ele>1749</ele>
      </trkpt>
      <trkpt lat="45.6539632" lon="7.8961683">
        <ele>1753</ele>
      </trkpt>
      <trkpt lat="45.6534806" lon="7.8950339">
        <ele>1756</ele>
      </trkpt>
      <trkpt lat="45.6534014" lon="7.8948542">
        <ele>1760</ele>
      </trkpt>
      <trkpt lat="45.6533685" lon="7.8947092">
        <ele>1763</ele>
      </trkpt>
      <trkpt lat="45.6533814" lon="7.8946492">
        <ele>1767</ele>
      </trkpt>
      <trkpt lat="45.6535184" lon="7.8943902">
        <ele>1770</ele>
      </trkpt>
      <trkpt lat="45.6535611" lon="7.8941500">
        <ele>1774</ele>
      </trkpt>
      <trkpt lat="45.6536049" lon="7.8935591">
        <ele>1777</ele>
      </trkpt>
      <trkpt lat="45.6535262" lon="7.8928684">
        <ele>1781</ele>
      </trkpt>
      <trkpt lat="45.6535171" lon="7.8923981">
        <ele>1784</ele>
      </trkpt>
      <trkpt lat="45.6534515" lon="7.8921259">
        <ele>1787</ele>
      </trkpt>
      <trkpt lat="45.6534034" lon="7.8918108">
        <ele>1791</ele>
      </trkpt>
      <trkpt lat="45.6533894" lon="7.8912893">
        <ele>1794</ele>
      </trkpt>
      <trkpt lat="45.6534693" lon="7.8907150">
        <ele>1798</ele>
      </trkpt>
      <trkpt lat="45.6534671" lon="7.8904928">
        <ele>1801</ele>
      </trkpt>
      <trkpt lat="45.6534132" lon="7.8900323">
        <ele>1805</ele>
      </trkpt>
      <trkpt lat="45.6533993" lon="7.8895280">
        <ele>1808</ele>
      </trkpt>
      <trkpt lat="45.6533238" lon="7.8891705">
        <ele>1812</ele>
      </trkpt>
      <trkpt lat="45.6531943" lon="7.8888141">
        <ele>1815</ele>
      </trkpt>
      <trkpt lat="45.6531473" lon="7.8886097">
        <ele>1819</ele>
      </trkpt>
      <trkpt lat="45.6531397" lon="7.8882850">
        <ele>1822</ele>
      </trkpt>
      <trkpt lat="45.6531764" lon="7.8874336">
        <ele>1826</ele>
      </trkpt>
      <trkpt lat="45.6532054" lon="7.8871812">
        <ele>1829</ele>
      </trkpt>
      <trkpt lat="45.6532101" lon="7.8867363">
        <ele>1833</ele>
      </trkpt>
      <trkpt lat="45.6531908" lon="7.8861471">
        <ele>1836</ele>
      </trkpt>
      <trkpt lat="45.6531201" lon="7.8858148">
        <ele>1839</ele>
      </trkpt>
      <trkpt lat="45.6528638" lon="7.8854064">
        <ele>1843</ele>
      </trkpt>
      <trkpt lat="45.6528632" lon="7.8853158">
        <ele>1846</ele>
      </trkpt>
      <trkpt lat="45.6529283" lon="7.8850666">
        <ele>1850</ele>
      </trkpt>
      <trkpt lat="45.6529317" lon="7.8849906">
        <ele>1853</ele>
      </trkpt>
      <trkpt lat="45.6528535" lon="7.8847773">
        <ele>1857</ele>
      </trkpt>
      <trkpt lat="45.6528483" lon="7.8847089">
        <ele>1860</ele>
      </trkpt>
      <trkpt lat="45.6528693" lon="7.8845548">
        <ele>1864</ele>
      </trkpt>
      <trkpt lat="45.6526973" lon="7.8839940">
        <ele>1867</ele>
      </trkpt>
      <trkpt lat="45.6526642" lon="7.8838322">
        <ele>1871</ele>
      </trkpt>
      <trkpt lat="45.6526171" lon="7.8837464">
        <ele>1874</ele>
      </trkpt>
      <trkpt lat="45.6525366" lon="7.8837194">
        <ele>1878</ele>
      </trkpt>
      <trkpt lat="45.6522712" lon="7.8835006">
        <ele>1881</ele>
      </trkpt>
      <trkpt lat="45.6518280" lon="7.8832997">
        <ele>1885</ele>
      </trkpt>
      <trkpt lat="45.6515664" lon="7.8830950">
        <ele>1888</ele>
      </trkpt>
      <trkpt lat="45.6511927" lon="7.8829601">
        <ele>1891</ele>
      </trkpt>
      <trkpt lat="45.6509179" lon="7.8828923">
        <ele>1895</ele>
      </trkpt>
      <trkpt lat="45.6508452" lon="7.8828168">
        <ele>1898</ele>
      </trkpt>
      <trkpt lat="45.6508129" lon="7.8827138">
        <ele>1902</ele>
      </trkpt>
      <trkpt lat="45.6508108" lon="7.8824913">
        <ele>1905</ele>
      </trkpt>
      <trkpt lat="45.6505629" lon="7.8820754">
        <ele>1909</ele>
      </trkpt>
      <trkpt lat="45.6505124" lon="7.8817986">
        <ele>1912</ele>
      </trkpt>
      <trkpt lat="45.6504021" lon="7.8805309">
        <ele>1916</ele>
      </trkpt>
      <trkpt lat="45.6505423" lon="7.8795364">
        <ele>1919</ele>
      </trkpt>
      <trkpt lat="45.6505000" lon="7.8788232">
        <ele>1923</ele>
      </trkpt>
      <trkpt lat="45.6505195" lon="7.8783374">
        <ele>1926</ele>
      </trkpt>
      <trkpt lat="45.6504120" lon="7.8777513">
        <ele>1930</ele>
      </trkpt>
      <trkpt lat="45.6503339" lon="7.8772051">
        <ele>1933</ele>
      </trkpt>
      <trkpt lat="45.6502819" lon="7.8769851">
        <ele>1937</ele>
      </trkpt>
      <trkpt lat="45.6501490" lon="7.8768173">
        <ele>1940</ele>
      </trkpt>
      <trkpt lat="45.6499782" lon="7.8767085">
        <ele>1943</ele>
      </trkpt>
      <trkpt lat="45.6497642" lon="7.8764235">
        <ele>1947</ele>
      </trkpt>
      <trkpt lat="45.6496567" lon="7.8763603">
        <ele>1950</ele>
      </trkpt>
      <trkpt lat="45.6495353" lon="7.8763628">
        <ele>1954</ele>
      </trkpt>
      <trkpt lat="45.6494323" lon="7.8764178">
        <ele>1957</ele>
      </trkpt>
      <trkpt lat="45.6493377" lon="7.8764132">
        <ele>1961</ele>
      </trkpt>
      <trkpt lat="45.6491062" lon="7.8762125">
        <ele>1964</ele>
      </trkpt>
      <trkpt lat="45.6489707" lon="7.8761623">
        <ele>1968</ele>
      </trkpt>
      <trkpt lat="45.6487391" lon="7.8759720">
        <ele>1971</ele>
      </trkpt>
      <trkpt lat="45.6486965" lon="7.8759560">
        <ele>1975</ele>
      </trkpt>
      <trkpt lat="45.6486591" lon="7.8759420">
        <ele>1978</ele>
      </trkpt>
      <trkpt lat="45.6485991" lon="7.8758020">
        <ele>1982</ele>
      </trkpt>
      <trkpt lat="45.6484091" lon="7.8756220">
        <ele>1985</ele>
      </trkpt>
      <trkpt lat="45.6483891" lon="7.8752720">
        <ele>1989</ele>
      </trkpt>
      <trkpt lat="45.6484691" lon="7.8745273">
        <ele>1992</ele>
      </trkpt>
      <trkpt lat="45.6485051" lon="7.8743972">
        <ele>1995</ele>
      </trkpt>
      <trkpt lat="45.6485239" lon="7.8741989">
        <ele>1999</ele>
      </trkpt>
      <trkpt lat="45.6485251" lon="7.8739330">
        <ele>2002</ele>
      </trkpt>
      <trkpt lat="45.6487391" lon="7.8737750">
        <ele>2006</ele>
      </trkpt>
      <trkpt lat="45.6488091" lon="7.8735520">
        <ele>2009</ele>
      </trkpt>
      <trkpt lat="45.6487091" lon="7.8732820">
        <ele>2013</ele>
      </trkpt>
      <trkpt lat="45.6487355" lon="7.8731344">
        <ele>2016</ele>
      </trkpt>
      <trkpt lat="45.6487696" lon="7.8730401">
        <ele>2020</ele>
      </trkpt>
      <trkpt lat="45.6488063" lon="7.8729167">
        <ele>2023</ele>
      </trkpt>
      <trkpt lat="45.6487883" lon="7.8727165">
        <ele>2027</ele>
      </trkpt>
      <trkpt lat="45.6487515" lon="7.8725343">
        <ele>2030</ele>
      </trkpt>
      <trkpt lat="45.6487611" lon="7.8722720">
        <ele>2034</ele>
      </trkpt>
      <trkpt lat="45.6487905" lon="7.8719044">
        <ele>2037</ele>
      </trkpt>
      <trkpt lat="45.6491605" lon="7.8712554">
        <ele>2041</ele>
      </trkpt>
      <trkpt lat="45.6492277" lon="7.8709700">
        <ele>2044</ele>
      </trkpt>
      <trkpt lat="45.6492609" lon="7.8708671">
        <ele>2047</ele>
      </trkpt>
      <trkpt lat="45.6493805" lon="7.8704454">
        <ele>2051</ele>
      </trkpt>
      <trkpt lat="45.6491605" lon="7.8702954">
        <ele>2054</ele>
      </trkpt>
      <trkpt lat="45.6496705" lon="7.8701554">
        <ele>2058</ele>
      </trkpt>
      <trkpt lat="45.6498195" lon="7.8699374">
        <ele>2061</ele>
      </trkpt>
      <trkpt lat="45.6496405" lon="7.8696254">
        <ele>2065</ele>
      </trkpt>
      <trkpt lat="45.6498605" lon="7.8694754">
        <ele>2068</ele>
      </trkpt>
      <trkpt lat="45.6497605" lon="7.8694454">
        <ele>2072</ele>
      </trkpt>
      <trkpt lat="45.6498405" lon="7.8693254">
        <ele>2075</ele>
      </trkpt>
      <trkpt lat="45.6498260" lon="7.8692673">
        <ele>2079</ele>
      </trkpt>
      <trkpt lat="45.6498105" lon="7.8692054">
        <ele>2082</ele>
      </trkpt>
      <trkpt lat="45.6497405" lon="7.8692454">
        <ele>2086</ele>
      </trkpt>
      <trkpt lat="45.6497805" lon="7.8690954">
        <ele>2089</ele>
      </trkpt>
      <trkpt lat="45.6497205" lon="7.8690254">
        <ele>2092</ele>
      </trkpt>
      <trkpt lat="45.6499205" lon="7.8688454">
        <ele>2096</ele>
      </trkpt>
      <trkpt lat="45.6498205" lon="7.8687854">
        <ele>2099</ele>
      </trkpt>
      <trkpt lat="45.6497805" lon="7.8685254">
        <ele>2103</ele>
      </trkpt>
      <trkpt lat="45.6498905" lon="7.8682554">
        <ele>2106</ele>
      </trkpt>
      <trkpt lat="45.6498005" lon="7.8679254">
        <ele>2110</ele>
      </trkpt>
      <trkpt lat="45.6499305" lon="7.8679654">
        <ele>2113</ele>
      </trkpt>
      <trkpt lat="45.6505705" lon="7.8676754">
        <ele>2117</ele>
      </trkpt>
      <trkpt lat="45.6508905" lon="7.8672954">
        <ele>2120</ele>
      </trkpt>
      <trkpt lat="45.6511805" lon="7.8672054">
        <ele>2124</ele>
      </trkpt>
      <trkpt lat="45.6512905" lon="7.8670854">
        <ele>2127</ele>
      </trkpt>
      <trkpt lat="45.6516605" lon="7.8670454">
        <ele>2131</ele>
      </trkpt>
      <trkpt lat="45.6516605" lon="7.8668354">
        <ele>2134</ele>
      </trkpt>
      <trkpt lat="45.6517405" lon="7.8668754">
        <ele>2138</ele>
      </trkpt>
      <trkpt lat="45.6516905" lon="7.8667054">
        <ele>2141</ele>
      </trkpt>
      <trkpt lat="45.6520505" lon="7.8663054">
        <ele>2144</ele>
      </trkpt>
      <trkpt lat="45.6522091" lon="7.8663330">
        <ele>2148</ele>
      </trkpt>
      <trkpt lat="45.6520791" lon="7.8661530">
        <ele>2151</ele>
      </trkpt>
      <trkpt lat="45.6520791" lon="7.8657830">
        <ele>2155</ele>
      </trkpt>
      <trkpt lat="45.6517651" lon="7.8652557">
        <ele>2158</ele>
      </trkpt>
      <trkpt lat="45.6517708" lon="7.8651848">
        <ele>2162</ele>
      </trkpt>
      <trkpt lat="45.6516733" lon="7.8651177">
        <ele>2165</ele>
      </trkpt>
      <trkpt lat="45.6515639" lon="7.8650768">
        <ele>2169</ele>
      </trkpt>
      <trkpt lat="45.6513608" lon="7.8648548">
        <ele>2172</ele>
      </trkpt>
      <trkpt lat="45.6512091" lon="7.8646630">
        <ele>2176</ele>
      </trkpt>
      <trkpt lat="45.6510691" lon="7.8641030">
        <ele>2179</ele>
      </trkpt>
      <trkpt lat="45.6509891" lon="7.8641730">
        <ele>2183</ele>
      </trkpt>
      <trkpt lat="45.6509391" lon="7.8644530">
        <ele>2186</ele>
      </trkpt>
      <trkpt lat="45.6506891" lon="7.8645530">
        <ele>2190</ele>
      </trkpt>
      <trkpt lat="45.6503691" lon="7.8644930">
        <ele>2193</ele>
      </trkpt>
      <trkpt lat="45.6501891" lon="7.8641830">
        <ele>2196</ele>
      </trkpt>
      <trkpt lat="45.6496491" lon="7.8641230">
        <ele>2200</ele>
      </trkpt>
      <trkpt lat="45.6493591" lon="7.8639330">
        <ele>2203</ele>
      </trkpt>
      <trkpt lat="45.6492991" lon="7.8637630">
        <ele>2207</ele>
      </trkpt>
      <trkpt lat="45.6493991" lon="7.8633330">
        <ele>2210</ele>
      </trkpt>
      <trkpt lat="45.6492791" lon="7.8631430">
        <ele>2214</ele>
      </trkpt>
      <trkpt lat="45.6493791" lon="7.8630330">
        <ele>2217</ele>
      </trkpt>
      <trkpt lat="45.6491891" lon="7.8631130">
        <ele>2221</ele>
      </trkpt>
      <trkpt lat="45.6490991" lon="7.8630430">
        <ele>2224</ele>
      </trkpt>
      <trkpt lat="45.6489795" lon="7.8625912">
        <ele>2228</ele>
      </trkpt>
      <trkpt lat="45.6487791" lon="7.8621830">
        <ele>2231</ele>
      </trkpt>
      <trkpt lat="45.6487143" lon="7.8620207">
        <ele>2235</ele>
      </trkpt>
      <trkpt lat="45.6485791" lon="7.8617630">
        <ele>2238</ele>
      </trkpt>
      <trkpt lat="45.6483510" lon="7.8610389">
        <ele>2242</ele>
      </trkpt>
      <trkpt lat="45.6483479" lon="7.8608847">
        <ele>2245</ele>
      </trkpt>
    </trkseg>
  </trk>
</gpx>
