<?xml version="1.0" encoding="UTF-8"?>
<!-- track-length = 14105 filtered ascend = 478 plain-ascend = -873 cost=141969 energy=.1kwh time=1h 24m 51s -->
<gpx 
 xmlns="http://www.topografix.com/GPX/1/1" 
 xmlns:xsi="http://www.w3.org/2001/XMLSchema-instance" 
 xsi:schemaLocation="http://www.topografix.com/GPX/1/1 http://www.topografix.com/GPX/1/1/gpx.xsd" 
 creator="BRouter-1.7.9" version="1.1">
 <trk>
  <name>tour-gran-paradiso-tappa-6-rifugio-chivasso-rhemes-notre-dame</name>
  <trkseg>
   <trkpt lon="7.142976" lat="45.479830"><ele>2598.5</ele></trkpt>
   <trkpt lon="7.142975" lat="45.479833"><ele>2598.5</ele></trkpt>
   <trkpt lon="7.143133" lat="45.479810"><ele>2597.75</ele></trkpt>
   <trkpt lon="7.143211" lat="45.479812"><ele>2597.5</ele></trkpt>
   <trkpt lon="7.143237" lat="45.479871"><ele>2596.25</ele></trkpt>
   <trkpt lon="7.143211" lat="45.479906"><ele>2595.5</ele></trkpt>
   <trkpt lon="7.143109" lat="45.479912"><ele>2594.25</ele></trkpt>
   <trkpt lon="7.143034" lat="45.479944"><ele>2592.75</ele></trkpt>
   <trkpt lon="7.143010" lat="45.479989"><ele>2591.5</ele></trkpt>
   <trkpt lon="7.143050" lat="45.480032"><ele>2589.0</ele></trkpt>
   <trkpt lon="7.143096" lat="45.480107"><ele>2587.25</ele></trkpt>
   <trkpt lon="7.143042" lat="45.480146"><ele>2585.25</ele></trkpt>
   <trkpt lon="7.143049" lat="45.480169"><ele>2584.5</ele></trkpt>
   <trkpt lon="7.143075" lat="45.480189"><ele>2584.0</ele></trkpt>
   <trkpt lon="7.143091" lat="45.480212"><ele>2583.75</ele></trkpt>
   <trkpt lon="7.143095" lat="45.480239"><ele>2582.75</ele></trkpt>
   <trkpt lon="7.143086" lat="45.480267"><ele>2581.75</ele></trkpt>
   <trkpt lon="7.142999" lat="45.480358"><ele>2580.0</ele></trkpt>
   <trkpt lon="7.142949" lat="45.480433"><ele>2578.5</ele></trkpt>
   <trkpt lon="7.142906" lat="45.480481"><ele>2576.75</ele></trkpt>
   <trkpt lon="7.142756" lat="45.480469"><ele>2575.0</ele></trkpt>
   <trkpt lon="7.142684" lat="45.480494"><ele>2574.5</ele></trkpt>
   <trkpt lon="7.142671" lat="45.480525"><ele>2573.25</ele></trkpt>
   <trkpt lon="7.142438" lat="45.480709"><ele>2569.25</ele></trkpt>
   <trkpt lon="7.142037" lat="45.480989"><ele>2566.75</ele></trkpt>
   <trkpt lon="7.141991" lat="45.481042"><ele>2566.25</ele></trkpt>
   <trkpt lon="7.141986" lat="45.481091"><ele>2565.75</ele></trkpt>
   <trkpt lon="7.141992" lat="45.481132"><ele>2565.5</ele></trkpt>
   <trkpt lon="7.142019" lat="45.481173"><ele>2565.0</ele></trkpt>
   <trkpt lon="7.142098" lat="45.481236"><ele>2563.75</ele></trkpt>
   <trkpt lon="7.142028" lat="45.481467"><ele>2562.5</ele></trkpt>
   <trkpt lon="7.141926" lat="45.481589"><ele>2561.5</ele></trkpt>
   <trkpt lon="7.141816" lat="45.481721"><ele>2561.5</ele></trkpt>
   <trkpt lon="7.141798" lat="45.481835"><ele>2563.0</ele></trkpt>
   <trkpt lon="7.141828" lat="45.481988"><ele>2564.5</ele></trkpt>
   <trkpt lon="7.141805" lat="45.482077"><ele>2564.75</ele></trkpt>
   <trkpt lon="7.141807" lat="45.482128"><ele>2565.0</ele></trkpt>
   <trkpt lon="7.141916" lat="45.482289"><ele>2564.75</ele></trkpt>
   <trkpt lon="7.141918" lat="45.482308"><ele>2565.25</ele></trkpt>
   <trkpt lon="7.141881" lat="45.482391"><ele>2567.25</ele></trkpt>
   <trkpt lon="7.141866" lat="45.482459"><ele>2568.25</ele></trkpt>
   <trkpt lon="7.141868" lat="45.482590"><ele>2570.5</ele></trkpt>
   <trkpt lon="7.141854" lat="45.482741"><ele>2573.25</ele></trkpt>
   <trkpt lon="7.141865" lat="45.482837"><ele>2576.25</ele></trkpt>
   <trkpt lon="7.141989" lat="45.482936"><ele>2580.0</ele></trkpt>
   <trkpt lon="7.141962" lat="45.482978"><ele>2581.75</ele></trkpt>
   <trkpt lon="7.141881" lat="45.483012"><ele>2583.25</ele></trkpt>
   <trkpt lon="7.141796" lat="45.483020"><ele>2584.0</ele></trkpt>
   <trkpt lon="7.141727" lat="45.483041"><ele>2585.0</ele></trkpt>
   <trkpt lon="7.141698" lat="45.483116"><ele>2586.25</ele></trkpt>
   <trkpt lon="7.141548" lat="45.483301"><ele>2589.0</ele></trkpt>
   <trkpt lon="7.141444" lat="45.483367"><ele>2590.5</ele></trkpt>
   <trkpt lon="7.141371" lat="45.483447"><ele>2592.25</ele></trkpt>
   <trkpt lon="7.141268" lat="45.483499"><ele>2595.5</ele></trkpt>
   <trkpt lon="7.141240" lat="45.483539"><ele>2596.25</ele></trkpt>
   <trkpt lon="7.141178" lat="45.483694"><ele>2597.0</ele></trkpt>
   <trkpt lon="7.141127" lat="45.483771"><ele>2597.5</ele></trkpt>
   <trkpt lon="7.141022" lat="45.483839"><ele>2599.0</ele></trkpt>
   <trkpt lon="7.140952" lat="45.483894"><ele>2599.75</ele></trkpt>
   <trkpt lon="7.140837" lat="45.484039"><ele>2599.75</ele></trkpt>
   <trkpt lon="7.140614" lat="45.484161"><ele>2599.5</ele></trkpt>
   <trkpt lon="7.140426" lat="45.484271"><ele>2603.25</ele></trkpt>
   <trkpt lon="7.140393" lat="45.484482"><ele>2605.5</ele></trkpt>
   <trkpt lon="7.140342" lat="45.484598"><ele>2606.5</ele></trkpt>
   <trkpt lon="7.140277" lat="45.484692"><ele>2606.75</ele></trkpt>
   <trkpt lon="7.140288" lat="45.484772"><ele>2607.5</ele></trkpt>
   <trkpt lon="7.140223" lat="45.484960"><ele>2608.75</ele></trkpt>
   <trkpt lon="7.140160" lat="45.485026"><ele>2608.75</ele></trkpt>
   <trkpt lon="7.140200" lat="45.485267"><ele>2610.75</ele></trkpt>
   <trkpt lon="7.140255" lat="45.485371"><ele>2611.25</ele></trkpt>
   <trkpt lon="7.140265" lat="45.485481"><ele>2611.0</ele></trkpt>
   <trkpt lon="7.140320" lat="45.485738"><ele>2610.0</ele></trkpt>
   <trkpt lon="7.140283" lat="45.485867"><ele>2609.75</ele></trkpt>
   <trkpt lon="7.140278" lat="45.485975"><ele>2609.75</ele></trkpt>
   <trkpt lon="7.140285" lat="45.486209"><ele>2610.5</ele></trkpt>
   <trkpt lon="7.140301" lat="45.486269"><ele>2610.75</ele></trkpt>
   <trkpt lon="7.140377" lat="45.486350"><ele>2610.25</ele></trkpt>
   <trkpt lon="7.140419" lat="45.486413"><ele>2610.0</ele></trkpt>
   <trkpt lon="7.140507" lat="45.486491"><ele>2609.5</ele></trkpt>
   <trkpt lon="7.140538" lat="45.486558"><ele>2610.0</ele></trkpt>
   <trkpt lon="7.140658" lat="45.486646"><ele>2609.5</ele></trkpt>
   <trkpt lon="7.140859" lat="45.486700"><ele>2608.75</ele></trkpt>
   <trkpt lon="7.140934" lat="45.486756"><ele>2610.25</ele></trkpt>
   <trkpt lon="7.140962" lat="45.486833"><ele>2612.0</ele></trkpt>
   <trkpt lon="7.140977" lat="45.486911"><ele>2613.75</ele></trkpt>
   <trkpt lon="7.141036" lat="45.486985"><ele>2615.0</ele></trkpt>
   <trkpt lon="7.141085" lat="45.487079"><ele>2615.75</ele></trkpt>
   <trkpt lon="7.141242" lat="45.487173"><ele>2616.25</ele></trkpt>
   <trkpt lon="7.141075" lat="45.487294"><ele>2618.5</ele></trkpt>
   <trkpt lon="7.140947" lat="45.487409"><ele>2620.5</ele></trkpt>
   <trkpt lon="7.140860" lat="45.487456"><ele>2621.25</ele></trkpt>
   <trkpt lon="7.140757" lat="45.487496"><ele>2622.5</ele></trkpt>
   <trkpt lon="7.140771" lat="45.487568"><ele>2624.0</ele></trkpt>
   <trkpt lon="7.140743" lat="45.487585"><ele>2624.5</ele></trkpt>
   <trkpt lon="7.140683" lat="45.487571"><ele>2625.0</ele></trkpt>
   <trkpt lon="7.140555" lat="45.487598"><ele>2626.75</ele></trkpt>
   <trkpt lon="7.140394" lat="45.487695"><ele>2628.25</ele></trkpt>
   <trkpt lon="7.140346" lat="45.487791"><ele>2630.0</ele></trkpt>
   <trkpt lon="7.140239" lat="45.487821"><ele>2631.0</ele></trkpt>
   <trkpt lon="7.140103" lat="45.487839"><ele>2632.75</ele></trkpt>
   <trkpt lon="7.139913" lat="45.487838"><ele>2634.75</ele></trkpt>
   <trkpt lon="7.139934" lat="45.487896"><ele>2636.25</ele></trkpt>
   <trkpt lon="7.139968" lat="45.487951"><ele>2637.25</ele></trkpt>
   <trkpt lon="7.139993" lat="45.488037"><ele>2639.5</ele></trkpt>
   <trkpt lon="7.140004" lat="45.488124"><ele>2641.5</ele></trkpt>
   <trkpt lon="7.140034" lat="45.488189"><ele>2642.75</ele></trkpt>
   <trkpt lon="7.139981" lat="45.488239"><ele>2644.75</ele></trkpt>
   <trkpt lon="7.139914" lat="45.488271"><ele>2646.25</ele></trkpt>
   <trkpt lon="7.139836" lat="45.488417"><ele>2651.0</ele></trkpt>
   <trkpt lon="7.139807" lat="45.488453"><ele>2652.5</ele></trkpt>
   <trkpt lon="7.139686" lat="45.488461"><ele>2653.5</ele></trkpt>
   <trkpt lon="7.139592" lat="45.488516"><ele>2655.25</ele></trkpt>
   <trkpt lon="7.139493" lat="45.488557"><ele>2656.5</ele></trkpt>
   <trkpt lon="7.139424" lat="45.488632"><ele>2658.25</ele></trkpt>
   <trkpt lon="7.139400" lat="45.488668"><ele>2659.0</ele></trkpt>
   <trkpt lon="7.139339" lat="45.488709"><ele>2659.75</ele></trkpt>
   <trkpt lon="7.139229" lat="45.488768"><ele>2661.0</ele></trkpt>
   <trkpt lon="7.139062" lat="45.488895"><ele>2665.5</ele></trkpt>
   <trkpt lon="7.138979" lat="45.488976"><ele>2668.5</ele></trkpt>
   <trkpt lon="7.138936" lat="45.489063"><ele>2671.0</ele></trkpt>
   <trkpt lon="7.138920" lat="45.489124"><ele>2672.5</ele></trkpt>
   <trkpt lon="7.138871" lat="45.489138"><ele>2673.5</ele></trkpt>
   <trkpt lon="7.138593" lat="45.489140"><ele>2676.0</ele></trkpt>
   <trkpt lon="7.138545" lat="45.489113"><ele>2676.5</ele></trkpt>
   <trkpt lon="7.138498" lat="45.489084"><ele>2677.0</ele></trkpt>
   <trkpt lon="7.138410" lat="45.489045"><ele>2677.75</ele></trkpt>
   <trkpt lon="7.138257" lat="45.489022"><ele>2679.75</ele></trkpt>
   <trkpt lon="7.138190" lat="45.489057"><ele>2681.75</ele></trkpt>
   <trkpt lon="7.138221" lat="45.489172"><ele>2683.0</ele></trkpt>
   <trkpt lon="7.138223" lat="45.489262"><ele>2684.0</ele></trkpt>
   <trkpt lon="7.138119" lat="45.489403"><ele>2687.25</ele></trkpt>
   <trkpt lon="7.138070" lat="45.489507"><ele>2689.5</ele></trkpt>
   <trkpt lon="7.137986" lat="45.489608"><ele>2693.0</ele></trkpt>
   <trkpt lon="7.137953" lat="45.489697"><ele>2694.5</ele></trkpt>
   <trkpt lon="7.137965" lat="45.489742"><ele>2694.75</ele></trkpt>
   <trkpt lon="7.137992" lat="45.489774"><ele>2694.75</ele></trkpt>
   <trkpt lon="7.138070" lat="45.489842"><ele>2695.0</ele></trkpt>
   <trkpt lon="7.138074" lat="45.489917"><ele>2696.5</ele></trkpt>
   <trkpt lon="7.138070" lat="45.490048"><ele>2698.0</ele></trkpt>
   <trkpt lon="7.138046" lat="45.490132"><ele>2698.25</ele></trkpt>
   <trkpt lon="7.138013" lat="45.490194"><ele>2698.5</ele></trkpt>
   <trkpt lon="7.137952" lat="45.490270"><ele>2698.75</ele></trkpt>
   <trkpt lon="7.137923" lat="45.490363"><ele>2699.5</ele></trkpt>
   <trkpt lon="7.137942" lat="45.490509"><ele>2700.5</ele></trkpt>
   <trkpt lon="7.137937" lat="45.490688"><ele>2701.0</ele></trkpt>
   <trkpt lon="7.137946" lat="45.490832"><ele>2701.5</ele></trkpt>
   <trkpt lon="7.137899" lat="45.490954"><ele>2702.75</ele></trkpt>
   <trkpt lon="7.137772" lat="45.491197"><ele>2704.0</ele></trkpt>
   <trkpt lon="7.137621" lat="45.491454"><ele>2703.25</ele></trkpt>
   <trkpt lon="7.137563" lat="45.491573"><ele>2703.0</ele></trkpt>
   <trkpt lon="7.137537" lat="45.491932"><ele>2704.5</ele></trkpt>
   <trkpt lon="7.137555" lat="45.492084"><ele>2708.0</ele></trkpt>
   <trkpt lon="7.137518" lat="45.492157"><ele>2708.75</ele></trkpt>
   <trkpt lon="7.137453" lat="45.492322"><ele>2710.5</ele></trkpt>
   <trkpt lon="7.137276" lat="45.492569"><ele>2711.0</ele></trkpt>
   <trkpt lon="7.137254" lat="45.492722"><ele>2710.5</ele></trkpt>
   <trkpt lon="7.137277" lat="45.492827"><ele>2710.25</ele></trkpt>
   <trkpt lon="7.137241" lat="45.492916"><ele>2709.5</ele></trkpt>
   <trkpt lon="7.137240" lat="45.492966"><ele>2709.5</ele></trkpt>
   <trkpt lon="7.137208" lat="45.493042"><ele>2708.75</ele></trkpt>
   <trkpt lon="7.137149" lat="45.493102"><ele>2707.75</ele></trkpt>
   <trkpt lon="7.137112" lat="45.493159"><ele>2707.0</ele></trkpt>
   <trkpt lon="7.137017" lat="45.493438"><ele>2705.0</ele></trkpt>
   <trkpt lon="7.136932" lat="45.493499"><ele>2704.5</ele></trkpt>
   <trkpt lon="7.136849" lat="45.493580"><ele>2705.5</ele></trkpt>
   <trkpt lon="7.136804" lat="45.493661"><ele>2706.0</ele></trkpt>
   <trkpt lon="7.136760" lat="45.493697"><ele>2706.25</ele></trkpt>
   <trkpt lon="7.136732" lat="45.493746"><ele>2706.25</ele></trkpt>
   <trkpt lon="7.136679" lat="45.493788"><ele>2706.25</ele></trkpt>
   <trkpt lon="7.136641" lat="45.493844"><ele>2706.0</ele></trkpt>
   <trkpt lon="7.136651" lat="45.493919"><ele>2705.25</ele></trkpt>
   <trkpt lon="7.136649" lat="45.494138"><ele>2705.5</ele></trkpt>
   <trkpt lon="7.136668" lat="45.494200"><ele>2704.75</ele></trkpt>
   <trkpt lon="7.136657" lat="45.494277"><ele>2705.25</ele></trkpt>
   <trkpt lon="7.136576" lat="45.494425"><ele>2707.0</ele></trkpt>
   <trkpt lon="7.136566" lat="45.494483"><ele>2706.75</ele></trkpt>
   <trkpt lon="7.136529" lat="45.494583"><ele>2706.0</ele></trkpt>
   <trkpt lon="7.136472" lat="45.494658"><ele>2705.5</ele></trkpt>
   <trkpt lon="7.136376" lat="45.494696"><ele>2705.75</ele></trkpt>
   <trkpt lon="7.136260" lat="45.494761"><ele>2706.5</ele></trkpt>
   <trkpt lon="7.136198" lat="45.494858"><ele>2706.25</ele></trkpt>
   <trkpt lon="7.136126" lat="45.494927"><ele>2705.75</ele></trkpt>
   <trkpt lon="7.136074" lat="45.494995"><ele>2705.0</ele></trkpt>
   <trkpt lon="7.135961" lat="45.495048"><ele>2705.5</ele></trkpt>
   <trkpt lon="7.135894" lat="45.495109"><ele>2706.0</ele></trkpt>
   <trkpt lon="7.135787" lat="45.495170"><ele>2706.25</ele></trkpt>
   <trkpt lon="7.135588" lat="45.495206"><ele>2705.5</ele></trkpt>
   <trkpt lon="7.135418" lat="45.495229"><ele>2705.0</ele></trkpt>
   <trkpt lon="7.135273" lat="45.495292"><ele>2705.75</ele></trkpt>
   <trkpt lon="7.135126" lat="45.495307"><ele>2706.75</ele></trkpt>
   <trkpt lon="7.134986" lat="45.495340"><ele>2708.5</ele></trkpt>
   <trkpt lon="7.134852" lat="45.495388"><ele>2709.75</ele></trkpt>
   <trkpt lon="7.134743" lat="45.495435"><ele>2710.25</ele></trkpt>
   <trkpt lon="7.134632" lat="45.495496"><ele>2712.0</ele></trkpt>
   <trkpt lon="7.134590" lat="45.495535"><ele>2713.25</ele></trkpt>
   <trkpt lon="7.134563" lat="45.495589"><ele>2714.25</ele></trkpt>
   <trkpt lon="7.134460" lat="45.495688"><ele>2715.0</ele></trkpt>
   <trkpt lon="7.134335" lat="45.495763"><ele>2715.25</ele></trkpt>
   <trkpt lon="7.134262" lat="45.495854"><ele>2716.0</ele></trkpt>
   <trkpt lon="7.134010" lat="45.496035"><ele>2717.0</ele></trkpt>
   <trkpt lon="7.133908" lat="45.496132"><ele>2717.0</ele></trkpt>
   <trkpt lon="7.133809" lat="45.496269"><ele>2716.75</ele></trkpt>
   <trkpt lon="7.133667" lat="45.496530"><ele>2715.5</ele></trkpt>
   <trkpt lon="7.133613" lat="45.496613"><ele>2715.0</ele></trkpt>
   <trkpt lon="7.133596" lat="45.496700"><ele>2714.5</ele></trkpt>
   <trkpt lon="7.133603" lat="45.496771"><ele>2714.0</ele></trkpt>
   <trkpt lon="7.133559" lat="45.496837"><ele>2713.25</ele></trkpt>
   <trkpt lon="7.133545" lat="45.496930"><ele>2712.5</ele></trkpt>
   <trkpt lon="7.133492" lat="45.497002"><ele>2711.5</ele></trkpt>
   <trkpt lon="7.133439" lat="45.497142"><ele>2710.25</ele></trkpt>
   <trkpt lon="7.133441" lat="45.497239"><ele>2709.75</ele></trkpt>
   <trkpt lon="7.133471" lat="45.497335"><ele>2710.0</ele></trkpt>
   <trkpt lon="7.133408" lat="45.497654"><ele>2710.25</ele></trkpt>
   <trkpt lon="7.133344" lat="45.497717"><ele>2709.75</ele></trkpt>
   <trkpt lon="7.133270" lat="45.497819"><ele>2710.25</ele></trkpt>
   <trkpt lon="7.133177" lat="45.497837"><ele>2710.25</ele></trkpt>
   <trkpt lon="7.133057" lat="45.497840"><ele>2710.25</ele></trkpt>
   <trkpt lon="7.132919" lat="45.497803"><ele>2710.5</ele></trkpt>
   <trkpt lon="7.132842" lat="45.497799"><ele>2710.75</ele></trkpt>
   <trkpt lon="7.132650" lat="45.497853"><ele>2711.25</ele></trkpt>
   <trkpt lon="7.132481" lat="45.497924"><ele>2711.5</ele></trkpt>
   <trkpt lon="7.132363" lat="45.497990"><ele>2711.75</ele></trkpt>
   <trkpt lon="7.132140" lat="45.498133"><ele>2711.75</ele></trkpt>
   <trkpt lon="7.132077" lat="45.498201"><ele>2712.0</ele></trkpt>
   <trkpt lon="7.132018" lat="45.498283"><ele>2712.0</ele></trkpt>
   <trkpt lon="7.131948" lat="45.498324"><ele>2711.75</ele></trkpt>
   <trkpt lon="7.131874" lat="45.498350"><ele>2713.5</ele></trkpt>
   <trkpt lon="7.131618" lat="45.498332"><ele>2718.0</ele></trkpt>
   <trkpt lon="7.131499" lat="45.498338"><ele>2720.75</ele></trkpt>
   <trkpt lon="7.131282" lat="45.498359"><ele>2726.75</ele></trkpt>
   <trkpt lon="7.131171" lat="45.498378"><ele>2730.0</ele></trkpt>
   <trkpt lon="7.131083" lat="45.498416"><ele>2733.0</ele></trkpt>
   <trkpt lon="7.131062" lat="45.498471"><ele>2735.0</ele></trkpt>
   <trkpt lon="7.131158" lat="45.498574"><ele>2738.0</ele></trkpt>
   <trkpt lon="7.131369" lat="45.498730"><ele>2742.25</ele></trkpt>
   <trkpt lon="7.131488" lat="45.498790"><ele>2742.25</ele></trkpt>
   <trkpt lon="7.131535" lat="45.498845"><ele>2743.75</ele></trkpt>
   <trkpt lon="7.131558" lat="45.498899"><ele>2745.25</ele></trkpt>
   <trkpt lon="7.131564" lat="45.498983"><ele>2746.5</ele></trkpt>
   <trkpt lon="7.131535" lat="45.498997"><ele>2747.5</ele></trkpt>
   <trkpt lon="7.131488" lat="45.498996"><ele>2748.75</ele></trkpt>
   <trkpt lon="7.131420" lat="45.498980"><ele>2750.0</ele></trkpt>
   <trkpt lon="7.131307" lat="45.498941"><ele>2751.75</ele></trkpt>
   <trkpt lon="7.131239" lat="45.498934"><ele>2752.75</ele></trkpt>
   <trkpt lon="7.131181" lat="45.498969"><ele>2755.5</ele></trkpt>
   <trkpt lon="7.131051" lat="45.498972"><ele>2757.75</ele></trkpt>
   <trkpt lon="7.131100" lat="45.499027"><ele>2760.5</ele></trkpt>
   <trkpt lon="7.131066" lat="45.499050"><ele>2762.25</ele></trkpt>
   <trkpt lon="7.130948" lat="45.499053"><ele>2763.75</ele></trkpt>
   <trkpt lon="7.130868" lat="45.499068"><ele>2766.0</ele></trkpt>
   <trkpt lon="7.130815" lat="45.499087"><ele>2768.0</ele></trkpt>
   <trkpt lon="7.130886" lat="45.499121"><ele>2769.5</ele></trkpt>
   <trkpt lon="7.130964" lat="45.499133"><ele>2768.75</ele></trkpt>
   <trkpt lon="7.130978" lat="45.499157"><ele>2770.25</ele></trkpt>
   <trkpt lon="7.130853" lat="45.499182"><ele>2774.25</ele></trkpt>
   <trkpt lon="7.130713" lat="45.499184"><ele>2775.25</ele></trkpt>
   <trkpt lon="7.130732" lat="45.499211"><ele>2777.0</ele></trkpt>
   <trkpt lon="7.130801" lat="45.499227"><ele>2777.25</ele></trkpt>
   <trkpt lon="7.130798" lat="45.499275"><ele>2779.75</ele></trkpt>
   <trkpt lon="7.130892" lat="45.499352"><ele>2782.0</ele></trkpt>
   <trkpt lon="7.130946" lat="45.499449"><ele>2785.5</ele></trkpt>
   <trkpt lon="7.131014" lat="45.499516"><ele>2786.0</ele></trkpt>
   <trkpt lon="7.130981" lat="45.499556"><ele>2788.0</ele></trkpt>
   <trkpt lon="7.130929" lat="45.499560"><ele>2789.5</ele></trkpt>
   <trkpt lon="7.130700" lat="45.499545"><ele>2795.25</ele></trkpt>
   <trkpt lon="7.130617" lat="45.499518"><ele>2797.0</ele></trkpt>
   <trkpt lon="7.130535" lat="45.499474"><ele>2797.75</ele></trkpt>
   <trkpt lon="7.130456" lat="45.499457"><ele>2800.25</ele></trkpt>
   <trkpt lon="7.130400" lat="45.499466"><ele>2802.75</ele></trkpt>
   <trkpt lon="7.130381" lat="45.499500"><ele>2804.5</ele></trkpt>
   <trkpt lon="7.130361" lat="45.499510"><ele>2805.5</ele></trkpt>
   <trkpt lon="7.130245" lat="45.499473"><ele>2808.25</ele></trkpt>
   <trkpt lon="7.130194" lat="45.499470"><ele>2809.25</ele></trkpt>
   <trkpt lon="7.130184" lat="45.499501"><ele>2810.0</ele></trkpt>
   <trkpt lon="7.130150" lat="45.499507"><ele>2811.0</ele></trkpt>
   <trkpt lon="7.129972" lat="45.499452"><ele>2813.0</ele></trkpt>
   <trkpt lon="7.129927" lat="45.499455"><ele>2813.25</ele></trkpt>
   <trkpt lon="7.129880" lat="45.499502"><ele>2814.5</ele></trkpt>
   <trkpt lon="7.129821" lat="45.499666"><ele>2818.75</ele></trkpt>
   <trkpt lon="7.129813" lat="45.499707"><ele>2819.75</ele></trkpt>
   <trkpt lon="7.129762" lat="45.499742"><ele>2821.75</ele></trkpt>
   <trkpt lon="7.129652" lat="45.499777"><ele>2823.0</ele></trkpt>
   <trkpt lon="7.129567" lat="45.499817"><ele>2824.0</ele></trkpt>
   <trkpt lon="7.129604" lat="45.499854"><ele>2825.0</ele></trkpt>
   <trkpt lon="7.129596" lat="45.499947"><ele>2827.0</ele></trkpt>
   <trkpt lon="7.129625" lat="45.499994"><ele>2828.0</ele></trkpt>
   <trkpt lon="7.129587" lat="45.500091"><ele>2829.75</ele></trkpt>
   <trkpt lon="7.129569" lat="45.500169"><ele>2831.0</ele></trkpt>
   <trkpt lon="7.129527" lat="45.500263"><ele>2832.75</ele></trkpt>
   <trkpt lon="7.129517" lat="45.500391"><ele>2833.75</ele></trkpt>
   <trkpt lon="7.129465" lat="45.500580"><ele>2834.25</ele></trkpt>
   <trkpt lon="7.129358" lat="45.500673"><ele>2834.25</ele></trkpt>
   <trkpt lon="7.129154" lat="45.500799"><ele>2836.0</ele></trkpt>
   <trkpt lon="7.129254" lat="45.500898"><ele>2837.25</ele></trkpt>
   <trkpt lon="7.129305" lat="45.501078"><ele>2838.5</ele></trkpt>
   <trkpt lon="7.129290" lat="45.501175"><ele>2839.5</ele></trkpt>
   <trkpt lon="7.129187" lat="45.501388"><ele>2841.75</ele></trkpt>
   <trkpt lon="7.129142" lat="45.501528"><ele>2843.0</ele></trkpt>
   <trkpt lon="7.129077" lat="45.501601"><ele>2844.0</ele></trkpt>
   <trkpt lon="7.129022" lat="45.501695"><ele>2845.25</ele></trkpt>
   <trkpt lon="7.128874" lat="45.501848"><ele>2847.25</ele></trkpt>
   <trkpt lon="7.128834" lat="45.501950"><ele>2848.25</ele></trkpt>
   <trkpt lon="7.128817" lat="45.502041"><ele>2849.25</ele></trkpt>
   <trkpt lon="7.128820" lat="45.502129"><ele>2850.25</ele></trkpt>
   <trkpt lon="7.128799" lat="45.502225"><ele>2851.25</ele></trkpt>
   <trkpt lon="7.128797" lat="45.502329"><ele>2852.0</ele></trkpt>
   <trkpt lon="7.128805" lat="45.502423"><ele>2852.75</ele></trkpt>
   <trkpt lon="7.128844" lat="45.502498"><ele>2853.0</ele></trkpt>
   <trkpt lon="7.128793" lat="45.502539"><ele>2854.5</ele></trkpt>
   <trkpt lon="7.128696" lat="45.502579"><ele>2856.0</ele></trkpt>
   <trkpt lon="7.128671" lat="45.502616"><ele>2857.0</ele></trkpt>
   <trkpt lon="7.128839" lat="45.502748"><ele>2861.0</ele></trkpt>
   <trkpt lon="7.128836" lat="45.502783"><ele>2862.0</ele></trkpt>
   <trkpt lon="7.128809" lat="45.502806"><ele>2862.25</ele></trkpt>
   <trkpt lon="7.128835" lat="45.502859"><ele>2862.75</ele></trkpt>
   <trkpt lon="7.128845" lat="45.502909"><ele>2863.25</ele></trkpt>
   <trkpt lon="7.128832" lat="45.502942"><ele>2863.5</ele></trkpt>
   <trkpt lon="7.128692" lat="45.503025"><ele>2864.0</ele></trkpt>
   <trkpt lon="7.128636" lat="45.503128"><ele>2864.25</ele></trkpt>
   <trkpt lon="7.128485" lat="45.503295"><ele>2864.5</ele></trkpt>
   <trkpt lon="7.128460" lat="45.503413"><ele>2865.0</ele></trkpt>
   <trkpt lon="7.128467" lat="45.503548"><ele>2866.25</ele></trkpt>
   <trkpt lon="7.128450" lat="45.503649"><ele>2867.0</ele></trkpt>
   <trkpt lon="7.128579" lat="45.503866"><ele>2868.0</ele></trkpt>
   <trkpt lon="7.128653" lat="45.503960"><ele>2868.0</ele></trkpt>
   <trkpt lon="7.128671" lat="45.504056"><ele>2868.0</ele></trkpt>
   <trkpt lon="7.128656" lat="45.504145"><ele>2868.0</ele></trkpt>
   <trkpt lon="7.128624" lat="45.504220"><ele>2867.75</ele></trkpt>
   <trkpt lon="7.128632" lat="45.504280"><ele>2867.5</ele></trkpt>
   <trkpt lon="7.128564" lat="45.504419"><ele>2866.75</ele></trkpt>
   <trkpt lon="7.128508" lat="45.504505"><ele>2867.75</ele></trkpt>
   <trkpt lon="7.128452" lat="45.504529"><ele>2868.25</ele></trkpt>
   <trkpt lon="7.128422" lat="45.504576"><ele>2869.25</ele></trkpt>
   <trkpt lon="7.128362" lat="45.504622"><ele>2870.25</ele></trkpt>
   <trkpt lon="7.128212" lat="45.504662"><ele>2870.75</ele></trkpt>
   <trkpt lon="7.127998" lat="45.504754"><ele>2871.5</ele></trkpt>
   <trkpt lon="7.127862" lat="45.504890"><ele>2872.25</ele></trkpt>
   <trkpt lon="7.127801" lat="45.504921"><ele>2872.25</ele></trkpt>
   <trkpt lon="7.127748" lat="45.504968"><ele>2872.75</ele></trkpt>
   <trkpt lon="7.127752" lat="45.504996"><ele>2873.5</ele></trkpt>
   <trkpt lon="7.127802" lat="45.505041"><ele>2874.75</ele></trkpt>
   <trkpt lon="7.127672" lat="45.505161"><ele>2875.0</ele></trkpt>
   <trkpt lon="7.127620" lat="45.505272"><ele>2876.0</ele></trkpt>
   <trkpt lon="7.127615" lat="45.505581"><ele>2880.0</ele></trkpt>
   <trkpt lon="7.127638" lat="45.505627"><ele>2880.75</ele></trkpt>
   <trkpt lon="7.127647" lat="45.505670"><ele>2881.25</ele></trkpt>
   <trkpt lon="7.127638" lat="45.505714"><ele>2881.25</ele></trkpt>
   <trkpt lon="7.127646" lat="45.505761"><ele>2881.75</ele></trkpt>
   <trkpt lon="7.127712" lat="45.505819"><ele>2883.75</ele></trkpt>
   <trkpt lon="7.127714" lat="45.505955"><ele>2884.5</ele></trkpt>
   <trkpt lon="7.127797" lat="45.506068"><ele>2887.25</ele></trkpt>
   <trkpt lon="7.127811" lat="45.506192"><ele>2887.5</ele></trkpt>
   <trkpt lon="7.127846" lat="45.506299"><ele>2888.0</ele></trkpt>
   <trkpt lon="7.127890" lat="45.506394"><ele>2888.75</ele></trkpt>
   <trkpt lon="7.127904" lat="45.506450"><ele>2888.5</ele></trkpt>
   <trkpt lon="7.127942" lat="45.506509"><ele>2889.25</ele></trkpt>
   <trkpt lon="7.127945" lat="45.506573"><ele>2888.75</ele></trkpt>
   <trkpt lon="7.127961" lat="45.506634"><ele>2888.75</ele></trkpt>
   <trkpt lon="7.128079" lat="45.506817"><ele>2890.0</ele></trkpt>
   <trkpt lon="7.128112" lat="45.506884"><ele>2890.25</ele></trkpt>
   <trkpt lon="7.128147" lat="45.506933"><ele>2890.75</ele></trkpt>
   <trkpt lon="7.128196" lat="45.506971"><ele>2891.5</ele></trkpt>
   <trkpt lon="7.128246" lat="45.507081"><ele>2891.0</ele></trkpt>
   <trkpt lon="7.128299" lat="45.507140"><ele>2891.25</ele></trkpt>
   <trkpt lon="7.128433" lat="45.507237"><ele>2893.0</ele></trkpt>
   <trkpt lon="7.128470" lat="45.507287"><ele>2893.0</ele></trkpt>
   <trkpt lon="7.128472" lat="45.507323"><ele>2892.25</ele></trkpt>
   <trkpt lon="7.128531" lat="45.507353"><ele>2892.75</ele></trkpt>
   <trkpt lon="7.128640" lat="45.507444"><ele>2892.75</ele></trkpt>
   <trkpt lon="7.128719" lat="45.507522"><ele>2892.25</ele></trkpt>
   <trkpt lon="7.128732" lat="45.507685"><ele>2891.25</ele></trkpt>
   <trkpt lon="7.128716" lat="45.507765"><ele>2890.75</ele></trkpt>
   <trkpt lon="7.128685" lat="45.507841"><ele>2890.5</ele></trkpt>
   <trkpt lon="7.128628" lat="45.507905"><ele>2890.5</ele></trkpt>
   <trkpt lon="7.128582" lat="45.507982"><ele>2890.0</ele></trkpt>
   <trkpt lon="7.128563" lat="45.508066"><ele>2889.75</ele></trkpt>
   <trkpt lon="7.128541" lat="45.508108"><ele>2889.5</ele></trkpt>
   <trkpt lon="7.128544" lat="45.508152"><ele>2889.5</ele></trkpt>
   <trkpt lon="7.128512" lat="45.508198"><ele>2889.0</ele></trkpt>
   <trkpt lon="7.128494" lat="45.508243"><ele>2888.75</ele></trkpt>
   <trkpt lon="7.128511" lat="45.508290"><ele>2889.0</ele></trkpt>
   <trkpt lon="7.128561" lat="45.508342"><ele>2890.0</ele></trkpt>
   <trkpt lon="7.128605" lat="45.508401"><ele>2890.75</ele></trkpt>
   <trkpt lon="7.128613" lat="45.508440"><ele>2891.0</ele></trkpt>
   <trkpt lon="7.128596" lat="45.508485"><ele>2890.75</ele></trkpt>
   <trkpt lon="7.128596" lat="45.508522"><ele>2890.75</ele></trkpt>
   <trkpt lon="7.128425" lat="45.508597"><ele>2889.5</ele></trkpt>
   <trkpt lon="7.128183" lat="45.508667"><ele>2887.25</ele></trkpt>
   <trkpt lon="7.127903" lat="45.508760"><ele>2884.5</ele></trkpt>
   <trkpt lon="7.127733" lat="45.508797"><ele>2883.0</ele></trkpt>
   <trkpt lon="7.127635" lat="45.508845"><ele>2883.0</ele></trkpt>
   <trkpt lon="7.127556" lat="45.508928"><ele>2883.25</ele></trkpt>
   <trkpt lon="7.127426" lat="45.509078"><ele>2884.75</ele></trkpt>
   <trkpt lon="7.127529" lat="45.509287"><ele>2887.25</ele></trkpt>
   <trkpt lon="7.127497" lat="45.509394"><ele>2892.0</ele></trkpt>
   <trkpt lon="7.127554" lat="45.509449"><ele>2892.75</ele></trkpt>
   <trkpt lon="7.127573" lat="45.509521"><ele>2896.0</ele></trkpt>
   <trkpt lon="7.127518" lat="45.509541"><ele>2898.5</ele></trkpt>
   <trkpt lon="7.127460" lat="45.509553"><ele>2901.0</ele></trkpt>
   <trkpt lon="7.127310" lat="45.509545"><ele>2905.75</ele></trkpt>
   <trkpt lon="7.127250" lat="45.509513"><ele>2906.0</ele></trkpt>
   <trkpt lon="7.127151" lat="45.509500"><ele>2908.5</ele></trkpt>
   <trkpt lon="7.127096" lat="45.509509"><ele>2910.75</ele></trkpt>
   <trkpt lon="7.127015" lat="45.509457"><ele>2910.25</ele></trkpt>
   <trkpt lon="7.126947" lat="45.509459"><ele>2912.75</ele></trkpt>
   <trkpt lon="7.126935" lat="45.509485"><ele>2914.75</ele></trkpt>
   <trkpt lon="7.127115" lat="45.509629"><ele>2917.25</ele></trkpt>
   <trkpt lon="7.127049" lat="45.509659"><ele>2921.25</ele></trkpt>
   <trkpt lon="7.127091" lat="45.509732"><ele>2924.25</ele></trkpt>
   <trkpt lon="7.127153" lat="45.509766"><ele>2924.25</ele></trkpt>
   <trkpt lon="7.127175" lat="45.509788"><ele>2925.0</ele></trkpt>
   <trkpt lon="7.127146" lat="45.509791"><ele>2926.25</ele></trkpt>
   <trkpt lon="7.127026" lat="45.509747"><ele>2927.5</ele></trkpt>
   <trkpt lon="7.126962" lat="45.509749"><ele>2930.0</ele></trkpt>
   <trkpt lon="7.127008" lat="45.509801"><ele>2932.0</ele></trkpt>
   <trkpt lon="7.127111" lat="45.509868"><ele>2932.5</ele></trkpt>
   <trkpt lon="7.127142" lat="45.509920"><ele>2934.75</ele></trkpt>
   <trkpt lon="7.127096" lat="45.509932"><ele>2937.25</ele></trkpt>
   <trkpt lon="7.127017" lat="45.509912"><ele>2939.0</ele></trkpt>
   <trkpt lon="7.126936" lat="45.509917"><ele>2942.5</ele></trkpt>
   <trkpt lon="7.126978" lat="45.509970"><ele>2944.5</ele></trkpt>
   <trkpt lon="7.126909" lat="45.509957"><ele>2946.5</ele></trkpt>
   <trkpt lon="7.126880" lat="45.509946"><ele>2947.0</ele></trkpt>
   <trkpt lon="7.126907" lat="45.510007"><ele>2949.75</ele></trkpt>
   <trkpt lon="7.126816" lat="45.509972"><ele>2951.5</ele></trkpt>
   <trkpt lon="7.126766" lat="45.509970"><ele>2953.5</ele></trkpt>
   <trkpt lon="7.126755" lat="45.509986"><ele>2955.0</ele></trkpt>
   <trkpt lon="7.126800" lat="45.510038"><ele>2956.0</ele></trkpt>
   <trkpt lon="7.126798" lat="45.510088"><ele>2958.75</ele></trkpt>
   <trkpt lon="7.126823" lat="45.510122"><ele>2959.25</ele></trkpt>
   <trkpt lon="7.126834" lat="45.510158"><ele>2960.5</ele></trkpt>
   <trkpt lon="7.126888" lat="45.510223"><ele>2961.5</ele></trkpt>
   <trkpt lon="7.126875" lat="45.510245"><ele>2963.25</ele></trkpt>
   <trkpt lon="7.126831" lat="45.510251"><ele>2965.5</ele></trkpt>
   <trkpt lon="7.126634" lat="45.510216"><ele>2972.25</ele></trkpt>
   <trkpt lon="7.126409" lat="45.510144"><ele>2978.75</ele></trkpt>
   <trkpt lon="7.126359" lat="45.510098"><ele>2979.0</ele></trkpt>
   <trkpt lon="7.126265" lat="45.510078"><ele>2983.0</ele></trkpt>
   <trkpt lon="7.126214" lat="45.510040"><ele>2983.75</ele></trkpt>
   <trkpt lon="7.126177" lat="45.510039"><ele>2985.5</ele></trkpt>
   <trkpt lon="7.126116" lat="45.510001"><ele>2986.75</ele></trkpt>
   <trkpt lon="7.126090" lat="45.510009"><ele>2988.5</ele></trkpt>
   <trkpt lon="7.126092" lat="45.510068"><ele>2991.25</ele></trkpt>
   <trkpt lon="7.126116" lat="45.510113"><ele>2992.25</ele></trkpt>
   <trkpt lon="7.126090" lat="45.510139"><ele>2995.0</ele></trkpt>
   <trkpt lon="7.126015" lat="45.510098"><ele>2996.75</ele></trkpt>
   <trkpt lon="7.125973" lat="45.510094"><ele>2999.0</ele></trkpt>
   <trkpt lon="7.126014" lat="45.510182"><ele>3000.75</ele></trkpt>
   <trkpt lon="7.125971" lat="45.510204"><ele>3003.75</ele></trkpt>
   <trkpt lon="7.125967" lat="45.510222"><ele>3004.75</ele></trkpt>
   <trkpt lon="7.125902" lat="45.510279"><ele>3010.0</ele></trkpt>
   <trkpt lon="7.125938" lat="45.510375"><ele>3012.5</ele></trkpt>
   <trkpt lon="7.125938" lat="45.510431"><ele>3014.75</ele></trkpt>
   <trkpt lon="7.125949" lat="45.510482"><ele>3016.75</ele></trkpt>
   <trkpt lon="7.125890" lat="45.510486"><ele>3018.25</ele></trkpt>
   <trkpt lon="7.125878" lat="45.510517"><ele>3019.75</ele></trkpt>
   <trkpt lon="7.125790" lat="45.510570"><ele>3023.0</ele></trkpt>
   <trkpt lon="7.125763" lat="45.510586"><ele>3024.0</ele></trkpt>
   <trkpt lon="7.125741" lat="45.510610"><ele>3025.0</ele></trkpt>
   <trkpt lon="7.125702" lat="45.510628"><ele>3025.75</ele></trkpt>
   <trkpt lon="7.125678" lat="45.510657"><ele>3026.5</ele></trkpt>
   <trkpt lon="7.125577" lat="45.510710"><ele>3027.25</ele></trkpt>
   <trkpt lon="7.125422" lat="45.510745"><ele>3021.0</ele></trkpt>
   <trkpt lon="7.125291" lat="45.510700"><ele>3015.5</ele></trkpt>
   <trkpt lon="7.125148" lat="45.510647"><ele>3007.0</ele></trkpt>
   <trkpt lon="7.124719" lat="45.510320"><ele>2985.0</ele></trkpt>
   <trkpt lon="7.124559" lat="45.510016"><ele>2980.0</ele></trkpt>
   <trkpt lon="7.124409" lat="45.509983"><ele>2972.5</ele></trkpt>
   <trkpt lon="7.124252" lat="45.509918"><ele>2971.25</ele></trkpt>
   <trkpt lon="7.123964" lat="45.509908"><ele>2959.0</ele></trkpt>
   <trkpt lon="7.123829" lat="45.510026"><ele>2944.25</ele></trkpt>
   <trkpt lon="7.123709" lat="45.510019"><ele>2939.25</ele></trkpt>
   <trkpt lon="7.123725" lat="45.510082"><ele>2935.5</ele></trkpt>
   <trkpt lon="7.123528" lat="45.510015"><ele>2930.5</ele></trkpt>
   <trkpt lon="7.123517" lat="45.510059"><ele>2927.25</ele></trkpt>
   <trkpt lon="7.123418" lat="45.510024"><ele>2924.25</ele></trkpt>
   <trkpt lon="7.123383" lat="45.510097"><ele>2919.0</ele></trkpt>
   <trkpt lon="7.123383" lat="45.510193"><ele>2914.25</ele></trkpt>
   <trkpt lon="7.123457" lat="45.510312"><ele>2910.5</ele></trkpt>
   <trkpt lon="7.123498" lat="45.510410"><ele>2906.75</ele></trkpt>
   <trkpt lon="7.123451" lat="45.510531"><ele>2898.25</ele></trkpt>
   <trkpt lon="7.123298" lat="45.510594"><ele>2888.75</ele></trkpt>
   <trkpt lon="7.123254" lat="45.510660"><ele>2886.0</ele></trkpt>
   <trkpt lon="7.123095" lat="45.510673"><ele>2877.25</ele></trkpt>
   <trkpt lon="7.122964" lat="45.510669"><ele>2870.5</ele></trkpt>
   <trkpt lon="7.122873" lat="45.510786"><ele>2863.5</ele></trkpt>
   <trkpt lon="7.122638" lat="45.510725"><ele>2853.25</ele></trkpt>
   <trkpt lon="7.122605" lat="45.510669"><ele>2853.25</ele></trkpt>
   <trkpt lon="7.122537" lat="45.510736"><ele>2848.25</ele></trkpt>
   <trkpt lon="7.122435" lat="45.510867"><ele>2840.25</ele></trkpt>
   <trkpt lon="7.122424" lat="45.510982"><ele>2838.25</ele></trkpt>
   <trkpt lon="7.122263" lat="45.511093"><ele>2828.25</ele></trkpt>
   <trkpt lon="7.122131" lat="45.511166"><ele>2822.5</ele></trkpt>
   <trkpt lon="7.122035" lat="45.511262"><ele>2820.0</ele></trkpt>
   <trkpt lon="7.121959" lat="45.511324"><ele>2818.0</ele></trkpt>
   <trkpt lon="7.121874" lat="45.511350"><ele>2814.5</ele></trkpt>
   <trkpt lon="7.121893" lat="45.511295"><ele>2814.0</ele></trkpt>
   <trkpt lon="7.121888" lat="45.511205"><ele>2811.5</ele></trkpt>
   <trkpt lon="7.121792" lat="45.511166"><ele>2806.0</ele></trkpt>
   <trkpt lon="7.121712" lat="45.511112"><ele>2801.0</ele></trkpt>
   <trkpt lon="7.121605" lat="45.511084"><ele>2796.5</ele></trkpt>
   <trkpt lon="7.121488" lat="45.511095"><ele>2790.75</ele></trkpt>
   <trkpt lon="7.121460" lat="45.511176"><ele>2790.5</ele></trkpt>
   <trkpt lon="7.121477" lat="45.511218"><ele>2792.0</ele></trkpt>
   <trkpt lon="7.121419" lat="45.511277"><ele>2790.25</ele></trkpt>
   <trkpt lon="7.121271" lat="45.511230"><ele>2781.0</ele></trkpt>
   <trkpt lon="7.121159" lat="45.511168"><ele>2774.75</ele></trkpt>
   <trkpt lon="7.121140" lat="45.511268"><ele>2773.0</ele></trkpt>
   <trkpt lon="7.121104" lat="45.511350"><ele>2770.0</ele></trkpt>
   <trkpt lon="7.120954" lat="45.511525"><ele>2767.25</ele></trkpt>
   <trkpt lon="7.120869" lat="45.511596"><ele>2762.25</ele></trkpt>
   <trkpt lon="7.120694" lat="45.511667"><ele>2751.75</ele></trkpt>
   <trkpt lon="7.120272" lat="45.511782"><ele>2733.25</ele></trkpt>
   <trkpt lon="7.120239" lat="45.511826"><ele>2733.25</ele></trkpt>
   <trkpt lon="7.120264" lat="45.511905"><ele>2735.75</ele></trkpt>
   <trkpt lon="7.120190" lat="45.511976"><ele>2735.75</ele></trkpt>
   <trkpt lon="7.120044" lat="45.512016"><ele>2733.5</ele></trkpt>
   <trkpt lon="7.120012" lat="45.511972"><ele>2731.25</ele></trkpt>
   <trkpt lon="7.119916" lat="45.511963"><ele>2727.75</ele></trkpt>
   <trkpt lon="7.119719" lat="45.512018"><ele>2723.0</ele></trkpt>
   <trkpt lon="7.119524" lat="45.512109"><ele>2716.5</ele></trkpt>
   <trkpt lon="7.119411" lat="45.512205"><ele>2713.75</ele></trkpt>
   <trkpt lon="7.119254" lat="45.512253"><ele>2708.5</ele></trkpt>
   <trkpt lon="7.119076" lat="45.512320"><ele>2703.75</ele></trkpt>
   <trkpt lon="7.118528" lat="45.512469"><ele>2685.0</ele></trkpt>
   <trkpt lon="7.118230" lat="45.512534"><ele>2675.0</ele></trkpt>
   <trkpt lon="7.118021" lat="45.512620"><ele>2670.25</ele></trkpt>
   <trkpt lon="7.117977" lat="45.512534"><ele>2665.75</ele></trkpt>
   <trkpt lon="7.117836" lat="45.512577"><ele>2660.75</ele></trkpt>
   <trkpt lon="7.117747" lat="45.512644"><ele>2658.0</ele></trkpt>
   <trkpt lon="7.117689" lat="45.512596"><ele>2654.25</ele></trkpt>
   <trkpt lon="7.117528" lat="45.512723"><ele>2648.5</ele></trkpt>
   <trkpt lon="7.117350" lat="45.512817"><ele>2643.25</ele></trkpt>
   <trkpt lon="7.117193" lat="45.512850"><ele>2638.25</ele></trkpt>
   <trkpt lon="7.116758" lat="45.512927"><ele>2626.25</ele></trkpt>
   <trkpt lon="7.116642" lat="45.513090"><ele>2625.0</ele></trkpt>
   <trkpt lon="7.116378" lat="45.513126"><ele>2620.25</ele></trkpt>
   <trkpt lon="7.116221" lat="45.513222"><ele>2615.25</ele></trkpt>
   <trkpt lon="7.116084" lat="45.513380"><ele>2609.5</ele></trkpt>
   <trkpt lon="7.115978" lat="45.513548"><ele>2605.5</ele></trkpt>
   <trkpt lon="7.115735" lat="45.513671"><ele>2598.5</ele></trkpt>
   <trkpt lon="7.115563" lat="45.513769"><ele>2593.0</ele></trkpt>
   <trkpt lon="7.115399" lat="45.513925"><ele>2588.5</ele></trkpt>
   <trkpt lon="7.115218" lat="45.514078"><ele>2583.25</ele></trkpt>
   <trkpt lon="7.114872" lat="45.514299"><ele>2571.75</ele></trkpt>
   <trkpt lon="7.114855" lat="45.514220"><ele>2569.0</ele></trkpt>
   <trkpt lon="7.114776" lat="45.514134"><ele>2563.75</ele></trkpt>
   <trkpt lon="7.114721" lat="45.513994"><ele>2559.25</ele></trkpt>
   <trkpt lon="7.114581" lat="45.513949"><ele>2555.0</ele></trkpt>
   <trkpt lon="7.114379" lat="45.513925"><ele>2549.0</ele></trkpt>
   <trkpt lon="7.114180" lat="45.514040"><ele>2544.0</ele></trkpt>
   <trkpt lon="7.114095" lat="45.514016"><ele>2541.0</ele></trkpt>
   <trkpt lon="7.113920" lat="45.514090"><ele>2536.0</ele></trkpt>
   <trkpt lon="7.113756" lat="45.514201"><ele>2531.5</ele></trkpt>
   <trkpt lon="7.113670" lat="45.514213"><ele>2528.5</ele></trkpt>
   <trkpt lon="7.113472" lat="45.514347"><ele>2522.5</ele></trkpt>
   <trkpt lon="7.113229" lat="45.514529"><ele>2514.0</ele></trkpt>
   <trkpt lon="7.112972" lat="45.514700"><ele>2503.5</ele></trkpt>
   <trkpt lon="7.112921" lat="45.514719"><ele>2501.0</ele></trkpt>
   <trkpt lon="7.112835" lat="45.514812"><ele>2498.5</ele></trkpt>
   <trkpt lon="7.112681" lat="45.514906"><ele>2492.75</ele></trkpt>
   <trkpt lon="7.112366" lat="45.515069"><ele>2481.5</ele></trkpt>
   <trkpt lon="7.112123" lat="45.515211"><ele>2476.5</ele></trkpt>
   <trkpt lon="7.111993" lat="45.515247"><ele>2472.5</ele></trkpt>
   <trkpt lon="7.111853" lat="45.515357"><ele>2468.5</ele></trkpt>
   <trkpt lon="7.111733" lat="45.515482"><ele>2465.0</ele></trkpt>
   <trkpt lon="7.111631" lat="45.515613"><ele>2461.75</ele></trkpt>
   <trkpt lon="7.111594" lat="45.515781"><ele>2460.0</ele></trkpt>
   <trkpt lon="7.111401" lat="45.516096"><ele>2456.0</ele></trkpt>
   <trkpt lon="7.111300" lat="45.516467"><ele>2452.0</ele></trkpt>
   <trkpt lon="7.111166" lat="45.516857"><ele>2448.5</ele></trkpt>
   <trkpt lon="7.111144" lat="45.517067"><ele>2446.0</ele></trkpt>
   <trkpt lon="7.111166" lat="45.517494"><ele>2442.0</ele></trkpt>
   <trkpt lon="7.111332" lat="45.517884"><ele>2437.0</ele></trkpt>
   <trkpt lon="7.111487" lat="45.518199"><ele>2433.25</ele></trkpt>
   <trkpt lon="7.111620" lat="45.518379"><ele>2431.5</ele></trkpt>
   <trkpt lon="7.111717" lat="45.518646"><ele>2426.75</ele></trkpt>
   <trkpt lon="7.111669" lat="45.518982"><ele>2423.25</ele></trkpt>
   <trkpt lon="7.111674" lat="45.519424"><ele>2417.25</ele></trkpt>
   <trkpt lon="7.111572" lat="45.519897"><ele>2412.5</ele></trkpt>
   <trkpt lon="7.111620" lat="45.520047"><ele>2411.25</ele></trkpt>
   <trkpt lon="7.111594" lat="45.520234"><ele>2407.5</ele></trkpt>
   <trkpt lon="7.111636" lat="45.520466"><ele>2402.75</ele></trkpt>
   <trkpt lon="7.111471" lat="45.520732"><ele>2396.75</ele></trkpt>
   <trkpt lon="7.111369" lat="45.521008"><ele>2392.0</ele></trkpt>
   <trkpt lon="7.111381" lat="45.521223"><ele>2387.5</ele></trkpt>
   <trkpt lon="7.111220" lat="45.521561"><ele>2381.25</ele></trkpt>
   <trkpt lon="7.111035" lat="45.521861"><ele>2375.75</ele></trkpt>
   <trkpt lon="7.110816" lat="45.522079"><ele>2371.75</ele></trkpt>
   <trkpt lon="7.110522" lat="45.522151"><ele>2367.5</ele></trkpt>
   <trkpt lon="7.110207" lat="45.522242"><ele>2363.0</ele></trkpt>
   <trkpt lon="7.110015" lat="45.522350"><ele>2360.5</ele></trkpt>
   <trkpt lon="7.109950" lat="45.522499"><ele>2359.75</ele></trkpt>
   <trkpt lon="7.109697" lat="45.522573"><ele>2361.0</ele></trkpt>
   <trkpt lon="7.109355" lat="45.522684"><ele>2360.75</ele></trkpt>
   <trkpt lon="7.109108" lat="45.522789"><ele>2359.25</ele></trkpt>
   <trkpt lon="7.108975" lat="45.522904"><ele>2357.5</ele></trkpt>
   <trkpt lon="7.108882" lat="45.523077"><ele>2358.0</ele></trkpt>
   <trkpt lon="7.108677" lat="45.523240"><ele>2354.75</ele></trkpt>
   <trkpt lon="7.108454" lat="45.523303"><ele>2351.5</ele></trkpt>
   <trkpt lon="7.108288" lat="45.523259"><ele>2346.75</ele></trkpt>
   <trkpt lon="7.108136" lat="45.523327"><ele>2346.0</ele></trkpt>
   <trkpt lon="7.107870" lat="45.523379"><ele>2344.5</ele></trkpt>
   <trkpt lon="7.107476" lat="45.523462"><ele>2343.0</ele></trkpt>
   <trkpt lon="7.107204" lat="45.523440"><ele>2339.5</ele></trkpt>
   <trkpt lon="7.106843" lat="45.523548"><ele>2339.25</ele></trkpt>
   <trkpt lon="7.106536" lat="45.523525"><ele>2333.75</ele></trkpt>
   <trkpt lon="7.106421" lat="45.523495"><ele>2330.75</ele></trkpt>
   <trkpt lon="7.106391" lat="45.523528"><ele>2330.75</ele></trkpt>
   <trkpt lon="7.106349" lat="45.523622"><ele>2331.25</ele></trkpt>
   <trkpt lon="7.106213" lat="45.523709"><ele>2330.25</ele></trkpt>
   <trkpt lon="7.106124" lat="45.523760"><ele>2328.75</ele></trkpt>
   <trkpt lon="7.106069" lat="45.523756"><ele>2326.5</ele></trkpt>
   <trkpt lon="7.106088" lat="45.523717"><ele>2326.0</ele></trkpt>
   <trkpt lon="7.106113" lat="45.523691"><ele>2326.25</ele></trkpt>
   <trkpt lon="7.106077" lat="45.523666"><ele>2324.5</ele></trkpt>
   <trkpt lon="7.106054" lat="45.523705"><ele>2324.75</ele></trkpt>
   <trkpt lon="7.105963" lat="45.523772"><ele>2322.5</ele></trkpt>
   <trkpt lon="7.105699" lat="45.523921"><ele>2314.25</ele></trkpt>
   <trkpt lon="7.105617" lat="45.523936"><ele>2312.0</ele></trkpt>
   <trkpt lon="7.105439" lat="45.523984"><ele>2309.75</ele></trkpt>
   <trkpt lon="7.105349" lat="45.523927"><ele>2304.5</ele></trkpt>
   <trkpt lon="7.105279" lat="45.523927"><ele>2303.0</ele></trkpt>
   <trkpt lon="7.105250" lat="45.523898"><ele>2300.75</ele></trkpt>
   <trkpt lon="7.105144" lat="45.523923"><ele>2299.75</ele></trkpt>
   <trkpt lon="7.105103" lat="45.523911"><ele>2298.5</ele></trkpt>
   <trkpt lon="7.104955" lat="45.523961"><ele>2296.0</ele></trkpt>
   <trkpt lon="7.104760" lat="45.524057"><ele>2292.25</ele></trkpt>
   <trkpt lon="7.104416" lat="45.524181"><ele>2288.75</ele></trkpt>
   <trkpt lon="7.104011" lat="45.524555"><ele>2285.5</ele></trkpt>
   <trkpt lon="7.103977" lat="45.524618"><ele>2285.25</ele></trkpt>
   <trkpt lon="7.103849" lat="45.524709"><ele>2282.75</ele></trkpt>
   <trkpt lon="7.103660" lat="45.524830"><ele>2282.75</ele></trkpt>
   <trkpt lon="7.103403" lat="45.524946"><ele>2281.0</ele></trkpt>
   <trkpt lon="7.103361" lat="45.524991"><ele>2282.0</ele></trkpt>
   <trkpt lon="7.103069" lat="45.525101"><ele>2280.25</ele></trkpt>
   <trkpt lon="7.103012" lat="45.525118"><ele>2279.5</ele></trkpt>
   <trkpt lon="7.102908" lat="45.525186"><ele>2280.0</ele></trkpt>
   <trkpt lon="7.102864" lat="45.525237"><ele>2281.0</ele></trkpt>
   <trkpt lon="7.102753" lat="45.525270"><ele>2280.0</ele></trkpt>
   <trkpt lon="7.102662" lat="45.525349"><ele>2281.5</ele></trkpt>
   <trkpt lon="7.102436" lat="45.525422"><ele>2278.5</ele></trkpt>
   <trkpt lon="7.102267" lat="45.525465"><ele>2274.5</ele></trkpt>
   <trkpt lon="7.102066" lat="45.525603"><ele>2271.5</ele></trkpt>
   <trkpt lon="7.101831" lat="45.525707"><ele>2264.75</ele></trkpt>
   <trkpt lon="7.101603" lat="45.525835"><ele>2259.25</ele></trkpt>
   <trkpt lon="7.101560" lat="45.525886"><ele>2259.0</ele></trkpt>
   <trkpt lon="7.101291" lat="45.526093"><ele>2254.5</ele></trkpt>
   <trkpt lon="7.101034" lat="45.526304"><ele>2248.5</ele></trkpt>
   <trkpt lon="7.100972" lat="45.526346"><ele>2247.0</ele></trkpt>
   <trkpt lon="7.100946" lat="45.526287"><ele>2243.5</ele></trkpt>
   <trkpt lon="7.100909" lat="45.526264"><ele>2240.75</ele></trkpt>
   <trkpt lon="7.100844" lat="45.526322"><ele>2239.75</ele></trkpt>
   <trkpt lon="7.100712" lat="45.526490"><ele>2235.25</ele></trkpt>
   <trkpt lon="7.100593" lat="45.526778"><ele>2229.25</ele></trkpt>
   <trkpt lon="7.100601" lat="45.526920"><ele>2228.0</ele></trkpt>
   <trkpt lon="7.100594" lat="45.527111"><ele>2225.0</ele></trkpt>
   <trkpt lon="7.100550" lat="45.527128"><ele>2223.0</ele></trkpt>
   <trkpt lon="7.100553" lat="45.527097"><ele>2223.5</ele></trkpt>
   <trkpt lon="7.100465" lat="45.526988"><ele>2222.0</ele></trkpt>
   <trkpt lon="7.100370" lat="45.527030"><ele>2218.0</ele></trkpt>
   <trkpt lon="7.100302" lat="45.526994"><ele>2216.0</ele></trkpt>
   <trkpt lon="7.100228" lat="45.527073"><ele>2212.5</ele></trkpt>
   <trkpt lon="7.100205" lat="45.527128"><ele>2211.25</ele></trkpt>
   <trkpt lon="7.099998" lat="45.527056"><ele>2205.5</ele></trkpt>
   <trkpt lon="7.099964" lat="45.527036"><ele>2204.25</ele></trkpt>
   <trkpt lon="7.099938" lat="45.527038"><ele>2203.5</ele></trkpt>
   <trkpt lon="7.099892" lat="45.527060"><ele>2201.75</ele></trkpt>
   <trkpt lon="7.099882" lat="45.527083"><ele>2201.25</ele></trkpt>
   <trkpt lon="7.099837" lat="45.527126"><ele>2199.75</ele></trkpt>
   <trkpt lon="7.099813" lat="45.527165"><ele>2199.0</ele></trkpt>
   <trkpt lon="7.099785" lat="45.527174"><ele>2198.0</ele></trkpt>
   <trkpt lon="7.099713" lat="45.527112"><ele>2195.5</ele></trkpt>
   <trkpt lon="7.099691" lat="45.527139"><ele>2194.25</ele></trkpt>
   <trkpt lon="7.099684" lat="45.527183"><ele>2194.0</ele></trkpt>
   <trkpt lon="7.099690" lat="45.527334"><ele>2190.75</ele></trkpt>
   <trkpt lon="7.099710" lat="45.527461"><ele>2187.75</ele></trkpt>
   <trkpt lon="7.099683" lat="45.527502"><ele>2185.25</ele></trkpt>
   <trkpt lon="7.099590" lat="45.527494"><ele>2181.75</ele></trkpt>
   <trkpt lon="7.099405" lat="45.527445"><ele>2175.75</ele></trkpt>
   <trkpt lon="7.099270" lat="45.527443"><ele>2171.0</ele></trkpt>
   <trkpt lon="7.099220" lat="45.527507"><ele>2167.5</ele></trkpt>
   <trkpt lon="7.099108" lat="45.527480"><ele>2163.75</ele></trkpt>
   <trkpt lon="7.099050" lat="45.527526"><ele>2159.5</ele></trkpt>
   <trkpt lon="7.099108" lat="45.527637"><ele>2156.25</ele></trkpt>
   <trkpt lon="7.099185" lat="45.527748"><ele>2153.25</ele></trkpt>
   <trkpt lon="7.099239" lat="45.527883"><ele>2148.25</ele></trkpt>
   <trkpt lon="7.099220" lat="45.527932"><ele>2145.0</ele></trkpt>
   <trkpt lon="7.099058" lat="45.527913"><ele>2140.0</ele></trkpt>
   <trkpt lon="7.098927" lat="45.527921"><ele>2134.5</ele></trkpt>
   <trkpt lon="7.098804" lat="45.527896"><ele>2130.0</ele></trkpt>
   <trkpt lon="7.098688" lat="45.527842"><ele>2126.75</ele></trkpt>
   <trkpt lon="7.098630" lat="45.527856"><ele>2122.75</ele></trkpt>
   <trkpt lon="7.098622" lat="45.527937"><ele>2117.75</ele></trkpt>
   <trkpt lon="7.098518" lat="45.527891"><ele>2115.75</ele></trkpt>
   <trkpt lon="7.098429" lat="45.527861"><ele>2113.25</ele></trkpt>
   <trkpt lon="7.098360" lat="45.527888"><ele>2109.0</ele></trkpt>
   <trkpt lon="7.098414" lat="45.527994"><ele>2106.0</ele></trkpt>
   <trkpt lon="7.098433" lat="45.528053"><ele>2104.0</ele></trkpt>
   <trkpt lon="7.098267" lat="45.528031"><ele>2098.5</ele></trkpt>
   <trkpt lon="7.098426" lat="45.528194"><ele>2095.0</ele></trkpt>
   <trkpt lon="7.098460" lat="45.528350"><ele>2087.0</ele></trkpt>
   <trkpt lon="7.098406" lat="45.528412"><ele>2081.75</ele></trkpt>
   <trkpt lon="7.098437" lat="45.528526"><ele>2078.25</ele></trkpt>
   <trkpt lon="7.098364" lat="45.528550"><ele>2072.75</ele></trkpt>
   <trkpt lon="7.098275" lat="45.528539"><ele>2068.5</ele></trkpt>
   <trkpt lon="7.098175" lat="45.528518"><ele>2064.25</ele></trkpt>
   <trkpt lon="7.098106" lat="45.528475"><ele>2062.5</ele></trkpt>
   <trkpt lon="7.098048" lat="45.528472"><ele>2059.5</ele></trkpt>
   <trkpt lon="7.098059" lat="45.528539"><ele>2057.25</ele></trkpt>
   <trkpt lon="7.098040" lat="45.528593"><ele>2054.0</ele></trkpt>
   <trkpt lon="7.097947" lat="45.528599"><ele>2050.5</ele></trkpt>
   <trkpt lon="7.097801" lat="45.528585"><ele>2045.75</ele></trkpt>
   <trkpt lon="7.097693" lat="45.528553"><ele>2043.75</ele></trkpt>
   <trkpt lon="7.097558" lat="45.528485"><ele>2042.0</ele></trkpt>
   <trkpt lon="7.097435" lat="45.528383"><ele>2040.25</ele></trkpt>
   <trkpt lon="7.097261" lat="45.528299"><ele>2036.75</ele></trkpt>
   <trkpt lon="7.097171" lat="45.528243"><ele>2035.5</ele></trkpt>
   <trkpt lon="7.096995" lat="45.528196"><ele>2029.25</ele></trkpt>
   <trkpt lon="7.096910" lat="45.528223"><ele>2025.0</ele></trkpt>
   <trkpt lon="7.096824" lat="45.528261"><ele>2021.0</ele></trkpt>
   <trkpt lon="7.096686" lat="45.528415"><ele>2011.0</ele></trkpt>
   <trkpt lon="7.096586" lat="45.528528"><ele>2005.25</ele></trkpt>
   <trkpt lon="7.096371" lat="45.528804"><ele>1996.5</ele></trkpt>
   <trkpt lon="7.096188" lat="45.529025"><ele>1990.25</ele></trkpt>
   <trkpt lon="7.096049" lat="45.529207"><ele>1986.0</ele></trkpt>
   <trkpt lon="7.096033" lat="45.529385"><ele>1982.75</ele></trkpt>
   <trkpt lon="7.096213" lat="45.529778"><ele>1975.75</ele></trkpt>
   <trkpt lon="7.096208" lat="45.529960"><ele>1971.0</ele></trkpt>
   <trkpt lon="7.096093" lat="45.530101"><ele>1970.5</ele></trkpt>
   <trkpt lon="7.096150" lat="45.530168"><ele>1971.25</ele></trkpt>
   <trkpt lon="7.096270" lat="45.530228"><ele>1971.0</ele></trkpt>
   <trkpt lon="7.096671" lat="45.530344"><ele>1968.25</ele></trkpt>
   <trkpt lon="7.096791" lat="45.530428"><ele>1968.5</ele></trkpt>
   <trkpt lon="7.096937" lat="45.530541"><ele>1968.75</ele></trkpt>
   <trkpt lon="7.097060" lat="45.530665"><ele>1968.0</ele></trkpt>
   <trkpt lon="7.097276" lat="45.530792"><ele>1967.75</ele></trkpt>
   <trkpt lon="7.097446" lat="45.530938"><ele>1966.5</ele></trkpt>
   <trkpt lon="7.097531" lat="45.531044"><ele>1966.0</ele></trkpt>
   <trkpt lon="7.097608" lat="45.531184"><ele>1965.25</ele></trkpt>
   <trkpt lon="7.097843" lat="45.531354"><ele>1963.75</ele></trkpt>
   <trkpt lon="7.097955" lat="45.531427"><ele>1963.25</ele></trkpt>
   <trkpt lon="7.098055" lat="45.531519"><ele>1963.0</ele></trkpt>
   <trkpt lon="7.098167" lat="45.531654"><ele>1962.5</ele></trkpt>
   <trkpt lon="7.098321" lat="45.531787"><ele>1961.5</ele></trkpt>
   <trkpt lon="7.098468" lat="45.531935"><ele>1961.0</ele></trkpt>
   <trkpt lon="7.098665" lat="45.532076"><ele>1961.25</ele></trkpt>
   <trkpt lon="7.098892" lat="45.532221"><ele>1959.75</ele></trkpt>
   <trkpt lon="7.099027" lat="45.532422"><ele>1962.5</ele></trkpt>
   <trkpt lon="7.098989" lat="45.532492"><ele>1964.0</ele></trkpt>
   <trkpt lon="7.098996" lat="45.532597"><ele>1965.0</ele></trkpt>
   <trkpt lon="7.099039" lat="45.532698"><ele>1965.0</ele></trkpt>
   <trkpt lon="7.098996" lat="45.532774"><ele>1966.75</ele></trkpt>
   <trkpt lon="7.098895" lat="45.532817"><ele>1970.25</ele></trkpt>
   <trkpt lon="7.098957" lat="45.532836"><ele>1968.75</ele></trkpt>
   <trkpt lon="7.099034" lat="45.532901"><ele>1968.5</ele></trkpt>
   <trkpt lon="7.099581" lat="45.532983"><ele>1965.5</ele></trkpt>
   <trkpt lon="7.099756" lat="45.533131"><ele>1968.0</ele></trkpt>
   <trkpt lon="7.099809" lat="45.533137"><ele>1969.0</ele></trkpt>
   <trkpt lon="7.099898" lat="45.533094"><ele>1968.75</ele></trkpt>
   <trkpt lon="7.100054" lat="45.533033"><ele>1967.5</ele></trkpt>
   <trkpt lon="7.100252" lat="45.533014"><ele>1967.0</ele></trkpt>
   <trkpt lon="7.100427" lat="45.533021"><ele>1967.5</ele></trkpt>
   <trkpt lon="7.100689" lat="45.533217"><ele>1963.75</ele></trkpt>
   <trkpt lon="7.100762" lat="45.533259"><ele>1962.0</ele></trkpt>
   <trkpt lon="7.100845" lat="45.533433"><ele>1960.5</ele></trkpt>
   <trkpt lon="7.100834" lat="45.533493"><ele>1961.0</ele></trkpt>
   <trkpt lon="7.100755" lat="45.533582"><ele>1961.75</ele></trkpt>
   <trkpt lon="7.100773" lat="45.533672"><ele>1962.0</ele></trkpt>
   <trkpt lon="7.100853" lat="45.533774"><ele>1959.0</ele></trkpt>
   <trkpt lon="7.100890" lat="45.533925"><ele>1955.5</ele></trkpt>
   <trkpt lon="7.100902" lat="45.534211"><ele>1951.5</ele></trkpt>
   <trkpt lon="7.100895" lat="45.534293"><ele>1952.25</ele></trkpt>
   <trkpt lon="7.100925" lat="45.534402"><ele>1950.0</ele></trkpt>
   <trkpt lon="7.100957" lat="45.534541"><ele>1948.5</ele></trkpt>
   <trkpt lon="7.101022" lat="45.534599"><ele>1944.75</ele></trkpt>
   <trkpt lon="7.101131" lat="45.534676"><ele>1939.75</ele></trkpt>
   <trkpt lon="7.101270" lat="45.534795"><ele>1938.5</ele></trkpt>
   <trkpt lon="7.101416" lat="45.534899"><ele>1935.25</ele></trkpt>
   <trkpt lon="7.101443" lat="45.535033"><ele>1937.0</ele></trkpt>
   <trkpt lon="7.101531" lat="45.535273"><ele>1932.75</ele></trkpt>
   <trkpt lon="7.101663" lat="45.535694"><ele>1934.5</ele></trkpt>
   <trkpt lon="7.101716" lat="45.535783"><ele>1935.0</ele></trkpt>
   <trkpt lon="7.101756" lat="45.535828"><ele>1935.25</ele></trkpt>
   <trkpt lon="7.101888" lat="45.535947"><ele>1933.75</ele></trkpt>
   <trkpt lon="7.101897" lat="45.536013"><ele>1934.25</ele></trkpt>
   <trkpt lon="7.101863" lat="45.536252"><ele>1934.25</ele></trkpt>
   <trkpt lon="7.101765" lat="45.536497"><ele>1931.0</ele></trkpt>
   <trkpt lon="7.101746" lat="45.536605"><ele>1929.25</ele></trkpt>
   <trkpt lon="7.101716" lat="45.536665"><ele>1929.5</ele></trkpt>
   <trkpt lon="7.101571" lat="45.536792"><ele>1929.25</ele></trkpt>
   <trkpt lon="7.101270" lat="45.537181"><ele>1920.5</ele></trkpt>
   <trkpt lon="7.101129" lat="45.537481"><ele>1912.0</ele></trkpt>
   <trkpt lon="7.101034" lat="45.537833"><ele>1905.75</ele></trkpt>
   <trkpt lon="7.100947" lat="45.538009"><ele>1905.0</ele></trkpt>
   <trkpt lon="7.100975" lat="45.538027"><ele>1904.0</ele></trkpt>
   <trkpt lon="7.100991" lat="45.538054"><ele>1903.0</ele></trkpt>
   <trkpt lon="7.101017" lat="45.538205"><ele>1902.5</ele></trkpt>
   <trkpt lon="7.101069" lat="45.538296"><ele>1901.75</ele></trkpt>
   <trkpt lon="7.101155" lat="45.538423"><ele>1899.75</ele></trkpt>
   <trkpt lon="7.101279" lat="45.538575"><ele>1898.0</ele></trkpt>
   <trkpt lon="7.101407" lat="45.538707"><ele>1896.0</ele></trkpt>
   <trkpt lon="7.101461" lat="45.538762"><ele>1895.0</ele></trkpt>
   <trkpt lon="7.101569" lat="45.538870"><ele>1893.0</ele></trkpt>
   <trkpt lon="7.101677" lat="45.538942"><ele>1891.25</ele></trkpt>
   <trkpt lon="7.101912" lat="45.539085"><ele>1888.0</ele></trkpt>
   <trkpt lon="7.102012" lat="45.539170"><ele>1886.25</ele></trkpt>
   <trkpt lon="7.102196" lat="45.539388"><ele>1883.5</ele></trkpt>
   <trkpt lon="7.102266" lat="45.539521"><ele>1881.5</ele></trkpt>
   <trkpt lon="7.102313" lat="45.539694"><ele>1879.25</ele></trkpt>
   <trkpt lon="7.102384" lat="45.539811"><ele>1877.75</ele></trkpt>
   <trkpt lon="7.102659" lat="45.540141"><ele>1873.5</ele></trkpt>
   <trkpt lon="7.102836" lat="45.540329"><ele>1871.0</ele></trkpt>
   <trkpt lon="7.103024" lat="45.540489"><ele>1868.5</ele></trkpt>
   <trkpt lon="7.103169" lat="45.540635"><ele>1867.0</ele></trkpt>
   <trkpt lon="7.103762" lat="45.541642"><ele>1858.5</ele></trkpt>
   <trkpt lon="7.104337" lat="45.542663"><ele>1855.75</ele></trkpt>
   <trkpt lon="7.104456" lat="45.542930"><ele>1854.25</ele></trkpt>
   <trkpt lon="7.104491" lat="45.543079"><ele>1853.75</ele></trkpt>
   <trkpt lon="7.104506" lat="45.543170"><ele>1854.25</ele></trkpt>
   <trkpt lon="7.104642" lat="45.543778"><ele>1851.5</ele></trkpt>
   <trkpt lon="7.104808" lat="45.544361"><ele>1850.5</ele></trkpt>
   <trkpt lon="7.104987" lat="45.544897"><ele>1849.25</ele></trkpt>
   <trkpt lon="7.105070" lat="45.545198"><ele>1849.75</ele></trkpt>
   <trkpt lon="7.105078" lat="45.545421"><ele>1848.5</ele></trkpt>
   <trkpt lon="7.105117" lat="45.545761"><ele>1846.25</ele></trkpt>
   <trkpt lon="7.105249" lat="45.546214"><ele>1845.5</ele></trkpt>
   <trkpt lon="7.105365" lat="45.546482"><ele>1844.25</ele></trkpt>
   <trkpt lon="7.105567" lat="45.546750"><ele>1844.25</ele></trkpt>
   <trkpt lon="7.105772" lat="45.546946"><ele>1843.75</ele></trkpt>
   <trkpt lon="7.105915" lat="45.547051"><ele>1844.75</ele></trkpt>
   <trkpt lon="7.105981" lat="45.547134"><ele>1845.25</ele></trkpt>
   <trkpt lon="7.106031" lat="45.547308"><ele>1845.5</ele></trkpt>
   <trkpt lon="7.106059" lat="45.547910"><ele>1845.75</ele></trkpt>
   <trkpt lon="7.106042" lat="45.548371"><ele>1847.75</ele></trkpt>
   <trkpt lon="7.106073" lat="45.548494"><ele>1849.0</ele></trkpt>
   <trkpt lon="7.106173" lat="45.548615"><ele>1850.25</ele></trkpt>
   <trkpt lon="7.106268" lat="45.548756"><ele>1851.75</ele></trkpt>
   <trkpt lon="7.106347" lat="45.548930"><ele>1850.75</ele></trkpt>
   <trkpt lon="7.106383" lat="45.549144"><ele>1845.5</ele></trkpt>
   <trkpt lon="7.106478" lat="45.549552"><ele>1842.25</ele></trkpt>
   <trkpt lon="7.106538" lat="45.549719"><ele>1841.75</ele></trkpt>
   <trkpt lon="7.106633" lat="45.549933"><ele>1842.0</ele></trkpt>
   <trkpt lon="7.106769" lat="45.550220"><ele>1843.0</ele></trkpt>
   <trkpt lon="7.106819" lat="45.550308"><ele>1843.5</ele></trkpt>
   <trkpt lon="7.106882" lat="45.550422"><ele>1843.25</ele></trkpt>
   <trkpt lon="7.107042" lat="45.550663"><ele>1842.25</ele></trkpt>
   <trkpt lon="7.107137" lat="45.550789"><ele>1841.5</ele></trkpt>
   <trkpt lon="7.107379" lat="45.551034"><ele>1839.5</ele></trkpt>
   <trkpt lon="7.107642" lat="45.551201"><ele>1837.75</ele></trkpt>
   <trkpt lon="7.107852" lat="45.551305"><ele>1837.0</ele></trkpt>
   <trkpt lon="7.108034" lat="45.551370"><ele>1836.0</ele></trkpt>
   <trkpt lon="7.108311" lat="45.551457"><ele>1835.5</ele></trkpt>
   <trkpt lon="7.108504" lat="45.551549"><ele>1835.0</ele></trkpt>
   <trkpt lon="7.108594" lat="45.551657"><ele>1835.0</ele></trkpt>
   <trkpt lon="7.108663" lat="45.551798"><ele>1834.75</ele></trkpt>
   <trkpt lon="7.108661" lat="45.551988"><ele>1835.0</ele></trkpt>
   <trkpt lon="7.108686" lat="45.552258"><ele>1836.0</ele></trkpt>
   <trkpt lon="7.108771" lat="45.552443"><ele>1836.0</ele></trkpt>
   <trkpt lon="7.108809" lat="45.552544"><ele>1835.75</ele></trkpt>
   <trkpt lon="7.108858" lat="45.552774"><ele>1835.25</ele></trkpt>
   <trkpt lon="7.108941" lat="45.552974"><ele>1834.5</ele></trkpt>
   <trkpt lon="7.109025" lat="45.553252"><ele>1834.5</ele></trkpt>
   <trkpt lon="7.109087" lat="45.553398"><ele>1834.0</ele></trkpt>
   <trkpt lon="7.109227" lat="45.553587"><ele>1833.75</ele></trkpt>
   <trkpt lon="7.109631" lat="45.553798"><ele>1833.0</ele></trkpt>
   <trkpt lon="7.109874" lat="45.553937"><ele>1831.75</ele></trkpt>
   <trkpt lon="7.110067" lat="45.554112"><ele>1832.0</ele></trkpt>
   <trkpt lon="7.110292" lat="45.554350"><ele>1831.0</ele></trkpt>
   <trkpt lon="7.110488" lat="45.554610"><ele>1831.0</ele></trkpt>
   <trkpt lon="7.110546" lat="45.554719"><ele>1831.0</ele></trkpt>
   <trkpt lon="7.110546" lat="45.554857"><ele>1829.5</ele></trkpt>
   <trkpt lon="7.110513" lat="45.555028"><ele>1828.0</ele></trkpt>
   <trkpt lon="7.110524" lat="45.555185"><ele>1827.0</ele></trkpt>
   <trkpt lon="7.110601" lat="45.555272"><ele>1825.5</ele></trkpt>
   <trkpt lon="7.110804" lat="45.555410"><ele>1825.0</ele></trkpt>
   <trkpt lon="7.110932" lat="45.555516"><ele>1824.25</ele></trkpt>
   <trkpt lon="7.111004" lat="45.555650"><ele>1822.75</ele></trkpt>
   <trkpt lon="7.111004" lat="45.555829"><ele>1821.75</ele></trkpt>
   <trkpt lon="7.110972" lat="45.556010"><ele>1819.75</ele></trkpt>
   <trkpt lon="7.110823" lat="45.556272"><ele>1817.75</ele></trkpt>
   <trkpt lon="7.110655" lat="45.556512"><ele>1816.75</ele></trkpt>
   <trkpt lon="7.110510" lat="45.556614"><ele>1816.5</ele></trkpt>
   <trkpt lon="7.110302" lat="45.556745"><ele>1815.25</ele></trkpt>
   <trkpt lon="7.110250" lat="45.556786"><ele>1815.0</ele></trkpt>
   <trkpt lon="7.110217" lat="45.556830"><ele>1814.5</ele></trkpt>
   <trkpt lon="7.110195" lat="45.556912"><ele>1813.5</ele></trkpt>
   <trkpt lon="7.110044" lat="45.557324"><ele>1811.25</ele></trkpt>
   <trkpt lon="7.109725" lat="45.557590"><ele>1810.0</ele></trkpt>
   <trkpt lon="7.109655" lat="45.557680"><ele>1809.75</ele></trkpt>
   <trkpt lon="7.109608" lat="45.557765"><ele>1809.5</ele></trkpt>
   <trkpt lon="7.109593" lat="45.557855"><ele>1809.25</ele></trkpt>
   <trkpt lon="7.109607" lat="45.557922"><ele>1808.5</ele></trkpt>
   <trkpt lon="7.109644" lat="45.557989"><ele>1807.25</ele></trkpt>
   <trkpt lon="7.109961" lat="45.558367"><ele>1805.25</ele></trkpt>
   <trkpt lon="7.110419" lat="45.558855"><ele>1806.0</ele></trkpt>
   <trkpt lon="7.110768" lat="45.559117"><ele>1805.25</ele></trkpt>
   <trkpt lon="7.111100" lat="45.559333"><ele>1805.5</ele></trkpt>
   <trkpt lon="7.111262" lat="45.559456"><ele>1806.5</ele></trkpt>
   <trkpt lon="7.111430" lat="45.559646"><ele>1806.25</ele></trkpt>
   <trkpt lon="7.111623" lat="45.559906"><ele>1805.0</ele></trkpt>
   <trkpt lon="7.111710" lat="45.560099"><ele>1804.0</ele></trkpt>
   <trkpt lon="7.111732" lat="45.560317"><ele>1803.25</ele></trkpt>
   <trkpt lon="7.111814" lat="45.560499"><ele>1802.5</ele></trkpt>
   <trkpt lon="7.112762" lat="45.561097"><ele>1801.0</ele></trkpt>
   <trkpt lon="7.113289" lat="45.561672"><ele>1798.75</ele></trkpt>
   <trkpt lon="7.113448" lat="45.561896"><ele>1794.25</ele></trkpt>
   <trkpt lon="7.113517" lat="45.562055"><ele>1791.5</ele></trkpt>
   <trkpt lon="7.113566" lat="45.562245"><ele>1788.5</ele></trkpt>
   <trkpt lon="7.113622" lat="45.562417"><ele>1786.25</ele></trkpt>
   <trkpt lon="7.113679" lat="45.562533"><ele>1784.25</ele></trkpt>
   <trkpt lon="7.113800" lat="45.562678"><ele>1782.25</ele></trkpt>
   <trkpt lon="7.113886" lat="45.562762"><ele>1781.75</ele></trkpt>
   <trkpt lon="7.114014" lat="45.562927"><ele>1779.25</ele></trkpt>
   <trkpt lon="7.114187" lat="45.563082"><ele>1777.25</ele></trkpt>
   <trkpt lon="7.114276" lat="45.563179"><ele>1775.0</ele></trkpt>
   <trkpt lon="7.114540" lat="45.563386"><ele>1772.0</ele></trkpt>
   <trkpt lon="7.114671" lat="45.563464"><ele>1771.75</ele></trkpt>
   <trkpt lon="7.114877" lat="45.563569"><ele>1769.5</ele></trkpt>
   <trkpt lon="7.115077" lat="45.563693"><ele>1767.0</ele></trkpt>
   <trkpt lon="7.115225" lat="45.563806"><ele>1765.0</ele></trkpt>
   <trkpt lon="7.115496" lat="45.564058"><ele>1761.75</ele></trkpt>
   <trkpt lon="7.115730" lat="45.564289"><ele>1759.5</ele></trkpt>
   <trkpt lon="7.115922" lat="45.564521"><ele>1757.0</ele></trkpt>
   <trkpt lon="7.116008" lat="45.564667"><ele>1755.5</ele></trkpt>
   <trkpt lon="7.116147" lat="45.564998"><ele>1755.5</ele></trkpt>
   <trkpt lon="7.116230" lat="45.565160"><ele>1754.25</ele></trkpt>
   <trkpt lon="7.116420" lat="45.565478"><ele>1750.75</ele></trkpt>
   <trkpt lon="7.116561" lat="45.565728"><ele>1749.0</ele></trkpt>
   <trkpt lon="7.116591" lat="45.565829"><ele>1748.75</ele></trkpt>
   <trkpt lon="7.116578" lat="45.565964"><ele>1747.25</ele></trkpt>
   <trkpt lon="7.116574" lat="45.566147"><ele>1745.5</ele></trkpt>
   <trkpt lon="7.116601" lat="45.566321"><ele>1744.5</ele></trkpt>
   <trkpt lon="7.116816" lat="45.566807"><ele>1740.75</ele></trkpt>
   <trkpt lon="7.117121" lat="45.567622"><ele>1732.75</ele></trkpt>
   <trkpt lon="7.117302" lat="45.568153"><ele>1730.0</ele></trkpt>
   <trkpt lon="7.117318" lat="45.568198"><ele>1729.75</ele></trkpt>
   <trkpt lon="7.117461" lat="45.568577"><ele>1727.0</ele></trkpt>
   <trkpt lon="7.117513" lat="45.568728"><ele>1726.0</ele></trkpt>
   <trkpt lon="7.117548" lat="45.568856"><ele>1725.0</ele></trkpt>
   <trkpt lon="7.117549" lat="45.568866"><ele>1725.0</ele></trkpt>
   <trkpt lon="7.117948" lat="45.568866"><ele>1725.0</ele></trkpt>
   <trkpt lon="7.118043" lat="45.568881"><ele>1725.0</ele></trkpt>
   <trkpt lon="7.118154" lat="45.568911"><ele>1725.0</ele></trkpt>
  </trkseg>
 </trk>
</gpx>
