<?xml version="1.0" encoding="UTF-8"?>
<!-- track-length = 20448 filtered ascend = 638 plain-ascend = 488 cost=25802 energy=.2kwh time=4h 29m 6s -->
<gpx 
 xmlns="http://www.topografix.com/GPX/1/1" 
 xmlns:xsi="http://www.w3.org/2001/XMLSchema-instance" 
 xsi:schemaLocation="http://www.topografix.com/GPX/1/1 http://www.topografix.com/GPX/1/1/gpx.xsd" 
 creator="BRouter-1.7.9" version="1.1">
 <trk>
  <name>tour-cervino-tappa-7-st-niklaus-zermatt</name>
  <trkseg>
   <trkpt lon="7.802578" lat="46.176979"><ele>1113.75</ele></trkpt>
   <trkpt lon="7.802346" lat="46.176659"><ele>1113.0</ele></trkpt>
   <trkpt lon="7.802282" lat="46.176433"><ele>1113.25</ele></trkpt>
   <trkpt lon="7.802222" lat="46.176352"><ele>1114.0</ele></trkpt>
   <trkpt lon="7.802102" lat="46.176130"><ele>1115.5</ele></trkpt>
   <trkpt lon="7.802069" lat="46.176046"><ele>1115.75</ele></trkpt>
   <trkpt lon="7.801999" lat="46.175871"><ele>1115.5</ele></trkpt>
   <trkpt lon="7.801977" lat="46.175845"><ele>1115.5</ele></trkpt>
   <trkpt lon="7.801841" lat="46.175690"><ele>1115.5</ele></trkpt>
   <trkpt lon="7.801649" lat="46.175430"><ele>1115.25</ele></trkpt>
   <trkpt lon="7.801590" lat="46.175305"><ele>1115.5</ele></trkpt>
   <trkpt lon="7.801553" lat="46.175234"><ele>1115.5</ele></trkpt>
   <trkpt lon="7.801540" lat="46.175140"><ele>1114.75</ele></trkpt>
   <trkpt lon="7.801464" lat="46.175064"><ele>1115.25</ele></trkpt>
   <trkpt lon="7.801149" lat="46.174747"><ele>1116.0</ele></trkpt>
   <trkpt lon="7.801084" lat="46.174633"><ele>1115.5</ele></trkpt>
   <trkpt lon="7.800856" lat="46.174537"><ele>1118.75</ele></trkpt>
   <trkpt lon="7.800286" lat="46.174188"><ele>1124.0</ele></trkpt>
   <trkpt lon="7.800111" lat="46.174078"><ele>1126.0</ele></trkpt>
   <trkpt lon="7.800066" lat="46.174020"><ele>1125.75</ele></trkpt>
   <trkpt lon="7.800034" lat="46.173909"><ele>1124.5</ele></trkpt>
   <trkpt lon="7.799971" lat="46.173830"><ele>1124.5</ele></trkpt>
   <trkpt lon="7.799813" lat="46.173645"><ele>1125.25</ele></trkpt>
   <trkpt lon="7.799678" lat="46.173514"><ele>1125.25</ele></trkpt>
   <trkpt lon="7.799633" lat="46.173464"><ele>1124.75</ele></trkpt>
   <trkpt lon="7.799505" lat="46.173161"><ele>1121.5</ele></trkpt>
   <trkpt lon="7.799456" lat="46.173055"><ele>1120.75</ele></trkpt>
   <trkpt lon="7.799284" lat="46.172743"><ele>1118.5</ele></trkpt>
   <trkpt lon="7.799190" lat="46.172554"><ele>1117.5</ele></trkpt>
   <trkpt lon="7.799035" lat="46.172515"><ele>1119.5</ele></trkpt>
   <trkpt lon="7.798862" lat="46.172269"><ele>1121.25</ele></trkpt>
   <trkpt lon="7.798660" lat="46.171982"><ele>1124.25</ele></trkpt>
   <trkpt lon="7.798559" lat="46.171832"><ele>1125.75</ele></trkpt>
   <trkpt lon="7.798605" lat="46.171774"><ele>1125.5</ele></trkpt>
   <trkpt lon="7.798626" lat="46.171704"><ele>1125.75</ele></trkpt>
   <trkpt lon="7.798628" lat="46.171633"><ele>1125.75</ele></trkpt>
   <trkpt lon="7.798657" lat="46.171521"><ele>1125.25</ele></trkpt>
   <trkpt lon="7.798815" lat="46.171247"><ele>1123.5</ele></trkpt>
   <trkpt lon="7.798938" lat="46.171072"><ele>1123.5</ele></trkpt>
   <trkpt lon="7.799027" lat="46.170759"><ele>1124.5</ele></trkpt>
   <trkpt lon="7.799088" lat="46.170456"><ele>1125.5</ele></trkpt>
   <trkpt lon="7.799172" lat="46.170254"><ele>1125.0</ele></trkpt>
   <trkpt lon="7.799228" lat="46.170155"><ele>1124.25</ele></trkpt>
   <trkpt lon="7.799300" lat="46.170031"><ele>1122.5</ele></trkpt>
   <trkpt lon="7.799335" lat="46.169895"><ele>1121.75</ele></trkpt>
   <trkpt lon="7.799356" lat="46.169609"><ele>1121.5</ele></trkpt>
   <trkpt lon="7.799314" lat="46.169337"><ele>1122.0</ele></trkpt>
   <trkpt lon="7.799306" lat="46.169177"><ele>1122.25</ele></trkpt>
   <trkpt lon="7.799437" lat="46.168906"><ele>1123.0</ele></trkpt>
   <trkpt lon="7.799603" lat="46.168657"><ele>1124.75</ele></trkpt>
   <trkpt lon="7.799721" lat="46.168464"><ele>1127.0</ele></trkpt>
   <trkpt lon="7.799741" lat="46.168431"><ele>1127.25</ele></trkpt>
   <trkpt lon="7.799815" lat="46.168304"><ele>1127.25</ele></trkpt>
   <trkpt lon="7.799799" lat="46.168255"><ele>1127.75</ele></trkpt>
   <trkpt lon="7.799786" lat="46.168171"><ele>1128.25</ele></trkpt>
   <trkpt lon="7.799674" lat="46.167938"><ele>1130.5</ele></trkpt>
   <trkpt lon="7.799528" lat="46.167688"><ele>1131.5</ele></trkpt>
   <trkpt lon="7.799066" lat="46.167116"><ele>1136.25</ele></trkpt>
   <trkpt lon="7.798828" lat="46.166912"><ele>1137.75</ele></trkpt>
   <trkpt lon="7.798477" lat="46.166720"><ele>1139.75</ele></trkpt>
   <trkpt lon="7.798187" lat="46.166599"><ele>1142.0</ele></trkpt>
   <trkpt lon="7.797553" lat="46.166365"><ele>1144.75</ele></trkpt>
   <trkpt lon="7.797228" lat="46.166175"><ele>1145.0</ele></trkpt>
   <trkpt lon="7.796597" lat="46.165827"><ele>1146.5</ele></trkpt>
   <trkpt lon="7.796307" lat="46.165631"><ele>1145.5</ele></trkpt>
   <trkpt lon="7.796261" lat="46.165623"><ele>1146.25</ele></trkpt>
   <trkpt lon="7.796108" lat="46.165645"><ele>1150.0</ele></trkpt>
   <trkpt lon="7.796077" lat="46.165732"><ele>1151.25</ele></trkpt>
   <trkpt lon="7.796004" lat="46.165762"><ele>1152.75</ele></trkpt>
   <trkpt lon="7.795934" lat="46.165780"><ele>1153.75</ele></trkpt>
   <trkpt lon="7.795622" lat="46.165170"><ele>1153.5</ele></trkpt>
   <trkpt lon="7.794941" lat="46.163838"><ele>1157.0</ele></trkpt>
   <trkpt lon="7.794832" lat="46.163546"><ele>1157.5</ele></trkpt>
   <trkpt lon="7.794255" lat="46.163002"><ele>1161.25</ele></trkpt>
   <trkpt lon="7.794013" lat="46.162740"><ele>1162.75</ele></trkpt>
   <trkpt lon="7.793954" lat="46.162695"><ele>1163.0</ele></trkpt>
   <trkpt lon="7.793889" lat="46.162651"><ele>1163.5</ele></trkpt>
   <trkpt lon="7.793747" lat="46.161812"><ele>1166.75</ele></trkpt>
   <trkpt lon="7.793642" lat="46.161450"><ele>1168.75</ele></trkpt>
   <trkpt lon="7.793577" lat="46.161255"><ele>1169.5</ele></trkpt>
   <trkpt lon="7.793519" lat="46.161084"><ele>1169.75</ele></trkpt>
   <trkpt lon="7.793468" lat="46.160931"><ele>1170.75</ele></trkpt>
   <trkpt lon="7.793266" lat="46.160523"><ele>1172.75</ele></trkpt>
   <trkpt lon="7.793273" lat="46.160489"><ele>1172.75</ele></trkpt>
   <trkpt lon="7.793342" lat="46.160368"><ele>1172.0</ele></trkpt>
   <trkpt lon="7.793361" lat="46.160306"><ele>1172.25</ele></trkpt>
   <trkpt lon="7.793346" lat="46.160250"><ele>1172.75</ele></trkpt>
   <trkpt lon="7.793307" lat="46.160167"><ele>1173.0</ele></trkpt>
   <trkpt lon="7.792402" lat="46.159214"><ele>1181.75</ele></trkpt>
   <trkpt lon="7.791979" lat="46.158920"><ele>1186.5</ele></trkpt>
   <trkpt lon="7.791850" lat="46.158816"><ele>1188.5</ele></trkpt>
   <trkpt lon="7.791624" lat="46.158490"><ele>1192.5</ele></trkpt>
   <trkpt lon="7.791615" lat="46.158403"><ele>1193.0</ele></trkpt>
   <trkpt lon="7.791636" lat="46.158291"><ele>1193.75</ele></trkpt>
   <trkpt lon="7.791984" lat="46.157940"><ele>1196.75</ele></trkpt>
   <trkpt lon="7.792036" lat="46.157842"><ele>1197.75</ele></trkpt>
   <trkpt lon="7.792047" lat="46.157652"><ele>1201.0</ele></trkpt>
   <trkpt lon="7.792101" lat="46.157118"><ele>1205.25</ele></trkpt>
   <trkpt lon="7.792085" lat="46.157074"><ele>1205.0</ele></trkpt>
   <trkpt lon="7.792026" lat="46.156914"><ele>1205.5</ele></trkpt>
   <trkpt lon="7.791997" lat="46.156828"><ele>1206.75</ele></trkpt>
   <trkpt lon="7.791949" lat="46.156696"><ele>1208.75</ele></trkpt>
   <trkpt lon="7.791915" lat="46.156617"><ele>1209.0</ele></trkpt>
   <trkpt lon="7.791726" lat="46.156259"><ele>1210.0</ele></trkpt>
   <trkpt lon="7.791671" lat="46.155880"><ele>1209.75</ele></trkpt>
   <trkpt lon="7.791559" lat="46.155673"><ele>1208.5</ele></trkpt>
   <trkpt lon="7.791304" lat="46.155421"><ele>1209.5</ele></trkpt>
   <trkpt lon="7.790955" lat="46.155197"><ele>1210.75</ele></trkpt>
   <trkpt lon="7.790059" lat="46.154903"><ele>1212.75</ele></trkpt>
   <trkpt lon="7.789962" lat="46.154814"><ele>1213.25</ele></trkpt>
   <trkpt lon="7.789960" lat="46.154695"><ele>1211.25</ele></trkpt>
   <trkpt lon="7.790019" lat="46.154626"><ele>1208.75</ele></trkpt>
   <trkpt lon="7.790276" lat="46.154341"><ele>1208.5</ele></trkpt>
   <trkpt lon="7.790346" lat="46.154276"><ele>1211.0</ele></trkpt>
   <trkpt lon="7.790428" lat="46.154136"><ele>1214.5</ele></trkpt>
   <trkpt lon="7.790473" lat="46.153982"><ele>1215.5</ele></trkpt>
   <trkpt lon="7.790467" lat="46.153781"><ele>1217.0</ele></trkpt>
   <trkpt lon="7.790296" lat="46.153370"><ele>1221.0</ele></trkpt>
   <trkpt lon="7.790181" lat="46.153078"><ele>1222.25</ele></trkpt>
   <trkpt lon="7.790144" lat="46.152969"><ele>1223.0</ele></trkpt>
   <trkpt lon="7.790043" lat="46.152671"><ele>1223.25</ele></trkpt>
   <trkpt lon="7.790036" lat="46.152545"><ele>1222.75</ele></trkpt>
   <trkpt lon="7.790116" lat="46.152142"><ele>1225.25</ele></trkpt>
   <trkpt lon="7.790289" lat="46.151034"><ele>1227.25</ele></trkpt>
   <trkpt lon="7.790234" lat="46.150631"><ele>1227.25</ele></trkpt>
   <trkpt lon="7.790271" lat="46.150427"><ele>1227.25</ele></trkpt>
   <trkpt lon="7.790624" lat="46.149398"><ele>1227.0</ele></trkpt>
   <trkpt lon="7.790918" lat="46.148737"><ele>1226.5</ele></trkpt>
   <trkpt lon="7.791023" lat="46.148506"><ele>1226.5</ele></trkpt>
   <trkpt lon="7.791005" lat="46.148454"><ele>1226.0</ele></trkpt>
   <trkpt lon="7.790971" lat="46.148360"><ele>1225.0</ele></trkpt>
   <trkpt lon="7.791053" lat="46.148255"><ele>1225.75</ele></trkpt>
   <trkpt lon="7.791298" lat="46.147991"><ele>1226.25</ele></trkpt>
   <trkpt lon="7.791298" lat="46.147837"><ele>1225.25</ele></trkpt>
   <trkpt lon="7.791255" lat="46.147783"><ele>1225.75</ele></trkpt>
   <trkpt lon="7.791237" lat="46.147764"><ele>1226.0</ele></trkpt>
   <trkpt lon="7.791036" lat="46.147578"><ele>1228.75</ele></trkpt>
   <trkpt lon="7.790797" lat="46.147364"><ele>1228.75</ele></trkpt>
   <trkpt lon="7.790697" lat="46.147280"><ele>1229.25</ele></trkpt>
   <trkpt lon="7.790433" lat="46.147017"><ele>1230.75</ele></trkpt>
   <trkpt lon="7.789600" lat="46.146267"><ele>1233.0</ele></trkpt>
   <trkpt lon="7.789512" lat="46.146162"><ele>1232.0</ele></trkpt>
   <trkpt lon="7.789456" lat="46.146055"><ele>1231.0</ele></trkpt>
   <trkpt lon="7.789418" lat="46.145935"><ele>1231.0</ele></trkpt>
   <trkpt lon="7.789406" lat="46.145818"><ele>1231.0</ele></trkpt>
   <trkpt lon="7.789412" lat="46.144832"><ele>1231.5</ele></trkpt>
   <trkpt lon="7.789425" lat="46.144760"><ele>1231.75</ele></trkpt>
   <trkpt lon="7.789461" lat="46.144703"><ele>1232.0</ele></trkpt>
   <trkpt lon="7.789671" lat="46.144509"><ele>1231.75</ele></trkpt>
   <trkpt lon="7.789773" lat="46.144318"><ele>1232.5</ele></trkpt>
   <trkpt lon="7.789788" lat="46.144172"><ele>1233.5</ele></trkpt>
   <trkpt lon="7.789785" lat="46.144104"><ele>1233.75</ele></trkpt>
   <trkpt lon="7.789763" lat="46.143852"><ele>1233.75</ele></trkpt>
   <trkpt lon="7.789769" lat="46.143737"><ele>1234.0</ele></trkpt>
   <trkpt lon="7.789926" lat="46.143398"><ele>1235.75</ele></trkpt>
   <trkpt lon="7.790364" lat="46.143166"><ele>1236.0</ele></trkpt>
   <trkpt lon="7.790565" lat="46.142965"><ele>1235.75</ele></trkpt>
   <trkpt lon="7.790656" lat="46.142769"><ele>1235.25</ele></trkpt>
   <trkpt lon="7.790887" lat="46.141910"><ele>1232.75</ele></trkpt>
   <trkpt lon="7.790837" lat="46.141775"><ele>1232.75</ele></trkpt>
   <trkpt lon="7.790760" lat="46.141568"><ele>1233.5</ele></trkpt>
   <trkpt lon="7.790738" lat="46.141531"><ele>1233.75</ele></trkpt>
   <trkpt lon="7.790697" lat="46.141460"><ele>1234.0</ele></trkpt>
   <trkpt lon="7.790683" lat="46.141436"><ele>1234.25</ele></trkpt>
   <trkpt lon="7.790577" lat="46.141232"><ele>1235.75</ele></trkpt>
   <trkpt lon="7.790514" lat="46.141051"><ele>1236.75</ele></trkpt>
   <trkpt lon="7.790392" lat="46.140513"><ele>1234.5</ele></trkpt>
   <trkpt lon="7.790264" lat="46.140402"><ele>1235.5</ele></trkpt>
   <trkpt lon="7.790017" lat="46.140108"><ele>1235.25</ele></trkpt>
   <trkpt lon="7.789943" lat="46.139897"><ele>1235.0</ele></trkpt>
   <trkpt lon="7.789936" lat="46.139764"><ele>1235.0</ele></trkpt>
   <trkpt lon="7.789925" lat="46.139601"><ele>1235.0</ele></trkpt>
   <trkpt lon="7.789937" lat="46.139510"><ele>1235.0</ele></trkpt>
   <trkpt lon="7.790184" lat="46.138939"><ele>1236.0</ele></trkpt>
   <trkpt lon="7.790211" lat="46.138858"><ele>1236.0</ele></trkpt>
   <trkpt lon="7.790281" lat="46.138467"><ele>1236.5</ele></trkpt>
   <trkpt lon="7.790404" lat="46.137952"><ele>1237.75</ele></trkpt>
   <trkpt lon="7.790418" lat="46.137817"><ele>1238.25</ele></trkpt>
   <trkpt lon="7.790407" lat="46.137720"><ele>1238.25</ele></trkpt>
   <trkpt lon="7.790378" lat="46.137641"><ele>1238.25</ele></trkpt>
   <trkpt lon="7.790385" lat="46.137591"><ele>1238.0</ele></trkpt>
   <trkpt lon="7.790409" lat="46.137581"><ele>1237.75</ele></trkpt>
   <trkpt lon="7.790135" lat="46.137278"><ele>1238.5</ele></trkpt>
   <trkpt lon="7.789947" lat="46.137077"><ele>1239.0</ele></trkpt>
   <trkpt lon="7.789824" lat="46.136868"><ele>1239.25</ele></trkpt>
   <trkpt lon="7.789577" lat="46.136024"><ele>1240.5</ele></trkpt>
   <trkpt lon="7.789475" lat="46.135835"><ele>1242.5</ele></trkpt>
   <trkpt lon="7.789224" lat="46.135553"><ele>1243.25</ele></trkpt>
   <trkpt lon="7.789182" lat="46.135450"><ele>1243.75</ele></trkpt>
   <trkpt lon="7.789176" lat="46.135355"><ele>1243.75</ele></trkpt>
   <trkpt lon="7.789315" lat="46.134430"><ele>1247.75</ele></trkpt>
   <trkpt lon="7.789348" lat="46.134336"><ele>1248.0</ele></trkpt>
   <trkpt lon="7.789490" lat="46.134049"><ele>1247.75</ele></trkpt>
   <trkpt lon="7.789509" lat="46.133564"><ele>1250.25</ele></trkpt>
   <trkpt lon="7.789559" lat="46.133399"><ele>1251.0</ele></trkpt>
   <trkpt lon="7.789605" lat="46.133300"><ele>1251.25</ele></trkpt>
   <trkpt lon="7.789746" lat="46.133159"><ele>1250.5</ele></trkpt>
   <trkpt lon="7.789788" lat="46.133088"><ele>1250.0</ele></trkpt>
   <trkpt lon="7.789852" lat="46.132926"><ele>1250.5</ele></trkpt>
   <trkpt lon="7.789896" lat="46.132864"><ele>1250.5</ele></trkpt>
   <trkpt lon="7.789971" lat="46.132794"><ele>1250.75</ele></trkpt>
   <trkpt lon="7.790144" lat="46.132695"><ele>1249.0</ele></trkpt>
   <trkpt lon="7.790302" lat="46.132580"><ele>1248.0</ele></trkpt>
   <trkpt lon="7.790628" lat="46.132253"><ele>1246.75</ele></trkpt>
   <trkpt lon="7.790776" lat="46.132048"><ele>1247.5</ele></trkpt>
   <trkpt lon="7.790839" lat="46.131855"><ele>1248.5</ele></trkpt>
   <trkpt lon="7.790840" lat="46.131685"><ele>1249.75</ele></trkpt>
   <trkpt lon="7.790838" lat="46.131526"><ele>1252.25</ele></trkpt>
   <trkpt lon="7.790802" lat="46.131383"><ele>1255.75</ele></trkpt>
   <trkpt lon="7.790625" lat="46.131294"><ele>1260.75</ele></trkpt>
   <trkpt lon="7.790481" lat="46.131330"><ele>1263.75</ele></trkpt>
   <trkpt lon="7.790457" lat="46.131218"><ele>1264.75</ele></trkpt>
   <trkpt lon="7.790434" lat="46.131114"><ele>1266.0</ele></trkpt>
   <trkpt lon="7.790427" lat="46.131029"><ele>1266.5</ele></trkpt>
   <trkpt lon="7.790542" lat="46.130759"><ele>1265.25</ele></trkpt>
   <trkpt lon="7.790383" lat="46.130502"><ele>1269.25</ele></trkpt>
   <trkpt lon="7.790278" lat="46.130406"><ele>1271.25</ele></trkpt>
   <trkpt lon="7.789967" lat="46.130278"><ele>1277.5</ele></trkpt>
   <trkpt lon="7.789839" lat="46.130345"><ele>1280.5</ele></trkpt>
   <trkpt lon="7.789756" lat="46.130335"><ele>1282.25</ele></trkpt>
   <trkpt lon="7.789759" lat="46.130301"><ele>1282.25</ele></trkpt>
   <trkpt lon="7.789514" lat="46.130162"><ele>1288.5</ele></trkpt>
   <trkpt lon="7.789260" lat="46.129819"><ele>1291.5</ele></trkpt>
   <trkpt lon="7.788748" lat="46.129647"><ele>1301.0</ele></trkpt>
   <trkpt lon="7.788601" lat="46.129498"><ele>1302.0</ele></trkpt>
   <trkpt lon="7.788448" lat="46.129416"><ele>1302.75</ele></trkpt>
   <trkpt lon="7.788288" lat="46.129409"><ele>1305.5</ele></trkpt>
   <trkpt lon="7.788224" lat="46.129350"><ele>1304.75</ele></trkpt>
   <trkpt lon="7.788254" lat="46.129311"><ele>1303.0</ele></trkpt>
   <trkpt lon="7.788020" lat="46.129256"><ele>1307.0</ele></trkpt>
   <trkpt lon="7.787673" lat="46.129064"><ele>1310.0</ele></trkpt>
   <trkpt lon="7.787456" lat="46.129013"><ele>1311.25</ele></trkpt>
   <trkpt lon="7.787154" lat="46.129002"><ele>1315.0</ele></trkpt>
   <trkpt lon="7.786990" lat="46.128985"><ele>1317.0</ele></trkpt>
   <trkpt lon="7.786962" lat="46.128841"><ele>1313.0</ele></trkpt>
   <trkpt lon="7.786861" lat="46.128657"><ele>1310.5</ele></trkpt>
   <trkpt lon="7.786735" lat="46.128320"><ele>1308.0</ele></trkpt>
   <trkpt lon="7.786950" lat="46.127890"><ele>1297.0</ele></trkpt>
   <trkpt lon="7.786834" lat="46.127640"><ele>1300.25</ele></trkpt>
   <trkpt lon="7.786674" lat="46.127407"><ele>1305.25</ele></trkpt>
   <trkpt lon="7.786645" lat="46.127172"><ele>1303.5</ele></trkpt>
   <trkpt lon="7.786653" lat="46.126886"><ele>1301.0</ele></trkpt>
   <trkpt lon="7.786678" lat="46.126681"><ele>1300.25</ele></trkpt>
   <trkpt lon="7.787268" lat="46.125949"><ele>1284.5</ele></trkpt>
   <trkpt lon="7.787362" lat="46.125366"><ele>1280.75</ele></trkpt>
   <trkpt lon="7.787103" lat="46.125055"><ele>1287.5</ele></trkpt>
   <trkpt lon="7.787149" lat="46.124647"><ele>1285.0</ele></trkpt>
   <trkpt lon="7.787227" lat="46.124396"><ele>1283.5</ele></trkpt>
   <trkpt lon="7.787117" lat="46.124103"><ele>1286.5</ele></trkpt>
   <trkpt lon="7.787302" lat="46.123767"><ele>1279.5</ele></trkpt>
   <trkpt lon="7.787236" lat="46.123527"><ele>1278.0</ele></trkpt>
   <trkpt lon="7.787650" lat="46.123652"><ele>1267.75</ele></trkpt>
   <trkpt lon="7.787945" lat="46.123528"><ele>1270.25</ele></trkpt>
   <trkpt lon="7.787865" lat="46.123466"><ele>1269.5</ele></trkpt>
   <trkpt lon="7.787854" lat="46.123403"><ele>1270.75</ele></trkpt>
   <trkpt lon="7.787906" lat="46.123310"><ele>1273.5</ele></trkpt>
   <trkpt lon="7.787832" lat="46.123133"><ele>1274.5</ele></trkpt>
   <trkpt lon="7.787789" lat="46.122941"><ele>1275.0</ele></trkpt>
   <trkpt lon="7.787854" lat="46.121539"><ele>1277.25</ele></trkpt>
   <trkpt lon="7.787837" lat="46.120951"><ele>1280.25</ele></trkpt>
   <trkpt lon="7.787754" lat="46.120598"><ele>1280.5</ele></trkpt>
   <trkpt lon="7.787648" lat="46.120352"><ele>1283.25</ele></trkpt>
   <trkpt lon="7.787394" lat="46.119920"><ele>1284.5</ele></trkpt>
   <trkpt lon="7.786463" lat="46.119049"><ele>1291.5</ele></trkpt>
   <trkpt lon="7.786392" lat="46.118964"><ele>1293.25</ele></trkpt>
   <trkpt lon="7.786326" lat="46.118857"><ele>1294.25</ele></trkpt>
   <trkpt lon="7.786162" lat="46.118506"><ele>1298.75</ele></trkpt>
   <trkpt lon="7.786129" lat="46.118420"><ele>1299.25</ele></trkpt>
   <trkpt lon="7.786123" lat="46.118374"><ele>1299.5</ele></trkpt>
   <trkpt lon="7.786129" lat="46.118321"><ele>1300.25</ele></trkpt>
   <trkpt lon="7.786158" lat="46.118217"><ele>1302.0</ele></trkpt>
   <trkpt lon="7.786156" lat="46.118163"><ele>1302.75</ele></trkpt>
   <trkpt lon="7.786142" lat="46.118127"><ele>1303.25</ele></trkpt>
   <trkpt lon="7.786103" lat="46.118096"><ele>1303.25</ele></trkpt>
   <trkpt lon="7.785991" lat="46.118042"><ele>1303.75</ele></trkpt>
   <trkpt lon="7.785953" lat="46.118003"><ele>1304.25</ele></trkpt>
   <trkpt lon="7.785728" lat="46.117453"><ele>1308.5</ele></trkpt>
   <trkpt lon="7.785635" lat="46.117272"><ele>1310.5</ele></trkpt>
   <trkpt lon="7.785568" lat="46.117187"><ele>1311.75</ele></trkpt>
   <trkpt lon="7.785437" lat="46.117065"><ele>1313.75</ele></trkpt>
   <trkpt lon="7.785412" lat="46.117029"><ele>1314.25</ele></trkpt>
   <trkpt lon="7.785399" lat="46.116993"><ele>1314.75</ele></trkpt>
   <trkpt lon="7.785395" lat="46.116950"><ele>1315.5</ele></trkpt>
   <trkpt lon="7.785406" lat="46.116897"><ele>1315.25</ele></trkpt>
   <trkpt lon="7.785423" lat="46.116862"><ele>1315.5</ele></trkpt>
   <trkpt lon="7.785501" lat="46.116753"><ele>1316.25</ele></trkpt>
   <trkpt lon="7.785565" lat="46.116694"><ele>1317.0</ele></trkpt>
   <trkpt lon="7.785706" lat="46.116588"><ele>1318.25</ele></trkpt>
   <trkpt lon="7.785762" lat="46.116516"><ele>1318.75</ele></trkpt>
   <trkpt lon="7.785865" lat="46.116357"><ele>1319.25</ele></trkpt>
   <trkpt lon="7.786035" lat="46.116164"><ele>1322.25</ele></trkpt>
   <trkpt lon="7.786236" lat="46.115991"><ele>1324.75</ele></trkpt>
   <trkpt lon="7.786318" lat="46.115938"><ele>1325.25</ele></trkpt>
   <trkpt lon="7.786422" lat="46.115887"><ele>1326.25</ele></trkpt>
   <trkpt lon="7.787016" lat="46.115525"><ele>1334.25</ele></trkpt>
   <trkpt lon="7.787168" lat="46.115407"><ele>1335.75</ele></trkpt>
   <trkpt lon="7.787247" lat="46.115322"><ele>1337.0</ele></trkpt>
   <trkpt lon="7.787349" lat="46.115193"><ele>1338.0</ele></trkpt>
   <trkpt lon="7.787497" lat="46.114969"><ele>1340.75</ele></trkpt>
   <trkpt lon="7.787519" lat="46.114907"><ele>1341.0</ele></trkpt>
   <trkpt lon="7.787532" lat="46.114716"><ele>1341.25</ele></trkpt>
   <trkpt lon="7.787575" lat="46.114440"><ele>1343.75</ele></trkpt>
   <trkpt lon="7.787584" lat="46.114294"><ele>1344.75</ele></trkpt>
   <trkpt lon="7.787568" lat="46.114026"><ele>1347.25</ele></trkpt>
   <trkpt lon="7.787532" lat="46.113746"><ele>1350.25</ele></trkpt>
   <trkpt lon="7.787535" lat="46.113645"><ele>1351.75</ele></trkpt>
   <trkpt lon="7.787549" lat="46.113558"><ele>1352.75</ele></trkpt>
   <trkpt lon="7.787613" lat="46.113321"><ele>1355.25</ele></trkpt>
   <trkpt lon="7.787622" lat="46.113222"><ele>1356.5</ele></trkpt>
   <trkpt lon="7.787611" lat="46.113073"><ele>1358.5</ele></trkpt>
   <trkpt lon="7.787564" lat="46.112954"><ele>1360.0</ele></trkpt>
   <trkpt lon="7.787536" lat="46.112814"><ele>1362.25</ele></trkpt>
   <trkpt lon="7.787494" lat="46.112729"><ele>1363.5</ele></trkpt>
   <trkpt lon="7.787389" lat="46.112593"><ele>1364.75</ele></trkpt>
   <trkpt lon="7.787315" lat="46.112521"><ele>1366.25</ele></trkpt>
   <trkpt lon="7.786891" lat="46.112202"><ele>1370.5</ele></trkpt>
   <trkpt lon="7.786701" lat="46.112119"><ele>1370.5</ele></trkpt>
   <trkpt lon="7.786429" lat="46.111976"><ele>1373.75</ele></trkpt>
   <trkpt lon="7.786368" lat="46.111931"><ele>1374.5</ele></trkpt>
   <trkpt lon="7.786156" lat="46.111707"><ele>1378.25</ele></trkpt>
   <trkpt lon="7.786097" lat="46.111625"><ele>1380.0</ele></trkpt>
   <trkpt lon="7.785859" lat="46.111044"><ele>1388.5</ele></trkpt>
   <trkpt lon="7.785836" lat="46.110907"><ele>1390.0</ele></trkpt>
   <trkpt lon="7.785853" lat="46.110837"><ele>1390.75</ele></trkpt>
   <trkpt lon="7.785962" lat="46.110631"><ele>1392.25</ele></trkpt>
   <trkpt lon="7.785970" lat="46.110595"><ele>1392.5</ele></trkpt>
   <trkpt lon="7.785965" lat="46.110558"><ele>1392.75</ele></trkpt>
   <trkpt lon="7.785949" lat="46.110522"><ele>1393.5</ele></trkpt>
   <trkpt lon="7.785923" lat="46.110491"><ele>1394.0</ele></trkpt>
   <trkpt lon="7.785597" lat="46.110293"><ele>1396.0</ele></trkpt>
   <trkpt lon="7.785013" lat="46.109919"><ele>1399.75</ele></trkpt>
   <trkpt lon="7.784796" lat="46.109750"><ele>1401.5</ele></trkpt>
   <trkpt lon="7.784585" lat="46.109557"><ele>1402.75</ele></trkpt>
   <trkpt lon="7.783979" lat="46.108915"><ele>1409.75</ele></trkpt>
   <trkpt lon="7.783603" lat="46.108477"><ele>1415.0</ele></trkpt>
   <trkpt lon="7.783516" lat="46.108364"><ele>1415.5</ele></trkpt>
   <trkpt lon="7.783361" lat="46.108041"><ele>1418.0</ele></trkpt>
   <trkpt lon="7.783039" lat="46.107460"><ele>1417.25</ele></trkpt>
   <trkpt lon="7.782948" lat="46.107304"><ele>1415.5</ele></trkpt>
   <trkpt lon="7.782715" lat="46.106958"><ele>1417.25</ele></trkpt>
   <trkpt lon="7.782502" lat="46.106727"><ele>1417.5</ele></trkpt>
   <trkpt lon="7.781942" lat="46.106247"><ele>1415.75</ele></trkpt>
   <trkpt lon="7.781568" lat="46.105862"><ele>1416.5</ele></trkpt>
   <trkpt lon="7.781249" lat="46.105435"><ele>1414.75</ele></trkpt>
   <trkpt lon="7.780972" lat="46.104944"><ele>1413.5</ele></trkpt>
   <trkpt lon="7.780826" lat="46.104511"><ele>1413.5</ele></trkpt>
   <trkpt lon="7.780737" lat="46.104067"><ele>1414.0</ele></trkpt>
   <trkpt lon="7.780723" lat="46.103878"><ele>1413.75</ele></trkpt>
   <trkpt lon="7.780736" lat="46.103816"><ele>1413.75</ele></trkpt>
   <trkpt lon="7.780772" lat="46.103766"><ele>1414.25</ele></trkpt>
   <trkpt lon="7.780796" lat="46.103724"><ele>1414.5</ele></trkpt>
   <trkpt lon="7.780800" lat="46.103699"><ele>1414.5</ele></trkpt>
   <trkpt lon="7.780725" lat="46.103265"><ele>1414.5</ele></trkpt>
   <trkpt lon="7.780585" lat="46.103258"><ele>1413.75</ele></trkpt>
   <trkpt lon="7.780525" lat="46.103235"><ele>1413.0</ele></trkpt>
   <trkpt lon="7.780483" lat="46.103209"><ele>1412.25</ele></trkpt>
   <trkpt lon="7.780435" lat="46.103120"><ele>1411.25</ele></trkpt>
   <trkpt lon="7.780433" lat="46.103072"><ele>1411.25</ele></trkpt>
   <trkpt lon="7.780567" lat="46.102553"><ele>1410.75</ele></trkpt>
   <trkpt lon="7.780572" lat="46.102246"><ele>1410.0</ele></trkpt>
   <trkpt lon="7.780496" lat="46.101832"><ele>1408.25</ele></trkpt>
   <trkpt lon="7.780524" lat="46.101566"><ele>1408.25</ele></trkpt>
   <trkpt lon="7.780651" lat="46.101138"><ele>1408.5</ele></trkpt>
   <trkpt lon="7.780674" lat="46.101095"><ele>1408.5</ele></trkpt>
   <trkpt lon="7.780703" lat="46.101062"><ele>1408.5</ele></trkpt>
   <trkpt lon="7.780744" lat="46.101038"><ele>1408.75</ele></trkpt>
   <trkpt lon="7.780875" lat="46.101001"><ele>1409.5</ele></trkpt>
   <trkpt lon="7.780997" lat="46.100988"><ele>1410.25</ele></trkpt>
   <trkpt lon="7.780993" lat="46.100947"><ele>1409.75</ele></trkpt>
   <trkpt lon="7.781003" lat="46.100878"><ele>1409.5</ele></trkpt>
   <trkpt lon="7.781075" lat="46.100723"><ele>1410.0</ele></trkpt>
   <trkpt lon="7.781155" lat="46.100573"><ele>1410.0</ele></trkpt>
   <trkpt lon="7.781246" lat="46.100443"><ele>1409.5</ele></trkpt>
   <trkpt lon="7.781339" lat="46.100332"><ele>1409.5</ele></trkpt>
   <trkpt lon="7.781563" lat="46.100138"><ele>1409.0</ele></trkpt>
   <trkpt lon="7.781841" lat="46.099915"><ele>1409.0</ele></trkpt>
   <trkpt lon="7.781863" lat="46.099899"><ele>1409.0</ele></trkpt>
   <trkpt lon="7.781963" lat="46.099823"><ele>1409.25</ele></trkpt>
   <trkpt lon="7.782130" lat="46.099921"><ele>1410.25</ele></trkpt>
   <trkpt lon="7.782450" lat="46.100120"><ele>1415.0</ele></trkpt>
   <trkpt lon="7.782512" lat="46.100142"><ele>1419.5</ele></trkpt>
   <trkpt lon="7.782450" lat="46.100120"><ele>1415.0</ele></trkpt>
   <trkpt lon="7.782130" lat="46.099921"><ele>1410.25</ele></trkpt>
   <trkpt lon="7.781963" lat="46.099823"><ele>1409.25</ele></trkpt>
   <trkpt lon="7.782415" lat="46.099473"><ele>1409.5</ele></trkpt>
   <trkpt lon="7.782680" lat="46.099285"><ele>1409.5</ele></trkpt>
   <trkpt lon="7.782975" lat="46.099082"><ele>1409.0</ele></trkpt>
   <trkpt lon="7.783014" lat="46.099026"><ele>1409.0</ele></trkpt>
   <trkpt lon="7.783020" lat="46.098958"><ele>1408.75</ele></trkpt>
   <trkpt lon="7.782971" lat="46.098802"><ele>1407.25</ele></trkpt>
   <trkpt lon="7.782750" lat="46.098333"><ele>1405.0</ele></trkpt>
   <trkpt lon="7.782449" lat="46.097824"><ele>1405.75</ele></trkpt>
   <trkpt lon="7.782141" lat="46.097378"><ele>1406.25</ele></trkpt>
   <trkpt lon="7.782031" lat="46.097240"><ele>1406.75</ele></trkpt>
   <trkpt lon="7.782001" lat="46.097207"><ele>1406.75</ele></trkpt>
   <trkpt lon="7.781788" lat="46.096972"><ele>1407.0</ele></trkpt>
   <trkpt lon="7.781699" lat="46.096803"><ele>1407.25</ele></trkpt>
   <trkpt lon="7.781598" lat="46.096612"><ele>1408.0</ele></trkpt>
   <trkpt lon="7.781483" lat="46.096294"><ele>1409.0</ele></trkpt>
   <trkpt lon="7.781427" lat="46.096137"><ele>1409.75</ele></trkpt>
   <trkpt lon="7.781336" lat="46.095887"><ele>1411.25</ele></trkpt>
   <trkpt lon="7.781273" lat="46.095714"><ele>1412.0</ele></trkpt>
   <trkpt lon="7.781006" lat="46.094974"><ele>1414.0</ele></trkpt>
   <trkpt lon="7.780935" lat="46.094847"><ele>1414.75</ele></trkpt>
   <trkpt lon="7.780965" lat="46.094808"><ele>1415.0</ele></trkpt>
   <trkpt lon="7.781060" lat="46.094732"><ele>1415.75</ele></trkpt>
   <trkpt lon="7.781250" lat="46.094538"><ele>1417.75</ele></trkpt>
   <trkpt lon="7.781377" lat="46.094433"><ele>1418.75</ele></trkpt>
   <trkpt lon="7.781448" lat="46.094364"><ele>1419.5</ele></trkpt>
   <trkpt lon="7.781543" lat="46.094293"><ele>1420.25</ele></trkpt>
   <trkpt lon="7.781621" lat="46.094198"><ele>1421.25</ele></trkpt>
   <trkpt lon="7.781664" lat="46.094063"><ele>1422.5</ele></trkpt>
   <trkpt lon="7.781668" lat="46.093917"><ele>1423.75</ele></trkpt>
   <trkpt lon="7.781775" lat="46.093855"><ele>1424.5</ele></trkpt>
   <trkpt lon="7.781941" lat="46.093791"><ele>1426.0</ele></trkpt>
   <trkpt lon="7.782180" lat="46.093754"><ele>1427.5</ele></trkpt>
   <trkpt lon="7.782251" lat="46.093809"><ele>1427.75</ele></trkpt>
   <trkpt lon="7.782356" lat="46.093797"><ele>1428.75</ele></trkpt>
   <trkpt lon="7.782459" lat="46.093759"><ele>1430.0</ele></trkpt>
   <trkpt lon="7.782544" lat="46.093697"><ele>1431.0</ele></trkpt>
   <trkpt lon="7.782535" lat="46.093658"><ele>1431.5</ele></trkpt>
   <trkpt lon="7.782469" lat="46.093380"><ele>1433.25</ele></trkpt>
   <trkpt lon="7.782468" lat="46.093299"><ele>1434.0</ele></trkpt>
   <trkpt lon="7.782797" lat="46.093207"><ele>1437.5</ele></trkpt>
   <trkpt lon="7.783113" lat="46.093099"><ele>1442.0</ele></trkpt>
   <trkpt lon="7.783017" lat="46.092957"><ele>1442.25</ele></trkpt>
   <trkpt lon="7.782952" lat="46.092663"><ele>1444.75</ele></trkpt>
   <trkpt lon="7.782916" lat="46.092486"><ele>1447.0</ele></trkpt>
   <trkpt lon="7.782715" lat="46.091977"><ele>1452.0</ele></trkpt>
   <trkpt lon="7.782595" lat="46.091816"><ele>1453.25</ele></trkpt>
   <trkpt lon="7.782516" lat="46.091612"><ele>1456.0</ele></trkpt>
   <trkpt lon="7.782488" lat="46.091320"><ele>1459.25</ele></trkpt>
   <trkpt lon="7.782455" lat="46.091242"><ele>1459.25</ele></trkpt>
   <trkpt lon="7.782263" lat="46.091022"><ele>1457.5</ele></trkpt>
   <trkpt lon="7.782224" lat="46.090901"><ele>1458.25</ele></trkpt>
   <trkpt lon="7.782161" lat="46.090853"><ele>1458.5</ele></trkpt>
   <trkpt lon="7.782028" lat="46.090809"><ele>1458.75</ele></trkpt>
   <trkpt lon="7.782011" lat="46.090774"><ele>1458.25</ele></trkpt>
   <trkpt lon="7.782006" lat="46.090739"><ele>1457.75</ele></trkpt>
   <trkpt lon="7.782110" lat="46.090589"><ele>1460.0</ele></trkpt>
   <trkpt lon="7.782109" lat="46.090516"><ele>1459.5</ele></trkpt>
   <trkpt lon="7.782034" lat="46.090375"><ele>1455.75</ele></trkpt>
   <trkpt lon="7.781964" lat="46.090202"><ele>1456.25</ele></trkpt>
   <trkpt lon="7.781885" lat="46.090060"><ele>1459.5</ele></trkpt>
   <trkpt lon="7.781893" lat="46.090020"><ele>1460.75</ele></trkpt>
   <trkpt lon="7.781925" lat="46.089985"><ele>1461.5</ele></trkpt>
   <trkpt lon="7.782089" lat="46.089949"><ele>1462.75</ele></trkpt>
   <trkpt lon="7.782189" lat="46.089900"><ele>1463.25</ele></trkpt>
   <trkpt lon="7.782297" lat="46.089887"><ele>1464.0</ele></trkpt>
   <trkpt lon="7.782314" lat="46.089861"><ele>1464.0</ele></trkpt>
   <trkpt lon="7.782316" lat="46.089824"><ele>1463.75</ele></trkpt>
   <trkpt lon="7.782187" lat="46.089600"><ele>1460.5</ele></trkpt>
   <trkpt lon="7.782067" lat="46.089432"><ele>1458.25</ele></trkpt>
   <trkpt lon="7.782037" lat="46.089348"><ele>1457.75</ele></trkpt>
   <trkpt lon="7.782072" lat="46.089144"><ele>1457.5</ele></trkpt>
   <trkpt lon="7.782060" lat="46.088977"><ele>1456.25</ele></trkpt>
   <trkpt lon="7.782006" lat="46.088852"><ele>1454.5</ele></trkpt>
   <trkpt lon="7.781997" lat="46.088788"><ele>1453.75</ele></trkpt>
   <trkpt lon="7.782033" lat="46.088622"><ele>1453.0</ele></trkpt>
   <trkpt lon="7.782017" lat="46.088471"><ele>1451.0</ele></trkpt>
   <trkpt lon="7.782028" lat="46.088322"><ele>1449.5</ele></trkpt>
   <trkpt lon="7.782116" lat="46.088060"><ele>1447.5</ele></trkpt>
   <trkpt lon="7.782463" lat="46.087590"><ele>1442.25</ele></trkpt>
   <trkpt lon="7.782387" lat="46.087426"><ele>1440.75</ele></trkpt>
   <trkpt lon="7.782250" lat="46.087324"><ele>1438.75</ele></trkpt>
   <trkpt lon="7.782085" lat="46.087188"><ele>1437.25</ele></trkpt>
   <trkpt lon="7.781972" lat="46.087067"><ele>1435.5</ele></trkpt>
   <trkpt lon="7.781828" lat="46.086978"><ele>1433.75</ele></trkpt>
   <trkpt lon="7.781603" lat="46.086740"><ele>1431.25</ele></trkpt>
   <trkpt lon="7.781558" lat="46.086438"><ele>1429.25</ele></trkpt>
   <trkpt lon="7.781604" lat="46.086296"><ele>1428.5</ele></trkpt>
   <trkpt lon="7.781584" lat="46.086238"><ele>1427.75</ele></trkpt>
   <trkpt lon="7.781514" lat="46.086136"><ele>1426.5</ele></trkpt>
   <trkpt lon="7.781415" lat="46.086020"><ele>1425.25</ele></trkpt>
   <trkpt lon="7.781300" lat="46.085857"><ele>1424.0</ele></trkpt>
   <trkpt lon="7.780847" lat="46.085635"><ele>1421.25</ele></trkpt>
   <trkpt lon="7.780987" lat="46.085510"><ele>1421.5</ele></trkpt>
   <trkpt lon="7.781060" lat="46.085379"><ele>1421.75</ele></trkpt>
   <trkpt lon="7.781150" lat="46.085091"><ele>1421.25</ele></trkpt>
   <trkpt lon="7.781168" lat="46.084994"><ele>1421.0</ele></trkpt>
   <trkpt lon="7.781282" lat="46.084449"><ele>1421.0</ele></trkpt>
   <trkpt lon="7.781356" lat="46.084003"><ele>1421.0</ele></trkpt>
   <trkpt lon="7.781410" lat="46.083823"><ele>1421.5</ele></trkpt>
   <trkpt lon="7.781413" lat="46.083785"><ele>1421.75</ele></trkpt>
   <trkpt lon="7.781404" lat="46.083750"><ele>1422.0</ele></trkpt>
   <trkpt lon="7.781374" lat="46.083715"><ele>1422.0</ele></trkpt>
   <trkpt lon="7.781322" lat="46.083674"><ele>1422.0</ele></trkpt>
   <trkpt lon="7.780683" lat="46.083260"><ele>1423.75</ele></trkpt>
   <trkpt lon="7.780327" lat="46.083071"><ele>1422.5</ele></trkpt>
   <trkpt lon="7.780067" lat="46.082759"><ele>1424.5</ele></trkpt>
   <trkpt lon="7.779834" lat="46.082447"><ele>1425.5</ele></trkpt>
   <trkpt lon="7.779723" lat="46.082243"><ele>1424.75</ele></trkpt>
   <trkpt lon="7.779481" lat="46.081641"><ele>1427.0</ele></trkpt>
   <trkpt lon="7.779404" lat="46.081227"><ele>1428.25</ele></trkpt>
   <trkpt lon="7.779354" lat="46.080899"><ele>1428.75</ele></trkpt>
   <trkpt lon="7.779324" lat="46.080379"><ele>1430.0</ele></trkpt>
   <trkpt lon="7.779351" lat="46.079772"><ele>1428.5</ele></trkpt>
   <trkpt lon="7.779402" lat="46.079248"><ele>1429.25</ele></trkpt>
   <trkpt lon="7.779395" lat="46.079017"><ele>1429.5</ele></trkpt>
   <trkpt lon="7.779279" lat="46.078581"><ele>1430.5</ele></trkpt>
   <trkpt lon="7.779295" lat="46.078210"><ele>1431.25</ele></trkpt>
   <trkpt lon="7.779271" lat="46.078094"><ele>1430.5</ele></trkpt>
   <trkpt lon="7.779181" lat="46.077956"><ele>1428.75</ele></trkpt>
   <trkpt lon="7.779063" lat="46.077650"><ele>1429.25</ele></trkpt>
   <trkpt lon="7.779004" lat="46.077321"><ele>1430.5</ele></trkpt>
   <trkpt lon="7.778990" lat="46.077238"><ele>1431.25</ele></trkpt>
   <trkpt lon="7.778859" lat="46.076879"><ele>1429.5</ele></trkpt>
   <trkpt lon="7.778749" lat="46.076540"><ele>1429.5</ele></trkpt>
   <trkpt lon="7.778648" lat="46.076186"><ele>1430.0</ele></trkpt>
   <trkpt lon="7.778690" lat="46.075942"><ele>1430.75</ele></trkpt>
   <trkpt lon="7.778794" lat="46.075124"><ele>1429.0</ele></trkpt>
   <trkpt lon="7.778798" lat="46.074669"><ele>1428.0</ele></trkpt>
   <trkpt lon="7.778778" lat="46.074520"><ele>1428.25</ele></trkpt>
   <trkpt lon="7.778552" lat="46.074110"><ele>1429.0</ele></trkpt>
   <trkpt lon="7.778525" lat="46.073796"><ele>1429.0</ele></trkpt>
   <trkpt lon="7.778472" lat="46.073417"><ele>1429.25</ele></trkpt>
   <trkpt lon="7.778470" lat="46.073248"><ele>1429.5</ele></trkpt>
   <trkpt lon="7.778495" lat="46.073103"><ele>1429.75</ele></trkpt>
   <trkpt lon="7.778571" lat="46.072855"><ele>1430.0</ele></trkpt>
   <trkpt lon="7.778681" lat="46.072523"><ele>1430.0</ele></trkpt>
   <trkpt lon="7.778704" lat="46.072349"><ele>1430.0</ele></trkpt>
   <trkpt lon="7.778685" lat="46.071919"><ele>1430.0</ele></trkpt>
   <trkpt lon="7.778722" lat="46.071679"><ele>1430.75</ele></trkpt>
   <trkpt lon="7.778853" lat="46.071238"><ele>1431.5</ele></trkpt>
   <trkpt lon="7.778917" lat="46.070917"><ele>1431.75</ele></trkpt>
   <trkpt lon="7.778956" lat="46.070677"><ele>1431.75</ele></trkpt>
   <trkpt lon="7.778954" lat="46.070501"><ele>1431.75</ele></trkpt>
   <trkpt lon="7.778979" lat="46.070399"><ele>1431.75</ele></trkpt>
   <trkpt lon="7.779177" lat="46.069736"><ele>1435.75</ele></trkpt>
   <trkpt lon="7.779197" lat="46.069614"><ele>1436.75</ele></trkpt>
   <trkpt lon="7.779192" lat="46.069529"><ele>1437.25</ele></trkpt>
   <trkpt lon="7.779170" lat="46.069474"><ele>1437.75</ele></trkpt>
   <trkpt lon="7.779013" lat="46.069271"><ele>1439.0</ele></trkpt>
   <trkpt lon="7.778695" lat="46.068953"><ele>1440.25</ele></trkpt>
   <trkpt lon="7.778512" lat="46.068736"><ele>1440.75</ele></trkpt>
   <trkpt lon="7.778293" lat="46.068403"><ele>1443.0</ele></trkpt>
   <trkpt lon="7.778275" lat="46.068360"><ele>1443.25</ele></trkpt>
   <trkpt lon="7.778243" lat="46.068201"><ele>1444.25</ele></trkpt>
   <trkpt lon="7.778222" lat="46.067986"><ele>1446.25</ele></trkpt>
   <trkpt lon="7.778104" lat="46.067450"><ele>1450.25</ele></trkpt>
   <trkpt lon="7.778060" lat="46.067270"><ele>1450.75</ele></trkpt>
   <trkpt lon="7.778048" lat="46.067217"><ele>1450.75</ele></trkpt>
   <trkpt lon="7.777999" lat="46.066923"><ele>1449.5</ele></trkpt>
   <trkpt lon="7.777120" lat="46.066930"><ele>1444.0</ele></trkpt>
   <trkpt lon="7.777166" lat="46.067144"><ele>1444.5</ele></trkpt>
   <trkpt lon="7.777247" lat="46.067407"><ele>1444.5</ele></trkpt>
   <trkpt lon="7.777136" lat="46.067601"><ele>1443.25</ele></trkpt>
   <trkpt lon="7.777052" lat="46.067609"><ele>1442.75</ele></trkpt>
   <trkpt lon="7.777136" lat="46.067601"><ele>1443.25</ele></trkpt>
   <trkpt lon="7.777247" lat="46.067407"><ele>1444.5</ele></trkpt>
   <trkpt lon="7.777166" lat="46.067144"><ele>1444.5</ele></trkpt>
   <trkpt lon="7.777120" lat="46.066930"><ele>1444.0</ele></trkpt>
   <trkpt lon="7.777999" lat="46.066923"><ele>1449.5</ele></trkpt>
   <trkpt lon="7.777913" lat="46.066410"><ele>1448.25</ele></trkpt>
   <trkpt lon="7.777910" lat="46.066389"><ele>1448.25</ele></trkpt>
   <trkpt lon="7.777902" lat="46.066326"><ele>1447.75</ele></trkpt>
   <trkpt lon="7.777900" lat="46.066313"><ele>1447.75</ele></trkpt>
   <trkpt lon="7.777837" lat="46.066303"><ele>1447.5</ele></trkpt>
   <trkpt lon="7.776120" lat="46.065839"><ele>1441.75</ele></trkpt>
   <trkpt lon="7.776097" lat="46.065813"><ele>1441.75</ele></trkpt>
   <trkpt lon="7.776054" lat="46.065818"><ele>1441.75</ele></trkpt>
   <trkpt lon="7.775772" lat="46.065737"><ele>1441.5</ele></trkpt>
   <trkpt lon="7.775771" lat="46.065622"><ele>1441.5</ele></trkpt>
   <trkpt lon="7.775684" lat="46.065623"><ele>1441.0</ele></trkpt>
   <trkpt lon="7.775681" lat="46.065461"><ele>1440.5</ele></trkpt>
   <trkpt lon="7.775675" lat="46.065446"><ele>1440.25</ele></trkpt>
   <trkpt lon="7.775661" lat="46.065437"><ele>1440.25</ele></trkpt>
   <trkpt lon="7.775617" lat="46.065422"><ele>1439.75</ele></trkpt>
   <trkpt lon="7.775573" lat="46.065414"><ele>1439.5</ele></trkpt>
   <trkpt lon="7.775491" lat="46.065400"><ele>1439.0</ele></trkpt>
   <trkpt lon="7.775277" lat="46.065369"><ele>1438.5</ele></trkpt>
   <trkpt lon="7.775220" lat="46.065360"><ele>1438.5</ele></trkpt>
   <trkpt lon="7.775286" lat="46.065144"><ele>1439.0</ele></trkpt>
   <trkpt lon="7.775238" lat="46.064679"><ele>1439.25</ele></trkpt>
   <trkpt lon="7.775064" lat="46.064262"><ele>1440.0</ele></trkpt>
   <trkpt lon="7.774487" lat="46.063377"><ele>1441.5</ele></trkpt>
   <trkpt lon="7.773764" lat="46.062329"><ele>1441.75</ele></trkpt>
   <trkpt lon="7.773468" lat="46.061800"><ele>1445.0</ele></trkpt>
   <trkpt lon="7.773375" lat="46.061596"><ele>1444.0</ele></trkpt>
   <trkpt lon="7.773252" lat="46.061180"><ele>1444.5</ele></trkpt>
   <trkpt lon="7.773220" lat="46.060956"><ele>1444.25</ele></trkpt>
   <trkpt lon="7.773213" lat="46.060420"><ele>1446.0</ele></trkpt>
   <trkpt lon="7.773263" lat="46.060059"><ele>1445.25</ele></trkpt>
   <trkpt lon="7.773319" lat="46.059853"><ele>1445.0</ele></trkpt>
   <trkpt lon="7.773854" lat="46.058163"><ele>1447.25</ele></trkpt>
   <trkpt lon="7.773767" lat="46.058087"><ele>1448.25</ele></trkpt>
   <trkpt lon="7.773555" lat="46.058046"><ele>1449.75</ele></trkpt>
   <trkpt lon="7.773474" lat="46.057891"><ele>1450.25</ele></trkpt>
   <trkpt lon="7.773166" lat="46.057621"><ele>1453.25</ele></trkpt>
   <trkpt lon="7.772959" lat="46.057242"><ele>1453.0</ele></trkpt>
   <trkpt lon="7.772581" lat="46.056921"><ele>1456.0</ele></trkpt>
   <trkpt lon="7.772490" lat="46.056854"><ele>1456.0</ele></trkpt>
   <trkpt lon="7.772516" lat="46.056761"><ele>1453.75</ele></trkpt>
   <trkpt lon="7.772641" lat="46.056681"><ele>1450.25</ele></trkpt>
   <trkpt lon="7.772049" lat="46.056316"><ele>1452.0</ele></trkpt>
   <trkpt lon="7.771736" lat="46.056037"><ele>1449.75</ele></trkpt>
   <trkpt lon="7.771491" lat="46.055788"><ele>1450.5</ele></trkpt>
   <trkpt lon="7.771156" lat="46.055317"><ele>1451.5</ele></trkpt>
   <trkpt lon="7.770787" lat="46.054738"><ele>1452.0</ele></trkpt>
   <trkpt lon="7.770663" lat="46.054522"><ele>1452.25</ele></trkpt>
   <trkpt lon="7.770591" lat="46.054322"><ele>1452.75</ele></trkpt>
   <trkpt lon="7.770568" lat="46.054174"><ele>1452.75</ele></trkpt>
   <trkpt lon="7.770568" lat="46.053761"><ele>1453.25</ele></trkpt>
   <trkpt lon="7.770596" lat="46.053525"><ele>1454.25</ele></trkpt>
   <trkpt lon="7.770482" lat="46.053348"><ele>1455.5</ele></trkpt>
   <trkpt lon="7.770374" lat="46.053280"><ele>1455.75</ele></trkpt>
   <trkpt lon="7.770159" lat="46.052888"><ele>1459.75</ele></trkpt>
   <trkpt lon="7.769795" lat="46.051976"><ele>1475.5</ele></trkpt>
   <trkpt lon="7.769737" lat="46.051936"><ele>1477.75</ele></trkpt>
   <trkpt lon="7.769658" lat="46.051719"><ele>1484.75</ele></trkpt>
   <trkpt lon="7.769762" lat="46.051653"><ele>1482.25</ele></trkpt>
   <trkpt lon="7.769683" lat="46.051625"><ele>1485.25</ele></trkpt>
   <trkpt lon="7.769648" lat="46.051580"><ele>1486.25</ele></trkpt>
   <trkpt lon="7.769659" lat="46.051567"><ele>1486.0</ele></trkpt>
   <trkpt lon="7.769707" lat="46.051562"><ele>1484.75</ele></trkpt>
   <trkpt lon="7.769724" lat="46.051526"><ele>1484.25</ele></trkpt>
   <trkpt lon="7.769710" lat="46.051481"><ele>1484.75</ele></trkpt>
   <trkpt lon="7.769662" lat="46.051434"><ele>1486.0</ele></trkpt>
   <trkpt lon="7.769581" lat="46.051190"><ele>1486.25</ele></trkpt>
   <trkpt lon="7.769446" lat="46.050940"><ele>1491.75</ele></trkpt>
   <trkpt lon="7.769271" lat="46.050796"><ele>1496.0</ele></trkpt>
   <trkpt lon="7.769180" lat="46.050535"><ele>1497.75</ele></trkpt>
   <trkpt lon="7.769135" lat="46.050480"><ele>1499.75</ele></trkpt>
   <trkpt lon="7.769154" lat="46.050446"><ele>1499.5</ele></trkpt>
   <trkpt lon="7.769147" lat="46.050400"><ele>1500.0</ele></trkpt>
   <trkpt lon="7.768930" lat="46.050100"><ele>1504.5</ele></trkpt>
   <trkpt lon="7.768632" lat="46.049724"><ele>1510.25</ele></trkpt>
   <trkpt lon="7.768470" lat="46.049439"><ele>1516.5</ele></trkpt>
   <trkpt lon="7.768381" lat="46.049184"><ele>1520.5</ele></trkpt>
   <trkpt lon="7.768271" lat="46.049135"><ele>1525.25</ele></trkpt>
   <trkpt lon="7.768286" lat="46.049067"><ele>1525.25</ele></trkpt>
   <trkpt lon="7.768134" lat="46.048358"><ele>1541.75</ele></trkpt>
   <trkpt lon="7.768424" lat="46.048050"><ele>1541.0</ele></trkpt>
   <trkpt lon="7.768679" lat="46.047628"><ele>1539.5</ele></trkpt>
   <trkpt lon="7.768834" lat="46.047511"><ele>1539.25</ele></trkpt>
   <trkpt lon="7.768854" lat="46.047475"><ele>1538.75</ele></trkpt>
   <trkpt lon="7.768836" lat="46.047400"><ele>1538.25</ele></trkpt>
   <trkpt lon="7.768705" lat="46.047188"><ele>1539.25</ele></trkpt>
   <trkpt lon="7.768552" lat="46.047078"><ele>1542.75</ele></trkpt>
   <trkpt lon="7.768131" lat="46.046635"><ele>1548.5</ele></trkpt>
   <trkpt lon="7.768108" lat="46.046555"><ele>1548.25</ele></trkpt>
   <trkpt lon="7.768091" lat="46.046493"><ele>1548.0</ele></trkpt>
   <trkpt lon="7.767949" lat="46.046392"><ele>1550.5</ele></trkpt>
   <trkpt lon="7.767829" lat="46.046152"><ele>1549.5</ele></trkpt>
   <trkpt lon="7.767738" lat="46.046016"><ele>1550.0</ele></trkpt>
   <trkpt lon="7.767639" lat="46.045841"><ele>1551.5</ele></trkpt>
   <trkpt lon="7.767535" lat="46.045784"><ele>1554.25</ele></trkpt>
   <trkpt lon="7.767543" lat="46.045728"><ele>1552.75</ele></trkpt>
   <trkpt lon="7.767455" lat="46.045622"><ele>1553.0</ele></trkpt>
   <trkpt lon="7.767398" lat="46.045582"><ele>1553.75</ele></trkpt>
   <trkpt lon="7.767331" lat="46.045461"><ele>1552.75</ele></trkpt>
   <trkpt lon="7.767107" lat="46.045288"><ele>1553.0</ele></trkpt>
   <trkpt lon="7.766952" lat="46.045230"><ele>1556.0</ele></trkpt>
   <trkpt lon="7.766895" lat="46.045151"><ele>1554.0</ele></trkpt>
   <trkpt lon="7.766735" lat="46.045057"><ele>1553.0</ele></trkpt>
   <trkpt lon="7.766555" lat="46.045012"><ele>1554.75</ele></trkpt>
   <trkpt lon="7.766415" lat="46.044920"><ele>1554.75</ele></trkpt>
   <trkpt lon="7.766245" lat="46.044927"><ele>1556.5</ele></trkpt>
   <trkpt lon="7.766177" lat="46.044910"><ele>1556.25</ele></trkpt>
   <trkpt lon="7.766057" lat="46.044904"><ele>1556.75</ele></trkpt>
   <trkpt lon="7.765888" lat="46.044861"><ele>1556.5</ele></trkpt>
   <trkpt lon="7.765801" lat="46.044804"><ele>1554.75</ele></trkpt>
   <trkpt lon="7.765675" lat="46.044779"><ele>1555.25</ele></trkpt>
   <trkpt lon="7.765524" lat="46.044717"><ele>1556.0</ele></trkpt>
   <trkpt lon="7.765495" lat="46.044634"><ele>1556.25</ele></trkpt>
   <trkpt lon="7.765478" lat="46.044608"><ele>1556.5</ele></trkpt>
   <trkpt lon="7.765433" lat="46.044573"><ele>1557.5</ele></trkpt>
   <trkpt lon="7.765334" lat="46.044521"><ele>1559.0</ele></trkpt>
   <trkpt lon="7.765273" lat="46.044447"><ele>1556.25</ele></trkpt>
   <trkpt lon="7.765032" lat="46.044216"><ele>1561.25</ele></trkpt>
   <trkpt lon="7.764895" lat="46.044095"><ele>1562.25</ele></trkpt>
   <trkpt lon="7.764942" lat="46.043807"><ele>1558.25</ele></trkpt>
   <trkpt lon="7.764912" lat="46.043582"><ele>1558.0</ele></trkpt>
   <trkpt lon="7.764802" lat="46.043275"><ele>1559.75</ele></trkpt>
   <trkpt lon="7.764684" lat="46.043079"><ele>1559.25</ele></trkpt>
   <trkpt lon="7.764524" lat="46.042906"><ele>1561.0</ele></trkpt>
   <trkpt lon="7.764210" lat="46.042778"><ele>1563.0</ele></trkpt>
   <trkpt lon="7.763962" lat="46.042590"><ele>1561.5</ele></trkpt>
   <trkpt lon="7.763598" lat="46.042382"><ele>1563.75</ele></trkpt>
   <trkpt lon="7.763465" lat="46.042311"><ele>1565.5</ele></trkpt>
   <trkpt lon="7.763443" lat="46.042283"><ele>1565.25</ele></trkpt>
   <trkpt lon="7.763404" lat="46.042258"><ele>1565.5</ele></trkpt>
   <trkpt lon="7.763344" lat="46.042181"><ele>1565.0</ele></trkpt>
   <trkpt lon="7.763104" lat="46.042060"><ele>1568.25</ele></trkpt>
   <trkpt lon="7.763084" lat="46.041939"><ele>1566.25</ele></trkpt>
   <trkpt lon="7.763021" lat="46.041875"><ele>1566.0</ele></trkpt>
   <trkpt lon="7.762703" lat="46.041744"><ele>1567.0</ele></trkpt>
   <trkpt lon="7.762475" lat="46.041687"><ele>1569.0</ele></trkpt>
   <trkpt lon="7.762105" lat="46.041488"><ele>1569.5</ele></trkpt>
   <trkpt lon="7.761858" lat="46.041303"><ele>1572.25</ele></trkpt>
   <trkpt lon="7.761806" lat="46.041175"><ele>1571.75</ele></trkpt>
   <trkpt lon="7.761789" lat="46.041098"><ele>1570.5</ele></trkpt>
   <trkpt lon="7.761797" lat="46.041020"><ele>1570.0</ele></trkpt>
   <trkpt lon="7.761823" lat="46.040942"><ele>1569.0</ele></trkpt>
   <trkpt lon="7.761818" lat="46.040864"><ele>1568.75</ele></trkpt>
   <trkpt lon="7.761767" lat="46.040781"><ele>1570.0</ele></trkpt>
   <trkpt lon="7.761782" lat="46.040678"><ele>1569.5</ele></trkpt>
   <trkpt lon="7.761730" lat="46.040524"><ele>1570.5</ele></trkpt>
   <trkpt lon="7.761715" lat="46.040443"><ele>1570.75</ele></trkpt>
   <trkpt lon="7.761654" lat="46.040344"><ele>1571.5</ele></trkpt>
   <trkpt lon="7.761536" lat="46.040218"><ele>1572.75</ele></trkpt>
   <trkpt lon="7.761442" lat="46.040072"><ele>1572.25</ele></trkpt>
   <trkpt lon="7.761135" lat="46.039875"><ele>1571.5</ele></trkpt>
   <trkpt lon="7.760888" lat="46.039702"><ele>1573.25</ele></trkpt>
   <trkpt lon="7.760633" lat="46.039453"><ele>1573.25</ele></trkpt>
   <trkpt lon="7.760488" lat="46.038890"><ele>1576.0</ele></trkpt>
   <trkpt lon="7.760250" lat="46.038632"><ele>1576.25</ele></trkpt>
   <trkpt lon="7.760184" lat="46.038533"><ele>1581.25</ele></trkpt>
   <trkpt lon="7.760348" lat="46.038202"><ele>1580.75</ele></trkpt>
   <trkpt lon="7.760353" lat="46.038052"><ele>1583.25</ele></trkpt>
   <trkpt lon="7.760235" lat="46.037842"><ele>1585.0</ele></trkpt>
   <trkpt lon="7.760230" lat="46.037649"><ele>1584.75</ele></trkpt>
   <trkpt lon="7.760125" lat="46.037475"><ele>1589.5</ele></trkpt>
   <trkpt lon="7.760063" lat="46.037410"><ele>1590.5</ele></trkpt>
   <trkpt lon="7.760073" lat="46.037334"><ele>1588.75</ele></trkpt>
   <trkpt lon="7.759933" lat="46.037183"><ele>1594.25</ele></trkpt>
   <trkpt lon="7.759884" lat="46.037111"><ele>1596.75</ele></trkpt>
   <trkpt lon="7.759885" lat="46.037066"><ele>1596.0</ele></trkpt>
   <trkpt lon="7.759915" lat="46.036985"><ele>1592.0</ele></trkpt>
   <trkpt lon="7.759911" lat="46.036943"><ele>1591.5</ele></trkpt>
   <trkpt lon="7.759881" lat="46.036886"><ele>1591.75</ele></trkpt>
   <trkpt lon="7.759866" lat="46.036830"><ele>1590.5</ele></trkpt>
   <trkpt lon="7.759829" lat="46.036775"><ele>1590.75</ele></trkpt>
   <trkpt lon="7.759811" lat="46.036712"><ele>1589.0</ele></trkpt>
   <trkpt lon="7.759747" lat="46.036610"><ele>1588.0</ele></trkpt>
   <trkpt lon="7.759661" lat="46.036377"><ele>1583.25</ele></trkpt>
   <trkpt lon="7.759599" lat="46.036308"><ele>1582.75</ele></trkpt>
   <trkpt lon="7.759539" lat="46.036258"><ele>1583.0</ele></trkpt>
   <trkpt lon="7.759345" lat="46.036167"><ele>1587.25</ele></trkpt>
   <trkpt lon="7.759301" lat="46.036140"><ele>1587.25</ele></trkpt>
   <trkpt lon="7.759230" lat="46.036071"><ele>1585.0</ele></trkpt>
   <trkpt lon="7.759173" lat="46.036030"><ele>1584.75</ele></trkpt>
   <trkpt lon="7.758999" lat="46.035936"><ele>1588.0</ele></trkpt>
   <trkpt lon="7.758700" lat="46.035679"><ele>1586.75</ele></trkpt>
   <trkpt lon="7.758532" lat="46.035504"><ele>1589.5</ele></trkpt>
   <trkpt lon="7.758347" lat="46.035224"><ele>1592.75</ele></trkpt>
   <trkpt lon="7.758248" lat="46.035022"><ele>1590.25</ele></trkpt>
   <trkpt lon="7.758114" lat="46.034945"><ele>1591.5</ele></trkpt>
   <trkpt lon="7.758024" lat="46.034899"><ele>1594.5</ele></trkpt>
   <trkpt lon="7.757946" lat="46.034907"><ele>1597.0</ele></trkpt>
   <trkpt lon="7.757907" lat="46.034931"><ele>1597.5</ele></trkpt>
   <trkpt lon="7.757878" lat="46.034921"><ele>1599.0</ele></trkpt>
   <trkpt lon="7.757876" lat="46.034865"><ele>1601.0</ele></trkpt>
   <trkpt lon="7.758111" lat="46.034673"><ele>1596.5</ele></trkpt>
   <trkpt lon="7.758143" lat="46.034634"><ele>1596.0</ele></trkpt>
   <trkpt lon="7.758129" lat="46.034597"><ele>1597.0</ele></trkpt>
   <trkpt lon="7.758112" lat="46.034592"><ele>1597.5</ele></trkpt>
   <trkpt lon="7.758037" lat="46.034639"><ele>1599.75</ele></trkpt>
   <trkpt lon="7.758010" lat="46.034638"><ele>1600.75</ele></trkpt>
   <trkpt lon="7.758002" lat="46.034625"><ele>1601.25</ele></trkpt>
   <trkpt lon="7.758003" lat="46.034553"><ele>1602.0</ele></trkpt>
   <trkpt lon="7.758017" lat="46.034489"><ele>1602.25</ele></trkpt>
   <trkpt lon="7.757997" lat="46.034442"><ele>1603.25</ele></trkpt>
   <trkpt lon="7.757977" lat="46.034423"><ele>1603.5</ele></trkpt>
   <trkpt lon="7.757836" lat="46.034366"><ele>1607.25</ele></trkpt>
   <trkpt lon="7.757798" lat="46.034365"><ele>1608.25</ele></trkpt>
   <trkpt lon="7.757771" lat="46.034341"><ele>1609.25</ele></trkpt>
   <trkpt lon="7.757762" lat="46.034274"><ele>1610.25</ele></trkpt>
   <trkpt lon="7.757779" lat="46.034222"><ele>1610.25</ele></trkpt>
   <trkpt lon="7.757866" lat="46.034118"><ele>1609.0</ele></trkpt>
   <trkpt lon="7.757888" lat="46.034041"><ele>1610.5</ele></trkpt>
   <trkpt lon="7.757934" lat="46.033935"><ele>1612.25</ele></trkpt>
   <trkpt lon="7.757939" lat="46.033898"><ele>1613.25</ele></trkpt>
   <trkpt lon="7.757932" lat="46.033862"><ele>1613.5</ele></trkpt>
   <trkpt lon="7.757874" lat="46.033719"><ele>1614.0</ele></trkpt>
   <trkpt lon="7.757805" lat="46.033649"><ele>1616.0</ele></trkpt>
   <trkpt lon="7.757789" lat="46.033614"><ele>1616.5</ele></trkpt>
   <trkpt lon="7.757776" lat="46.033550"><ele>1615.25</ele></trkpt>
   <trkpt lon="7.757729" lat="46.033453"><ele>1613.25</ele></trkpt>
   <trkpt lon="7.757710" lat="46.033430"><ele>1613.0</ele></trkpt>
   <trkpt lon="7.757673" lat="46.033416"><ele>1613.5</ele></trkpt>
   <trkpt lon="7.757471" lat="46.033378"><ele>1616.75</ele></trkpt>
   <trkpt lon="7.757418" lat="46.033350"><ele>1617.25</ele></trkpt>
   <trkpt lon="7.757327" lat="46.033254"><ele>1617.5</ele></trkpt>
   <trkpt lon="7.757218" lat="46.033105"><ele>1617.0</ele></trkpt>
   <trkpt lon="7.757115" lat="46.032926"><ele>1614.5</ele></trkpt>
   <trkpt lon="7.757009" lat="46.032837"><ele>1613.0</ele></trkpt>
   <trkpt lon="7.756867" lat="46.032800"><ele>1613.25</ele></trkpt>
   <trkpt lon="7.756724" lat="46.032721"><ele>1613.5</ele></trkpt>
   <trkpt lon="7.756593" lat="46.032624"><ele>1614.0</ele></trkpt>
   <trkpt lon="7.756524" lat="46.032526"><ele>1613.0</ele></trkpt>
   <trkpt lon="7.756414" lat="46.032430"><ele>1612.0</ele></trkpt>
   <trkpt lon="7.756296" lat="46.032311"><ele>1610.0</ele></trkpt>
   <trkpt lon="7.755851" lat="46.032079"><ele>1609.5</ele></trkpt>
   <trkpt lon="7.755738" lat="46.031991"><ele>1608.5</ele></trkpt>
   <trkpt lon="7.755604" lat="46.031810"><ele>1607.0</ele></trkpt>
   <trkpt lon="7.755618" lat="46.031632"><ele>1603.5</ele></trkpt>
   <trkpt lon="7.755684" lat="46.031520"><ele>1601.25</ele></trkpt>
   <trkpt lon="7.755817" lat="46.031432"><ele>1598.5</ele></trkpt>
   <trkpt lon="7.755858" lat="46.031131"><ele>1591.25</ele></trkpt>
   <trkpt lon="7.755914" lat="46.031073"><ele>1590.25</ele></trkpt>
   <trkpt lon="7.755856" lat="46.030985"><ele>1590.25</ele></trkpt>
   <trkpt lon="7.755722" lat="46.030767"><ele>1590.0</ele></trkpt>
   <trkpt lon="7.755656" lat="46.030698"><ele>1590.0</ele></trkpt>
   <trkpt lon="7.755176" lat="46.030323"><ele>1589.5</ele></trkpt>
   <trkpt lon="7.754999" lat="46.030080"><ele>1589.25</ele></trkpt>
   <trkpt lon="7.754862" lat="46.029858"><ele>1588.25</ele></trkpt>
   <trkpt lon="7.754633" lat="46.029597"><ele>1588.75</ele></trkpt>
   <trkpt lon="7.754247" lat="46.029250"><ele>1593.0</ele></trkpt>
   <trkpt lon="7.754320" lat="46.029202"><ele>1588.75</ele></trkpt>
   <trkpt lon="7.754421" lat="46.029118"><ele>1586.5</ele></trkpt>
   <trkpt lon="7.754447" lat="46.029100"><ele>1586.75</ele></trkpt>
   <trkpt lon="7.754390" lat="46.029037"><ele>1587.5</ele></trkpt>
   <trkpt lon="7.754305" lat="46.028881"><ele>1588.0</ele></trkpt>
   <trkpt lon="7.754129" lat="46.028409"><ele>1590.25</ele></trkpt>
   <trkpt lon="7.753998" lat="46.028193"><ele>1591.75</ele></trkpt>
   <trkpt lon="7.753377" lat="46.027628"><ele>1589.5</ele></trkpt>
   <trkpt lon="7.753271" lat="46.027509"><ele>1590.25</ele></trkpt>
   <trkpt lon="7.753199" lat="46.027379"><ele>1590.25</ele></trkpt>
   <trkpt lon="7.753166" lat="46.027199"><ele>1589.25</ele></trkpt>
   <trkpt lon="7.753172" lat="46.027074"><ele>1589.75</ele></trkpt>
   <trkpt lon="7.753385" lat="46.026123"><ele>1591.5</ele></trkpt>
   <trkpt lon="7.753382" lat="46.025937"><ele>1591.5</ele></trkpt>
   <trkpt lon="7.753342" lat="46.025763"><ele>1591.5</ele></trkpt>
   <trkpt lon="7.753098" lat="46.025398"><ele>1592.5</ele></trkpt>
   <trkpt lon="7.752971" lat="46.025209"><ele>1593.25</ele></trkpt>
   <trkpt lon="7.752932" lat="46.025162"><ele>1593.25</ele></trkpt>
   <trkpt lon="7.752261" lat="46.024373"><ele>1593.75</ele></trkpt>
   <trkpt lon="7.752090" lat="46.024169"><ele>1594.5</ele></trkpt>
   <trkpt lon="7.751979" lat="46.024029"><ele>1595.0</ele></trkpt>
   <trkpt lon="7.751738" lat="46.023708"><ele>1595.25</ele></trkpt>
   <trkpt lon="7.751662" lat="46.023566"><ele>1595.25</ele></trkpt>
   <trkpt lon="7.751584" lat="46.023314"><ele>1596.5</ele></trkpt>
   <trkpt lon="7.751574" lat="46.023166"><ele>1596.5</ele></trkpt>
   <trkpt lon="7.751582" lat="46.023015"><ele>1596.5</ele></trkpt>
   <trkpt lon="7.751634" lat="46.022600"><ele>1596.0</ele></trkpt>
   <trkpt lon="7.751614" lat="46.022590"><ele>1596.0</ele></trkpt>
   <trkpt lon="7.751467" lat="46.022581"><ele>1596.75</ele></trkpt>
   <trkpt lon="7.751475" lat="46.022494"><ele>1597.5</ele></trkpt>
   <trkpt lon="7.751447" lat="46.022490"><ele>1597.5</ele></trkpt>
   <trkpt lon="7.751473" lat="46.022139"><ele>1597.75</ele></trkpt>
   <trkpt lon="7.751456" lat="46.022042"><ele>1598.0</ele></trkpt>
   <trkpt lon="7.751426" lat="46.021978"><ele>1598.0</ele></trkpt>
   <trkpt lon="7.751360" lat="46.021904"><ele>1598.25</ele></trkpt>
   <trkpt lon="7.751315" lat="46.021873"><ele>1598.75</ele></trkpt>
   <trkpt lon="7.751261" lat="46.021847"><ele>1599.0</ele></trkpt>
   <trkpt lon="7.751170" lat="46.021808"><ele>1599.25</ele></trkpt>
   <trkpt lon="7.751078" lat="46.021779"><ele>1599.25</ele></trkpt>
   <trkpt lon="7.750884" lat="46.021732"><ele>1598.75</ele></trkpt>
   <trkpt lon="7.750009" lat="46.021525"><ele>1601.25</ele></trkpt>
   <trkpt lon="7.749797" lat="46.021440"><ele>1600.75</ele></trkpt>
   <trkpt lon="7.749671" lat="46.021371"><ele>1600.75</ele></trkpt>
   <trkpt lon="7.749581" lat="46.021309"><ele>1601.5</ele></trkpt>
   <trkpt lon="7.749391" lat="46.021149"><ele>1601.25</ele></trkpt>
  </trkseg>
 </trk>
</gpx>
