<?xml version="1.0" encoding="UTF-8"?>
<!-- track-length = 16587 filtered ascend = 1544 plain-ascend = 631 cost=19359 energy=.4kwh time=5h 15m 7s -->
<gpx 
 xmlns="http://www.topografix.com/GPX/1/1" 
 xmlns:xsi="http://www.w3.org/2001/XMLSchema-instance" 
 xsi:schemaLocation="http://www.topografix.com/GPX/1/1 http://www.topografix.com/GPX/1/1/gpx.xsd" 
 creator="BRouter-1.7.9" version="1.1">
 <trk>
  <name>tour-monte-rosa-tappa-6-grachen-europahutte</name>
  <trkseg>
   <trkpt lon="7.842347" lat="46.195869"><ele>1635.5</ele></trkpt>
   <trkpt lon="7.842222" lat="46.195792"><ele>1634.5</ele></trkpt>
   <trkpt lon="7.842055" lat="46.195740"><ele>1633.75</ele></trkpt>
   <trkpt lon="7.841778" lat="46.195762"><ele>1632.0</ele></trkpt>
   <trkpt lon="7.841544" lat="46.195747"><ele>1631.0</ele></trkpt>
   <trkpt lon="7.841471" lat="46.195675"><ele>1631.25</ele></trkpt>
   <trkpt lon="7.841419" lat="46.195592"><ele>1631.75</ele></trkpt>
   <trkpt lon="7.841377" lat="46.195308"><ele>1635.5</ele></trkpt>
   <trkpt lon="7.841354" lat="46.195149"><ele>1638.5</ele></trkpt>
   <trkpt lon="7.841286" lat="46.194987"><ele>1641.0</ele></trkpt>
   <trkpt lon="7.841233" lat="46.194819"><ele>1642.75</ele></trkpt>
   <trkpt lon="7.841014" lat="46.194484"><ele>1645.5</ele></trkpt>
   <trkpt lon="7.840828" lat="46.194317"><ele>1647.25</ele></trkpt>
   <trkpt lon="7.840578" lat="46.194222"><ele>1647.75</ele></trkpt>
   <trkpt lon="7.840428" lat="46.194114"><ele>1648.0</ele></trkpt>
   <trkpt lon="7.840261" lat="46.193887"><ele>1649.75</ele></trkpt>
   <trkpt lon="7.840162" lat="46.193722"><ele>1650.75</ele></trkpt>
   <trkpt lon="7.840125" lat="46.193647"><ele>1651.5</ele></trkpt>
   <trkpt lon="7.840034" lat="46.193618"><ele>1651.0</ele></trkpt>
   <trkpt lon="7.839982" lat="46.193589"><ele>1651.0</ele></trkpt>
   <trkpt lon="7.839915" lat="46.193486"><ele>1651.75</ele></trkpt>
   <trkpt lon="7.839874" lat="46.193451"><ele>1652.0</ele></trkpt>
   <trkpt lon="7.839784" lat="46.193422"><ele>1652.0</ele></trkpt>
   <trkpt lon="7.839677" lat="46.193412"><ele>1651.5</ele></trkpt>
   <trkpt lon="7.839582" lat="46.193411"><ele>1651.0</ele></trkpt>
   <trkpt lon="7.839534" lat="46.193400"><ele>1650.75</ele></trkpt>
   <trkpt lon="7.839491" lat="46.193378"><ele>1650.75</ele></trkpt>
   <trkpt lon="7.839468" lat="46.193337"><ele>1651.0</ele></trkpt>
   <trkpt lon="7.839442" lat="46.193243"><ele>1651.75</ele></trkpt>
   <trkpt lon="7.839413" lat="46.193200"><ele>1652.0</ele></trkpt>
   <trkpt lon="7.839368" lat="46.193192"><ele>1651.5</ele></trkpt>
   <trkpt lon="7.839336" lat="46.193159"><ele>1651.5</ele></trkpt>
   <trkpt lon="7.839281" lat="46.193057"><ele>1651.5</ele></trkpt>
   <trkpt lon="7.839276" lat="46.192992"><ele>1652.0</ele></trkpt>
   <trkpt lon="7.839254" lat="46.192947"><ele>1652.0</ele></trkpt>
   <trkpt lon="7.839269" lat="46.192882"><ele>1652.75</ele></trkpt>
   <trkpt lon="7.839259" lat="46.192839"><ele>1653.0</ele></trkpt>
   <trkpt lon="7.839035" lat="46.192678"><ele>1652.75</ele></trkpt>
   <trkpt lon="7.838946" lat="46.192568"><ele>1653.0</ele></trkpt>
   <trkpt lon="7.838920" lat="46.192536"><ele>1653.0</ele></trkpt>
   <trkpt lon="7.838886" lat="46.192528"><ele>1652.75</ele></trkpt>
   <trkpt lon="7.838877" lat="46.192497"><ele>1652.75</ele></trkpt>
   <trkpt lon="7.838882" lat="46.192426"><ele>1653.0</ele></trkpt>
   <trkpt lon="7.838823" lat="46.192300"><ele>1653.0</ele></trkpt>
   <trkpt lon="7.838807" lat="46.192240"><ele>1653.25</ele></trkpt>
   <trkpt lon="7.838850" lat="46.192118"><ele>1653.5</ele></trkpt>
   <trkpt lon="7.838829" lat="46.191977"><ele>1653.5</ele></trkpt>
   <trkpt lon="7.838748" lat="46.191739"><ele>1654.75</ele></trkpt>
   <trkpt lon="7.838571" lat="46.191513"><ele>1654.5</ele></trkpt>
   <trkpt lon="7.838518" lat="46.191375"><ele>1655.0</ele></trkpt>
   <trkpt lon="7.838319" lat="46.191227"><ele>1654.5</ele></trkpt>
   <trkpt lon="7.838272" lat="46.191075"><ele>1655.5</ele></trkpt>
   <trkpt lon="7.838249" lat="46.190863"><ele>1657.25</ele></trkpt>
   <trkpt lon="7.838095" lat="46.190582"><ele>1660.0</ele></trkpt>
   <trkpt lon="7.837930" lat="46.190305"><ele>1663.0</ele></trkpt>
   <trkpt lon="7.837715" lat="46.190185"><ele>1662.5</ele></trkpt>
   <trkpt lon="7.837640" lat="46.190123"><ele>1663.0</ele></trkpt>
   <trkpt lon="7.837474" lat="46.190076"><ele>1662.25</ele></trkpt>
   <trkpt lon="7.837274" lat="46.190008"><ele>1660.5</ele></trkpt>
   <trkpt lon="7.837231" lat="46.189945"><ele>1661.0</ele></trkpt>
   <trkpt lon="7.837147" lat="46.189929"><ele>1659.5</ele></trkpt>
   <trkpt lon="7.837037" lat="46.189818"><ele>1659.25</ele></trkpt>
   <trkpt lon="7.836557" lat="46.189459"><ele>1660.75</ele></trkpt>
   <trkpt lon="7.836471" lat="46.189431"><ele>1660.25</ele></trkpt>
   <trkpt lon="7.836257" lat="46.189427"><ele>1657.75</ele></trkpt>
   <trkpt lon="7.836213" lat="46.189392"><ele>1657.25</ele></trkpt>
   <trkpt lon="7.836344" lat="46.189199"><ele>1659.5</ele></trkpt>
   <trkpt lon="7.836216" lat="46.188974"><ele>1659.25</ele></trkpt>
   <trkpt lon="7.835892" lat="46.188587"><ele>1659.75</ele></trkpt>
   <trkpt lon="7.835591" lat="46.188067"><ele>1662.5</ele></trkpt>
   <trkpt lon="7.835404" lat="46.187996"><ele>1660.5</ele></trkpt>
   <trkpt lon="7.835400" lat="46.187907"><ele>1662.25</ele></trkpt>
   <trkpt lon="7.835310" lat="46.187758"><ele>1663.0</ele></trkpt>
   <trkpt lon="7.835171" lat="46.187581"><ele>1664.25</ele></trkpt>
   <trkpt lon="7.834995" lat="46.187403"><ele>1664.5</ele></trkpt>
   <trkpt lon="7.834893" lat="46.187339"><ele>1663.25</ele></trkpt>
   <trkpt lon="7.834866" lat="46.187226"><ele>1664.5</ele></trkpt>
   <trkpt lon="7.834826" lat="46.187210"><ele>1663.75</ele></trkpt>
   <trkpt lon="7.834740" lat="46.186968"><ele>1665.0</ele></trkpt>
   <trkpt lon="7.834699" lat="46.186824"><ele>1666.5</ele></trkpt>
   <trkpt lon="7.834611" lat="46.186799"><ele>1665.0</ele></trkpt>
   <trkpt lon="7.834603" lat="46.186729"><ele>1665.75</ele></trkpt>
   <trkpt lon="7.834530" lat="46.186662"><ele>1665.0</ele></trkpt>
   <trkpt lon="7.834480" lat="46.186280"><ele>1667.25</ele></trkpt>
   <trkpt lon="7.834397" lat="46.186176"><ele>1666.75</ele></trkpt>
   <trkpt lon="7.834194" lat="46.185873"><ele>1667.0</ele></trkpt>
   <trkpt lon="7.833918" lat="46.185626"><ele>1667.25</ele></trkpt>
   <trkpt lon="7.833838" lat="46.185627"><ele>1665.25</ele></trkpt>
   <trkpt lon="7.833734" lat="46.185459"><ele>1667.5</ele></trkpt>
   <trkpt lon="7.833652" lat="46.185397"><ele>1667.0</ele></trkpt>
   <trkpt lon="7.833640" lat="46.185426"><ele>1665.75</ele></trkpt>
   <trkpt lon="7.833587" lat="46.185417"><ele>1664.75</ele></trkpt>
   <trkpt lon="7.833403" lat="46.185122"><ele>1668.0</ele></trkpt>
   <trkpt lon="7.833353" lat="46.185072"><ele>1668.5</ele></trkpt>
   <trkpt lon="7.833309" lat="46.185042"><ele>1668.5</ele></trkpt>
   <trkpt lon="7.833128" lat="46.184947"><ele>1667.25</ele></trkpt>
   <trkpt lon="7.833015" lat="46.184872"><ele>1667.75</ele></trkpt>
   <trkpt lon="7.832884" lat="46.184823"><ele>1668.25</ele></trkpt>
   <trkpt lon="7.832730" lat="46.184776"><ele>1669.0</ele></trkpt>
   <trkpt lon="7.832619" lat="46.184762"><ele>1669.5</ele></trkpt>
   <trkpt lon="7.832496" lat="46.184801"><ele>1668.25</ele></trkpt>
   <trkpt lon="7.832356" lat="46.184769"><ele>1669.75</ele></trkpt>
   <trkpt lon="7.832173" lat="46.184658"><ele>1672.0</ele></trkpt>
   <trkpt lon="7.832165" lat="46.184621"><ele>1672.5</ele></trkpt>
   <trkpt lon="7.832286" lat="46.184557"><ele>1675.5</ele></trkpt>
   <trkpt lon="7.832191" lat="46.184533"><ele>1674.75</ele></trkpt>
   <trkpt lon="7.832133" lat="46.184552"><ele>1673.25</ele></trkpt>
   <trkpt lon="7.832015" lat="46.184608"><ele>1669.75</ele></trkpt>
   <trkpt lon="7.831932" lat="46.184552"><ele>1669.5</ele></trkpt>
   <trkpt lon="7.831835" lat="46.184445"><ele>1671.0</ele></trkpt>
   <trkpt lon="7.831685" lat="46.184382"><ele>1669.75</ele></trkpt>
   <trkpt lon="7.831668" lat="46.184266"><ele>1672.5</ele></trkpt>
   <trkpt lon="7.831479" lat="46.184131"><ele>1671.75</ele></trkpt>
   <trkpt lon="7.831382" lat="46.184096"><ele>1670.25</ele></trkpt>
   <trkpt lon="7.831331" lat="46.183990"><ele>1672.25</ele></trkpt>
   <trkpt lon="7.831182" lat="46.184034"><ele>1669.25</ele></trkpt>
   <trkpt lon="7.831045" lat="46.184023"><ele>1668.5</ele></trkpt>
   <trkpt lon="7.830913" lat="46.183956"><ele>1670.25</ele></trkpt>
   <trkpt lon="7.830772" lat="46.183839"><ele>1670.75</ele></trkpt>
   <trkpt lon="7.830780" lat="46.183774"><ele>1672.0</ele></trkpt>
   <trkpt lon="7.830757" lat="46.183683"><ele>1672.75</ele></trkpt>
   <trkpt lon="7.830697" lat="46.183621"><ele>1672.25</ele></trkpt>
   <trkpt lon="7.830660" lat="46.183539"><ele>1672.75</ele></trkpt>
   <trkpt lon="7.830563" lat="46.183422"><ele>1671.25</ele></trkpt>
   <trkpt lon="7.830572" lat="46.183313"><ele>1672.5</ele></trkpt>
   <trkpt lon="7.830635" lat="46.183233"><ele>1674.75</ele></trkpt>
   <trkpt lon="7.830658" lat="46.183018"><ele>1676.5</ele></trkpt>
   <trkpt lon="7.830636" lat="46.182991"><ele>1677.0</ele></trkpt>
   <trkpt lon="7.830486" lat="46.182996"><ele>1673.0</ele></trkpt>
   <trkpt lon="7.830327" lat="46.182983"><ele>1670.75</ele></trkpt>
   <trkpt lon="7.830183" lat="46.182906"><ele>1671.0</ele></trkpt>
   <trkpt lon="7.830103" lat="46.182805"><ele>1672.75</ele></trkpt>
   <trkpt lon="7.830096" lat="46.182717"><ele>1674.5</ele></trkpt>
   <trkpt lon="7.830044" lat="46.182685"><ele>1673.0</ele></trkpt>
   <trkpt lon="7.830006" lat="46.182637"><ele>1672.25</ele></trkpt>
   <trkpt lon="7.829986" lat="46.182405"><ele>1673.25</ele></trkpt>
   <trkpt lon="7.830038" lat="46.182300"><ele>1675.25</ele></trkpt>
   <trkpt lon="7.830003" lat="46.182171"><ele>1673.5</ele></trkpt>
   <trkpt lon="7.830081" lat="46.182019"><ele>1675.25</ele></trkpt>
   <trkpt lon="7.830080" lat="46.181903"><ele>1674.5</ele></trkpt>
   <trkpt lon="7.830172" lat="46.181851"><ele>1677.25</ele></trkpt>
   <trkpt lon="7.830187" lat="46.181820"><ele>1677.5</ele></trkpt>
   <trkpt lon="7.830141" lat="46.181701"><ele>1675.25</ele></trkpt>
   <trkpt lon="7.830140" lat="46.181623"><ele>1676.75</ele></trkpt>
   <trkpt lon="7.830070" lat="46.181582"><ele>1676.25</ele></trkpt>
   <trkpt lon="7.829946" lat="46.181572"><ele>1673.25</ele></trkpt>
   <trkpt lon="7.829903" lat="46.181464"><ele>1676.5</ele></trkpt>
   <trkpt lon="7.829773" lat="46.181384"><ele>1676.5</ele></trkpt>
   <trkpt lon="7.829629" lat="46.181325"><ele>1677.25</ele></trkpt>
   <trkpt lon="7.829433" lat="46.181276"><ele>1677.25</ele></trkpt>
   <trkpt lon="7.829267" lat="46.181256"><ele>1677.25</ele></trkpt>
   <trkpt lon="7.828932" lat="46.181251"><ele>1674.75</ele></trkpt>
   <trkpt lon="7.828843" lat="46.181222"><ele>1676.0</ele></trkpt>
   <trkpt lon="7.828807" lat="46.181233"><ele>1675.0</ele></trkpt>
   <trkpt lon="7.828674" lat="46.181191"><ele>1676.75</ele></trkpt>
   <trkpt lon="7.828299" lat="46.181196"><ele>1675.25</ele></trkpt>
   <trkpt lon="7.828147" lat="46.181206"><ele>1673.75</ele></trkpt>
   <trkpt lon="7.827994" lat="46.181200"><ele>1673.0</ele></trkpt>
   <trkpt lon="7.827706" lat="46.181116"><ele>1675.75</ele></trkpt>
   <trkpt lon="7.827474" lat="46.181016"><ele>1679.25</ele></trkpt>
   <trkpt lon="7.827234" lat="46.180977"><ele>1680.25</ele></trkpt>
   <trkpt lon="7.827074" lat="46.180976"><ele>1679.5</ele></trkpt>
   <trkpt lon="7.826968" lat="46.180943"><ele>1680.5</ele></trkpt>
   <trkpt lon="7.826901" lat="46.180941"><ele>1680.5</ele></trkpt>
   <trkpt lon="7.826880" lat="46.180994"><ele>1677.75</ele></trkpt>
   <trkpt lon="7.826775" lat="46.180965"><ele>1679.0</ele></trkpt>
   <trkpt lon="7.826491" lat="46.180956"><ele>1677.75</ele></trkpt>
   <trkpt lon="7.826314" lat="46.180829"><ele>1680.75</ele></trkpt>
   <trkpt lon="7.826047" lat="46.180600"><ele>1680.5</ele></trkpt>
   <trkpt lon="7.825799" lat="46.180281"><ele>1681.25</ele></trkpt>
   <trkpt lon="7.825736" lat="46.180165"><ele>1680.0</ele></trkpt>
   <trkpt lon="7.825740" lat="46.180038"><ele>1682.0</ele></trkpt>
   <trkpt lon="7.825665" lat="46.179901"><ele>1681.5</ele></trkpt>
   <trkpt lon="7.825621" lat="46.179803"><ele>1681.5</ele></trkpt>
   <trkpt lon="7.825615" lat="46.179592"><ele>1683.25</ele></trkpt>
   <trkpt lon="7.825637" lat="46.179434"><ele>1684.25</ele></trkpt>
   <trkpt lon="7.825629" lat="46.179420"><ele>1683.75</ele></trkpt>
   <trkpt lon="7.825619" lat="46.179302"><ele>1682.75</ele></trkpt>
   <trkpt lon="7.825670" lat="46.179174"><ele>1683.5</ele></trkpt>
   <trkpt lon="7.825706" lat="46.179038"><ele>1684.75</ele></trkpt>
   <trkpt lon="7.825709" lat="46.178932"><ele>1684.75</ele></trkpt>
   <trkpt lon="7.825598" lat="46.178751"><ele>1684.25</ele></trkpt>
   <trkpt lon="7.825488" lat="46.178562"><ele>1684.25</ele></trkpt>
   <trkpt lon="7.825468" lat="46.178467"><ele>1685.25</ele></trkpt>
   <trkpt lon="7.825390" lat="46.178360"><ele>1684.5</ele></trkpt>
   <trkpt lon="7.825399" lat="46.178270"><ele>1684.5</ele></trkpt>
   <trkpt lon="7.825452" lat="46.178184"><ele>1685.25</ele></trkpt>
   <trkpt lon="7.825517" lat="46.178003"><ele>1685.5</ele></trkpt>
   <trkpt lon="7.825556" lat="46.177924"><ele>1685.5</ele></trkpt>
   <trkpt lon="7.825552" lat="46.177899"><ele>1685.0</ele></trkpt>
   <trkpt lon="7.825599" lat="46.177783"><ele>1684.5</ele></trkpt>
   <trkpt lon="7.825622" lat="46.177785"><ele>1685.25</ele></trkpt>
   <trkpt lon="7.825666" lat="46.177739"><ele>1686.0</ele></trkpt>
   <trkpt lon="7.825728" lat="46.177656"><ele>1687.25</ele></trkpt>
   <trkpt lon="7.825724" lat="46.177572"><ele>1686.0</ele></trkpt>
   <trkpt lon="7.825795" lat="46.177417"><ele>1686.75</ele></trkpt>
   <trkpt lon="7.825806" lat="46.177321"><ele>1686.0</ele></trkpt>
   <trkpt lon="7.825904" lat="46.177148"><ele>1687.75</ele></trkpt>
   <trkpt lon="7.825938" lat="46.176952"><ele>1686.5</ele></trkpt>
   <trkpt lon="7.825963" lat="46.176872"><ele>1686.0</ele></trkpt>
   <trkpt lon="7.826114" lat="46.176679"><ele>1686.25</ele></trkpt>
   <trkpt lon="7.826200" lat="46.176523"><ele>1687.5</ele></trkpt>
   <trkpt lon="7.826212" lat="46.176379"><ele>1686.25</ele></trkpt>
   <trkpt lon="7.826258" lat="46.176321"><ele>1686.5</ele></trkpt>
   <trkpt lon="7.826307" lat="46.176157"><ele>1685.75</ele></trkpt>
   <trkpt lon="7.826352" lat="46.176000"><ele>1685.75</ele></trkpt>
   <trkpt lon="7.826217" lat="46.175835"><ele>1679.0</ele></trkpt>
   <trkpt lon="7.826172" lat="46.175714"><ele>1678.25</ele></trkpt>
   <trkpt lon="7.826076" lat="46.175641"><ele>1674.75</ele></trkpt>
   <trkpt lon="7.826049" lat="46.175443"><ele>1673.5</ele></trkpt>
   <trkpt lon="7.826059" lat="46.175246"><ele>1672.75</ele></trkpt>
   <trkpt lon="7.826095" lat="46.175101"><ele>1674.25</ele></trkpt>
   <trkpt lon="7.826126" lat="46.174999"><ele>1675.5</ele></trkpt>
   <trkpt lon="7.826463" lat="46.174316"><ele>1675.25</ele></trkpt>
   <trkpt lon="7.827404" lat="46.173231"><ele>1680.5</ele></trkpt>
   <trkpt lon="7.827734" lat="46.172764"><ele>1683.0</ele></trkpt>
   <trkpt lon="7.827940" lat="46.172525"><ele>1682.25</ele></trkpt>
   <trkpt lon="7.828306" lat="46.172175"><ele>1682.5</ele></trkpt>
   <trkpt lon="7.828445" lat="46.171940"><ele>1679.75</ele></trkpt>
   <trkpt lon="7.828522" lat="46.171583"><ele>1678.25</ele></trkpt>
   <trkpt lon="7.828485" lat="46.171347"><ele>1678.5</ele></trkpt>
   <trkpt lon="7.828424" lat="46.171164"><ele>1677.5</ele></trkpt>
   <trkpt lon="7.828465" lat="46.170925"><ele>1677.75</ele></trkpt>
   <trkpt lon="7.828376" lat="46.170797"><ele>1675.25</ele></trkpt>
   <trkpt lon="7.828224" lat="46.170719"><ele>1672.5</ele></trkpt>
   <trkpt lon="7.828049" lat="46.170661"><ele>1671.0</ele></trkpt>
   <trkpt lon="7.828024" lat="46.170652"><ele>1671.0</ele></trkpt>
   <trkpt lon="7.827860" lat="46.170605"><ele>1671.0</ele></trkpt>
   <trkpt lon="7.827802" lat="46.170597"><ele>1670.75</ele></trkpt>
   <trkpt lon="7.827624" lat="46.170589"><ele>1669.5</ele></trkpt>
   <trkpt lon="7.827411" lat="46.170605"><ele>1669.25</ele></trkpt>
   <trkpt lon="7.826867" lat="46.170803"><ele>1669.5</ele></trkpt>
   <trkpt lon="7.826408" lat="46.171106"><ele>1664.75</ele></trkpt>
   <trkpt lon="7.825900" lat="46.171302"><ele>1662.25</ele></trkpt>
   <trkpt lon="7.825278" lat="46.171380"><ele>1665.5</ele></trkpt>
   <trkpt lon="7.824586" lat="46.171708"><ele>1655.5</ele></trkpt>
   <trkpt lon="7.823711" lat="46.172045"><ele>1655.0</ele></trkpt>
   <trkpt lon="7.822883" lat="46.172180"><ele>1655.25</ele></trkpt>
   <trkpt lon="7.822409" lat="46.172008"><ele>1657.0</ele></trkpt>
   <trkpt lon="7.822204" lat="46.172052"><ele>1656.75</ele></trkpt>
   <trkpt lon="7.821793" lat="46.172209"><ele>1655.5</ele></trkpt>
   <trkpt lon="7.821362" lat="46.172454"><ele>1652.25</ele></trkpt>
   <trkpt lon="7.820852" lat="46.172709"><ele>1649.25</ele></trkpt>
   <trkpt lon="7.820328" lat="46.172807"><ele>1650.0</ele></trkpt>
   <trkpt lon="7.820142" lat="46.172793"><ele>1648.75</ele></trkpt>
   <trkpt lon="7.819933" lat="46.172731"><ele>1648.75</ele></trkpt>
   <trkpt lon="7.819394" lat="46.172739"><ele>1645.25</ele></trkpt>
   <trkpt lon="7.819226" lat="46.172731"><ele>1645.75</ele></trkpt>
   <trkpt lon="7.819012" lat="46.172631"><ele>1645.75</ele></trkpt>
   <trkpt lon="7.818502" lat="46.172219"><ele>1640.25</ele></trkpt>
   <trkpt lon="7.817929" lat="46.172087"><ele>1641.0</ele></trkpt>
   <trkpt lon="7.817263" lat="46.172087"><ele>1637.25</ele></trkpt>
   <trkpt lon="7.816683" lat="46.172033"><ele>1633.75</ele></trkpt>
   <trkpt lon="7.815557" lat="46.171881"><ele>1619.5</ele></trkpt>
   <trkpt lon="7.815126" lat="46.171812"><ele>1616.75</ele></trkpt>
   <trkpt lon="7.814800" lat="46.171837"><ele>1611.75</ele></trkpt>
   <trkpt lon="7.813887" lat="46.171861"><ele>1596.5</ele></trkpt>
   <trkpt lon="7.813540" lat="46.171802"><ele>1590.5</ele></trkpt>
   <trkpt lon="7.812896" lat="46.171680"><ele>1587.0</ele></trkpt>
   <trkpt lon="7.812344" lat="46.171489"><ele>1585.75</ele></trkpt>
   <trkpt lon="7.812337" lat="46.171278"><ele>1592.75</ele></trkpt>
   <trkpt lon="7.812238" lat="46.170974"><ele>1588.5</ele></trkpt>
   <trkpt lon="7.812119" lat="46.170740"><ele>1588.0</ele></trkpt>
   <trkpt lon="7.812054" lat="46.170611"><ele>1586.25</ele></trkpt>
   <trkpt lon="7.811523" lat="46.169896"><ele>1596.0</ele></trkpt>
   <trkpt lon="7.811247" lat="46.169396"><ele>1604.5</ele></trkpt>
   <trkpt lon="7.811006" lat="46.169297"><ele>1600.25</ele></trkpt>
   <trkpt lon="7.810914" lat="46.169160"><ele>1604.5</ele></trkpt>
   <trkpt lon="7.810829" lat="46.169121"><ele>1604.25</ele></trkpt>
   <trkpt lon="7.810107" lat="46.168484"><ele>1610.0</ele></trkpt>
   <trkpt lon="7.809888" lat="46.168317"><ele>1610.25</ele></trkpt>
   <trkpt lon="7.809845" lat="46.168195"><ele>1615.25</ele></trkpt>
   <trkpt lon="7.809569" lat="46.167886"><ele>1622.0</ele></trkpt>
   <trkpt lon="7.809095" lat="46.167577"><ele>1619.5</ele></trkpt>
   <trkpt lon="7.808684" lat="46.167405"><ele>1614.5</ele></trkpt>
   <trkpt lon="7.808203" lat="46.167087"><ele>1608.0</ele></trkpt>
   <trkpt lon="7.808068" lat="46.166871"><ele>1610.25</ele></trkpt>
   <trkpt lon="7.807842" lat="46.166606"><ele>1606.75</ele></trkpt>
   <trkpt lon="7.807729" lat="46.166552"><ele>1604.0</ele></trkpt>
   <trkpt lon="7.807502" lat="46.166297"><ele>1605.25</ele></trkpt>
   <trkpt lon="7.807226" lat="46.166008"><ele>1606.25</ele></trkpt>
   <trkpt lon="7.807049" lat="46.165886"><ele>1604.75</ele></trkpt>
   <trkpt lon="7.806773" lat="46.165444"><ele>1606.25</ele></trkpt>
   <trkpt lon="7.806631" lat="46.165067"><ele>1607.75</ele></trkpt>
   <trkpt lon="7.806631" lat="46.164734"><ele>1607.0</ele></trkpt>
   <trkpt lon="7.806695" lat="46.164513"><ele>1605.25</ele></trkpt>
   <trkpt lon="7.806879" lat="46.164381"><ele>1605.25</ele></trkpt>
   <trkpt lon="7.807226" lat="46.164175"><ele>1606.5</ele></trkpt>
   <trkpt lon="7.807233" lat="46.163939"><ele>1599.75</ele></trkpt>
   <trkpt lon="7.807191" lat="46.163645"><ele>1592.5</ele></trkpt>
   <trkpt lon="7.807035" lat="46.163175"><ele>1584.25</ele></trkpt>
   <trkpt lon="7.806865" lat="46.162925"><ele>1579.5</ele></trkpt>
   <trkpt lon="7.806865" lat="46.162464"><ele>1580.75</ele></trkpt>
   <trkpt lon="7.806723" lat="46.162135"><ele>1578.0</ele></trkpt>
   <trkpt lon="7.806709" lat="46.161915"><ele>1579.25</ele></trkpt>
   <trkpt lon="7.806547" lat="46.161738"><ele>1577.25</ele></trkpt>
   <trkpt lon="7.806221" lat="46.161351"><ele>1575.25</ele></trkpt>
   <trkpt lon="7.806327" lat="46.160978"><ele>1582.25</ele></trkpt>
   <trkpt lon="7.805924" lat="46.160507"><ele>1571.25</ele></trkpt>
   <trkpt lon="7.805556" lat="46.160395"><ele>1562.25</ele></trkpt>
   <trkpt lon="7.805471" lat="46.160287"><ele>1561.25</ele></trkpt>
   <trkpt lon="7.805513" lat="46.160135"><ele>1557.5</ele></trkpt>
   <trkpt lon="7.805570" lat="46.159870"><ele>1551.75</ele></trkpt>
   <trkpt lon="7.805421" lat="46.159551"><ele>1540.75</ele></trkpt>
   <trkpt lon="7.805209" lat="46.158894"><ele>1529.0</ele></trkpt>
   <trkpt lon="7.804982" lat="46.158738"><ele>1519.75</ele></trkpt>
   <trkpt lon="7.804754" lat="46.158923"><ele>1509.5</ele></trkpt>
   <trkpt lon="7.804633" lat="46.159049"><ele>1505.25</ele></trkpt>
   <trkpt lon="7.804248" lat="46.159317"><ele>1491.75</ele></trkpt>
   <trkpt lon="7.804026" lat="46.159166"><ele>1483.25</ele></trkpt>
   <trkpt lon="7.803843" lat="46.159377"><ele>1477.25</ele></trkpt>
   <trkpt lon="7.803618" lat="46.159209"><ele>1468.5</ele></trkpt>
   <trkpt lon="7.803405" lat="46.159494"><ele>1464.75</ele></trkpt>
   <trkpt lon="7.803211" lat="46.159384"><ele>1456.25</ele></trkpt>
   <trkpt lon="7.803218" lat="46.159065"><ele>1453.75</ele></trkpt>
   <trkpt lon="7.803290" lat="46.158841"><ele>1454.25</ele></trkpt>
   <trkpt lon="7.803184" lat="46.158483"><ele>1451.0</ele></trkpt>
   <trkpt lon="7.802993" lat="46.158130"><ele>1450.25</ele></trkpt>
   <trkpt lon="7.802760" lat="46.157909"><ele>1448.5</ele></trkpt>
   <trkpt lon="7.802568" lat="46.157595"><ele>1447.0</ele></trkpt>
   <trkpt lon="7.802505" lat="46.157458"><ele>1447.5</ele></trkpt>
   <trkpt lon="7.802045" lat="46.157036"><ele>1447.25</ele></trkpt>
   <trkpt lon="7.801585" lat="46.156649"><ele>1444.75</ele></trkpt>
   <trkpt lon="7.801391" lat="46.156550"><ele>1441.75</ele></trkpt>
   <trkpt lon="7.801366" lat="46.156452"><ele>1444.5</ele></trkpt>
   <trkpt lon="7.801406" lat="46.156309"><ele>1449.25</ele></trkpt>
   <trkpt lon="7.801509" lat="46.155841"><ele>1461.75</ele></trkpt>
   <trkpt lon="7.801486" lat="46.155542"><ele>1467.75</ele></trkpt>
   <trkpt lon="7.801546" lat="46.155260"><ele>1476.0</ele></trkpt>
   <trkpt lon="7.801453" lat="46.155114"><ele>1477.75</ele></trkpt>
   <trkpt lon="7.801132" lat="46.154789"><ele>1481.25</ele></trkpt>
   <trkpt lon="7.800934" lat="46.154334"><ele>1487.5</ele></trkpt>
   <trkpt lon="7.800978" lat="46.154229"><ele>1491.0</ele></trkpt>
   <trkpt lon="7.800920" lat="46.153831"><ele>1497.25</ele></trkpt>
   <trkpt lon="7.800965" lat="46.153373"><ele>1505.5</ele></trkpt>
   <trkpt lon="7.801003" lat="46.153315"><ele>1507.25</ele></trkpt>
   <trkpt lon="7.801187" lat="46.153134"><ele>1507.75</ele></trkpt>
   <trkpt lon="7.801334" lat="46.153089"><ele>1511.25</ele></trkpt>
   <trkpt lon="7.801416" lat="46.152992"><ele>1515.0</ele></trkpt>
   <trkpt lon="7.801354" lat="46.152946"><ele>1514.0</ele></trkpt>
   <trkpt lon="7.801274" lat="46.152830"><ele>1514.5</ele></trkpt>
   <trkpt lon="7.801417" lat="46.152617"><ele>1519.5</ele></trkpt>
   <trkpt lon="7.801776" lat="46.151943"><ele>1526.5</ele></trkpt>
   <trkpt lon="7.801756" lat="46.151428"><ele>1531.25</ele></trkpt>
   <trkpt lon="7.801588" lat="46.150489"><ele>1547.5</ele></trkpt>
   <trkpt lon="7.801753" lat="46.150202"><ele>1566.75</ele></trkpt>
   <trkpt lon="7.801557" lat="46.150142"><ele>1555.75</ele></trkpt>
   <trkpt lon="7.801661" lat="46.149988"><ele>1570.5</ele></trkpt>
   <trkpt lon="7.801621" lat="46.149804"><ele>1583.75</ele></trkpt>
   <trkpt lon="7.801390" lat="46.149711"><ele>1579.75</ele></trkpt>
   <trkpt lon="7.801473" lat="46.149638"><ele>1589.75</ele></trkpt>
   <trkpt lon="7.801401" lat="46.149529"><ele>1594.25</ele></trkpt>
   <trkpt lon="7.801548" lat="46.149542"><ele>1601.75</ele></trkpt>
   <trkpt lon="7.801478" lat="46.149435"><ele>1606.25</ele></trkpt>
   <trkpt lon="7.801104" lat="46.149174"><ele>1610.75</ele></trkpt>
   <trkpt lon="7.801499" lat="46.149066"><ele>1633.0</ele></trkpt>
   <trkpt lon="7.801618" lat="46.148742"><ele>1659.25</ele></trkpt>
   <trkpt lon="7.801276" lat="46.148606"><ele>1657.75</ele></trkpt>
   <trkpt lon="7.801167" lat="46.148172"><ele>1688.0</ele></trkpt>
   <trkpt lon="7.801057" lat="46.147792"><ele>1705.0</ele></trkpt>
   <trkpt lon="7.800767" lat="46.147763"><ele>1701.25</ele></trkpt>
   <trkpt lon="7.800614" lat="46.147481"><ele>1704.5</ele></trkpt>
   <trkpt lon="7.800420" lat="46.147360"><ele>1697.0</ele></trkpt>
   <trkpt lon="7.800459" lat="46.147057"><ele>1700.25</ele></trkpt>
   <trkpt lon="7.800470" lat="46.146679"><ele>1701.5</ele></trkpt>
   <trkpt lon="7.800120" lat="46.145991"><ele>1691.5</ele></trkpt>
   <trkpt lon="7.799836" lat="46.145719"><ele>1690.5</ele></trkpt>
   <trkpt lon="7.799364" lat="46.145511"><ele>1687.25</ele></trkpt>
   <trkpt lon="7.798699" lat="46.145570"><ele>1690.5</ele></trkpt>
   <trkpt lon="7.798436" lat="46.145339"><ele>1696.5</ele></trkpt>
   <trkpt lon="7.798393" lat="46.145079"><ele>1705.25</ele></trkpt>
   <trkpt lon="7.798693" lat="46.144838"><ele>1717.5</ele></trkpt>
   <trkpt lon="7.798393" lat="46.144566"><ele>1704.0</ele></trkpt>
   <trkpt lon="7.798468" lat="46.144343"><ele>1703.0</ele></trkpt>
   <trkpt lon="7.798232" lat="46.144362"><ele>1692.5</ele></trkpt>
   <trkpt lon="7.798580" lat="46.143897"><ele>1690.0</ele></trkpt>
   <trkpt lon="7.798151" lat="46.143403"><ele>1655.75</ele></trkpt>
   <trkpt lon="7.798183" lat="46.143273"><ele>1653.5</ele></trkpt>
   <trkpt lon="7.798124" lat="46.143165"><ele>1646.25</ele></trkpt>
   <trkpt lon="7.797572" lat="46.143418"><ele>1632.75</ele></trkpt>
   <trkpt lon="7.797550" lat="46.143318"><ele>1628.75</ele></trkpt>
   <trkpt lon="7.797438" lat="46.143288"><ele>1624.5</ele></trkpt>
   <trkpt lon="7.797438" lat="46.143225"><ele>1622.5</ele></trkpt>
   <trkpt lon="7.797336" lat="46.143232"><ele>1619.75</ele></trkpt>
   <trkpt lon="7.797260" lat="46.143117"><ele>1613.25</ele></trkpt>
   <trkpt lon="7.797388" lat="46.141929"><ele>1576.0</ele></trkpt>
   <trkpt lon="7.797583" lat="46.141527"><ele>1568.25</ele></trkpt>
   <trkpt lon="7.797753" lat="46.141315"><ele>1564.0</ele></trkpt>
   <trkpt lon="7.797831" lat="46.141297"><ele>1564.0</ele></trkpt>
   <trkpt lon="7.797953" lat="46.141380"><ele>1571.75</ele></trkpt>
   <trkpt lon="7.798075" lat="46.141333"><ele>1569.25</ele></trkpt>
   <trkpt lon="7.798482" lat="46.141330"><ele>1582.5</ele></trkpt>
   <trkpt lon="7.798581" lat="46.141230"><ele>1586.75</ele></trkpt>
   <trkpt lon="7.798578" lat="46.141181"><ele>1584.5</ele></trkpt>
   <trkpt lon="7.798573" lat="46.141108"><ele>1581.25</ele></trkpt>
   <trkpt lon="7.798519" lat="46.141065"><ele>1575.5</ele></trkpt>
   <trkpt lon="7.798191" lat="46.140966"><ele>1551.0</ele></trkpt>
   <trkpt lon="7.797937" lat="46.140826"><ele>1534.25</ele></trkpt>
   <trkpt lon="7.797717" lat="46.140084"><ele>1519.25</ele></trkpt>
   <trkpt lon="7.797332" lat="46.139784"><ele>1497.75</ele></trkpt>
   <trkpt lon="7.797067" lat="46.138971"><ele>1460.75</ele></trkpt>
   <trkpt lon="7.797112" lat="46.138868"><ele>1458.0</ele></trkpt>
   <trkpt lon="7.796918" lat="46.138330"><ele>1435.0</ele></trkpt>
   <trkpt lon="7.797039" lat="46.138199"><ele>1436.75</ele></trkpt>
   <trkpt lon="7.796666" lat="46.137236"><ele>1409.0</ele></trkpt>
   <trkpt lon="7.796337" lat="46.137132"><ele>1397.5</ele></trkpt>
   <trkpt lon="7.795793" lat="46.136816"><ele>1372.75</ele></trkpt>
   <trkpt lon="7.795301" lat="46.135536"><ele>1332.0</ele></trkpt>
   <trkpt lon="7.795083" lat="46.135197"><ele>1319.5</ele></trkpt>
   <trkpt lon="7.794682" lat="46.135127"><ele>1311.0</ele></trkpt>
   <trkpt lon="7.794483" lat="46.135055"><ele>1309.25</ele></trkpt>
   <trkpt lon="7.794348" lat="46.135006"><ele>1308.0</ele></trkpt>
   <trkpt lon="7.794210" lat="46.134956"><ele>1306.25</ele></trkpt>
   <trkpt lon="7.794265" lat="46.134667"><ele>1311.5</ele></trkpt>
   <trkpt lon="7.794262" lat="46.134384"><ele>1315.75</ele></trkpt>
   <trkpt lon="7.794281" lat="46.134310"><ele>1317.0</ele></trkpt>
   <trkpt lon="7.794372" lat="46.134152"><ele>1321.25</ele></trkpt>
   <trkpt lon="7.794435" lat="46.134064"><ele>1323.5</ele></trkpt>
   <trkpt lon="7.794526" lat="46.133873"><ele>1326.75</ele></trkpt>
   <trkpt lon="7.794717" lat="46.133670"><ele>1330.25</ele></trkpt>
   <trkpt lon="7.794907" lat="46.133317"><ele>1339.0</ele></trkpt>
   <trkpt lon="7.795120" lat="46.133080"><ele>1342.25</ele></trkpt>
   <trkpt lon="7.795219" lat="46.133089"><ele>1344.25</ele></trkpt>
   <trkpt lon="7.795815" lat="46.133498"><ele>1363.0</ele></trkpt>
   <trkpt lon="7.796023" lat="46.133553"><ele>1370.5</ele></trkpt>
   <trkpt lon="7.796212" lat="46.133522"><ele>1376.25</ele></trkpt>
   <trkpt lon="7.796345" lat="46.133334"><ele>1378.5</ele></trkpt>
   <trkpt lon="7.796403" lat="46.133311"><ele>1379.75</ele></trkpt>
   <trkpt lon="7.796431" lat="46.133350"><ele>1381.25</ele></trkpt>
   <trkpt lon="7.796482" lat="46.133337"><ele>1382.25</ele></trkpt>
   <trkpt lon="7.796504" lat="46.133367"><ele>1383.25</ele></trkpt>
   <trkpt lon="7.796543" lat="46.133358"><ele>1384.0</ele></trkpt>
   <trkpt lon="7.796555" lat="46.133386"><ele>1384.75</ele></trkpt>
   <trkpt lon="7.796643" lat="46.133380"><ele>1387.0</ele></trkpt>
   <trkpt lon="7.796724" lat="46.133389"><ele>1389.0</ele></trkpt>
   <trkpt lon="7.796738" lat="46.133420"><ele>1390.0</ele></trkpt>
   <trkpt lon="7.796798" lat="46.133399"><ele>1391.25</ele></trkpt>
   <trkpt lon="7.796838" lat="46.133449"><ele>1393.5</ele></trkpt>
   <trkpt lon="7.796887" lat="46.133435"><ele>1394.5</ele></trkpt>
   <trkpt lon="7.796967" lat="46.133466"><ele>1398.0</ele></trkpt>
   <trkpt lon="7.797132" lat="46.133468"><ele>1404.0</ele></trkpt>
   <trkpt lon="7.797193" lat="46.133493"><ele>1407.25</ele></trkpt>
   <trkpt lon="7.797328" lat="46.133493"><ele>1411.25</ele></trkpt>
   <trkpt lon="7.797367" lat="46.133472"><ele>1411.5</ele></trkpt>
   <trkpt lon="7.797385" lat="46.132746"><ele>1421.0</ele></trkpt>
   <trkpt lon="7.797482" lat="46.132178"><ele>1444.25</ele></trkpt>
   <trkpt lon="7.797665" lat="46.131628"><ele>1472.5</ele></trkpt>
   <trkpt lon="7.797418" lat="46.130581"><ele>1496.0</ele></trkpt>
   <trkpt lon="7.797456" lat="46.129317"><ele>1582.0</ele></trkpt>
   <trkpt lon="7.798079" lat="46.128795"><ele>1654.25</ele></trkpt>
   <trkpt lon="7.798499" lat="46.128759"><ele>1663.0</ele></trkpt>
   <trkpt lon="7.798432" lat="46.128717"><ele>1665.75</ele></trkpt>
   <trkpt lon="7.798311" lat="46.128667"><ele>1667.5</ele></trkpt>
   <trkpt lon="7.798275" lat="46.128621"><ele>1672.25</ele></trkpt>
   <trkpt lon="7.798353" lat="46.128594"><ele>1675.5</ele></trkpt>
   <trkpt lon="7.798358" lat="46.128563"><ele>1677.25</ele></trkpt>
   <trkpt lon="7.798443" lat="46.128544"><ele>1681.5</ele></trkpt>
   <trkpt lon="7.798561" lat="46.128593"><ele>1684.5</ele></trkpt>
   <trkpt lon="7.798645" lat="46.128593"><ele>1688.0</ele></trkpt>
   <trkpt lon="7.798724" lat="46.128637"><ele>1687.5</ele></trkpt>
   <trkpt lon="7.798800" lat="46.128650"><ele>1689.25</ele></trkpt>
   <trkpt lon="7.798965" lat="46.128717"><ele>1687.75</ele></trkpt>
   <trkpt lon="7.799074" lat="46.128724"><ele>1691.0</ele></trkpt>
   <trkpt lon="7.799112" lat="46.128741"><ele>1690.75</ele></trkpt>
   <trkpt lon="7.799121" lat="46.128772"><ele>1687.75</ele></trkpt>
   <trkpt lon="7.799269" lat="46.128746"><ele>1692.5</ele></trkpt>
   <trkpt lon="7.799384" lat="46.128675"><ele>1698.75</ele></trkpt>
   <trkpt lon="7.799541" lat="46.128650"><ele>1707.25</ele></trkpt>
   <trkpt lon="7.799529" lat="46.128602"><ele>1710.25</ele></trkpt>
   <trkpt lon="7.799480" lat="46.128606"><ele>1706.75</ele></trkpt>
   <trkpt lon="7.799454" lat="46.128580"><ele>1706.5</ele></trkpt>
   <trkpt lon="7.799537" lat="46.128550"><ele>1713.5</ele></trkpt>
   <trkpt lon="7.799517" lat="46.128516"><ele>1714.25</ele></trkpt>
   <trkpt lon="7.799549" lat="46.128430"><ele>1720.25</ele></trkpt>
   <trkpt lon="7.799505" lat="46.128393"><ele>1720.75</ele></trkpt>
   <trkpt lon="7.799493" lat="46.128339"><ele>1723.5</ele></trkpt>
   <trkpt lon="7.799430" lat="46.128251"><ele>1723.75</ele></trkpt>
   <trkpt lon="7.799470" lat="46.128187"><ele>1726.5</ele></trkpt>
   <trkpt lon="7.799478" lat="46.128121"><ele>1728.25</ele></trkpt>
   <trkpt lon="7.799446" lat="46.128079"><ele>1727.5</ele></trkpt>
   <trkpt lon="7.799447" lat="46.128027"><ele>1727.75</ele></trkpt>
   <trkpt lon="7.799407" lat="46.127984"><ele>1725.25</ele></trkpt>
   <trkpt lon="7.799374" lat="46.127970"><ele>1723.5</ele></trkpt>
   <trkpt lon="7.799300" lat="46.127963"><ele>1720.0</ele></trkpt>
   <trkpt lon="7.799247" lat="46.127929"><ele>1717.25</ele></trkpt>
   <trkpt lon="7.799276" lat="46.127863"><ele>1718.25</ele></trkpt>
   <trkpt lon="7.799261" lat="46.127782"><ele>1717.0</ele></trkpt>
   <trkpt lon="7.799221" lat="46.127731"><ele>1715.0</ele></trkpt>
   <trkpt lon="7.799219" lat="46.127668"><ele>1715.0</ele></trkpt>
   <trkpt lon="7.799249" lat="46.127618"><ele>1716.25</ele></trkpt>
   <trkpt lon="7.799233" lat="46.127451"><ele>1715.75</ele></trkpt>
   <trkpt lon="7.799210" lat="46.127427"><ele>1714.75</ele></trkpt>
   <trkpt lon="7.799205" lat="46.127238"><ele>1716.75</ele></trkpt>
   <trkpt lon="7.799186" lat="46.127145"><ele>1715.5</ele></trkpt>
   <trkpt lon="7.799217" lat="46.127106"><ele>1716.75</ele></trkpt>
   <trkpt lon="7.799221" lat="46.127054"><ele>1716.75</ele></trkpt>
   <trkpt lon="7.799249" lat="46.126969"><ele>1717.5</ele></trkpt>
   <trkpt lon="7.799187" lat="46.126908"><ele>1713.0</ele></trkpt>
   <trkpt lon="7.799333" lat="46.126878"><ele>1718.25</ele></trkpt>
   <trkpt lon="7.799353" lat="46.126827"><ele>1717.25</ele></trkpt>
   <trkpt lon="7.799414" lat="46.126790"><ele>1718.75</ele></trkpt>
   <trkpt lon="7.799500" lat="46.126692"><ele>1720.0</ele></trkpt>
   <trkpt lon="7.799568" lat="46.126677"><ele>1723.25</ele></trkpt>
   <trkpt lon="7.799651" lat="46.126693"><ele>1728.75</ele></trkpt>
   <trkpt lon="7.799648" lat="46.126577"><ele>1727.25</ele></trkpt>
   <trkpt lon="7.799669" lat="46.126517"><ele>1728.25</ele></trkpt>
   <trkpt lon="7.799661" lat="46.126465"><ele>1727.5</ele></trkpt>
   <trkpt lon="7.799679" lat="46.126441"><ele>1728.5</ele></trkpt>
   <trkpt lon="7.799756" lat="46.126406"><ele>1733.0</ele></trkpt>
   <trkpt lon="7.799749" lat="46.126353"><ele>1733.25</ele></trkpt>
   <trkpt lon="7.799809" lat="46.126274"><ele>1738.75</ele></trkpt>
   <trkpt lon="7.799871" lat="46.126261"><ele>1743.0</ele></trkpt>
   <trkpt lon="7.799852" lat="46.126126"><ele>1745.0</ele></trkpt>
   <trkpt lon="7.799890" lat="46.126073"><ele>1747.5</ele></trkpt>
   <trkpt lon="7.799905" lat="46.125957"><ele>1748.0</ele></trkpt>
   <trkpt lon="7.799919" lat="46.125936"><ele>1748.75</ele></trkpt>
   <trkpt lon="7.799913" lat="46.125908"><ele>1748.25</ele></trkpt>
   <trkpt lon="7.799919" lat="46.125831"><ele>1748.25</ele></trkpt>
   <trkpt lon="7.799977" lat="46.125791"><ele>1750.5</ele></trkpt>
   <trkpt lon="7.799982" lat="46.125761"><ele>1750.0</ele></trkpt>
   <trkpt lon="7.800017" lat="46.125743"><ele>1751.75</ele></trkpt>
   <trkpt lon="7.800104" lat="46.125541"><ele>1750.5</ele></trkpt>
   <trkpt lon="7.800343" lat="46.125369"><ele>1746.75</ele></trkpt>
   <trkpt lon="7.800467" lat="46.125406"><ele>1755.75</ele></trkpt>
   <trkpt lon="7.800564" lat="46.125290"><ele>1753.0</ele></trkpt>
   <trkpt lon="7.800615" lat="46.125291"><ele>1755.25</ele></trkpt>
   <trkpt lon="7.800802" lat="46.125225"><ele>1758.25</ele></trkpt>
   <trkpt lon="7.800861" lat="46.125233"><ele>1761.25</ele></trkpt>
   <trkpt lon="7.800908" lat="46.125192"><ele>1759.75</ele></trkpt>
   <trkpt lon="7.800951" lat="46.125195"><ele>1761.5</ele></trkpt>
   <trkpt lon="7.801081" lat="46.125152"><ele>1762.75</ele></trkpt>
   <trkpt lon="7.801157" lat="46.125062"><ele>1759.75</ele></trkpt>
   <trkpt lon="7.801236" lat="46.125047"><ele>1762.75</ele></trkpt>
   <trkpt lon="7.801273" lat="46.125003"><ele>1761.75</ele></trkpt>
   <trkpt lon="7.801311" lat="46.124996"><ele>1763.5</ele></trkpt>
   <trkpt lon="7.801380" lat="46.124950"><ele>1764.75</ele></trkpt>
   <trkpt lon="7.801636" lat="46.124840"><ele>1769.75</ele></trkpt>
   <trkpt lon="7.801767" lat="46.124814"><ele>1774.5</ele></trkpt>
   <trkpt lon="7.801989" lat="46.124608"><ele>1790.0</ele></trkpt>
   <trkpt lon="7.802046" lat="46.124488"><ele>1804.5</ele></trkpt>
   <trkpt lon="7.801830" lat="46.124463"><ele>1802.25</ele></trkpt>
   <trkpt lon="7.801499" lat="46.124468"><ele>1803.0</ele></trkpt>
   <trkpt lon="7.801349" lat="46.124501"><ele>1795.5</ele></trkpt>
   <trkpt lon="7.801232" lat="46.124478"><ele>1799.5</ele></trkpt>
   <trkpt lon="7.801004" lat="46.124534"><ele>1783.25</ele></trkpt>
   <trkpt lon="7.800962" lat="46.124532"><ele>1782.75</ele></trkpt>
   <trkpt lon="7.800891" lat="46.124543"><ele>1778.0</ele></trkpt>
   <trkpt lon="7.800805" lat="46.124517"><ele>1783.25</ele></trkpt>
   <trkpt lon="7.800770" lat="46.124496"><ele>1788.5</ele></trkpt>
   <trkpt lon="7.800583" lat="46.124546"><ele>1772.75</ele></trkpt>
   <trkpt lon="7.800503" lat="46.124599"><ele>1757.5</ele></trkpt>
   <trkpt lon="7.800374" lat="46.124626"><ele>1750.75</ele></trkpt>
   <trkpt lon="7.800220" lat="46.124568"><ele>1766.0</ele></trkpt>
   <trkpt lon="7.800193" lat="46.124577"><ele>1763.5</ele></trkpt>
   <trkpt lon="7.799950" lat="46.124536"><ele>1770.25</ele></trkpt>
   <trkpt lon="7.799748" lat="46.124548"><ele>1763.0</ele></trkpt>
   <trkpt lon="7.799582" lat="46.124470"><ele>1769.0</ele></trkpt>
   <trkpt lon="7.799480" lat="46.124509"><ele>1758.5</ele></trkpt>
   <trkpt lon="7.799410" lat="46.124500"><ele>1757.25</ele></trkpt>
   <trkpt lon="7.799343" lat="46.124463"><ele>1760.5</ele></trkpt>
   <trkpt lon="7.799313" lat="46.124468"><ele>1758.75</ele></trkpt>
   <trkpt lon="7.799339" lat="46.124443"><ele>1763.0</ele></trkpt>
   <trkpt lon="7.799338" lat="46.124417"><ele>1765.25</ele></trkpt>
   <trkpt lon="7.799239" lat="46.124400"><ele>1763.25</ele></trkpt>
   <trkpt lon="7.799239" lat="46.124378"><ele>1764.75</ele></trkpt>
   <trkpt lon="7.799264" lat="46.124354"><ele>1767.5</ele></trkpt>
   <trkpt lon="7.799329" lat="46.124351"><ele>1770.25</ele></trkpt>
   <trkpt lon="7.799362" lat="46.124320"><ele>1774.5</ele></trkpt>
   <trkpt lon="7.799256" lat="46.124241"><ele>1775.75</ele></trkpt>
   <trkpt lon="7.799263" lat="46.124210"><ele>1778.5</ele></trkpt>
   <trkpt lon="7.799239" lat="46.124190"><ele>1778.5</ele></trkpt>
   <trkpt lon="7.799244" lat="46.124160"><ele>1781.0</ele></trkpt>
   <trkpt lon="7.799309" lat="46.124153"><ele>1785.5</ele></trkpt>
   <trkpt lon="7.799306" lat="46.124049"><ele>1792.25</ele></trkpt>
   <trkpt lon="7.799287" lat="46.123998"><ele>1794.75</ele></trkpt>
   <trkpt lon="7.799205" lat="46.123938"><ele>1795.0</ele></trkpt>
   <trkpt lon="7.798984" lat="46.123864"><ele>1790.25</ele></trkpt>
   <trkpt lon="7.798831" lat="46.123777"><ele>1786.5</ele></trkpt>
   <trkpt lon="7.798772" lat="46.123758"><ele>1784.0</ele></trkpt>
   <trkpt lon="7.798720" lat="46.123724"><ele>1783.5</ele></trkpt>
   <trkpt lon="7.798713" lat="46.123701"><ele>1785.0</ele></trkpt>
   <trkpt lon="7.798645" lat="46.123665"><ele>1784.75</ele></trkpt>
   <trkpt lon="7.798574" lat="46.123449"><ele>1790.5</ele></trkpt>
   <trkpt lon="7.798476" lat="46.123426"><ele>1785.25</ele></trkpt>
   <trkpt lon="7.798465" lat="46.123376"><ele>1787.25</ele></trkpt>
   <trkpt lon="7.798441" lat="46.123353"><ele>1787.5</ele></trkpt>
   <trkpt lon="7.798439" lat="46.123295"><ele>1789.75</ele></trkpt>
   <trkpt lon="7.798415" lat="46.123246"><ele>1789.75</ele></trkpt>
   <trkpt lon="7.798421" lat="46.123223"><ele>1790.75</ele></trkpt>
   <trkpt lon="7.798344" lat="46.123119"><ele>1787.0</ele></trkpt>
   <trkpt lon="7.798346" lat="46.123085"><ele>1787.75</ele></trkpt>
   <trkpt lon="7.798319" lat="46.123073"><ele>1786.25</ele></trkpt>
   <trkpt lon="7.798285" lat="46.123016"><ele>1787.25</ele></trkpt>
   <trkpt lon="7.798209" lat="46.122942"><ele>1787.5</ele></trkpt>
   <trkpt lon="7.798197" lat="46.122860"><ele>1790.5</ele></trkpt>
   <trkpt lon="7.798057" lat="46.122756"><ele>1786.5</ele></trkpt>
   <trkpt lon="7.798025" lat="46.122675"><ele>1789.75</ele></trkpt>
   <trkpt lon="7.798029" lat="46.122630"><ele>1793.0</ele></trkpt>
   <trkpt lon="7.798013" lat="46.122606"><ele>1793.5</ele></trkpt>
   <trkpt lon="7.798004" lat="46.122555"><ele>1796.0</ele></trkpt>
   <trkpt lon="7.797967" lat="46.122510"><ele>1796.0</ele></trkpt>
   <trkpt lon="7.797915" lat="46.122225"><ele>1803.75</ele></trkpt>
   <trkpt lon="7.797947" lat="46.122177"><ele>1807.0</ele></trkpt>
   <trkpt lon="7.797942" lat="46.122124"><ele>1808.5</ele></trkpt>
   <trkpt lon="7.797923" lat="46.122096"><ele>1808.5</ele></trkpt>
   <trkpt lon="7.797911" lat="46.121950"><ele>1812.25</ele></trkpt>
   <trkpt lon="7.797868" lat="46.121900"><ele>1808.75</ele></trkpt>
   <trkpt lon="7.797867" lat="46.121865"><ele>1809.25</ele></trkpt>
   <trkpt lon="7.797801" lat="46.121743"><ele>1804.25</ele></trkpt>
   <trkpt lon="7.797812" lat="46.121723"><ele>1805.5</ele></trkpt>
   <trkpt lon="7.797811" lat="46.121686"><ele>1806.0</ele></trkpt>
   <trkpt lon="7.797774" lat="46.121601"><ele>1805.75</ele></trkpt>
   <trkpt lon="7.797703" lat="46.121507"><ele>1805.0</ele></trkpt>
   <trkpt lon="7.797602" lat="46.121406"><ele>1799.75</ele></trkpt>
   <trkpt lon="7.797570" lat="46.121241"><ele>1798.0</ele></trkpt>
   <trkpt lon="7.797503" lat="46.121139"><ele>1794.75</ele></trkpt>
   <trkpt lon="7.797503" lat="46.121070"><ele>1795.0</ele></trkpt>
   <trkpt lon="7.797567" lat="46.121040"><ele>1798.5</ele></trkpt>
   <trkpt lon="7.797680" lat="46.121164"><ele>1805.5</ele></trkpt>
   <trkpt lon="7.797687" lat="46.121269"><ele>1806.75</ele></trkpt>
   <trkpt lon="7.797753" lat="46.121370"><ele>1813.25</ele></trkpt>
   <trkpt lon="7.797839" lat="46.121470"><ele>1815.75</ele></trkpt>
   <trkpt lon="7.797913" lat="46.121528"><ele>1819.0</ele></trkpt>
   <trkpt lon="7.797924" lat="46.121599"><ele>1818.5</ele></trkpt>
   <trkpt lon="7.798024" lat="46.121710"><ele>1826.25</ele></trkpt>
   <trkpt lon="7.798041" lat="46.121788"><ele>1826.75</ele></trkpt>
   <trkpt lon="7.798080" lat="46.121853"><ele>1828.5</ele></trkpt>
   <trkpt lon="7.798152" lat="46.121931"><ele>1832.25</ele></trkpt>
   <trkpt lon="7.798197" lat="46.122012"><ele>1833.0</ele></trkpt>
   <trkpt lon="7.798217" lat="46.122024"><ele>1834.25</ele></trkpt>
   <trkpt lon="7.798260" lat="46.122026"><ele>1837.75</ele></trkpt>
   <trkpt lon="7.798375" lat="46.121966"><ele>1846.0</ele></trkpt>
   <trkpt lon="7.798402" lat="46.121934"><ele>1847.25</ele></trkpt>
   <trkpt lon="7.798485" lat="46.121867"><ele>1851.25</ele></trkpt>
   <trkpt lon="7.798552" lat="46.122051"><ele>1854.5</ele></trkpt>
   <trkpt lon="7.798636" lat="46.122186"><ele>1858.5</ele></trkpt>
   <trkpt lon="7.798721" lat="46.122137"><ele>1863.5</ele></trkpt>
   <trkpt lon="7.798709" lat="46.121980"><ele>1864.25</ele></trkpt>
   <trkpt lon="7.798762" lat="46.121860"><ele>1867.75</ele></trkpt>
   <trkpt lon="7.798746" lat="46.121838"><ele>1866.75</ele></trkpt>
   <trkpt lon="7.798777" lat="46.121738"><ele>1868.25</ele></trkpt>
   <trkpt lon="7.798844" lat="46.121640"><ele>1871.5</ele></trkpt>
   <trkpt lon="7.798987" lat="46.121573"><ele>1877.75</ele></trkpt>
   <trkpt lon="7.799010" lat="46.121509"><ele>1877.5</ele></trkpt>
   <trkpt lon="7.799055" lat="46.121499"><ele>1879.75</ele></trkpt>
   <trkpt lon="7.799075" lat="46.121512"><ele>1881.0</ele></trkpt>
   <trkpt lon="7.799228" lat="46.121789"><ele>1892.75</ele></trkpt>
   <trkpt lon="7.799410" lat="46.121868"><ele>1903.0</ele></trkpt>
   <trkpt lon="7.799607" lat="46.121846"><ele>1912.5</ele></trkpt>
   <trkpt lon="7.799730" lat="46.122319"><ele>1924.75</ele></trkpt>
   <trkpt lon="7.799758" lat="46.122461"><ele>1926.25</ele></trkpt>
   <trkpt lon="7.799801" lat="46.122598"><ele>1927.5</ele></trkpt>
   <trkpt lon="7.799843" lat="46.122657"><ele>1929.75</ele></trkpt>
   <trkpt lon="7.799952" lat="46.122727"><ele>1937.25</ele></trkpt>
   <trkpt lon="7.800046" lat="46.122723"><ele>1946.25</ele></trkpt>
   <trkpt lon="7.800024" lat="46.122545"><ele>1947.75</ele></trkpt>
   <trkpt lon="7.800097" lat="46.122426"><ele>1953.5</ele></trkpt>
   <trkpt lon="7.800300" lat="46.122315"><ele>1963.75</ele></trkpt>
   <trkpt lon="7.800537" lat="46.121916"><ele>1975.5</ele></trkpt>
   <trkpt lon="7.800638" lat="46.121961"><ele>1980.75</ele></trkpt>
   <trkpt lon="7.800821" lat="46.121621"><ele>1987.0</ele></trkpt>
   <trkpt lon="7.800879" lat="46.121435"><ele>1989.5</ele></trkpt>
   <trkpt lon="7.801110" lat="46.121333"><ele>2000.5</ele></trkpt>
   <trkpt lon="7.801124" lat="46.121201"><ele>2001.25</ele></trkpt>
   <trkpt lon="7.801193" lat="46.121098"><ele>2006.25</ele></trkpt>
   <trkpt lon="7.801258" lat="46.121067"><ele>2011.5</ele></trkpt>
   <trkpt lon="7.801354" lat="46.121244"><ele>2019.25</ele></trkpt>
   <trkpt lon="7.801475" lat="46.121262"><ele>2028.75</ele></trkpt>
   <trkpt lon="7.801521" lat="46.121089"><ele>2032.5</ele></trkpt>
   <trkpt lon="7.801601" lat="46.120989"><ele>2039.0</ele></trkpt>
   <trkpt lon="7.801753" lat="46.121231"><ele>2049.75</ele></trkpt>
   <trkpt lon="7.801823" lat="46.121298"><ele>2054.0</ele></trkpt>
   <trkpt lon="7.801913" lat="46.121665"><ele>2057.75</ele></trkpt>
   <trkpt lon="7.802087" lat="46.121740"><ele>2062.25</ele></trkpt>
   <trkpt lon="7.802203" lat="46.121659"><ele>2067.5</ele></trkpt>
   <trkpt lon="7.802043" lat="46.121258"><ele>2066.25</ele></trkpt>
   <trkpt lon="7.802022" lat="46.121108"><ele>2067.25</ele></trkpt>
   <trkpt lon="7.802051" lat="46.121092"><ele>2068.75</ele></trkpt>
   <trkpt lon="7.802079" lat="46.120977"><ele>2071.75</ele></trkpt>
   <trkpt lon="7.802103" lat="46.120952"><ele>2073.5</ele></trkpt>
   <trkpt lon="7.802125" lat="46.120889"><ele>2075.75</ele></trkpt>
   <trkpt lon="7.802095" lat="46.120843"><ele>2074.75</ele></trkpt>
   <trkpt lon="7.801996" lat="46.120762"><ele>2070.5</ele></trkpt>
   <trkpt lon="7.801988" lat="46.120736"><ele>2070.25</ele></trkpt>
   <trkpt lon="7.802019" lat="46.120658"><ele>2072.75</ele></trkpt>
   <trkpt lon="7.802018" lat="46.120626"><ele>2073.0</ele></trkpt>
   <trkpt lon="7.802054" lat="46.120588"><ele>2075.0</ele></trkpt>
   <trkpt lon="7.802149" lat="46.120283"><ele>2079.5</ele></trkpt>
   <trkpt lon="7.802209" lat="46.120235"><ele>2082.0</ele></trkpt>
   <trkpt lon="7.802197" lat="46.120166"><ele>2079.75</ele></trkpt>
   <trkpt lon="7.802212" lat="46.120088"><ele>2078.5</ele></trkpt>
   <trkpt lon="7.802335" lat="46.119974"><ele>2082.0</ele></trkpt>
   <trkpt lon="7.802314" lat="46.119928"><ele>2080.5</ele></trkpt>
   <trkpt lon="7.802321" lat="46.119893"><ele>2080.5</ele></trkpt>
   <trkpt lon="7.802299" lat="46.119802"><ele>2078.5</ele></trkpt>
   <trkpt lon="7.802335" lat="46.119796"><ele>2080.25</ele></trkpt>
   <trkpt lon="7.802369" lat="46.119739"><ele>2081.5</ele></trkpt>
   <trkpt lon="7.802311" lat="46.119704"><ele>2078.25</ele></trkpt>
   <trkpt lon="7.802400" lat="46.119665"><ele>2083.0</ele></trkpt>
   <trkpt lon="7.802439" lat="46.119626"><ele>2085.5</ele></trkpt>
   <trkpt lon="7.802456" lat="46.119588"><ele>2086.75</ele></trkpt>
   <trkpt lon="7.802451" lat="46.119559"><ele>2086.75</ele></trkpt>
   <trkpt lon="7.802530" lat="46.119439"><ele>2094.0</ele></trkpt>
   <trkpt lon="7.802537" lat="46.119393"><ele>2094.25</ele></trkpt>
   <trkpt lon="7.802592" lat="46.119360"><ele>2099.25</ele></trkpt>
   <trkpt lon="7.802569" lat="46.119300"><ele>2096.0</ele></trkpt>
   <trkpt lon="7.802569" lat="46.119262"><ele>2095.5</ele></trkpt>
   <trkpt lon="7.802601" lat="46.119209"><ele>2097.5</ele></trkpt>
   <trkpt lon="7.802561" lat="46.119124"><ele>2093.0</ele></trkpt>
   <trkpt lon="7.802581" lat="46.119052"><ele>2094.5</ele></trkpt>
   <trkpt lon="7.802567" lat="46.119020"><ele>2093.25</ele></trkpt>
   <trkpt lon="7.802628" lat="46.118993"><ele>2098.25</ele></trkpt>
   <trkpt lon="7.802636" lat="46.118965"><ele>2099.0</ele></trkpt>
   <trkpt lon="7.802640" lat="46.118795"><ele>2098.0</ele></trkpt>
   <trkpt lon="7.802622" lat="46.118770"><ele>2096.25</ele></trkpt>
   <trkpt lon="7.802626" lat="46.118715"><ele>2096.0</ele></trkpt>
   <trkpt lon="7.802610" lat="46.118676"><ele>2094.5</ele></trkpt>
   <trkpt lon="7.802634" lat="46.118663"><ele>2096.0</ele></trkpt>
   <trkpt lon="7.802636" lat="46.118632"><ele>2096.0</ele></trkpt>
   <trkpt lon="7.802695" lat="46.118533"><ele>2098.0</ele></trkpt>
   <trkpt lon="7.802680" lat="46.118487"><ele>2096.0</ele></trkpt>
   <trkpt lon="7.802703" lat="46.118426"><ele>2096.75</ele></trkpt>
   <trkpt lon="7.802683" lat="46.118370"><ele>2094.0</ele></trkpt>
   <trkpt lon="7.802697" lat="46.118298"><ele>2096.75</ele></trkpt>
   <trkpt lon="7.802621" lat="46.118258"><ele>2093.75</ele></trkpt>
   <trkpt lon="7.802628" lat="46.118236"><ele>2095.75</ele></trkpt>
   <trkpt lon="7.802585" lat="46.118175"><ele>2097.25</ele></trkpt>
   <trkpt lon="7.802586" lat="46.118124"><ele>2101.25</ele></trkpt>
   <trkpt lon="7.802510" lat="46.118065"><ele>2101.5</ele></trkpt>
   <trkpt lon="7.802484" lat="46.118030"><ele>2098.75</ele></trkpt>
   <trkpt lon="7.802547" lat="46.117959"><ele>2100.5</ele></trkpt>
   <trkpt lon="7.802534" lat="46.117910"><ele>2097.75</ele></trkpt>
   <trkpt lon="7.802601" lat="46.117837"><ele>2099.75</ele></trkpt>
   <trkpt lon="7.802594" lat="46.117778"><ele>2097.25</ele></trkpt>
   <trkpt lon="7.802708" lat="46.117740"><ele>2106.25</ele></trkpt>
   <trkpt lon="7.802751" lat="46.117688"><ele>2109.25</ele></trkpt>
   <trkpt lon="7.802732" lat="46.117641"><ele>2107.5</ele></trkpt>
   <trkpt lon="7.802734" lat="46.117614"><ele>2107.5</ele></trkpt>
   <trkpt lon="7.802700" lat="46.117590"><ele>2104.75</ele></trkpt>
   <trkpt lon="7.802699" lat="46.117553"><ele>2104.5</ele></trkpt>
   <trkpt lon="7.802672" lat="46.117513"><ele>2102.25</ele></trkpt>
   <trkpt lon="7.802648" lat="46.117399"><ele>2100.0</ele></trkpt>
   <trkpt lon="7.802684" lat="46.117395"><ele>2102.25</ele></trkpt>
   <trkpt lon="7.802715" lat="46.117332"><ele>2103.5</ele></trkpt>
   <trkpt lon="7.802708" lat="46.117269"><ele>2102.5</ele></trkpt>
   <trkpt lon="7.802722" lat="46.117211"><ele>2102.75</ele></trkpt>
   <trkpt lon="7.802809" lat="46.117125"><ele>2106.0</ele></trkpt>
   <trkpt lon="7.802777" lat="46.117076"><ele>2103.75</ele></trkpt>
   <trkpt lon="7.802781" lat="46.117026"><ele>2103.25</ele></trkpt>
   <trkpt lon="7.802806" lat="46.116976"><ele>2103.75</ele></trkpt>
   <trkpt lon="7.802868" lat="46.116940"><ele>2106.75</ele></trkpt>
   <trkpt lon="7.802857" lat="46.116865"><ele>2104.75</ele></trkpt>
   <trkpt lon="7.802892" lat="46.116767"><ele>2104.5</ele></trkpt>
   <trkpt lon="7.802880" lat="46.116724"><ele>2103.0</ele></trkpt>
   <trkpt lon="7.802947" lat="46.116708"><ele>2105.5</ele></trkpt>
   <trkpt lon="7.803010" lat="46.116563"><ele>2104.5</ele></trkpt>
   <trkpt lon="7.803068" lat="46.116517"><ele>2105.75</ele></trkpt>
   <trkpt lon="7.803064" lat="46.116466"><ele>2104.25</ele></trkpt>
   <trkpt lon="7.803124" lat="46.116454"><ele>2106.5</ele></trkpt>
   <trkpt lon="7.803147" lat="46.116435"><ele>2107.25</ele></trkpt>
   <trkpt lon="7.803152" lat="46.116373"><ele>2106.0</ele></trkpt>
   <trkpt lon="7.803135" lat="46.116342"><ele>2104.75</ele></trkpt>
   <trkpt lon="7.803176" lat="46.116326"><ele>2106.25</ele></trkpt>
   <trkpt lon="7.803281" lat="46.116266"><ele>2109.75</ele></trkpt>
   <trkpt lon="7.803276" lat="46.116185"><ele>2108.0</ele></trkpt>
   <trkpt lon="7.803290" lat="46.116155"><ele>2108.0</ele></trkpt>
   <trkpt lon="7.803294" lat="46.116088"><ele>2106.25</ele></trkpt>
   <trkpt lon="7.803396" lat="46.115994"><ele>2107.0</ele></trkpt>
   <trkpt lon="7.803404" lat="46.115953"><ele>2105.5</ele></trkpt>
   <trkpt lon="7.803490" lat="46.115927"><ele>2108.75</ele></trkpt>
   <trkpt lon="7.803485" lat="46.115905"><ele>2107.5</ele></trkpt>
   <trkpt lon="7.803506" lat="46.115876"><ele>2107.5</ele></trkpt>
   <trkpt lon="7.803596" lat="46.115876"><ele>2112.0</ele></trkpt>
   <trkpt lon="7.803626" lat="46.115858"><ele>2112.75</ele></trkpt>
   <trkpt lon="7.803620" lat="46.115797"><ele>2110.0</ele></trkpt>
   <trkpt lon="7.803652" lat="46.115763"><ele>2110.5</ele></trkpt>
   <trkpt lon="7.803608" lat="46.115695"><ele>2105.25</ele></trkpt>
   <trkpt lon="7.803690" lat="46.115642"><ele>2108.0</ele></trkpt>
   <trkpt lon="7.803719" lat="46.115601"><ele>2108.25</ele></trkpt>
   <trkpt lon="7.803733" lat="46.115544"><ele>2107.0</ele></trkpt>
   <trkpt lon="7.803758" lat="46.115530"><ele>2108.0</ele></trkpt>
   <trkpt lon="7.803918" lat="46.115630"><ele>2121.25</ele></trkpt>
   <trkpt lon="7.803894" lat="46.115544"><ele>2116.75</ele></trkpt>
   <trkpt lon="7.803931" lat="46.115491"><ele>2116.5</ele></trkpt>
   <trkpt lon="7.803939" lat="46.115387"><ele>2112.25</ele></trkpt>
   <trkpt lon="7.803990" lat="46.115347"><ele>2112.75</ele></trkpt>
   <trkpt lon="7.803990" lat="46.115320"><ele>2111.5</ele></trkpt>
   <trkpt lon="7.804175" lat="46.115235"><ele>2116.0</ele></trkpt>
   <trkpt lon="7.804222" lat="46.115174"><ele>2115.0</ele></trkpt>
   <trkpt lon="7.804299" lat="46.115122"><ele>2116.0</ele></trkpt>
   <trkpt lon="7.804324" lat="46.115073"><ele>2114.5</ele></trkpt>
   <trkpt lon="7.804438" lat="46.114976"><ele>2113.75</ele></trkpt>
   <trkpt lon="7.804442" lat="46.114947"><ele>2112.0</ele></trkpt>
   <trkpt lon="7.804484" lat="46.114900"><ele>2110.5</ele></trkpt>
   <trkpt lon="7.804574" lat="46.114897"><ele>2114.25</ele></trkpt>
   <trkpt lon="7.804929" lat="46.114834"><ele>2123.0</ele></trkpt>
   <trkpt lon="7.804945" lat="46.114812"><ele>2122.0</ele></trkpt>
   <trkpt lon="7.805034" lat="46.114773"><ele>2121.75</ele></trkpt>
   <trkpt lon="7.805177" lat="46.114753"><ele>2124.25</ele></trkpt>
   <trkpt lon="7.805326" lat="46.114752"><ele>2129.0</ele></trkpt>
   <trkpt lon="7.805317" lat="46.114691"><ele>2124.25</ele></trkpt>
   <trkpt lon="7.805354" lat="46.114689"><ele>2125.5</ele></trkpt>
   <trkpt lon="7.805506" lat="46.114585"><ele>2125.25</ele></trkpt>
   <trkpt lon="7.805545" lat="46.114538"><ele>2124.5</ele></trkpt>
   <trkpt lon="7.805692" lat="46.114446"><ele>2125.75</ele></trkpt>
   <trkpt lon="7.805712" lat="46.114485"><ele>2129.0</ele></trkpt>
   <trkpt lon="7.805716" lat="46.114445"><ele>2126.75</ele></trkpt>
   <trkpt lon="7.805737" lat="46.114423"><ele>2126.25</ele></trkpt>
   <trkpt lon="7.806055" lat="46.114355"><ele>2133.0</ele></trkpt>
   <trkpt lon="7.806074" lat="46.114284"><ele>2129.25</ele></trkpt>
   <trkpt lon="7.806137" lat="46.114202"><ele>2127.0</ele></trkpt>
   <trkpt lon="7.806257" lat="46.114183"><ele>2130.5</ele></trkpt>
   <trkpt lon="7.806510" lat="46.113999"><ele>2132.5</ele></trkpt>
   <trkpt lon="7.806518" lat="46.113970"><ele>2131.75</ele></trkpt>
   <trkpt lon="7.806597" lat="46.113939"><ele>2133.5</ele></trkpt>
   <trkpt lon="7.806630" lat="46.113876"><ele>2131.75</ele></trkpt>
   <trkpt lon="7.806752" lat="46.113813"><ele>2134.5</ele></trkpt>
   <trkpt lon="7.806794" lat="46.113774"><ele>2134.75</ele></trkpt>
   <trkpt lon="7.806866" lat="46.113751"><ele>2137.0</ele></trkpt>
   <trkpt lon="7.806873" lat="46.113725"><ele>2136.25</ele></trkpt>
   <trkpt lon="7.806979" lat="46.113688"><ele>2139.75</ele></trkpt>
   <trkpt lon="7.806979" lat="46.113663"><ele>2138.5</ele></trkpt>
   <trkpt lon="7.807207" lat="46.113483"><ele>2141.0</ele></trkpt>
   <trkpt lon="7.807253" lat="46.113410"><ele>2140.5</ele></trkpt>
   <trkpt lon="7.807308" lat="46.113397"><ele>2142.0</ele></trkpt>
   <trkpt lon="7.807395" lat="46.113345"><ele>2143.0</ele></trkpt>
   <trkpt lon="7.807636" lat="46.113246"><ele>2149.0</ele></trkpt>
   <trkpt lon="7.807655" lat="46.113194"><ele>2148.25</ele></trkpt>
   <trkpt lon="7.807706" lat="46.113305"><ele>2153.25</ele></trkpt>
   <trkpt lon="7.807855" lat="46.113238"><ele>2156.5</ele></trkpt>
   <trkpt lon="7.807878" lat="46.113260"><ele>2158.0</ele></trkpt>
   <trkpt lon="7.807851" lat="46.113314"><ele>2159.0</ele></trkpt>
   <trkpt lon="7.807895" lat="46.113360"><ele>2162.25</ele></trkpt>
   <trkpt lon="7.808119" lat="46.113295"><ele>2167.25</ele></trkpt>
   <trkpt lon="7.808283" lat="46.113232"><ele>2169.5</ele></trkpt>
   <trkpt lon="7.808443" lat="46.113228"><ele>2174.25</ele></trkpt>
   <trkpt lon="7.808485" lat="46.113245"><ele>2176.0</ele></trkpt>
   <trkpt lon="7.808556" lat="46.113214"><ele>2177.0</ele></trkpt>
   <trkpt lon="7.808576" lat="46.113189"><ele>2176.5</ele></trkpt>
   <trkpt lon="7.808773" lat="46.113163"><ele>2183.25</ele></trkpt>
   <trkpt lon="7.808784" lat="46.113126"><ele>2182.5</ele></trkpt>
   <trkpt lon="7.808830" lat="46.113117"><ele>2184.25</ele></trkpt>
   <trkpt lon="7.808905" lat="46.113050"><ele>2185.25</ele></trkpt>
   <trkpt lon="7.809097" lat="46.112995"><ele>2191.0</ele></trkpt>
   <trkpt lon="7.809153" lat="46.112995"><ele>2193.25</ele></trkpt>
   <trkpt lon="7.809169" lat="46.112971"><ele>2193.5</ele></trkpt>
   <trkpt lon="7.809244" lat="46.112990"><ele>2196.5</ele></trkpt>
   <trkpt lon="7.809244" lat="46.112943"><ele>2195.75</ele></trkpt>
   <trkpt lon="7.809341" lat="46.112892"><ele>2199.0</ele></trkpt>
   <trkpt lon="7.809345" lat="46.112835"><ele>2198.25</ele></trkpt>
   <trkpt lon="7.809386" lat="46.112806"><ele>2199.75</ele></trkpt>
   <trkpt lon="7.809401" lat="46.112759"><ele>2200.0</ele></trkpt>
   <trkpt lon="7.809431" lat="46.112728"><ele>2201.0</ele></trkpt>
   <trkpt lon="7.809371" lat="46.112654"><ele>2198.25</ele></trkpt>
   <trkpt lon="7.809405" lat="46.112634"><ele>2199.5</ele></trkpt>
   <trkpt lon="7.809394" lat="46.112579"><ele>2198.75</ele></trkpt>
   <trkpt lon="7.809445" lat="46.112557"><ele>2201.0</ele></trkpt>
   <trkpt lon="7.809491" lat="46.112556"><ele>2203.0</ele></trkpt>
   <trkpt lon="7.809527" lat="46.112482"><ele>2204.75</ele></trkpt>
   <trkpt lon="7.809527" lat="46.112451"><ele>2205.25</ele></trkpt>
   <trkpt lon="7.809492" lat="46.112438"><ele>2204.0</ele></trkpt>
   <trkpt lon="7.809468" lat="46.112393"><ele>2203.75</ele></trkpt>
   <trkpt lon="7.809500" lat="46.112333"><ele>2206.25</ele></trkpt>
   <trkpt lon="7.809496" lat="46.112304"><ele>2206.5</ele></trkpt>
   <trkpt lon="7.809573" lat="46.112204"><ele>2211.0</ele></trkpt>
   <trkpt lon="7.809593" lat="46.112150"><ele>2212.25</ele></trkpt>
   <trkpt lon="7.809591" lat="46.112067"><ele>2212.5</ele></trkpt>
   <trkpt lon="7.809637" lat="46.111988"><ele>2214.5</ele></trkpt>
   <trkpt lon="7.809642" lat="46.111921"><ele>2214.25</ele></trkpt>
   <trkpt lon="7.809849" lat="46.111798"><ele>2218.25</ele></trkpt>
   <trkpt lon="7.809878" lat="46.111744"><ele>2218.0</ele></trkpt>
   <trkpt lon="7.809911" lat="46.111733"><ele>2219.0</ele></trkpt>
   <trkpt lon="7.809966" lat="46.111626"><ele>2219.0</ele></trkpt>
   <trkpt lon="7.810097" lat="46.111550"><ele>2223.25</ele></trkpt>
   <trkpt lon="7.810131" lat="46.111497"><ele>2224.0</ele></trkpt>
   <trkpt lon="7.810157" lat="46.111489"><ele>2225.0</ele></trkpt>
   <trkpt lon="7.810194" lat="46.111444"><ele>2226.0</ele></trkpt>
   <trkpt lon="7.810175" lat="46.111395"><ele>2224.75</ele></trkpt>
   <trkpt lon="7.810179" lat="46.111328"><ele>2222.25</ele></trkpt>
   <trkpt lon="7.810380" lat="46.111309"><ele>2228.5</ele></trkpt>
   <trkpt lon="7.810512" lat="46.111269"><ele>2230.75</ele></trkpt>
   <trkpt lon="7.810560" lat="46.111264"><ele>2232.25</ele></trkpt>
   <trkpt lon="7.810621" lat="46.111243"><ele>2233.5</ele></trkpt>
   <trkpt lon="7.810708" lat="46.111192"><ele>2235.25</ele></trkpt>
   <trkpt lon="7.810748" lat="46.111169"><ele>2236.5</ele></trkpt>
   <trkpt lon="7.810745" lat="46.111125"><ele>2235.5</ele></trkpt>
   <trkpt lon="7.810853" lat="46.111110"><ele>2240.75</ele></trkpt>
   <trkpt lon="7.810900" lat="46.111129"><ele>2243.0</ele></trkpt>
   <trkpt lon="7.810854" lat="46.111025"><ele>2242.25</ele></trkpt>
   <trkpt lon="7.810931" lat="46.110980"><ele>2246.25</ele></trkpt>
   <trkpt lon="7.810980" lat="46.111052"><ele>2247.5</ele></trkpt>
   <trkpt lon="7.811217" lat="46.111155"><ele>2256.5</ele></trkpt>
   <trkpt lon="7.811402" lat="46.111203"><ele>2263.0</ele></trkpt>
   <trkpt lon="7.811390" lat="46.111116"><ele>2264.75</ele></trkpt>
   <trkpt lon="7.811397" lat="46.111027"><ele>2265.25</ele></trkpt>
   <trkpt lon="7.811484" lat="46.111097"><ele>2269.0</ele></trkpt>
   <trkpt lon="7.811521" lat="46.111032"><ele>2270.5</ele></trkpt>
   <trkpt lon="7.811732" lat="46.110934"><ele>2278.75</ele></trkpt>
   <trkpt lon="7.811894" lat="46.110732"><ele>2287.75</ele></trkpt>
   <trkpt lon="7.811909" lat="46.110621"><ele>2291.75</ele></trkpt>
   <trkpt lon="7.812055" lat="46.110644"><ele>2296.5</ele></trkpt>
   <trkpt lon="7.812430" lat="46.110996"><ele>2306.5</ele></trkpt>
   <trkpt lon="7.812495" lat="46.110899"><ele>2309.5</ele></trkpt>
   <trkpt lon="7.812548" lat="46.110745"><ele>2314.0</ele></trkpt>
   <trkpt lon="7.812749" lat="46.110915"><ele>2319.75</ele></trkpt>
   <trkpt lon="7.812851" lat="46.111057"><ele>2322.75</ele></trkpt>
   <trkpt lon="7.812918" lat="46.111018"><ele>2326.25</ele></trkpt>
   <trkpt lon="7.812946" lat="46.111033"><ele>2327.5</ele></trkpt>
   <trkpt lon="7.812991" lat="46.110882"><ele>2330.75</ele></trkpt>
   <trkpt lon="7.812893" lat="46.110555"><ele>2334.25</ele></trkpt>
   <trkpt lon="7.812648" lat="46.110342"><ele>2333.5</ele></trkpt>
   <trkpt lon="7.812417" lat="46.110092"><ele>2332.25</ele></trkpt>
   <trkpt lon="7.812390" lat="46.109873"><ele>2338.75</ele></trkpt>
   <trkpt lon="7.812230" lat="46.109778"><ele>2338.75</ele></trkpt>
   <trkpt lon="7.811590" lat="46.109713"><ele>2334.25</ele></trkpt>
   <trkpt lon="7.811127" lat="46.109300"><ele>2337.75</ele></trkpt>
   <trkpt lon="7.810567" lat="46.109019"><ele>2334.75</ele></trkpt>
   <trkpt lon="7.810193" lat="46.108766"><ele>2333.25</ele></trkpt>
   <trkpt lon="7.810015" lat="46.108745"><ele>2329.25</ele></trkpt>
   <trkpt lon="7.809553" lat="46.108729"><ele>2325.25</ele></trkpt>
   <trkpt lon="7.809335" lat="46.108652"><ele>2329.5</ele></trkpt>
   <trkpt lon="7.809148" lat="46.108662"><ele>2324.5</ele></trkpt>
   <trkpt lon="7.808961" lat="46.108551"><ele>2329.75</ele></trkpt>
   <trkpt lon="7.808570" lat="46.108511"><ele>2326.5</ele></trkpt>
   <trkpt lon="7.808223" lat="46.108588"><ele>2321.5</ele></trkpt>
   <trkpt lon="7.808081" lat="46.108452"><ele>2331.25</ele></trkpt>
   <trkpt lon="7.807503" lat="46.108412"><ele>2322.0</ele></trkpt>
   <trkpt lon="7.807138" lat="46.108298"><ele>2323.75</ele></trkpt>
   <trkpt lon="7.806813" lat="46.108369"><ele>2317.0</ele></trkpt>
   <trkpt lon="7.806658" lat="46.108322"><ele>2318.5</ele></trkpt>
   <trkpt lon="7.806355" lat="46.108199"><ele>2319.5</ele></trkpt>
   <trkpt lon="7.805826" lat="46.107746"><ele>2311.75</ele></trkpt>
   <trkpt lon="7.805804" lat="46.107623"><ele>2314.75</ele></trkpt>
   <trkpt lon="7.805581" lat="46.107499"><ele>2307.25</ele></trkpt>
   <trkpt lon="7.805021" lat="46.107222"><ele>2287.75</ele></trkpt>
   <trkpt lon="7.805039" lat="46.106719"><ele>2274.5</ele></trkpt>
   <trkpt lon="7.805221" lat="46.106639"><ele>2275.0</ele></trkpt>
   <trkpt lon="7.805661" lat="46.106124"><ele>2262.0</ele></trkpt>
   <trkpt lon="7.806109" lat="46.105696"><ele>2266.75</ele></trkpt>
   <trkpt lon="7.806111" lat="46.105695"><ele>2267.0</ele></trkpt>
   <trkpt lon="7.806111" lat="46.105656"><ele>2266.25</ele></trkpt>
  </trkseg>
 </trk>
</gpx>
