<?xml version="1.0" encoding="UTF-8"?>
<!-- track-length = 8003 filtered ascend = 53 plain-ascend = -567 cost=10055 energy=.0kwh time=1h 39m 9s -->
<gpx 
 xmlns="http://www.topografix.com/GPX/1/1" 
 xmlns:xsi="http://www.w3.org/2001/XMLSchema-instance" 
 xsi:schemaLocation="http://www.topografix.com/GPX/1/1 http://www.topografix.com/GPX/1/1/gpx.xsd" 
 creator="BRouter-1.7.9" version="1.1">
 <trk>
  <name>tour-cervino-tappa-3-arolla-les-hauderes</name>
  <trkseg>
   <trkpt lon="7.481262" lat="46.025897"><ele>2008.5</ele></trkpt>
   <trkpt lon="7.481554" lat="46.026220"><ele>2006.25</ele></trkpt>
   <trkpt lon="7.481657" lat="46.026384"><ele>2003.25</ele></trkpt>
   <trkpt lon="7.481870" lat="46.026295"><ele>1999.5</ele></trkpt>
   <trkpt lon="7.482015" lat="46.026408"><ele>1997.25</ele></trkpt>
   <trkpt lon="7.482154" lat="46.026638"><ele>1993.75</ele></trkpt>
   <trkpt lon="7.482463" lat="46.026928"><ele>1986.0</ele></trkpt>
   <trkpt lon="7.482586" lat="46.026995"><ele>1981.5</ele></trkpt>
   <trkpt lon="7.482647" lat="46.027098"><ele>1979.0</ele></trkpt>
   <trkpt lon="7.482723" lat="46.027102"><ele>1976.0</ele></trkpt>
   <trkpt lon="7.482752" lat="46.027220"><ele>1975.0</ele></trkpt>
   <trkpt lon="7.482880" lat="46.027311"><ele>1971.25</ele></trkpt>
   <trkpt lon="7.483057" lat="46.027451"><ele>1961.0</ele></trkpt>
   <trkpt lon="7.483136" lat="46.027566"><ele>1958.25</ele></trkpt>
   <trkpt lon="7.483229" lat="46.027728"><ele>1955.5</ele></trkpt>
   <trkpt lon="7.483397" lat="46.027870"><ele>1947.25</ele></trkpt>
   <trkpt lon="7.483515" lat="46.027999"><ele>1945.0</ele></trkpt>
   <trkpt lon="7.483670" lat="46.028119"><ele>1942.0</ele></trkpt>
   <trkpt lon="7.483785" lat="46.028241"><ele>1940.25</ele></trkpt>
   <trkpt lon="7.483862" lat="46.028410"><ele>1937.75</ele></trkpt>
   <trkpt lon="7.483849" lat="46.028533"><ele>1937.0</ele></trkpt>
   <trkpt lon="7.483828" lat="46.028609"><ele>1937.25</ele></trkpt>
   <trkpt lon="7.483826" lat="46.028707"><ele>1937.75</ele></trkpt>
   <trkpt lon="7.483875" lat="46.028771"><ele>1936.25</ele></trkpt>
   <trkpt lon="7.484132" lat="46.028933"><ele>1933.25</ele></trkpt>
   <trkpt lon="7.484327" lat="46.028929"><ele>1931.5</ele></trkpt>
   <trkpt lon="7.484640" lat="46.028902"><ele>1928.75</ele></trkpt>
   <trkpt lon="7.484805" lat="46.028903"><ele>1927.5</ele></trkpt>
   <trkpt lon="7.484854" lat="46.028952"><ele>1926.5</ele></trkpt>
   <trkpt lon="7.484861" lat="46.029006"><ele>1925.75</ele></trkpt>
   <trkpt lon="7.485008" lat="46.029222"><ele>1919.0</ele></trkpt>
   <trkpt lon="7.485010" lat="46.029392"><ele>1914.25</ele></trkpt>
   <trkpt lon="7.485057" lat="46.029434"><ele>1912.25</ele></trkpt>
   <trkpt lon="7.485261" lat="46.029319"><ele>1911.5</ele></trkpt>
   <trkpt lon="7.485321" lat="46.029307"><ele>1910.25</ele></trkpt>
   <trkpt lon="7.485333" lat="46.029278"><ele>1910.5</ele></trkpt>
   <trkpt lon="7.485356" lat="46.029285"><ele>1909.75</ele></trkpt>
   <trkpt lon="7.485373" lat="46.029298"><ele>1909.0</ele></trkpt>
   <trkpt lon="7.485369" lat="46.029399"><ele>1907.5</ele></trkpt>
   <trkpt lon="7.485293" lat="46.029671"><ele>1903.5</ele></trkpt>
   <trkpt lon="7.485235" lat="46.029962"><ele>1898.5</ele></trkpt>
   <trkpt lon="7.485180" lat="46.030152"><ele>1897.0</ele></trkpt>
   <trkpt lon="7.485244" lat="46.030212"><ele>1894.75</ele></trkpt>
   <trkpt lon="7.485201" lat="46.030374"><ele>1895.0</ele></trkpt>
   <trkpt lon="7.485281" lat="46.030415"><ele>1893.25</ele></trkpt>
   <trkpt lon="7.485336" lat="46.030652"><ele>1893.5</ele></trkpt>
   <trkpt lon="7.485402" lat="46.030741"><ele>1893.0</ele></trkpt>
   <trkpt lon="7.485516" lat="46.030864"><ele>1892.0</ele></trkpt>
   <trkpt lon="7.485624" lat="46.031075"><ele>1891.0</ele></trkpt>
   <trkpt lon="7.485691" lat="46.031188"><ele>1890.25</ele></trkpt>
   <trkpt lon="7.485888" lat="46.031546"><ele>1887.75</ele></trkpt>
   <trkpt lon="7.485898" lat="46.031564"><ele>1887.75</ele></trkpt>
   <trkpt lon="7.485887" lat="46.031629"><ele>1887.5</ele></trkpt>
   <trkpt lon="7.485929" lat="46.031861"><ele>1885.0</ele></trkpt>
   <trkpt lon="7.485912" lat="46.031950"><ele>1884.25</ele></trkpt>
   <trkpt lon="7.485942" lat="46.032025"><ele>1884.0</ele></trkpt>
   <trkpt lon="7.486094" lat="46.032056"><ele>1883.0</ele></trkpt>
   <trkpt lon="7.486074" lat="46.032104"><ele>1883.25</ele></trkpt>
   <trkpt lon="7.486099" lat="46.032190"><ele>1883.0</ele></trkpt>
   <trkpt lon="7.486187" lat="46.032386"><ele>1882.25</ele></trkpt>
   <trkpt lon="7.486253" lat="46.032513"><ele>1881.75</ele></trkpt>
   <trkpt lon="7.486252" lat="46.032657"><ele>1881.25</ele></trkpt>
   <trkpt lon="7.486327" lat="46.033202"><ele>1874.75</ele></trkpt>
   <trkpt lon="7.486425" lat="46.033418"><ele>1868.25</ele></trkpt>
   <trkpt lon="7.486456" lat="46.033737"><ele>1864.5</ele></trkpt>
   <trkpt lon="7.486542" lat="46.033959"><ele>1861.5</ele></trkpt>
   <trkpt lon="7.486574" lat="46.033976"><ele>1860.25</ele></trkpt>
   <trkpt lon="7.486830" lat="46.034104"><ele>1857.0</ele></trkpt>
   <trkpt lon="7.487103" lat="46.034159"><ele>1857.0</ele></trkpt>
   <trkpt lon="7.487242" lat="46.034143"><ele>1857.25</ele></trkpt>
   <trkpt lon="7.487295" lat="46.034137"><ele>1857.75</ele></trkpt>
   <trkpt lon="7.487376" lat="46.034172"><ele>1858.5</ele></trkpt>
   <trkpt lon="7.487459" lat="46.034326"><ele>1857.75</ele></trkpt>
   <trkpt lon="7.487464" lat="46.034469"><ele>1856.25</ele></trkpt>
   <trkpt lon="7.487505" lat="46.034616"><ele>1855.0</ele></trkpt>
   <trkpt lon="7.487681" lat="46.034804"><ele>1855.25</ele></trkpt>
   <trkpt lon="7.487773" lat="46.035027"><ele>1854.25</ele></trkpt>
   <trkpt lon="7.487669" lat="46.035266"><ele>1854.75</ele></trkpt>
   <trkpt lon="7.487470" lat="46.035441"><ele>1852.75</ele></trkpt>
   <trkpt lon="7.487433" lat="46.035485"><ele>1852.75</ele></trkpt>
   <trkpt lon="7.487378" lat="46.035625"><ele>1852.0</ele></trkpt>
   <trkpt lon="7.487288" lat="46.035769"><ele>1850.75</ele></trkpt>
   <trkpt lon="7.487261" lat="46.035864"><ele>1850.0</ele></trkpt>
   <trkpt lon="7.487273" lat="46.035935"><ele>1849.75</ele></trkpt>
   <trkpt lon="7.487311" lat="46.036025"><ele>1849.5</ele></trkpt>
   <trkpt lon="7.487322" lat="46.036094"><ele>1849.0</ele></trkpt>
   <trkpt lon="7.487361" lat="46.036163"><ele>1849.0</ele></trkpt>
   <trkpt lon="7.487462" lat="46.036262"><ele>1849.5</ele></trkpt>
   <trkpt lon="7.487466" lat="46.036299"><ele>1849.25</ele></trkpt>
   <trkpt lon="7.487472" lat="46.036347"><ele>1849.0</ele></trkpt>
   <trkpt lon="7.487657" lat="46.036689"><ele>1847.5</ele></trkpt>
   <trkpt lon="7.487679" lat="46.036891"><ele>1846.5</ele></trkpt>
   <trkpt lon="7.487675" lat="46.037065"><ele>1845.5</ele></trkpt>
   <trkpt lon="7.487684" lat="46.037122"><ele>1845.25</ele></trkpt>
   <trkpt lon="7.487739" lat="46.037205"><ele>1845.5</ele></trkpt>
   <trkpt lon="7.487802" lat="46.037342"><ele>1845.25</ele></trkpt>
   <trkpt lon="7.487868" lat="46.037410"><ele>1845.5</ele></trkpt>
   <trkpt lon="7.487898" lat="46.037452"><ele>1845.5</ele></trkpt>
   <trkpt lon="7.487834" lat="46.037681"><ele>1843.0</ele></trkpt>
   <trkpt lon="7.487776" lat="46.037995"><ele>1841.0</ele></trkpt>
   <trkpt lon="7.487783" lat="46.038080"><ele>1840.75</ele></trkpt>
   <trkpt lon="7.487838" lat="46.038192"><ele>1840.0</ele></trkpt>
   <trkpt lon="7.487975" lat="46.038403"><ele>1839.5</ele></trkpt>
   <trkpt lon="7.487985" lat="46.038513"><ele>1839.25</ele></trkpt>
   <trkpt lon="7.487987" lat="46.038534"><ele>1839.0</ele></trkpt>
   <trkpt lon="7.488149" lat="46.038755"><ele>1838.0</ele></trkpt>
   <trkpt lon="7.488226" lat="46.038891"><ele>1837.5</ele></trkpt>
   <trkpt lon="7.488373" lat="46.039085"><ele>1837.5</ele></trkpt>
   <trkpt lon="7.488422" lat="46.039127"><ele>1838.0</ele></trkpt>
   <trkpt lon="7.488432" lat="46.039176"><ele>1838.0</ele></trkpt>
   <trkpt lon="7.488419" lat="46.039202"><ele>1837.75</ele></trkpt>
   <trkpt lon="7.488409" lat="46.039222"><ele>1837.5</ele></trkpt>
   <trkpt lon="7.488340" lat="46.039292"><ele>1836.5</ele></trkpt>
   <trkpt lon="7.488336" lat="46.039350"><ele>1836.25</ele></trkpt>
   <trkpt lon="7.488400" lat="46.039669"><ele>1836.5</ele></trkpt>
   <trkpt lon="7.488440" lat="46.039857"><ele>1836.0</ele></trkpt>
   <trkpt lon="7.488497" lat="46.039950"><ele>1835.75</ele></trkpt>
   <trkpt lon="7.488649" lat="46.040070"><ele>1835.0</ele></trkpt>
   <trkpt lon="7.488756" lat="46.040130"><ele>1834.0</ele></trkpt>
   <trkpt lon="7.488900" lat="46.040174"><ele>1833.25</ele></trkpt>
   <trkpt lon="7.489116" lat="46.040177"><ele>1832.75</ele></trkpt>
   <trkpt lon="7.489314" lat="46.040205"><ele>1832.5</ele></trkpt>
   <trkpt lon="7.489455" lat="46.040249"><ele>1832.25</ele></trkpt>
   <trkpt lon="7.489544" lat="46.040417"><ele>1832.5</ele></trkpt>
   <trkpt lon="7.489575" lat="46.040556"><ele>1832.25</ele></trkpt>
   <trkpt lon="7.489619" lat="46.040739"><ele>1833.25</ele></trkpt>
   <trkpt lon="7.489604" lat="46.040857"><ele>1833.25</ele></trkpt>
   <trkpt lon="7.489611" lat="46.040945"><ele>1833.0</ele></trkpt>
   <trkpt lon="7.489651" lat="46.041108"><ele>1833.25</ele></trkpt>
   <trkpt lon="7.489652" lat="46.041217"><ele>1831.75</ele></trkpt>
   <trkpt lon="7.489665" lat="46.041327"><ele>1830.5</ele></trkpt>
   <trkpt lon="7.489714" lat="46.041452"><ele>1829.25</ele></trkpt>
   <trkpt lon="7.489798" lat="46.041585"><ele>1828.25</ele></trkpt>
   <trkpt lon="7.489909" lat="46.041640"><ele>1827.5</ele></trkpt>
   <trkpt lon="7.489990" lat="46.041706"><ele>1826.75</ele></trkpt>
   <trkpt lon="7.490044" lat="46.041773"><ele>1828.0</ele></trkpt>
   <trkpt lon="7.490054" lat="46.041836"><ele>1828.0</ele></trkpt>
   <trkpt lon="7.490029" lat="46.041900"><ele>1827.25</ele></trkpt>
   <trkpt lon="7.490027" lat="46.041959"><ele>1827.25</ele></trkpt>
   <trkpt lon="7.490070" lat="46.042005"><ele>1827.5</ele></trkpt>
   <trkpt lon="7.490135" lat="46.042045"><ele>1828.25</ele></trkpt>
   <trkpt lon="7.490148" lat="46.042087"><ele>1828.25</ele></trkpt>
   <trkpt lon="7.490215" lat="46.042192"><ele>1829.0</ele></trkpt>
   <trkpt lon="7.490202" lat="46.042335"><ele>1827.0</ele></trkpt>
   <trkpt lon="7.490368" lat="46.042466"><ele>1834.0</ele></trkpt>
   <trkpt lon="7.490460" lat="46.042755"><ele>1829.25</ele></trkpt>
   <trkpt lon="7.490490" lat="46.043009"><ele>1825.25</ele></trkpt>
   <trkpt lon="7.490449" lat="46.043072"><ele>1824.0</ele></trkpt>
   <trkpt lon="7.490391" lat="46.043135"><ele>1823.75</ele></trkpt>
   <trkpt lon="7.490348" lat="46.043185"><ele>1823.5</ele></trkpt>
   <trkpt lon="7.490306" lat="46.043332"><ele>1823.0</ele></trkpt>
   <trkpt lon="7.490275" lat="46.043385"><ele>1823.25</ele></trkpt>
   <trkpt lon="7.490194" lat="46.043457"><ele>1823.25</ele></trkpt>
   <trkpt lon="7.490041" lat="46.043629"><ele>1823.0</ele></trkpt>
   <trkpt lon="7.489891" lat="46.043906"><ele>1821.25</ele></trkpt>
   <trkpt lon="7.489684" lat="46.044096"><ele>1820.5</ele></trkpt>
   <trkpt lon="7.489627" lat="46.044246"><ele>1820.5</ele></trkpt>
   <trkpt lon="7.489498" lat="46.044434"><ele>1819.5</ele></trkpt>
   <trkpt lon="7.489462" lat="46.044476"><ele>1819.0</ele></trkpt>
   <trkpt lon="7.489452" lat="46.044540"><ele>1818.5</ele></trkpt>
   <trkpt lon="7.489409" lat="46.044617"><ele>1818.25</ele></trkpt>
   <trkpt lon="7.489301" lat="46.044785"><ele>1817.25</ele></trkpt>
   <trkpt lon="7.489206" lat="46.044958"><ele>1817.0</ele></trkpt>
   <trkpt lon="7.489138" lat="46.045178"><ele>1815.5</ele></trkpt>
   <trkpt lon="7.488938" lat="46.045491"><ele>1813.25</ele></trkpt>
   <trkpt lon="7.488889" lat="46.045585"><ele>1812.75</ele></trkpt>
   <trkpt lon="7.488668" lat="46.046249"><ele>1809.0</ele></trkpt>
   <trkpt lon="7.488555" lat="46.046439"><ele>1808.75</ele></trkpt>
   <trkpt lon="7.488557" lat="46.046521"><ele>1808.25</ele></trkpt>
   <trkpt lon="7.488663" lat="46.046725"><ele>1807.5</ele></trkpt>
   <trkpt lon="7.488700" lat="46.046815"><ele>1807.0</ele></trkpt>
   <trkpt lon="7.488960" lat="46.047187"><ele>1806.0</ele></trkpt>
   <trkpt lon="7.488999" lat="46.047321"><ele>1805.5</ele></trkpt>
   <trkpt lon="7.489218" lat="46.047622"><ele>1804.5</ele></trkpt>
   <trkpt lon="7.489231" lat="46.047709"><ele>1804.25</ele></trkpt>
   <trkpt lon="7.489116" lat="46.047940"><ele>1803.25</ele></trkpt>
   <trkpt lon="7.489111" lat="46.048066"><ele>1803.0</ele></trkpt>
   <trkpt lon="7.489126" lat="46.048133"><ele>1803.0</ele></trkpt>
   <trkpt lon="7.489046" lat="46.048122"><ele>1803.0</ele></trkpt>
   <trkpt lon="7.488976" lat="46.048124"><ele>1803.0</ele></trkpt>
   <trkpt lon="7.488913" lat="46.048126"><ele>1803.0</ele></trkpt>
   <trkpt lon="7.488779" lat="46.048131"><ele>1804.75</ele></trkpt>
   <trkpt lon="7.488567" lat="46.048160"><ele>1807.75</ele></trkpt>
   <trkpt lon="7.488565" lat="46.048234"><ele>1807.75</ele></trkpt>
   <trkpt lon="7.488567" lat="46.048282"><ele>1807.5</ele></trkpt>
   <trkpt lon="7.488576" lat="46.048406"><ele>1808.25</ele></trkpt>
   <trkpt lon="7.488592" lat="46.048482"><ele>1808.75</ele></trkpt>
   <trkpt lon="7.488655" lat="46.048652"><ele>1809.5</ele></trkpt>
   <trkpt lon="7.488760" lat="46.048854"><ele>1812.75</ele></trkpt>
   <trkpt lon="7.488812" lat="46.048931"><ele>1813.25</ele></trkpt>
   <trkpt lon="7.489025" lat="46.049194"><ele>1813.0</ele></trkpt>
   <trkpt lon="7.489451" lat="46.049693"><ele>1813.5</ele></trkpt>
   <trkpt lon="7.489683" lat="46.049981"><ele>1816.5</ele></trkpt>
   <trkpt lon="7.489840" lat="46.050202"><ele>1817.5</ele></trkpt>
   <trkpt lon="7.489936" lat="46.050381"><ele>1818.25</ele></trkpt>
   <trkpt lon="7.489963" lat="46.050469"><ele>1818.75</ele></trkpt>
   <trkpt lon="7.489969" lat="46.050519"><ele>1819.5</ele></trkpt>
   <trkpt lon="7.489965" lat="46.050611"><ele>1820.0</ele></trkpt>
   <trkpt lon="7.489951" lat="46.050673"><ele>1820.0</ele></trkpt>
   <trkpt lon="7.489863" lat="46.050892"><ele>1821.25</ele></trkpt>
   <trkpt lon="7.489741" lat="46.051143"><ele>1821.0</ele></trkpt>
   <trkpt lon="7.489721" lat="46.051217"><ele>1821.75</ele></trkpt>
   <trkpt lon="7.489720" lat="46.051331"><ele>1822.5</ele></trkpt>
   <trkpt lon="7.489739" lat="46.051405"><ele>1823.0</ele></trkpt>
   <trkpt lon="7.489803" lat="46.051519"><ele>1825.0</ele></trkpt>
   <trkpt lon="7.490002" lat="46.051809"><ele>1824.75</ele></trkpt>
   <trkpt lon="7.490080" lat="46.051995"><ele>1823.5</ele></trkpt>
   <trkpt lon="7.490161" lat="46.052472"><ele>1829.75</ele></trkpt>
   <trkpt lon="7.490163" lat="46.052558"><ele>1829.75</ele></trkpt>
   <trkpt lon="7.490109" lat="46.052585"><ele>1831.5</ele></trkpt>
   <trkpt lon="7.490026" lat="46.052761"><ele>1830.75</ele></trkpt>
   <trkpt lon="7.490011" lat="46.052876"><ele>1831.25</ele></trkpt>
   <trkpt lon="7.490006" lat="46.053205"><ele>1834.25</ele></trkpt>
   <trkpt lon="7.489986" lat="46.053278"><ele>1835.5</ele></trkpt>
   <trkpt lon="7.489926" lat="46.053390"><ele>1836.5</ele></trkpt>
   <trkpt lon="7.489849" lat="46.053612"><ele>1835.5</ele></trkpt>
   <trkpt lon="7.489860" lat="46.053663"><ele>1836.25</ele></trkpt>
   <trkpt lon="7.489876" lat="46.053683"><ele>1836.5</ele></trkpt>
   <trkpt lon="7.489976" lat="46.053767"><ele>1836.5</ele></trkpt>
   <trkpt lon="7.490019" lat="46.053822"><ele>1837.25</ele></trkpt>
   <trkpt lon="7.490200" lat="46.054075"><ele>1835.75</ele></trkpt>
   <trkpt lon="7.490240" lat="46.054120"><ele>1835.75</ele></trkpt>
   <trkpt lon="7.490262" lat="46.054134"><ele>1835.75</ele></trkpt>
   <trkpt lon="7.490301" lat="46.054145"><ele>1835.25</ele></trkpt>
   <trkpt lon="7.490308" lat="46.054283"><ele>1835.5</ele></trkpt>
   <trkpt lon="7.490340" lat="46.054351"><ele>1835.5</ele></trkpt>
   <trkpt lon="7.490388" lat="46.054410"><ele>1835.5</ele></trkpt>
   <trkpt lon="7.490490" lat="46.054493"><ele>1837.25</ele></trkpt>
   <trkpt lon="7.490662" lat="46.054602"><ele>1837.25</ele></trkpt>
   <trkpt lon="7.490793" lat="46.054697"><ele>1838.25</ele></trkpt>
   <trkpt lon="7.490878" lat="46.054785"><ele>1838.25</ele></trkpt>
   <trkpt lon="7.490956" lat="46.054882"><ele>1838.5</ele></trkpt>
   <trkpt lon="7.491003" lat="46.054949"><ele>1839.5</ele></trkpt>
   <trkpt lon="7.491015" lat="46.054980"><ele>1840.5</ele></trkpt>
   <trkpt lon="7.491019" lat="46.055026"><ele>1841.0</ele></trkpt>
   <trkpt lon="7.490996" lat="46.055093"><ele>1840.5</ele></trkpt>
   <trkpt lon="7.490861" lat="46.055267"><ele>1841.25</ele></trkpt>
   <trkpt lon="7.490773" lat="46.055424"><ele>1841.25</ele></trkpt>
   <trkpt lon="7.490736" lat="46.055570"><ele>1840.75</ele></trkpt>
   <trkpt lon="7.490731" lat="46.055674"><ele>1840.75</ele></trkpt>
   <trkpt lon="7.490847" lat="46.055688"><ele>1838.0</ele></trkpt>
   <trkpt lon="7.491058" lat="46.055853"><ele>1833.75</ele></trkpt>
   <trkpt lon="7.491109" lat="46.055977"><ele>1833.0</ele></trkpt>
   <trkpt lon="7.491274" lat="46.056710"><ele>1828.25</ele></trkpt>
   <trkpt lon="7.491467" lat="46.057048"><ele>1823.0</ele></trkpt>
   <trkpt lon="7.491431" lat="46.057257"><ele>1821.75</ele></trkpt>
   <trkpt lon="7.491427" lat="46.057409"><ele>1819.75</ele></trkpt>
   <trkpt lon="7.491555" lat="46.057967"><ele>1812.25</ele></trkpt>
   <trkpt lon="7.491751" lat="46.058471"><ele>1811.0</ele></trkpt>
   <trkpt lon="7.491805" lat="46.059106"><ele>1810.5</ele></trkpt>
   <trkpt lon="7.491912" lat="46.059782"><ele>1808.5</ele></trkpt>
   <trkpt lon="7.492040" lat="46.059867"><ele>1805.0</ele></trkpt>
   <trkpt lon="7.492014" lat="46.060073"><ele>1809.75</ele></trkpt>
   <trkpt lon="7.491818" lat="46.060296"><ele>1811.75</ele></trkpt>
   <trkpt lon="7.491731" lat="46.060516"><ele>1811.75</ele></trkpt>
   <trkpt lon="7.491641" lat="46.060917"><ele>1811.0</ele></trkpt>
   <trkpt lon="7.491622" lat="46.061075"><ele>1810.25</ele></trkpt>
   <trkpt lon="7.491627" lat="46.061182"><ele>1809.75</ele></trkpt>
   <trkpt lon="7.491737" lat="46.061368"><ele>1806.75</ele></trkpt>
   <trkpt lon="7.491736" lat="46.061481"><ele>1805.75</ele></trkpt>
   <trkpt lon="7.491705" lat="46.061688"><ele>1805.0</ele></trkpt>
   <trkpt lon="7.491832" lat="46.061858"><ele>1802.0</ele></trkpt>
   <trkpt lon="7.491954" lat="46.062147"><ele>1797.0</ele></trkpt>
   <trkpt lon="7.492103" lat="46.062745"><ele>1787.0</ele></trkpt>
   <trkpt lon="7.491904" lat="46.063048"><ele>1787.0</ele></trkpt>
   <trkpt lon="7.492021" lat="46.063338"><ele>1779.25</ele></trkpt>
   <trkpt lon="7.492080" lat="46.063713"><ele>1774.75</ele></trkpt>
   <trkpt lon="7.492056" lat="46.063963"><ele>1770.5</ele></trkpt>
   <trkpt lon="7.491834" lat="46.064416"><ele>1766.25</ele></trkpt>
   <trkpt lon="7.491960" lat="46.065109"><ele>1763.25</ele></trkpt>
   <trkpt lon="7.491987" lat="46.065192"><ele>1762.25</ele></trkpt>
   <trkpt lon="7.492183" lat="46.065454"><ele>1760.25</ele></trkpt>
   <trkpt lon="7.492419" lat="46.065602"><ele>1754.25</ele></trkpt>
   <trkpt lon="7.492890" lat="46.065963"><ele>1747.25</ele></trkpt>
   <trkpt lon="7.492939" lat="46.066017"><ele>1747.25</ele></trkpt>
   <trkpt lon="7.492982" lat="46.066051"><ele>1746.75</ele></trkpt>
   <trkpt lon="7.493046" lat="46.066055"><ele>1744.5</ele></trkpt>
   <trkpt lon="7.493071" lat="46.066037"><ele>1742.75</ele></trkpt>
   <trkpt lon="7.493128" lat="46.066070"><ele>1741.5</ele></trkpt>
   <trkpt lon="7.493175" lat="46.066134"><ele>1740.75</ele></trkpt>
   <trkpt lon="7.493235" lat="46.066367"><ele>1737.0</ele></trkpt>
   <trkpt lon="7.493477" lat="46.067075"><ele>1720.25</ele></trkpt>
   <trkpt lon="7.493486" lat="46.067222"><ele>1719.5</ele></trkpt>
   <trkpt lon="7.493532" lat="46.067395"><ele>1716.75</ele></trkpt>
   <trkpt lon="7.493523" lat="46.067472"><ele>1717.0</ele></trkpt>
   <trkpt lon="7.493526" lat="46.067615"><ele>1714.75</ele></trkpt>
   <trkpt lon="7.493513" lat="46.067738"><ele>1713.0</ele></trkpt>
   <trkpt lon="7.493531" lat="46.067812"><ele>1711.0</ele></trkpt>
   <trkpt lon="7.493532" lat="46.067890"><ele>1709.0</ele></trkpt>
   <trkpt lon="7.493454" lat="46.068116"><ele>1705.25</ele></trkpt>
   <trkpt lon="7.493404" lat="46.068203"><ele>1703.75</ele></trkpt>
   <trkpt lon="7.493282" lat="46.068348"><ele>1702.0</ele></trkpt>
   <trkpt lon="7.493180" lat="46.068528"><ele>1699.25</ele></trkpt>
   <trkpt lon="7.493082" lat="46.068665"><ele>1698.0</ele></trkpt>
   <trkpt lon="7.493070" lat="46.068761"><ele>1696.5</ele></trkpt>
   <trkpt lon="7.493053" lat="46.069086"><ele>1690.75</ele></trkpt>
   <trkpt lon="7.492961" lat="46.069276"><ele>1687.25</ele></trkpt>
   <trkpt lon="7.492618" lat="46.069479"><ele>1686.75</ele></trkpt>
   <trkpt lon="7.492460" lat="46.069606"><ele>1685.5</ele></trkpt>
   <trkpt lon="7.492438" lat="46.069663"><ele>1684.0</ele></trkpt>
   <trkpt lon="7.492466" lat="46.069729"><ele>1680.25</ele></trkpt>
   <trkpt lon="7.492529" lat="46.069796"><ele>1678.25</ele></trkpt>
   <trkpt lon="7.492719" lat="46.070078"><ele>1672.25</ele></trkpt>
   <trkpt lon="7.492789" lat="46.070163"><ele>1670.75</ele></trkpt>
   <trkpt lon="7.492868" lat="46.070227"><ele>1669.0</ele></trkpt>
   <trkpt lon="7.492910" lat="46.070282"><ele>1668.0</ele></trkpt>
   <trkpt lon="7.492927" lat="46.070349"><ele>1664.5</ele></trkpt>
   <trkpt lon="7.492898" lat="46.070421"><ele>1662.25</ele></trkpt>
   <trkpt lon="7.492844" lat="46.070438"><ele>1662.75</ele></trkpt>
   <trkpt lon="7.492722" lat="46.070442"><ele>1666.0</ele></trkpt>
   <trkpt lon="7.492667" lat="46.070475"><ele>1666.5</ele></trkpt>
   <trkpt lon="7.492651" lat="46.070579"><ele>1663.0</ele></trkpt>
   <trkpt lon="7.492673" lat="46.070686"><ele>1660.25</ele></trkpt>
   <trkpt lon="7.492779" lat="46.070956"><ele>1654.75</ele></trkpt>
   <trkpt lon="7.492933" lat="46.071185"><ele>1650.0</ele></trkpt>
   <trkpt lon="7.493035" lat="46.071392"><ele>1648.0</ele></trkpt>
   <trkpt lon="7.493107" lat="46.071562"><ele>1648.25</ele></trkpt>
   <trkpt lon="7.493206" lat="46.071698"><ele>1646.0</ele></trkpt>
   <trkpt lon="7.493305" lat="46.071800"><ele>1643.25</ele></trkpt>
   <trkpt lon="7.493494" lat="46.071921"><ele>1638.25</ele></trkpt>
   <trkpt lon="7.493605" lat="46.072013"><ele>1635.75</ele></trkpt>
   <trkpt lon="7.493774" lat="46.072120"><ele>1631.25</ele></trkpt>
   <trkpt lon="7.493876" lat="46.072194"><ele>1629.5</ele></trkpt>
   <trkpt lon="7.493958" lat="46.072242"><ele>1628.0</ele></trkpt>
   <trkpt lon="7.494026" lat="46.072270"><ele>1626.5</ele></trkpt>
   <trkpt lon="7.494117" lat="46.072308"><ele>1624.25</ele></trkpt>
   <trkpt lon="7.494388" lat="46.072523"><ele>1619.25</ele></trkpt>
   <trkpt lon="7.494608" lat="46.072721"><ele>1613.0</ele></trkpt>
   <trkpt lon="7.494670" lat="46.072832"><ele>1611.5</ele></trkpt>
   <trkpt lon="7.494862" lat="46.073035"><ele>1607.5</ele></trkpt>
   <trkpt lon="7.494926" lat="46.073109"><ele>1606.5</ele></trkpt>
   <trkpt lon="7.494955" lat="46.073246"><ele>1606.25</ele></trkpt>
   <trkpt lon="7.495026" lat="46.073276"><ele>1605.0</ele></trkpt>
   <trkpt lon="7.495246" lat="46.073287"><ele>1600.0</ele></trkpt>
   <trkpt lon="7.495326" lat="46.073325"><ele>1598.25</ele></trkpt>
   <trkpt lon="7.495442" lat="46.073420"><ele>1597.0</ele></trkpt>
   <trkpt lon="7.495835" lat="46.073795"><ele>1589.0</ele></trkpt>
   <trkpt lon="7.495914" lat="46.073902"><ele>1586.75</ele></trkpt>
   <trkpt lon="7.495933" lat="46.074011"><ele>1582.0</ele></trkpt>
   <trkpt lon="7.495705" lat="46.074297"><ele>1588.25</ele></trkpt>
   <trkpt lon="7.495764" lat="46.074359"><ele>1587.25</ele></trkpt>
   <trkpt lon="7.495905" lat="46.074365"><ele>1585.0</ele></trkpt>
   <trkpt lon="7.496440" lat="46.074341"><ele>1574.5</ele></trkpt>
   <trkpt lon="7.496664" lat="46.074340"><ele>1572.5</ele></trkpt>
   <trkpt lon="7.496925" lat="46.074349"><ele>1571.25</ele></trkpt>
   <trkpt lon="7.497361" lat="46.074388"><ele>1571.0</ele></trkpt>
   <trkpt lon="7.497633" lat="46.074454"><ele>1571.0</ele></trkpt>
   <trkpt lon="7.497750" lat="46.074507"><ele>1569.25</ele></trkpt>
   <trkpt lon="7.497798" lat="46.074550"><ele>1568.0</ele></trkpt>
   <trkpt lon="7.497806" lat="46.074683"><ele>1567.25</ele></trkpt>
   <trkpt lon="7.497853" lat="46.074819"><ele>1566.5</ele></trkpt>
   <trkpt lon="7.497925" lat="46.074871"><ele>1565.5</ele></trkpt>
   <trkpt lon="7.498018" lat="46.074911"><ele>1564.75</ele></trkpt>
   <trkpt lon="7.498224" lat="46.074969"><ele>1561.5</ele></trkpt>
   <trkpt lon="7.498334" lat="46.075056"><ele>1560.75</ele></trkpt>
   <trkpt lon="7.498414" lat="46.075146"><ele>1559.0</ele></trkpt>
   <trkpt lon="7.498645" lat="46.075305"><ele>1556.5</ele></trkpt>
   <trkpt lon="7.498763" lat="46.075439"><ele>1555.75</ele></trkpt>
   <trkpt lon="7.498780" lat="46.075585"><ele>1558.0</ele></trkpt>
   <trkpt lon="7.498767" lat="46.075757"><ele>1559.75</ele></trkpt>
   <trkpt lon="7.498872" lat="46.075948"><ele>1558.5</ele></trkpt>
   <trkpt lon="7.499508" lat="46.076379"><ele>1544.5</ele></trkpt>
   <trkpt lon="7.499815" lat="46.076531"><ele>1539.75</ele></trkpt>
   <trkpt lon="7.500076" lat="46.076751"><ele>1532.25</ele></trkpt>
   <trkpt lon="7.500220" lat="46.076971"><ele>1529.5</ele></trkpt>
   <trkpt lon="7.501299" lat="46.077665"><ele>1508.5</ele></trkpt>
   <trkpt lon="7.501353" lat="46.077700"><ele>1506.75</ele></trkpt>
   <trkpt lon="7.501486" lat="46.077828"><ele>1504.25</ele></trkpt>
   <trkpt lon="7.501609" lat="46.077943"><ele>1501.5</ele></trkpt>
   <trkpt lon="7.501795" lat="46.078082"><ele>1496.5</ele></trkpt>
   <trkpt lon="7.501890" lat="46.078199"><ele>1496.5</ele></trkpt>
   <trkpt lon="7.501937" lat="46.078216"><ele>1495.25</ele></trkpt>
   <trkpt lon="7.501977" lat="46.078208"><ele>1493.75</ele></trkpt>
   <trkpt lon="7.502139" lat="46.078306"><ele>1491.75</ele></trkpt>
   <trkpt lon="7.502523" lat="46.078466"><ele>1483.75</ele></trkpt>
   <trkpt lon="7.502611" lat="46.078420"><ele>1479.25</ele></trkpt>
   <trkpt lon="7.502625" lat="46.078302"><ele>1476.75</ele></trkpt>
   <trkpt lon="7.502696" lat="46.078225"><ele>1474.25</ele></trkpt>
   <trkpt lon="7.502848" lat="46.078392"><ele>1471.0</ele></trkpt>
   <trkpt lon="7.502991" lat="46.078497"><ele>1467.75</ele></trkpt>
   <trkpt lon="7.503081" lat="46.078530"><ele>1465.5</ele></trkpt>
   <trkpt lon="7.503120" lat="46.078537"><ele>1464.75</ele></trkpt>
   <trkpt lon="7.503151" lat="46.078538"><ele>1464.25</ele></trkpt>
   <trkpt lon="7.503297" lat="46.078517"><ele>1461.5</ele></trkpt>
   <trkpt lon="7.503407" lat="46.078510"><ele>1459.75</ele></trkpt>
   <trkpt lon="7.503490" lat="46.078517"><ele>1458.5</ele></trkpt>
   <trkpt lon="7.503529" lat="46.078536"><ele>1458.0</ele></trkpt>
   <trkpt lon="7.503715" lat="46.078684"><ele>1455.0</ele></trkpt>
   <trkpt lon="7.503967" lat="46.078829"><ele>1451.75</ele></trkpt>
   <trkpt lon="7.504204" lat="46.078930"><ele>1448.25</ele></trkpt>
   <trkpt lon="7.504318" lat="46.078960"><ele>1446.75</ele></trkpt>
   <trkpt lon="7.504346" lat="46.078915"><ele>1445.5</ele></trkpt>
   <trkpt lon="7.504390" lat="46.078935"><ele>1445.0</ele></trkpt>
   <trkpt lon="7.504418" lat="46.078952"><ele>1444.5</ele></trkpt>
   <trkpt lon="7.504618" lat="46.079177"><ele>1442.0</ele></trkpt>
   <trkpt lon="7.504743" lat="46.079296"><ele>1441.5</ele></trkpt>
   <trkpt lon="7.504995" lat="46.079635"><ele>1439.0</ele></trkpt>
   <trkpt lon="7.505103" lat="46.079746"><ele>1438.5</ele></trkpt>
   <trkpt lon="7.505442" lat="46.080076"><ele>1435.25</ele></trkpt>
   <trkpt lon="7.505493" lat="46.080139"><ele>1434.5</ele></trkpt>
   <trkpt lon="7.505525" lat="46.080240"><ele>1434.0</ele></trkpt>
   <trkpt lon="7.505524" lat="46.080289"><ele>1434.0</ele></trkpt>
   <trkpt lon="7.505512" lat="46.080337"><ele>1433.75</ele></trkpt>
   <trkpt lon="7.505482" lat="46.080393"><ele>1433.5</ele></trkpt>
   <trkpt lon="7.505396" lat="46.080480"><ele>1433.25</ele></trkpt>
   <trkpt lon="7.505318" lat="46.080542"><ele>1432.75</ele></trkpt>
   <trkpt lon="7.505155" lat="46.080648"><ele>1433.25</ele></trkpt>
   <trkpt lon="7.504745" lat="46.080938"><ele>1432.25</ele></trkpt>
   <trkpt lon="7.504684" lat="46.081038"><ele>1431.75</ele></trkpt>
   <trkpt lon="7.504578" lat="46.081262"><ele>1430.5</ele></trkpt>
   <trkpt lon="7.504511" lat="46.081520"><ele>1429.0</ele></trkpt>
   <trkpt lon="7.504377" lat="46.081915"><ele>1429.75</ele></trkpt>
   <trkpt lon="7.504357" lat="46.082034"><ele>1429.75</ele></trkpt>
   <trkpt lon="7.504374" lat="46.082154"><ele>1427.75</ele></trkpt>
   <trkpt lon="7.504401" lat="46.082232"><ele>1426.25</ele></trkpt>
   <trkpt lon="7.504542" lat="46.082519"><ele>1425.5</ele></trkpt>
   <trkpt lon="7.504740" lat="46.082866"><ele>1423.5</ele></trkpt>
   <trkpt lon="7.505093" lat="46.083366"><ele>1421.5</ele></trkpt>
   <trkpt lon="7.505150" lat="46.083356"><ele>1420.75</ele></trkpt>
   <trkpt lon="7.505409" lat="46.083321"><ele>1420.75</ele></trkpt>
   <trkpt lon="7.505479" lat="46.083319"><ele>1421.75</ele></trkpt>
   <trkpt lon="7.505543" lat="46.083334"><ele>1422.75</ele></trkpt>
   <trkpt lon="7.505881" lat="46.083489"><ele>1426.75</ele></trkpt>
   <trkpt lon="7.505985" lat="46.083522"><ele>1427.75</ele></trkpt>
   <trkpt lon="7.506772" lat="46.083631"><ele>1430.25</ele></trkpt>
   <trkpt lon="7.506905" lat="46.083644"><ele>1430.75</ele></trkpt>
   <trkpt lon="7.507023" lat="46.083645"><ele>1431.75</ele></trkpt>
   <trkpt lon="7.507161" lat="46.083628"><ele>1433.25</ele></trkpt>
   <trkpt lon="7.507606" lat="46.083542"><ele>1437.0</ele></trkpt>
   <trkpt lon="7.507747" lat="46.083485"><ele>1438.25</ele></trkpt>
   <trkpt lon="7.507776" lat="46.083478"><ele>1438.25</ele></trkpt>
   <trkpt lon="7.507817" lat="46.083478"><ele>1438.5</ele></trkpt>
   <trkpt lon="7.507729" lat="46.083363"><ele>1438.5</ele></trkpt>
   <trkpt lon="7.507636" lat="46.083204"><ele>1439.0</ele></trkpt>
   <trkpt lon="7.507620" lat="46.083195"><ele>1439.0</ele></trkpt>
   <trkpt lon="7.507613" lat="46.083159"><ele>1439.25</ele></trkpt>
   <trkpt lon="7.507503" lat="46.083014"><ele>1439.25</ele></trkpt>
   <trkpt lon="7.507480" lat="46.082964"><ele>1439.5</ele></trkpt>
   <trkpt lon="7.507459" lat="46.082862"><ele>1440.0</ele></trkpt>
   <trkpt lon="7.507459" lat="46.082811"><ele>1440.5</ele></trkpt>
  </trkseg>
 </trk>
</gpx>
