<?xml version="1.0" encoding="UTF-8"?>
<!-- track-length = 16881 filtered ascend = 643 plain-ascend = -1093 cost=28172 energy=.2kwh time=4h 32m 2s -->
<gpx 
 xmlns="http://www.topografix.com/GPX/1/1" 
 xmlns:xsi="http://www.w3.org/2001/XMLSchema-instance" 
 xsi:schemaLocation="http://www.topografix.com/GPX/1/1 http://www.topografix.com/GPX/1/1/gpx.xsd" 
 creator="BRouter-1.7.9" version="1.1">
 <trk>
  <name>tour-gran-combin-tappa-7-cabane-de-chanrion-ollomont</name>
  <trkseg>
   <trkpt lon="7.380910" lat="45.939274"><ele>2463.25</ele></trkpt>
   <trkpt lon="7.380735" lat="45.939220"><ele>2463.0</ele></trkpt>
   <trkpt lon="7.380753" lat="45.939104"><ele>2459.0</ele></trkpt>
   <trkpt lon="7.380780" lat="45.939053"><ele>2457.5</ele></trkpt>
   <trkpt lon="7.380745" lat="45.939045"><ele>2456.75</ele></trkpt>
   <trkpt lon="7.380741" lat="45.939030"><ele>2456.25</ele></trkpt>
   <trkpt lon="7.380763" lat="45.939019"><ele>2456.0</ele></trkpt>
   <trkpt lon="7.380773" lat="45.938997"><ele>2455.25</ele></trkpt>
   <trkpt lon="7.380733" lat="45.938994"><ele>2455.0</ele></trkpt>
   <trkpt lon="7.380684" lat="45.939012"><ele>2455.25</ele></trkpt>
   <trkpt lon="7.380639" lat="45.939021"><ele>2455.25</ele></trkpt>
   <trkpt lon="7.380587" lat="45.939019"><ele>2454.75</ele></trkpt>
   <trkpt lon="7.380516" lat="45.938968"><ele>2451.5</ele></trkpt>
   <trkpt lon="7.380485" lat="45.938928"><ele>2449.25</ele></trkpt>
   <trkpt lon="7.380535" lat="45.938783"><ele>2447.75</ele></trkpt>
   <trkpt lon="7.380523" lat="45.938595"><ele>2444.75</ele></trkpt>
   <trkpt lon="7.380533" lat="45.938570"><ele>2444.25</ele></trkpt>
   <trkpt lon="7.380570" lat="45.938538"><ele>2444.0</ele></trkpt>
   <trkpt lon="7.380591" lat="45.938495"><ele>2443.5</ele></trkpt>
   <trkpt lon="7.380609" lat="45.938336"><ele>2441.5</ele></trkpt>
   <trkpt lon="7.380600" lat="45.938167"><ele>2440.25</ele></trkpt>
   <trkpt lon="7.380608" lat="45.938056"><ele>2439.5</ele></trkpt>
   <trkpt lon="7.380628" lat="45.938016"><ele>2439.25</ele></trkpt>
   <trkpt lon="7.380629" lat="45.937980"><ele>2439.0</ele></trkpt>
   <trkpt lon="7.380594" lat="45.937893"><ele>2439.0</ele></trkpt>
   <trkpt lon="7.380583" lat="45.937840"><ele>2438.75</ele></trkpt>
   <trkpt lon="7.380563" lat="45.937812"><ele>2439.0</ele></trkpt>
   <trkpt lon="7.380533" lat="45.937735"><ele>2438.25</ele></trkpt>
   <trkpt lon="7.380531" lat="45.937666"><ele>2438.25</ele></trkpt>
   <trkpt lon="7.380521" lat="45.937624"><ele>2438.0</ele></trkpt>
   <trkpt lon="7.380502" lat="45.937597"><ele>2437.5</ele></trkpt>
   <trkpt lon="7.380490" lat="45.937545"><ele>2437.5</ele></trkpt>
   <trkpt lon="7.380507" lat="45.937501"><ele>2438.0</ele></trkpt>
   <trkpt lon="7.380507" lat="45.937467"><ele>2437.75</ele></trkpt>
   <trkpt lon="7.380518" lat="45.937403"><ele>2437.75</ele></trkpt>
   <trkpt lon="7.380494" lat="45.937327"><ele>2437.25</ele></trkpt>
   <trkpt lon="7.380469" lat="45.937305"><ele>2437.0</ele></trkpt>
   <trkpt lon="7.380465" lat="45.937266"><ele>2437.0</ele></trkpt>
   <trkpt lon="7.380478" lat="45.937219"><ele>2436.75</ele></trkpt>
   <trkpt lon="7.380515" lat="45.937182"><ele>2436.25</ele></trkpt>
   <trkpt lon="7.380531" lat="45.937140"><ele>2435.75</ele></trkpt>
   <trkpt lon="7.380531" lat="45.937089"><ele>2435.0</ele></trkpt>
   <trkpt lon="7.380529" lat="45.937054"><ele>2434.75</ele></trkpt>
   <trkpt lon="7.380507" lat="45.936999"><ele>2434.0</ele></trkpt>
   <trkpt lon="7.380515" lat="45.936922"><ele>2432.75</ele></trkpt>
   <trkpt lon="7.380498" lat="45.936862"><ele>2431.75</ele></trkpt>
   <trkpt lon="7.380535" lat="45.936753"><ele>2429.0</ele></trkpt>
   <trkpt lon="7.380529" lat="45.936711"><ele>2428.25</ele></trkpt>
   <trkpt lon="7.380513" lat="45.936614"><ele>2426.5</ele></trkpt>
   <trkpt lon="7.380439" lat="45.936487"><ele>2424.75</ele></trkpt>
   <trkpt lon="7.380380" lat="45.936344"><ele>2423.0</ele></trkpt>
   <trkpt lon="7.380366" lat="45.936222"><ele>2422.5</ele></trkpt>
   <trkpt lon="7.380378" lat="45.936182"><ele>2422.25</ele></trkpt>
   <trkpt lon="7.380372" lat="45.936165"><ele>2422.25</ele></trkpt>
   <trkpt lon="7.380346" lat="45.936148"><ele>2422.0</ele></trkpt>
   <trkpt lon="7.380338" lat="45.936120"><ele>2422.0</ele></trkpt>
   <trkpt lon="7.380352" lat="45.936087"><ele>2421.5</ele></trkpt>
   <trkpt lon="7.380355" lat="45.936008"><ele>2420.5</ele></trkpt>
   <trkpt lon="7.380368" lat="45.935962"><ele>2420.0</ele></trkpt>
   <trkpt lon="7.380349" lat="45.935875"><ele>2418.75</ele></trkpt>
   <trkpt lon="7.380331" lat="45.935850"><ele>2418.25</ele></trkpt>
   <trkpt lon="7.380344" lat="45.935762"><ele>2416.25</ele></trkpt>
   <trkpt lon="7.380343" lat="45.935713"><ele>2415.0</ele></trkpt>
   <trkpt lon="7.380330" lat="45.935679"><ele>2414.25</ele></trkpt>
   <trkpt lon="7.380339" lat="45.935617"><ele>2412.75</ele></trkpt>
   <trkpt lon="7.380281" lat="45.935527"><ele>2411.0</ele></trkpt>
   <trkpt lon="7.380248" lat="45.935462"><ele>2409.5</ele></trkpt>
   <trkpt lon="7.380258" lat="45.935443"><ele>2409.0</ele></trkpt>
   <trkpt lon="7.380259" lat="45.935410"><ele>2408.0</ele></trkpt>
   <trkpt lon="7.380244" lat="45.935384"><ele>2407.5</ele></trkpt>
   <trkpt lon="7.380260" lat="45.935284"><ele>2404.5</ele></trkpt>
   <trkpt lon="7.380236" lat="45.935199"><ele>2403.75</ele></trkpt>
   <trkpt lon="7.380234" lat="45.935165"><ele>2403.25</ele></trkpt>
   <trkpt lon="7.380251" lat="45.935095"><ele>2401.75</ele></trkpt>
   <trkpt lon="7.380240" lat="45.934977"><ele>2400.25</ele></trkpt>
   <trkpt lon="7.380171" lat="45.934829"><ele>2398.25</ele></trkpt>
   <trkpt lon="7.380175" lat="45.934754"><ele>2396.5</ele></trkpt>
   <trkpt lon="7.380169" lat="45.934721"><ele>2396.0</ele></trkpt>
   <trkpt lon="7.380152" lat="45.934689"><ele>2395.5</ele></trkpt>
   <trkpt lon="7.380152" lat="45.934592"><ele>2393.0</ele></trkpt>
   <trkpt lon="7.380128" lat="45.934520"><ele>2391.75</ele></trkpt>
   <trkpt lon="7.380126" lat="45.934491"><ele>2391.0</ele></trkpt>
   <trkpt lon="7.380140" lat="45.934471"><ele>2390.0</ele></trkpt>
   <trkpt lon="7.380162" lat="45.934374"><ele>2388.0</ele></trkpt>
   <trkpt lon="7.380154" lat="45.934345"><ele>2388.0</ele></trkpt>
   <trkpt lon="7.380156" lat="45.934288"><ele>2387.5</ele></trkpt>
   <trkpt lon="7.380171" lat="45.934248"><ele>2386.5</ele></trkpt>
   <trkpt lon="7.380168" lat="45.934200"><ele>2386.25</ele></trkpt>
   <trkpt lon="7.380161" lat="45.934161"><ele>2386.0</ele></trkpt>
   <trkpt lon="7.380140" lat="45.934137"><ele>2386.5</ele></trkpt>
   <trkpt lon="7.380137" lat="45.934079"><ele>2385.75</ele></trkpt>
   <trkpt lon="7.380115" lat="45.934032"><ele>2385.75</ele></trkpt>
   <trkpt lon="7.380080" lat="45.933897"><ele>2384.5</ele></trkpt>
   <trkpt lon="7.380083" lat="45.933846"><ele>2384.0</ele></trkpt>
   <trkpt lon="7.380121" lat="45.933752"><ele>2383.0</ele></trkpt>
   <trkpt lon="7.380130" lat="45.933685"><ele>2383.0</ele></trkpt>
   <trkpt lon="7.380007" lat="45.933575"><ele>2379.25</ele></trkpt>
   <trkpt lon="7.380010" lat="45.933509"><ele>2377.75</ele></trkpt>
   <trkpt lon="7.380126" lat="45.933423"><ele>2377.25</ele></trkpt>
   <trkpt lon="7.380162" lat="45.933372"><ele>2376.25</ele></trkpt>
   <trkpt lon="7.380265" lat="45.933269"><ele>2374.0</ele></trkpt>
   <trkpt lon="7.380307" lat="45.933195"><ele>2372.25</ele></trkpt>
   <trkpt lon="7.380330" lat="45.933173"><ele>2371.75</ele></trkpt>
   <trkpt lon="7.380311" lat="45.933153"><ele>2371.0</ele></trkpt>
   <trkpt lon="7.380246" lat="45.933008"><ele>2367.25</ele></trkpt>
   <trkpt lon="7.380244" lat="45.932940"><ele>2366.0</ele></trkpt>
   <trkpt lon="7.380226" lat="45.932903"><ele>2365.5</ele></trkpt>
   <trkpt lon="7.380226" lat="45.932833"><ele>2364.25</ele></trkpt>
   <trkpt lon="7.380181" lat="45.932811"><ele>2364.0</ele></trkpt>
   <trkpt lon="7.380110" lat="45.932724"><ele>2361.5</ele></trkpt>
   <trkpt lon="7.380042" lat="45.932667"><ele>2359.75</ele></trkpt>
   <trkpt lon="7.380033" lat="45.932632"><ele>2358.5</ele></trkpt>
   <trkpt lon="7.379959" lat="45.932635"><ele>2359.0</ele></trkpt>
   <trkpt lon="7.379879" lat="45.932579"><ele>2357.5</ele></trkpt>
   <trkpt lon="7.379879" lat="45.932537"><ele>2355.75</ele></trkpt>
   <trkpt lon="7.379845" lat="45.932450"><ele>2352.75</ele></trkpt>
   <trkpt lon="7.379859" lat="45.932413"><ele>2351.5</ele></trkpt>
   <trkpt lon="7.379853" lat="45.932321"><ele>2348.25</ele></trkpt>
   <trkpt lon="7.379823" lat="45.932291"><ele>2347.75</ele></trkpt>
   <trkpt lon="7.379760" lat="45.932281"><ele>2348.0</ele></trkpt>
   <trkpt lon="7.379734" lat="45.932269"><ele>2348.0</ele></trkpt>
   <trkpt lon="7.379703" lat="45.932228"><ele>2347.0</ele></trkpt>
   <trkpt lon="7.379699" lat="45.932211"><ele>2346.5</ele></trkpt>
   <trkpt lon="7.379737" lat="45.932144"><ele>2344.25</ele></trkpt>
   <trkpt lon="7.379732" lat="45.932124"><ele>2343.5</ele></trkpt>
   <trkpt lon="7.379705" lat="45.932116"><ele>2343.0</ele></trkpt>
   <trkpt lon="7.379666" lat="45.932114"><ele>2342.0</ele></trkpt>
   <trkpt lon="7.379646" lat="45.932105"><ele>2341.0</ele></trkpt>
   <trkpt lon="7.379666" lat="45.931949"><ele>2334.75</ele></trkpt>
   <trkpt lon="7.379679" lat="45.931929"><ele>2334.25</ele></trkpt>
   <trkpt lon="7.379749" lat="45.931866"><ele>2332.5</ele></trkpt>
   <trkpt lon="7.379933" lat="45.931850"><ele>2329.25</ele></trkpt>
   <trkpt lon="7.379959" lat="45.931859"><ele>2329.5</ele></trkpt>
   <trkpt lon="7.379982" lat="45.931879"><ele>2330.25</ele></trkpt>
   <trkpt lon="7.380012" lat="45.931875"><ele>2330.0</ele></trkpt>
   <trkpt lon="7.380052" lat="45.931849"><ele>2329.5</ele></trkpt>
   <trkpt lon="7.380042" lat="45.931843"><ele>2329.0</ele></trkpt>
   <trkpt lon="7.380008" lat="45.931844"><ele>2328.25</ele></trkpt>
   <trkpt lon="7.380016" lat="45.931826"><ele>2327.5</ele></trkpt>
   <trkpt lon="7.380044" lat="45.931801"><ele>2326.75</ele></trkpt>
   <trkpt lon="7.380034" lat="45.931773"><ele>2324.75</ele></trkpt>
   <trkpt lon="7.379975" lat="45.931772"><ele>2324.25</ele></trkpt>
   <trkpt lon="7.379964" lat="45.931754"><ele>2323.25</ele></trkpt>
   <trkpt lon="7.380022" lat="45.931731"><ele>2322.25</ele></trkpt>
   <trkpt lon="7.380056" lat="45.931710"><ele>2322.0</ele></trkpt>
   <trkpt lon="7.380073" lat="45.931655"><ele>2319.5</ele></trkpt>
   <trkpt lon="7.380061" lat="45.931634"><ele>2317.75</ele></trkpt>
   <trkpt lon="7.379998" lat="45.931627"><ele>2315.5</ele></trkpt>
   <trkpt lon="7.379996" lat="45.931617"><ele>2314.75</ele></trkpt>
   <trkpt lon="7.380109" lat="45.931592"><ele>2316.75</ele></trkpt>
   <trkpt lon="7.380141" lat="45.931550"><ele>2315.0</ele></trkpt>
   <trkpt lon="7.380076" lat="45.931528"><ele>2311.75</ele></trkpt>
   <trkpt lon="7.380094" lat="45.931477"><ele>2309.0</ele></trkpt>
   <trkpt lon="7.380269" lat="45.931383"><ele>2308.5</ele></trkpt>
   <trkpt lon="7.380361" lat="45.931268"><ele>2310.75</ele></trkpt>
   <trkpt lon="7.380403" lat="45.931201"><ele>2310.5</ele></trkpt>
   <trkpt lon="7.380489" lat="45.931106"><ele>2310.75</ele></trkpt>
   <trkpt lon="7.380496" lat="45.931070"><ele>2311.75</ele></trkpt>
   <trkpt lon="7.380476" lat="45.931040"><ele>2311.5</ele></trkpt>
   <trkpt lon="7.380420" lat="45.931030"><ele>2308.5</ele></trkpt>
   <trkpt lon="7.380348" lat="45.931049"><ele>2304.0</ele></trkpt>
   <trkpt lon="7.380232" lat="45.931193"><ele>2300.75</ele></trkpt>
   <trkpt lon="7.380074" lat="45.931273"><ele>2298.25</ele></trkpt>
   <trkpt lon="7.379921" lat="45.931325"><ele>2296.75</ele></trkpt>
   <trkpt lon="7.379816" lat="45.931330"><ele>2295.25</ele></trkpt>
   <trkpt lon="7.379696" lat="45.931242"><ele>2292.0</ele></trkpt>
   <trkpt lon="7.379690" lat="45.931103"><ele>2289.75</ele></trkpt>
   <trkpt lon="7.379723" lat="45.930937"><ele>2286.0</ele></trkpt>
   <trkpt lon="7.379599" lat="45.930632"><ele>2275.75</ele></trkpt>
   <trkpt lon="7.379576" lat="45.930391"><ele>2264.25</ele></trkpt>
   <trkpt lon="7.379501" lat="45.930351"><ele>2263.0</ele></trkpt>
   <trkpt lon="7.379174" lat="45.930306"><ele>2256.25</ele></trkpt>
   <trkpt lon="7.379372" lat="45.930057"><ele>2246.25</ele></trkpt>
   <trkpt lon="7.379293" lat="45.930011"><ele>2242.75</ele></trkpt>
   <trkpt lon="7.378803" lat="45.930076"><ele>2233.25</ele></trkpt>
   <trkpt lon="7.378351" lat="45.930458"><ele>2225.5</ele></trkpt>
   <trkpt lon="7.377922" lat="45.930634"><ele>2217.5</ele></trkpt>
   <trkpt lon="7.377694" lat="45.930739"><ele>2212.75</ele></trkpt>
   <trkpt lon="7.377401" lat="45.931142"><ele>2209.75</ele></trkpt>
   <trkpt lon="7.377165" lat="45.931406"><ele>2207.5</ele></trkpt>
   <trkpt lon="7.377033" lat="45.931475"><ele>2206.5</ele></trkpt>
   <trkpt lon="7.376898" lat="45.931569"><ele>2205.25</ele></trkpt>
   <trkpt lon="7.376819" lat="45.931667"><ele>2204.75</ele></trkpt>
   <trkpt lon="7.376509" lat="45.931727"><ele>2197.5</ele></trkpt>
   <trkpt lon="7.376304" lat="45.931866"><ele>2195.0</ele></trkpt>
   <trkpt lon="7.376050" lat="45.931963"><ele>2189.75</ele></trkpt>
   <trkpt lon="7.375934" lat="45.932022"><ele>2186.75</ele></trkpt>
   <trkpt lon="7.375830" lat="45.932013"><ele>2182.5</ele></trkpt>
   <trkpt lon="7.375876" lat="45.931957"><ele>2182.25</ele></trkpt>
   <trkpt lon="7.375864" lat="45.931930"><ele>2181.25</ele></trkpt>
   <trkpt lon="7.375799" lat="45.931829"><ele>2181.5</ele></trkpt>
   <trkpt lon="7.375784" lat="45.931809"><ele>2181.75</ele></trkpt>
   <trkpt lon="7.375734" lat="45.931781"><ele>2182.25</ele></trkpt>
   <trkpt lon="7.375636" lat="45.931764"><ele>2182.5</ele></trkpt>
   <trkpt lon="7.375505" lat="45.931768"><ele>2182.5</ele></trkpt>
   <trkpt lon="7.375292" lat="45.931760"><ele>2183.75</ele></trkpt>
   <trkpt lon="7.375020" lat="45.931772"><ele>2187.5</ele></trkpt>
   <trkpt lon="7.374888" lat="45.931777"><ele>2188.25</ele></trkpt>
   <trkpt lon="7.374705" lat="45.931767"><ele>2189.75</ele></trkpt>
   <trkpt lon="7.374685" lat="45.931771"><ele>2190.0</ele></trkpt>
   <trkpt lon="7.374520" lat="45.931839"><ele>2190.0</ele></trkpt>
   <trkpt lon="7.374244" lat="45.931904"><ele>2192.75</ele></trkpt>
   <trkpt lon="7.374113" lat="45.931948"><ele>2193.75</ele></trkpt>
   <trkpt lon="7.373955" lat="45.932019"><ele>2194.25</ele></trkpt>
   <trkpt lon="7.373789" lat="45.932066"><ele>2197.0</ele></trkpt>
   <trkpt lon="7.373709" lat="45.932114"><ele>2198.0</ele></trkpt>
   <trkpt lon="7.373622" lat="45.932192"><ele>2198.5</ele></trkpt>
   <trkpt lon="7.373534" lat="45.932247"><ele>2199.5</ele></trkpt>
   <trkpt lon="7.373366" lat="45.932334"><ele>2202.25</ele></trkpt>
   <trkpt lon="7.373037" lat="45.932521"><ele>2204.5</ele></trkpt>
   <trkpt lon="7.373001" lat="45.932536"><ele>2204.75</ele></trkpt>
   <trkpt lon="7.372939" lat="45.932549"><ele>2205.5</ele></trkpt>
   <trkpt lon="7.372891" lat="45.932543"><ele>2206.5</ele></trkpt>
   <trkpt lon="7.372871" lat="45.932533"><ele>2207.25</ele></trkpt>
   <trkpt lon="7.372854" lat="45.932504"><ele>2208.5</ele></trkpt>
   <trkpt lon="7.372857" lat="45.932470"><ele>2210.25</ele></trkpt>
   <trkpt lon="7.372914" lat="45.932417"><ele>2211.75</ele></trkpt>
   <trkpt lon="7.373034" lat="45.932332"><ele>2212.75</ele></trkpt>
   <trkpt lon="7.373108" lat="45.932194"><ele>2216.0</ele></trkpt>
   <trkpt lon="7.373174" lat="45.932107"><ele>2216.25</ele></trkpt>
   <trkpt lon="7.373222" lat="45.932025"><ele>2217.25</ele></trkpt>
   <trkpt lon="7.373248" lat="45.931942"><ele>2219.0</ele></trkpt>
   <trkpt lon="7.373280" lat="45.931754"><ele>2222.5</ele></trkpt>
   <trkpt lon="7.373464" lat="45.931383"><ele>2229.5</ele></trkpt>
   <trkpt lon="7.373503" lat="45.931258"><ele>2231.5</ele></trkpt>
   <trkpt lon="7.373610" lat="45.931046"><ele>2233.0</ele></trkpt>
   <trkpt lon="7.373714" lat="45.930770"><ele>2239.5</ele></trkpt>
   <trkpt lon="7.373751" lat="45.930693"><ele>2241.25</ele></trkpt>
   <trkpt lon="7.373797" lat="45.930665"><ele>2241.0</ele></trkpt>
   <trkpt lon="7.373877" lat="45.930649"><ele>2239.75</ele></trkpt>
   <trkpt lon="7.373959" lat="45.930618"><ele>2240.25</ele></trkpt>
   <trkpt lon="7.374088" lat="45.930543"><ele>2241.75</ele></trkpt>
   <trkpt lon="7.374127" lat="45.930503"><ele>2242.5</ele></trkpt>
   <trkpt lon="7.374143" lat="45.930473"><ele>2243.0</ele></trkpt>
   <trkpt lon="7.374204" lat="45.930310"><ele>2245.25</ele></trkpt>
   <trkpt lon="7.374253" lat="45.930228"><ele>2246.0</ele></trkpt>
   <trkpt lon="7.374349" lat="45.930062"><ele>2248.25</ele></trkpt>
   <trkpt lon="7.374400" lat="45.930004"><ele>2248.75</ele></trkpt>
   <trkpt lon="7.374448" lat="45.929960"><ele>2249.25</ele></trkpt>
   <trkpt lon="7.374654" lat="45.929830"><ele>2250.0</ele></trkpt>
   <trkpt lon="7.374717" lat="45.929813"><ele>2249.25</ele></trkpt>
   <trkpt lon="7.374977" lat="45.929810"><ele>2249.25</ele></trkpt>
   <trkpt lon="7.375123" lat="45.929785"><ele>2249.25</ele></trkpt>
   <trkpt lon="7.375284" lat="45.929717"><ele>2250.0</ele></trkpt>
   <trkpt lon="7.375413" lat="45.929670"><ele>2250.75</ele></trkpt>
   <trkpt lon="7.375602" lat="45.929534"><ele>2254.0</ele></trkpt>
   <trkpt lon="7.375717" lat="45.929502"><ele>2254.5</ele></trkpt>
   <trkpt lon="7.375740" lat="45.929490"><ele>2254.75</ele></trkpt>
   <trkpt lon="7.375744" lat="45.929475"><ele>2255.25</ele></trkpt>
   <trkpt lon="7.375674" lat="45.929288"><ele>2259.75</ele></trkpt>
   <trkpt lon="7.375644" lat="45.929118"><ele>2263.75</ele></trkpt>
   <trkpt lon="7.375662" lat="45.929080"><ele>2265.0</ele></trkpt>
   <trkpt lon="7.375700" lat="45.929055"><ele>2265.75</ele></trkpt>
   <trkpt lon="7.375722" lat="45.929048"><ele>2266.0</ele></trkpt>
   <trkpt lon="7.375809" lat="45.929036"><ele>2266.5</ele></trkpt>
   <trkpt lon="7.375901" lat="45.929043"><ele>2267.0</ele></trkpt>
   <trkpt lon="7.375981" lat="45.928980"><ele>2268.75</ele></trkpt>
   <trkpt lon="7.376068" lat="45.928950"><ele>2269.5</ele></trkpt>
   <trkpt lon="7.376272" lat="45.928815"><ele>2269.75</ele></trkpt>
   <trkpt lon="7.376354" lat="45.928669"><ele>2271.5</ele></trkpt>
   <trkpt lon="7.376391" lat="45.928645"><ele>2271.25</ele></trkpt>
   <trkpt lon="7.376411" lat="45.928559"><ele>2274.25</ele></trkpt>
   <trkpt lon="7.376546" lat="45.928453"><ele>2276.0</ele></trkpt>
   <trkpt lon="7.376725" lat="45.928043"><ele>2290.25</ele></trkpt>
   <trkpt lon="7.376734" lat="45.928007"><ele>2291.25</ele></trkpt>
   <trkpt lon="7.376752" lat="45.927988"><ele>2291.5</ele></trkpt>
   <trkpt lon="7.376757" lat="45.927960"><ele>2292.5</ele></trkpt>
   <trkpt lon="7.376763" lat="45.927951"><ele>2292.75</ele></trkpt>
   <trkpt lon="7.376792" lat="45.927938"><ele>2292.25</ele></trkpt>
   <trkpt lon="7.376815" lat="45.927908"><ele>2293.0</ele></trkpt>
   <trkpt lon="7.376822" lat="45.927831"><ele>2296.25</ele></trkpt>
   <trkpt lon="7.376814" lat="45.927814"><ele>2297.0</ele></trkpt>
   <trkpt lon="7.376838" lat="45.927792"><ele>2297.5</ele></trkpt>
   <trkpt lon="7.376830" lat="45.927767"><ele>2298.75</ele></trkpt>
   <trkpt lon="7.376917" lat="45.927633"><ele>2301.25</ele></trkpt>
   <trkpt lon="7.376912" lat="45.927527"><ele>2305.0</ele></trkpt>
   <trkpt lon="7.376930" lat="45.927414"><ele>2308.5</ele></trkpt>
   <trkpt lon="7.376909" lat="45.927375"><ele>2310.5</ele></trkpt>
   <trkpt lon="7.376980" lat="45.927268"><ele>2312.0</ele></trkpt>
   <trkpt lon="7.376952" lat="45.927146"><ele>2317.75</ele></trkpt>
   <trkpt lon="7.376930" lat="45.927111"><ele>2319.75</ele></trkpt>
   <trkpt lon="7.376967" lat="45.927075"><ele>2320.0</ele></trkpt>
   <trkpt lon="7.376975" lat="45.927034"><ele>2321.5</ele></trkpt>
   <trkpt lon="7.377016" lat="45.927016"><ele>2321.0</ele></trkpt>
   <trkpt lon="7.377059" lat="45.926982"><ele>2321.0</ele></trkpt>
   <trkpt lon="7.377061" lat="45.926972"><ele>2321.5</ele></trkpt>
   <trkpt lon="7.377037" lat="45.926960"><ele>2322.5</ele></trkpt>
   <trkpt lon="7.376893" lat="45.926956"><ele>2327.0</ele></trkpt>
   <trkpt lon="7.376838" lat="45.926991"><ele>2327.25</ele></trkpt>
   <trkpt lon="7.376785" lat="45.927012"><ele>2328.25</ele></trkpt>
   <trkpt lon="7.376722" lat="45.927025"><ele>2329.75</ele></trkpt>
   <trkpt lon="7.376684" lat="45.927073"><ele>2329.5</ele></trkpt>
   <trkpt lon="7.376628" lat="45.927099"><ele>2330.75</ele></trkpt>
   <trkpt lon="7.376540" lat="45.927124"><ele>2332.75</ele></trkpt>
   <trkpt lon="7.376510" lat="45.927158"><ele>2332.75</ele></trkpt>
   <trkpt lon="7.376488" lat="45.927169"><ele>2333.25</ele></trkpt>
   <trkpt lon="7.376418" lat="45.927176"><ele>2335.25</ele></trkpt>
   <trkpt lon="7.376391" lat="45.927191"><ele>2335.75</ele></trkpt>
   <trkpt lon="7.376348" lat="45.927197"><ele>2337.25</ele></trkpt>
   <trkpt lon="7.376336" lat="45.927206"><ele>2337.5</ele></trkpt>
   <trkpt lon="7.376323" lat="45.927240"><ele>2336.75</ele></trkpt>
   <trkpt lon="7.376281" lat="45.927270"><ele>2337.25</ele></trkpt>
   <trkpt lon="7.376195" lat="45.927302"><ele>2339.5</ele></trkpt>
   <trkpt lon="7.376161" lat="45.927303"><ele>2340.75</ele></trkpt>
   <trkpt lon="7.376101" lat="45.927334"><ele>2341.75</ele></trkpt>
   <trkpt lon="7.376044" lat="45.927341"><ele>2343.5</ele></trkpt>
   <trkpt lon="7.375919" lat="45.927396"><ele>2346.0</ele></trkpt>
   <trkpt lon="7.375746" lat="45.927449"><ele>2349.25</ele></trkpt>
   <trkpt lon="7.375586" lat="45.927530"><ele>2350.0</ele></trkpt>
   <trkpt lon="7.375500" lat="45.927541"><ele>2352.0</ele></trkpt>
   <trkpt lon="7.375402" lat="45.927589"><ele>2353.25</ele></trkpt>
   <trkpt lon="7.375365" lat="45.927621"><ele>2353.5</ele></trkpt>
   <trkpt lon="7.375282" lat="45.927660"><ele>2355.0</ele></trkpt>
   <trkpt lon="7.375257" lat="45.927664"><ele>2355.75</ele></trkpt>
   <trkpt lon="7.375217" lat="45.927661"><ele>2357.25</ele></trkpt>
   <trkpt lon="7.375198" lat="45.927683"><ele>2357.5</ele></trkpt>
   <trkpt lon="7.375156" lat="45.927700"><ele>2358.5</ele></trkpt>
   <trkpt lon="7.375091" lat="45.927713"><ele>2360.25</ele></trkpt>
   <trkpt lon="7.375060" lat="45.927735"><ele>2360.75</ele></trkpt>
   <trkpt lon="7.375010" lat="45.927752"><ele>2362.25</ele></trkpt>
   <trkpt lon="7.374921" lat="45.927832"><ele>2362.75</ele></trkpt>
   <trkpt lon="7.374882" lat="45.927853"><ele>2363.75</ele></trkpt>
   <trkpt lon="7.374786" lat="45.927895"><ele>2366.25</ele></trkpt>
   <trkpt lon="7.374751" lat="45.927894"><ele>2367.5</ele></trkpt>
   <trkpt lon="7.374717" lat="45.927905"><ele>2368.75</ele></trkpt>
   <trkpt lon="7.374693" lat="45.927946"><ele>2368.75</ele></trkpt>
   <trkpt lon="7.374664" lat="45.927952"><ele>2369.5</ele></trkpt>
   <trkpt lon="7.374630" lat="45.927938"><ele>2370.5</ele></trkpt>
   <trkpt lon="7.374594" lat="45.927939"><ele>2371.25</ele></trkpt>
   <trkpt lon="7.374521" lat="45.927960"><ele>2373.0</ele></trkpt>
   <trkpt lon="7.374495" lat="45.927980"><ele>2373.5</ele></trkpt>
   <trkpt lon="7.374406" lat="45.928009"><ele>2375.0</ele></trkpt>
   <trkpt lon="7.374298" lat="45.927980"><ele>2377.5</ele></trkpt>
   <trkpt lon="7.374199" lat="45.927986"><ele>2379.25</ele></trkpt>
   <trkpt lon="7.374079" lat="45.928006"><ele>2381.25</ele></trkpt>
   <trkpt lon="7.373866" lat="45.928004"><ele>2385.75</ele></trkpt>
   <trkpt lon="7.373784" lat="45.928021"><ele>2386.5</ele></trkpt>
   <trkpt lon="7.373717" lat="45.928012"><ele>2388.25</ele></trkpt>
   <trkpt lon="7.373678" lat="45.927983"><ele>2391.25</ele></trkpt>
   <trkpt lon="7.373662" lat="45.927981"><ele>2391.75</ele></trkpt>
   <trkpt lon="7.373572" lat="45.927991"><ele>2393.25</ele></trkpt>
   <trkpt lon="7.373486" lat="45.927973"><ele>2396.75</ele></trkpt>
   <trkpt lon="7.373427" lat="45.927983"><ele>2397.25</ele></trkpt>
   <trkpt lon="7.373292" lat="45.927960"><ele>2401.75</ele></trkpt>
   <trkpt lon="7.373218" lat="45.927971"><ele>2402.25</ele></trkpt>
   <trkpt lon="7.373188" lat="45.927949"><ele>2403.5</ele></trkpt>
   <trkpt lon="7.373147" lat="45.927933"><ele>2404.75</ele></trkpt>
   <trkpt lon="7.372958" lat="45.927901"><ele>2407.5</ele></trkpt>
   <trkpt lon="7.372937" lat="45.927879"><ele>2408.0</ele></trkpt>
   <trkpt lon="7.372933" lat="45.927842"><ele>2408.75</ele></trkpt>
   <trkpt lon="7.372948" lat="45.927812"><ele>2409.0</ele></trkpt>
   <trkpt lon="7.372957" lat="45.927759"><ele>2410.25</ele></trkpt>
   <trkpt lon="7.373062" lat="45.927715"><ele>2410.75</ele></trkpt>
   <trkpt lon="7.373150" lat="45.927670"><ele>2412.5</ele></trkpt>
   <trkpt lon="7.373167" lat="45.927638"><ele>2413.25</ele></trkpt>
   <trkpt lon="7.373158" lat="45.927582"><ele>2414.5</ele></trkpt>
   <trkpt lon="7.373161" lat="45.927546"><ele>2415.25</ele></trkpt>
   <trkpt lon="7.373146" lat="45.927494"><ele>2416.25</ele></trkpt>
   <trkpt lon="7.373149" lat="45.927447"><ele>2417.25</ele></trkpt>
   <trkpt lon="7.373166" lat="45.927391"><ele>2418.25</ele></trkpt>
   <trkpt lon="7.373148" lat="45.927321"><ele>2419.75</ele></trkpt>
   <trkpt lon="7.373160" lat="45.927259"><ele>2421.0</ele></trkpt>
   <trkpt lon="7.373135" lat="45.927202"><ele>2422.75</ele></trkpt>
   <trkpt lon="7.373130" lat="45.927148"><ele>2424.5</ele></trkpt>
   <trkpt lon="7.373086" lat="45.927056"><ele>2428.75</ele></trkpt>
   <trkpt lon="7.373101" lat="45.926998"><ele>2430.25</ele></trkpt>
   <trkpt lon="7.373097" lat="45.926986"><ele>2431.0</ele></trkpt>
   <trkpt lon="7.373074" lat="45.926961"><ele>2432.5</ele></trkpt>
   <trkpt lon="7.373087" lat="45.926947"><ele>2432.75</ele></trkpt>
   <trkpt lon="7.373082" lat="45.926923"><ele>2433.5</ele></trkpt>
   <trkpt lon="7.373058" lat="45.926888"><ele>2435.25</ele></trkpt>
   <trkpt lon="7.373046" lat="45.926771"><ele>2438.5</ele></trkpt>
   <trkpt lon="7.373019" lat="45.926760"><ele>2439.5</ele></trkpt>
   <trkpt lon="7.373012" lat="45.926750"><ele>2439.75</ele></trkpt>
   <trkpt lon="7.373042" lat="45.926724"><ele>2439.75</ele></trkpt>
   <trkpt lon="7.373016" lat="45.926684"><ele>2441.5</ele></trkpt>
   <trkpt lon="7.373013" lat="45.926645"><ele>2442.25</ele></trkpt>
   <trkpt lon="7.372984" lat="45.926619"><ele>2443.0</ele></trkpt>
   <trkpt lon="7.372965" lat="45.926607"><ele>2443.75</ele></trkpt>
   <trkpt lon="7.372900" lat="45.926577"><ele>2445.75</ele></trkpt>
   <trkpt lon="7.372882" lat="45.926546"><ele>2446.75</ele></trkpt>
   <trkpt lon="7.372880" lat="45.926501"><ele>2447.25</ele></trkpt>
   <trkpt lon="7.372856" lat="45.926441"><ele>2448.75</ele></trkpt>
   <trkpt lon="7.372843" lat="45.926433"><ele>2449.25</ele></trkpt>
   <trkpt lon="7.372828" lat="45.926401"><ele>2450.0</ele></trkpt>
   <trkpt lon="7.372825" lat="45.926376"><ele>2450.25</ele></trkpt>
   <trkpt lon="7.372677" lat="45.926309"><ele>2454.75</ele></trkpt>
   <trkpt lon="7.372643" lat="45.926300"><ele>2456.0</ele></trkpt>
   <trkpt lon="7.372581" lat="45.926298"><ele>2458.0</ele></trkpt>
   <trkpt lon="7.372543" lat="45.926287"><ele>2459.0</ele></trkpt>
   <trkpt lon="7.372521" lat="45.926262"><ele>2459.75</ele></trkpt>
   <trkpt lon="7.372528" lat="45.926215"><ele>2459.25</ele></trkpt>
   <trkpt lon="7.372499" lat="45.926183"><ele>2460.25</ele></trkpt>
   <trkpt lon="7.372442" lat="45.926140"><ele>2461.75</ele></trkpt>
   <trkpt lon="7.372302" lat="45.926068"><ele>2465.5</ele></trkpt>
   <trkpt lon="7.372247" lat="45.926065"><ele>2467.25</ele></trkpt>
   <trkpt lon="7.372083" lat="45.926092"><ele>2470.5</ele></trkpt>
   <trkpt lon="7.372024" lat="45.926109"><ele>2471.5</ele></trkpt>
   <trkpt lon="7.371954" lat="45.926139"><ele>2473.0</ele></trkpt>
   <trkpt lon="7.371886" lat="45.926191"><ele>2475.25</ele></trkpt>
   <trkpt lon="7.371859" lat="45.926272"><ele>2476.75</ele></trkpt>
   <trkpt lon="7.371848" lat="45.926278"><ele>2477.0</ele></trkpt>
   <trkpt lon="7.371821" lat="45.926275"><ele>2477.75</ele></trkpt>
   <trkpt lon="7.371731" lat="45.926235"><ele>2480.25</ele></trkpt>
   <trkpt lon="7.371706" lat="45.926232"><ele>2481.0</ele></trkpt>
   <trkpt lon="7.371698" lat="45.926236"><ele>2481.25</ele></trkpt>
   <trkpt lon="7.371637" lat="45.926313"><ele>2483.5</ele></trkpt>
   <trkpt lon="7.371628" lat="45.926364"><ele>2484.25</ele></trkpt>
   <trkpt lon="7.371604" lat="45.926381"><ele>2484.75</ele></trkpt>
   <trkpt lon="7.371581" lat="45.926411"><ele>2485.25</ele></trkpt>
   <trkpt lon="7.371424" lat="45.926521"><ele>2489.5</ele></trkpt>
   <trkpt lon="7.371377" lat="45.926542"><ele>2491.0</ele></trkpt>
   <trkpt lon="7.371342" lat="45.926566"><ele>2492.25</ele></trkpt>
   <trkpt lon="7.371332" lat="45.926581"><ele>2493.0</ele></trkpt>
   <trkpt lon="7.371318" lat="45.926655"><ele>2494.75</ele></trkpt>
   <trkpt lon="7.371239" lat="45.926718"><ele>2498.0</ele></trkpt>
   <trkpt lon="7.371177" lat="45.926748"><ele>2500.0</ele></trkpt>
   <trkpt lon="7.371149" lat="45.926776"><ele>2501.25</ele></trkpt>
   <trkpt lon="7.371060" lat="45.926805"><ele>2503.0</ele></trkpt>
   <trkpt lon="7.371004" lat="45.926810"><ele>2503.5</ele></trkpt>
   <trkpt lon="7.370963" lat="45.926786"><ele>2503.75</ele></trkpt>
   <trkpt lon="7.370868" lat="45.926774"><ele>2504.75</ele></trkpt>
   <trkpt lon="7.370721" lat="45.926717"><ele>2505.75</ele></trkpt>
   <trkpt lon="7.370652" lat="45.926709"><ele>2506.25</ele></trkpt>
   <trkpt lon="7.370620" lat="45.926699"><ele>2506.5</ele></trkpt>
   <trkpt lon="7.370536" lat="45.926647"><ele>2508.0</ele></trkpt>
   <trkpt lon="7.370506" lat="45.926616"><ele>2508.5</ele></trkpt>
   <trkpt lon="7.370449" lat="45.926534"><ele>2509.5</ele></trkpt>
   <trkpt lon="7.370299" lat="45.926447"><ele>2513.75</ele></trkpt>
   <trkpt lon="7.370232" lat="45.926428"><ele>2515.25</ele></trkpt>
   <trkpt lon="7.370194" lat="45.926409"><ele>2516.25</ele></trkpt>
   <trkpt lon="7.370173" lat="45.926387"><ele>2516.75</ele></trkpt>
   <trkpt lon="7.370152" lat="45.926338"><ele>2518.0</ele></trkpt>
   <trkpt lon="7.370148" lat="45.926301"><ele>2518.75</ele></trkpt>
   <trkpt lon="7.370159" lat="45.926269"><ele>2519.0</ele></trkpt>
   <trkpt lon="7.370138" lat="45.926203"><ele>2520.75</ele></trkpt>
   <trkpt lon="7.370050" lat="45.926116"><ele>2525.75</ele></trkpt>
   <trkpt lon="7.370000" lat="45.926089"><ele>2528.0</ele></trkpt>
   <trkpt lon="7.369993" lat="45.926082"><ele>2528.25</ele></trkpt>
   <trkpt lon="7.369994" lat="45.926065"><ele>2528.5</ele></trkpt>
   <trkpt lon="7.369985" lat="45.926055"><ele>2528.75</ele></trkpt>
   <trkpt lon="7.369974" lat="45.926055"><ele>2529.0</ele></trkpt>
   <trkpt lon="7.369961" lat="45.926033"><ele>2529.5</ele></trkpt>
   <trkpt lon="7.369874" lat="45.925965"><ele>2532.75</ele></trkpt>
   <trkpt lon="7.369871" lat="45.925950"><ele>2533.0</ele></trkpt>
   <trkpt lon="7.369905" lat="45.925916"><ele>2532.75</ele></trkpt>
   <trkpt lon="7.369906" lat="45.925891"><ele>2533.0</ele></trkpt>
   <trkpt lon="7.369775" lat="45.925821"><ele>2538.5</ele></trkpt>
   <trkpt lon="7.369683" lat="45.925790"><ele>2541.75</ele></trkpt>
   <trkpt lon="7.369655" lat="45.925797"><ele>2542.25</ele></trkpt>
   <trkpt lon="7.369528" lat="45.925869"><ele>2542.75</ele></trkpt>
   <trkpt lon="7.369517" lat="45.925868"><ele>2543.0</ele></trkpt>
   <trkpt lon="7.369472" lat="45.925823"><ele>2545.5</ele></trkpt>
   <trkpt lon="7.369445" lat="45.925807"><ele>2546.25</ele></trkpt>
   <trkpt lon="7.369400" lat="45.925792"><ele>2546.5</ele></trkpt>
   <trkpt lon="7.369365" lat="45.925744"><ele>2547.25</ele></trkpt>
   <trkpt lon="7.369343" lat="45.925674"><ele>2548.5</ele></trkpt>
   <trkpt lon="7.369338" lat="45.925617"><ele>2549.5</ele></trkpt>
   <trkpt lon="7.369299" lat="45.925545"><ele>2551.25</ele></trkpt>
   <trkpt lon="7.369270" lat="45.925509"><ele>2552.75</ele></trkpt>
   <trkpt lon="7.369257" lat="45.925461"><ele>2554.5</ele></trkpt>
   <trkpt lon="7.369262" lat="45.925398"><ele>2556.5</ele></trkpt>
   <trkpt lon="7.369297" lat="45.925350"><ele>2557.25</ele></trkpt>
   <trkpt lon="7.369305" lat="45.925324"><ele>2558.0</ele></trkpt>
   <trkpt lon="7.369318" lat="45.925313"><ele>2558.0</ele></trkpt>
   <trkpt lon="7.369318" lat="45.925297"><ele>2558.5</ele></trkpt>
   <trkpt lon="7.369302" lat="45.925280"><ele>2559.5</ele></trkpt>
   <trkpt lon="7.369318" lat="45.925262"><ele>2559.25</ele></trkpt>
   <trkpt lon="7.369253" lat="45.925127"><ele>2563.75</ele></trkpt>
   <trkpt lon="7.369268" lat="45.925099"><ele>2564.0</ele></trkpt>
   <trkpt lon="7.369237" lat="45.925050"><ele>2566.0</ele></trkpt>
   <trkpt lon="7.369171" lat="45.925004"><ele>2569.5</ele></trkpt>
   <trkpt lon="7.369131" lat="45.924951"><ele>2572.5</ele></trkpt>
   <trkpt lon="7.369113" lat="45.924938"><ele>2573.5</ele></trkpt>
   <trkpt lon="7.369091" lat="45.924930"><ele>2574.25</ele></trkpt>
   <trkpt lon="7.369067" lat="45.924941"><ele>2574.75</ele></trkpt>
   <trkpt lon="7.368959" lat="45.924897"><ele>2578.75</ele></trkpt>
   <trkpt lon="7.368936" lat="45.924870"><ele>2580.0</ele></trkpt>
   <trkpt lon="7.368910" lat="45.924866"><ele>2580.75</ele></trkpt>
   <trkpt lon="7.368884" lat="45.924870"><ele>2581.25</ele></trkpt>
   <trkpt lon="7.368858" lat="45.924860"><ele>2581.75</ele></trkpt>
   <trkpt lon="7.368816" lat="45.924866"><ele>2582.0</ele></trkpt>
   <trkpt lon="7.368776" lat="45.924864"><ele>2582.5</ele></trkpt>
   <trkpt lon="7.368706" lat="45.924901"><ele>2583.0</ele></trkpt>
   <trkpt lon="7.368662" lat="45.924892"><ele>2583.75</ele></trkpt>
   <trkpt lon="7.368636" lat="45.924860"><ele>2584.0</ele></trkpt>
   <trkpt lon="7.368570" lat="45.924812"><ele>2585.75</ele></trkpt>
   <trkpt lon="7.368482" lat="45.924722"><ele>2588.25</ele></trkpt>
   <trkpt lon="7.368440" lat="45.924677"><ele>2589.5</ele></trkpt>
   <trkpt lon="7.368373" lat="45.924583"><ele>2591.25</ele></trkpt>
   <trkpt lon="7.368362" lat="45.924577"><ele>2591.25</ele></trkpt>
   <trkpt lon="7.368332" lat="45.924579"><ele>2592.0</ele></trkpt>
   <trkpt lon="7.368219" lat="45.924643"><ele>2594.75</ele></trkpt>
   <trkpt lon="7.368158" lat="45.924703"><ele>2595.75</ele></trkpt>
   <trkpt lon="7.368074" lat="45.924754"><ele>2597.5</ele></trkpt>
   <trkpt lon="7.368031" lat="45.924767"><ele>2598.25</ele></trkpt>
   <trkpt lon="7.367992" lat="45.924767"><ele>2598.5</ele></trkpt>
   <trkpt lon="7.367943" lat="45.924754"><ele>2599.0</ele></trkpt>
   <trkpt lon="7.367911" lat="45.924737"><ele>2599.25</ele></trkpt>
   <trkpt lon="7.367910" lat="45.924669"><ele>2600.5</ele></trkpt>
   <trkpt lon="7.367895" lat="45.924634"><ele>2601.25</ele></trkpt>
   <trkpt lon="7.367887" lat="45.924577"><ele>2602.5</ele></trkpt>
   <trkpt lon="7.367878" lat="45.924565"><ele>2603.0</ele></trkpt>
   <trkpt lon="7.367875" lat="45.924534"><ele>2603.5</ele></trkpt>
   <trkpt lon="7.367821" lat="45.924351"><ele>2608.25</ele></trkpt>
   <trkpt lon="7.367803" lat="45.924323"><ele>2609.0</ele></trkpt>
   <trkpt lon="7.367774" lat="45.924197"><ele>2611.5</ele></trkpt>
   <trkpt lon="7.367759" lat="45.924177"><ele>2612.25</ele></trkpt>
   <trkpt lon="7.367732" lat="45.924185"><ele>2612.75</ele></trkpt>
   <trkpt lon="7.367720" lat="45.924178"><ele>2613.25</ele></trkpt>
   <trkpt lon="7.367727" lat="45.924152"><ele>2613.5</ele></trkpt>
   <trkpt lon="7.367718" lat="45.924109"><ele>2614.25</ele></trkpt>
   <trkpt lon="7.367693" lat="45.924060"><ele>2615.75</ele></trkpt>
   <trkpt lon="7.367661" lat="45.924041"><ele>2616.75</ele></trkpt>
   <trkpt lon="7.367604" lat="45.923966"><ele>2619.0</ele></trkpt>
   <trkpt lon="7.367540" lat="45.923852"><ele>2621.5</ele></trkpt>
   <trkpt lon="7.367501" lat="45.923759"><ele>2623.25</ele></trkpt>
   <trkpt lon="7.367461" lat="45.923721"><ele>2624.5</ele></trkpt>
   <trkpt lon="7.367434" lat="45.923678"><ele>2625.25</ele></trkpt>
   <trkpt lon="7.367358" lat="45.923617"><ele>2627.25</ele></trkpt>
   <trkpt lon="7.367230" lat="45.923472"><ele>2631.75</ele></trkpt>
   <trkpt lon="7.367130" lat="45.923424"><ele>2632.25</ele></trkpt>
   <trkpt lon="7.367056" lat="45.923397"><ele>2632.25</ele></trkpt>
   <trkpt lon="7.367056" lat="45.923316"><ele>2633.75</ele></trkpt>
   <trkpt lon="7.367020" lat="45.923287"><ele>2634.5</ele></trkpt>
   <trkpt lon="7.366932" lat="45.923148"><ele>2638.25</ele></trkpt>
   <trkpt lon="7.366916" lat="45.923139"><ele>2638.25</ele></trkpt>
   <trkpt lon="7.366865" lat="45.923127"><ele>2638.5</ele></trkpt>
   <trkpt lon="7.366832" lat="45.923072"><ele>2640.0</ele></trkpt>
   <trkpt lon="7.366823" lat="45.923042"><ele>2640.75</ele></trkpt>
   <trkpt lon="7.366757" lat="45.923008"><ele>2641.5</ele></trkpt>
   <trkpt lon="7.366731" lat="45.922982"><ele>2642.0</ele></trkpt>
   <trkpt lon="7.366715" lat="45.922952"><ele>2642.75</ele></trkpt>
   <trkpt lon="7.366668" lat="45.922906"><ele>2643.75</ele></trkpt>
   <trkpt lon="7.366626" lat="45.922888"><ele>2643.75</ele></trkpt>
   <trkpt lon="7.366598" lat="45.922846"><ele>2644.5</ele></trkpt>
   <trkpt lon="7.366578" lat="45.922782"><ele>2646.25</ele></trkpt>
   <trkpt lon="7.366491" lat="45.922720"><ele>2646.75</ele></trkpt>
   <trkpt lon="7.366455" lat="45.922648"><ele>2648.0</ele></trkpt>
   <trkpt lon="7.366417" lat="45.922588"><ele>2649.0</ele></trkpt>
   <trkpt lon="7.366399" lat="45.922571"><ele>2649.5</ele></trkpt>
   <trkpt lon="7.366356" lat="45.922461"><ele>2651.0</ele></trkpt>
   <trkpt lon="7.366304" lat="45.922418"><ele>2650.75</ele></trkpt>
   <trkpt lon="7.366290" lat="45.922366"><ele>2651.25</ele></trkpt>
   <trkpt lon="7.366204" lat="45.922211"><ele>2652.0</ele></trkpt>
   <trkpt lon="7.366172" lat="45.922137"><ele>2652.5</ele></trkpt>
   <trkpt lon="7.366109" lat="45.922064"><ele>2653.25</ele></trkpt>
   <trkpt lon="7.366047" lat="45.921967"><ele>2653.75</ele></trkpt>
   <trkpt lon="7.365970" lat="45.921827"><ele>2653.5</ele></trkpt>
   <trkpt lon="7.365944" lat="45.921793"><ele>2653.5</ele></trkpt>
   <trkpt lon="7.365900" lat="45.921667"><ele>2654.0</ele></trkpt>
   <trkpt lon="7.365864" lat="45.921617"><ele>2654.0</ele></trkpt>
   <trkpt lon="7.365844" lat="45.921540"><ele>2653.75</ele></trkpt>
   <trkpt lon="7.365819" lat="45.921484"><ele>2653.75</ele></trkpt>
   <trkpt lon="7.365791" lat="45.921453"><ele>2653.5</ele></trkpt>
   <trkpt lon="7.365767" lat="45.921332"><ele>2653.75</ele></trkpt>
   <trkpt lon="7.365762" lat="45.921283"><ele>2654.25</ele></trkpt>
   <trkpt lon="7.365711" lat="45.921196"><ele>2654.75</ele></trkpt>
   <trkpt lon="7.365709" lat="45.921164"><ele>2655.0</ele></trkpt>
   <trkpt lon="7.365693" lat="45.921138"><ele>2655.25</ele></trkpt>
   <trkpt lon="7.365678" lat="45.921064"><ele>2655.5</ele></trkpt>
   <trkpt lon="7.365563" lat="45.920837"><ele>2656.75</ele></trkpt>
   <trkpt lon="7.365515" lat="45.920769"><ele>2656.25</ele></trkpt>
   <trkpt lon="7.365508" lat="45.920723"><ele>2656.25</ele></trkpt>
   <trkpt lon="7.365480" lat="45.920692"><ele>2656.0</ele></trkpt>
   <trkpt lon="7.365471" lat="45.920643"><ele>2656.0</ele></trkpt>
   <trkpt lon="7.365460" lat="45.920624"><ele>2656.0</ele></trkpt>
   <trkpt lon="7.365457" lat="45.920570"><ele>2656.25</ele></trkpt>
   <trkpt lon="7.365441" lat="45.920549"><ele>2656.0</ele></trkpt>
   <trkpt lon="7.365429" lat="45.920500"><ele>2655.75</ele></trkpt>
   <trkpt lon="7.365342" lat="45.920342"><ele>2655.0</ele></trkpt>
   <trkpt lon="7.365317" lat="45.920243"><ele>2654.5</ele></trkpt>
   <trkpt lon="7.365257" lat="45.920151"><ele>2654.25</ele></trkpt>
   <trkpt lon="7.365170" lat="45.920063"><ele>2654.5</ele></trkpt>
   <trkpt lon="7.365004" lat="45.919909"><ele>2654.75</ele></trkpt>
   <trkpt lon="7.364884" lat="45.919815"><ele>2655.5</ele></trkpt>
   <trkpt lon="7.364793" lat="45.919765"><ele>2656.25</ele></trkpt>
   <trkpt lon="7.364769" lat="45.919744"><ele>2656.25</ele></trkpt>
   <trkpt lon="7.364758" lat="45.919716"><ele>2656.25</ele></trkpt>
   <trkpt lon="7.364675" lat="45.919654"><ele>2656.75</ele></trkpt>
   <trkpt lon="7.364595" lat="45.919626"><ele>2657.5</ele></trkpt>
   <trkpt lon="7.364406" lat="45.919543"><ele>2659.25</ele></trkpt>
   <trkpt lon="7.364376" lat="45.919509"><ele>2659.25</ele></trkpt>
   <trkpt lon="7.364348" lat="45.919494"><ele>2659.75</ele></trkpt>
   <trkpt lon="7.364310" lat="45.919457"><ele>2660.0</ele></trkpt>
   <trkpt lon="7.364254" lat="45.919428"><ele>2661.0</ele></trkpt>
   <trkpt lon="7.364225" lat="45.919396"><ele>2661.0</ele></trkpt>
   <trkpt lon="7.364200" lat="45.919382"><ele>2661.5</ele></trkpt>
   <trkpt lon="7.364142" lat="45.919375"><ele>2663.0</ele></trkpt>
   <trkpt lon="7.364117" lat="45.919361"><ele>2663.75</ele></trkpt>
   <trkpt lon="7.364102" lat="45.919329"><ele>2663.25</ele></trkpt>
   <trkpt lon="7.364093" lat="45.919320"><ele>2663.5</ele></trkpt>
   <trkpt lon="7.364048" lat="45.919303"><ele>2664.5</ele></trkpt>
   <trkpt lon="7.364026" lat="45.919269"><ele>2664.25</ele></trkpt>
   <trkpt lon="7.363949" lat="45.919239"><ele>2665.75</ele></trkpt>
   <trkpt lon="7.363926" lat="45.919218"><ele>2665.75</ele></trkpt>
   <trkpt lon="7.363877" lat="45.919199"><ele>2666.5</ele></trkpt>
   <trkpt lon="7.363797" lat="45.919139"><ele>2667.0</ele></trkpt>
   <trkpt lon="7.363728" lat="45.919108"><ele>2668.25</ele></trkpt>
   <trkpt lon="7.363710" lat="45.919086"><ele>2668.0</ele></trkpt>
   <trkpt lon="7.363598" lat="45.919013"><ele>2668.75</ele></trkpt>
   <trkpt lon="7.363567" lat="45.919002"><ele>2669.25</ele></trkpt>
   <trkpt lon="7.363516" lat="45.918996"><ele>2670.25</ele></trkpt>
   <trkpt lon="7.363415" lat="45.918859"><ele>2669.0</ele></trkpt>
   <trkpt lon="7.363389" lat="45.918843"><ele>2669.5</ele></trkpt>
   <trkpt lon="7.363361" lat="45.918786"><ele>2669.25</ele></trkpt>
   <trkpt lon="7.363265" lat="45.918689"><ele>2671.0</ele></trkpt>
   <trkpt lon="7.363181" lat="45.918641"><ele>2672.75</ele></trkpt>
   <trkpt lon="7.363095" lat="45.918566"><ele>2673.75</ele></trkpt>
   <trkpt lon="7.363051" lat="45.918548"><ele>2675.0</ele></trkpt>
   <trkpt lon="7.362960" lat="45.918493"><ele>2677.0</ele></trkpt>
   <trkpt lon="7.362902" lat="45.918439"><ele>2677.5</ele></trkpt>
   <trkpt lon="7.362836" lat="45.918397"><ele>2678.75</ele></trkpt>
   <trkpt lon="7.362814" lat="45.918390"><ele>2679.25</ele></trkpt>
   <trkpt lon="7.362759" lat="45.918357"><ele>2680.0</ele></trkpt>
   <trkpt lon="7.362733" lat="45.918336"><ele>2680.25</ele></trkpt>
   <trkpt lon="7.362685" lat="45.918329"><ele>2681.5</ele></trkpt>
   <trkpt lon="7.362567" lat="45.918243"><ele>2683.75</ele></trkpt>
   <trkpt lon="7.362522" lat="45.918242"><ele>2685.25</ele></trkpt>
   <trkpt lon="7.362500" lat="45.918226"><ele>2685.75</ele></trkpt>
   <trkpt lon="7.362481" lat="45.918195"><ele>2686.0</ele></trkpt>
   <trkpt lon="7.362492" lat="45.918092"><ele>2684.5</ele></trkpt>
   <trkpt lon="7.362489" lat="45.918048"><ele>2684.0</ele></trkpt>
   <trkpt lon="7.362481" lat="45.918034"><ele>2684.0</ele></trkpt>
   <trkpt lon="7.362420" lat="45.918002"><ele>2685.25</ele></trkpt>
   <trkpt lon="7.362133" lat="45.917889"><ele>2690.75</ele></trkpt>
   <trkpt lon="7.362096" lat="45.917842"><ele>2690.75</ele></trkpt>
   <trkpt lon="7.362074" lat="45.917826"><ele>2691.25</ele></trkpt>
   <trkpt lon="7.362030" lat="45.917811"><ele>2692.5</ele></trkpt>
   <trkpt lon="7.361985" lat="45.917766"><ele>2693.0</ele></trkpt>
   <trkpt lon="7.361884" lat="45.917729"><ele>2695.25</ele></trkpt>
   <trkpt lon="7.361833" lat="45.917692"><ele>2695.75</ele></trkpt>
   <trkpt lon="7.361783" lat="45.917670"><ele>2696.5</ele></trkpt>
   <trkpt lon="7.361759" lat="45.917631"><ele>2695.5</ele></trkpt>
   <trkpt lon="7.361677" lat="45.917536"><ele>2693.5</ele></trkpt>
   <trkpt lon="7.361646" lat="45.917514"><ele>2693.5</ele></trkpt>
   <trkpt lon="7.361604" lat="45.917501"><ele>2694.75</ele></trkpt>
   <trkpt lon="7.361568" lat="45.917455"><ele>2694.75</ele></trkpt>
   <trkpt lon="7.361510" lat="45.917421"><ele>2695.75</ele></trkpt>
   <trkpt lon="7.361462" lat="45.917381"><ele>2696.0</ele></trkpt>
   <trkpt lon="7.361358" lat="45.917365"><ele>2698.5</ele></trkpt>
   <trkpt lon="7.361305" lat="45.917346"><ele>2699.25</ele></trkpt>
   <trkpt lon="7.361286" lat="45.917330"><ele>2699.0</ele></trkpt>
   <trkpt lon="7.361237" lat="45.917307"><ele>2699.5</ele></trkpt>
   <trkpt lon="7.361214" lat="45.917306"><ele>2700.0</ele></trkpt>
   <trkpt lon="7.361131" lat="45.917258"><ele>2700.0</ele></trkpt>
   <trkpt lon="7.361109" lat="45.917226"><ele>2699.25</ele></trkpt>
   <trkpt lon="7.361083" lat="45.917210"><ele>2699.5</ele></trkpt>
   <trkpt lon="7.360913" lat="45.917162"><ele>2703.0</ele></trkpt>
   <trkpt lon="7.360801" lat="45.917095"><ele>2703.75</ele></trkpt>
   <trkpt lon="7.360741" lat="45.917078"><ele>2704.5</ele></trkpt>
   <trkpt lon="7.360599" lat="45.917072"><ele>2708.0</ele></trkpt>
   <trkpt lon="7.360579" lat="45.917057"><ele>2708.0</ele></trkpt>
   <trkpt lon="7.360556" lat="45.916997"><ele>2706.5</ele></trkpt>
   <trkpt lon="7.360541" lat="45.916981"><ele>2706.5</ele></trkpt>
   <trkpt lon="7.360497" lat="45.916958"><ele>2707.5</ele></trkpt>
   <trkpt lon="7.360448" lat="45.916919"><ele>2708.25</ele></trkpt>
   <trkpt lon="7.360297" lat="45.916847"><ele>2711.25</ele></trkpt>
   <trkpt lon="7.360225" lat="45.916801"><ele>2711.75</ele></trkpt>
   <trkpt lon="7.360076" lat="45.916732"><ele>2712.75</ele></trkpt>
   <trkpt lon="7.359990" lat="45.916666"><ele>2711.0</ele></trkpt>
   <trkpt lon="7.359890" lat="45.916615"><ele>2712.0</ele></trkpt>
   <trkpt lon="7.359800" lat="45.916586"><ele>2713.0</ele></trkpt>
   <trkpt lon="7.359773" lat="45.916572"><ele>2713.25</ele></trkpt>
   <trkpt lon="7.359724" lat="45.916524"><ele>2713.25</ele></trkpt>
   <trkpt lon="7.359687" lat="45.916505"><ele>2713.75</ele></trkpt>
   <trkpt lon="7.359663" lat="45.916470"><ele>2713.5</ele></trkpt>
   <trkpt lon="7.359644" lat="45.916459"><ele>2713.5</ele></trkpt>
   <trkpt lon="7.359571" lat="45.916441"><ele>2714.5</ele></trkpt>
   <trkpt lon="7.359449" lat="45.916275"><ele>2712.75</ele></trkpt>
   <trkpt lon="7.359391" lat="45.916211"><ele>2713.25</ele></trkpt>
   <trkpt lon="7.359281" lat="45.916152"><ele>2715.0</ele></trkpt>
   <trkpt lon="7.359280" lat="45.916096"><ele>2714.0</ele></trkpt>
   <trkpt lon="7.359239" lat="45.916044"><ele>2714.5</ele></trkpt>
   <trkpt lon="7.359168" lat="45.915919"><ele>2714.75</ele></trkpt>
   <trkpt lon="7.358998" lat="45.915749"><ele>2717.0</ele></trkpt>
   <trkpt lon="7.358914" lat="45.915629"><ele>2716.75</ele></trkpt>
   <trkpt lon="7.358881" lat="45.915597"><ele>2717.0</ele></trkpt>
   <trkpt lon="7.358844" lat="45.915582"><ele>2717.5</ele></trkpt>
   <trkpt lon="7.358818" lat="45.915551"><ele>2717.5</ele></trkpt>
   <trkpt lon="7.358699" lat="45.915516"><ele>2720.25</ele></trkpt>
   <trkpt lon="7.358677" lat="45.915473"><ele>2721.0</ele></trkpt>
   <trkpt lon="7.358741" lat="45.915444"><ele>2719.75</ele></trkpt>
   <trkpt lon="7.358695" lat="45.915366"><ele>2721.25</ele></trkpt>
   <trkpt lon="7.358665" lat="45.915254"><ele>2722.5</ele></trkpt>
   <trkpt lon="7.358639" lat="45.915226"><ele>2723.0</ele></trkpt>
   <trkpt lon="7.358552" lat="45.915163"><ele>2725.25</ele></trkpt>
   <trkpt lon="7.358511" lat="45.915047"><ele>2726.25</ele></trkpt>
   <trkpt lon="7.358273" lat="45.914807"><ele>2731.75</ele></trkpt>
   <trkpt lon="7.358209" lat="45.914731"><ele>2732.75</ele></trkpt>
   <trkpt lon="7.358172" lat="45.914668"><ele>2734.0</ele></trkpt>
   <trkpt lon="7.358070" lat="45.914641"><ele>2736.5</ele></trkpt>
   <trkpt lon="7.358032" lat="45.914582"><ele>2738.0</ele></trkpt>
   <trkpt lon="7.358015" lat="45.914503"><ele>2739.0</ele></trkpt>
   <trkpt lon="7.357933" lat="45.914383"><ele>2741.0</ele></trkpt>
   <trkpt lon="7.357789" lat="45.914218"><ele>2743.0</ele></trkpt>
   <trkpt lon="7.357767" lat="45.914153"><ele>2743.25</ele></trkpt>
   <trkpt lon="7.357716" lat="45.914078"><ele>2745.0</ele></trkpt>
   <trkpt lon="7.357658" lat="45.914057"><ele>2746.5</ele></trkpt>
   <trkpt lon="7.357560" lat="45.913919"><ele>2748.75</ele></trkpt>
   <trkpt lon="7.357587" lat="45.913738"><ele>2752.0</ele></trkpt>
   <trkpt lon="7.357645" lat="45.913726"><ele>2751.0</ele></trkpt>
   <trkpt lon="7.357693" lat="45.913694"><ele>2750.75</ele></trkpt>
   <trkpt lon="7.357724" lat="45.913691"><ele>2750.25</ele></trkpt>
   <trkpt lon="7.357755" lat="45.913650"><ele>2750.5</ele></trkpt>
   <trkpt lon="7.357760" lat="45.913578"><ele>2751.75</ele></trkpt>
   <trkpt lon="7.357786" lat="45.913548"><ele>2751.75</ele></trkpt>
   <trkpt lon="7.357786" lat="45.913493"><ele>2752.75</ele></trkpt>
   <trkpt lon="7.357770" lat="45.913428"><ele>2754.25</ele></trkpt>
   <trkpt lon="7.357729" lat="45.913398"><ele>2755.75</ele></trkpt>
   <trkpt lon="7.357722" lat="45.913385"><ele>2756.25</ele></trkpt>
   <trkpt lon="7.357742" lat="45.913360"><ele>2756.25</ele></trkpt>
   <trkpt lon="7.357737" lat="45.913346"><ele>2756.5</ele></trkpt>
   <trkpt lon="7.357710" lat="45.913321"><ele>2757.25</ele></trkpt>
   <trkpt lon="7.357577" lat="45.913314"><ele>2760.25</ele></trkpt>
   <trkpt lon="7.357517" lat="45.913322"><ele>2761.5</ele></trkpt>
   <trkpt lon="7.357484" lat="45.913319"><ele>2762.25</ele></trkpt>
   <trkpt lon="7.357413" lat="45.913273"><ele>2764.25</ele></trkpt>
   <trkpt lon="7.357378" lat="45.913211"><ele>2766.0</ele></trkpt>
   <trkpt lon="7.357396" lat="45.913193"><ele>2766.0</ele></trkpt>
   <trkpt lon="7.357409" lat="45.913155"><ele>2766.0</ele></trkpt>
   <trkpt lon="7.357438" lat="45.913012"><ele>2767.25</ele></trkpt>
   <trkpt lon="7.357379" lat="45.912876"><ele>2771.25</ele></trkpt>
   <trkpt lon="7.357332" lat="45.912807"><ele>2773.0</ele></trkpt>
   <trkpt lon="7.357341" lat="45.912629"><ele>2776.75</ele></trkpt>
   <trkpt lon="7.357361" lat="45.912553"><ele>2778.25</ele></trkpt>
   <trkpt lon="7.357355" lat="45.912509"><ele>2779.25</ele></trkpt>
   <trkpt lon="7.357315" lat="45.912438"><ele>2782.0</ele></trkpt>
   <trkpt lon="7.357310" lat="45.912348"><ele>2784.5</ele></trkpt>
   <trkpt lon="7.357347" lat="45.912311"><ele>2785.0</ele></trkpt>
   <trkpt lon="7.357345" lat="45.912256"><ele>2786.5</ele></trkpt>
   <trkpt lon="7.357363" lat="45.912203"><ele>2787.75</ele></trkpt>
   <trkpt lon="7.357347" lat="45.912143"><ele>2789.25</ele></trkpt>
   <trkpt lon="7.357360" lat="45.912091"><ele>2790.25</ele></trkpt>
   <trkpt lon="7.357408" lat="45.912035"><ele>2790.75</ele></trkpt>
   <trkpt lon="7.357430" lat="45.911854"><ele>2792.0</ele></trkpt>
   <trkpt lon="7.357299" lat="45.911738"><ele>2795.75</ele></trkpt>
   <trkpt lon="7.357257" lat="45.911721"><ele>2797.25</ele></trkpt>
   <trkpt lon="7.357247" lat="45.911709"><ele>2797.5</ele></trkpt>
   <trkpt lon="7.357223" lat="45.911659"><ele>2798.75</ele></trkpt>
   <trkpt lon="7.357222" lat="45.911559"><ele>2798.5</ele></trkpt>
   <trkpt lon="7.357231" lat="45.911531"><ele>2798.0</ele></trkpt>
   <trkpt lon="7.357203" lat="45.911467"><ele>2798.75</ele></trkpt>
   <trkpt lon="7.357116" lat="45.911341"><ele>2799.5</ele></trkpt>
   <trkpt lon="7.357107" lat="45.911307"><ele>2799.25</ele></trkpt>
   <trkpt lon="7.357044" lat="45.911216"><ele>2799.5</ele></trkpt>
   <trkpt lon="7.357005" lat="45.911181"><ele>2800.5</ele></trkpt>
   <trkpt lon="7.356968" lat="45.911166"><ele>2801.5</ele></trkpt>
   <trkpt lon="7.356910" lat="45.911118"><ele>2803.0</ele></trkpt>
   <trkpt lon="7.356870" lat="45.911101"><ele>2803.75</ele></trkpt>
   <trkpt lon="7.356729" lat="45.910906"><ele>2801.75</ele></trkpt>
   <trkpt lon="7.356668" lat="45.910843"><ele>2802.0</ele></trkpt>
   <trkpt lon="7.356581" lat="45.910573"><ele>2803.5</ele></trkpt>
   <trkpt lon="7.356507" lat="45.910550"><ele>2804.0</ele></trkpt>
   <trkpt lon="7.356180" lat="45.910312"><ele>2802.5</ele></trkpt>
   <trkpt lon="7.356076" lat="45.910246"><ele>2801.75</ele></trkpt>
   <trkpt lon="7.355738" lat="45.910155"><ele>2802.25</ele></trkpt>
   <trkpt lon="7.355627" lat="45.910009"><ele>2798.5</ele></trkpt>
   <trkpt lon="7.355473" lat="45.909943"><ele>2798.75</ele></trkpt>
   <trkpt lon="7.355358" lat="45.909836"><ele>2797.25</ele></trkpt>
   <trkpt lon="7.355269" lat="45.909700"><ele>2794.5</ele></trkpt>
   <trkpt lon="7.355225" lat="45.909526"><ele>2791.25</ele></trkpt>
   <trkpt lon="7.355165" lat="45.909385"><ele>2788.75</ele></trkpt>
   <trkpt lon="7.355095" lat="45.909306"><ele>2787.5</ele></trkpt>
   <trkpt lon="7.354978" lat="45.909254"><ele>2786.0</ele></trkpt>
   <trkpt lon="7.354921" lat="45.909190"><ele>2784.25</ele></trkpt>
   <trkpt lon="7.354852" lat="45.909047"><ele>2780.75</ele></trkpt>
   <trkpt lon="7.354805" lat="45.908994"><ele>2779.0</ele></trkpt>
   <trkpt lon="7.354753" lat="45.908971"><ele>2777.75</ele></trkpt>
   <trkpt lon="7.354703" lat="45.908921"><ele>2775.5</ele></trkpt>
   <trkpt lon="7.354517" lat="45.908899"><ele>2773.0</ele></trkpt>
   <trkpt lon="7.354322" lat="45.908841"><ele>2769.5</ele></trkpt>
   <trkpt lon="7.353934" lat="45.908710"><ele>2760.0</ele></trkpt>
   <trkpt lon="7.353114" lat="45.908467"><ele>2748.5</ele></trkpt>
   <trkpt lon="7.352837" lat="45.908356"><ele>2741.25</ele></trkpt>
   <trkpt lon="7.352647" lat="45.908338"><ele>2741.0</ele></trkpt>
   <trkpt lon="7.351668" lat="45.907893"><ele>2731.0</ele></trkpt>
   <trkpt lon="7.351476" lat="45.907840"><ele>2731.75</ele></trkpt>
   <trkpt lon="7.351101" lat="45.907593"><ele>2724.75</ele></trkpt>
   <trkpt lon="7.350994" lat="45.907546"><ele>2724.0</ele></trkpt>
   <trkpt lon="7.350601" lat="45.907239"><ele>2721.5</ele></trkpt>
   <trkpt lon="7.350136" lat="45.906989"><ele>2722.0</ele></trkpt>
   <trkpt lon="7.350065" lat="45.906860"><ele>2720.0</ele></trkpt>
   <trkpt lon="7.350017" lat="45.906603"><ele>2714.5</ele></trkpt>
   <trkpt lon="7.349897" lat="45.906441"><ele>2710.75</ele></trkpt>
   <trkpt lon="7.349660" lat="45.906351"><ele>2707.25</ele></trkpt>
   <trkpt lon="7.349376" lat="45.906308"><ele>2705.0</ele></trkpt>
   <trkpt lon="7.349081" lat="45.906239"><ele>2700.5</ele></trkpt>
   <trkpt lon="7.348746" lat="45.906138"><ele>2693.25</ele></trkpt>
   <trkpt lon="7.348404" lat="45.905987"><ele>2687.25</ele></trkpt>
   <trkpt lon="7.348124" lat="45.905789"><ele>2681.0</ele></trkpt>
   <trkpt lon="7.347740" lat="45.905352"><ele>2671.5</ele></trkpt>
   <trkpt lon="7.347056" lat="45.904665"><ele>2652.75</ele></trkpt>
   <trkpt lon="7.347051" lat="45.904467"><ele>2647.0</ele></trkpt>
   <trkpt lon="7.346895" lat="45.904363"><ele>2641.5</ele></trkpt>
   <trkpt lon="7.346833" lat="45.904266"><ele>2636.75</ele></trkpt>
   <trkpt lon="7.346865" lat="45.904139"><ele>2631.0</ele></trkpt>
   <trkpt lon="7.346962" lat="45.904036"><ele>2628.75</ele></trkpt>
   <trkpt lon="7.347378" lat="45.903978"><ele>2627.5</ele></trkpt>
   <trkpt lon="7.347478" lat="45.903902"><ele>2626.75</ele></trkpt>
   <trkpt lon="7.347469" lat="45.903843"><ele>2624.75</ele></trkpt>
   <trkpt lon="7.347390" lat="45.903813"><ele>2623.0</ele></trkpt>
   <trkpt lon="7.347393" lat="45.903749"><ele>2621.25</ele></trkpt>
   <trkpt lon="7.347759" lat="45.903621"><ele>2620.0</ele></trkpt>
   <trkpt lon="7.347819" lat="45.903495"><ele>2619.75</ele></trkpt>
   <trkpt lon="7.347816" lat="45.903342"><ele>2619.25</ele></trkpt>
   <trkpt lon="7.347759" lat="45.903269"><ele>2617.75</ele></trkpt>
   <trkpt lon="7.347720" lat="45.903155"><ele>2615.75</ele></trkpt>
   <trkpt lon="7.347771" lat="45.903091"><ele>2616.0</ele></trkpt>
   <trkpt lon="7.347882" lat="45.902911"><ele>2612.5</ele></trkpt>
   <trkpt lon="7.347807" lat="45.902837"><ele>2609.75</ele></trkpt>
   <trkpt lon="7.347707" lat="45.902708"><ele>2607.0</ele></trkpt>
   <trkpt lon="7.347343" lat="45.902628"><ele>2597.5</ele></trkpt>
   <trkpt lon="7.347230" lat="45.902568"><ele>2593.0</ele></trkpt>
   <trkpt lon="7.347191" lat="45.902474"><ele>2592.0</ele></trkpt>
   <trkpt lon="7.347129" lat="45.902419"><ele>2592.0</ele></trkpt>
   <trkpt lon="7.346926" lat="45.902435"><ele>2588.25</ele></trkpt>
   <trkpt lon="7.346733" lat="45.902485"><ele>2584.0</ele></trkpt>
   <trkpt lon="7.346666" lat="45.902448"><ele>2581.5</ele></trkpt>
   <trkpt lon="7.346700" lat="45.902251"><ele>2578.0</ele></trkpt>
   <trkpt lon="7.346585" lat="45.902109"><ele>2568.75</ele></trkpt>
   <trkpt lon="7.346608" lat="45.901990"><ele>2565.5</ele></trkpt>
   <trkpt lon="7.346721" lat="45.901872"><ele>2564.0</ele></trkpt>
   <trkpt lon="7.346751" lat="45.901690"><ele>2555.75</ele></trkpt>
   <trkpt lon="7.346813" lat="45.901635"><ele>2556.0</ele></trkpt>
   <trkpt lon="7.346854" lat="45.901473"><ele>2551.0</ele></trkpt>
   <trkpt lon="7.346923" lat="45.901405"><ele>2551.5</ele></trkpt>
   <trkpt lon="7.346964" lat="45.901162"><ele>2544.25</ele></trkpt>
   <trkpt lon="7.346707" lat="45.901317"><ele>2539.25</ele></trkpt>
   <trkpt lon="7.346495" lat="45.901342"><ele>2530.25</ele></trkpt>
   <trkpt lon="7.346319" lat="45.901430"><ele>2527.25</ele></trkpt>
   <trkpt lon="7.345756" lat="45.901618"><ele>2515.5</ele></trkpt>
   <trkpt lon="7.345760" lat="45.901561"><ele>2513.25</ele></trkpt>
   <trkpt lon="7.345687" lat="45.901558"><ele>2510.25</ele></trkpt>
   <trkpt lon="7.345401" lat="45.901683"><ele>2506.0</ele></trkpt>
   <trkpt lon="7.345348" lat="45.901680"><ele>2504.25</ele></trkpt>
   <trkpt lon="7.345418" lat="45.901595"><ele>2503.0</ele></trkpt>
   <trkpt lon="7.345426" lat="45.901533"><ele>2500.5</ele></trkpt>
   <trkpt lon="7.345344" lat="45.901558"><ele>2499.5</ele></trkpt>
   <trkpt lon="7.345165" lat="45.901555"><ele>2494.5</ele></trkpt>
   <trkpt lon="7.345197" lat="45.901487"><ele>2493.0</ele></trkpt>
   <trkpt lon="7.345079" lat="45.901473"><ele>2489.75</ele></trkpt>
   <trkpt lon="7.344966" lat="45.901559"><ele>2489.25</ele></trkpt>
   <trkpt lon="7.344902" lat="45.901402"><ele>2484.0</ele></trkpt>
   <trkpt lon="7.344820" lat="45.901351"><ele>2481.25</ele></trkpt>
   <trkpt lon="7.344792" lat="45.901209"><ele>2477.75</ele></trkpt>
   <trkpt lon="7.344726" lat="45.901169"><ele>2476.0</ele></trkpt>
   <trkpt lon="7.344561" lat="45.900933"><ele>2472.0</ele></trkpt>
   <trkpt lon="7.344369" lat="45.900769"><ele>2469.0</ele></trkpt>
   <trkpt lon="7.344039" lat="45.900408"><ele>2463.25</ele></trkpt>
   <trkpt lon="7.343606" lat="45.899826"><ele>2451.0</ele></trkpt>
   <trkpt lon="7.343341" lat="45.899627"><ele>2448.0</ele></trkpt>
   <trkpt lon="7.343219" lat="45.899400"><ele>2445.0</ele></trkpt>
   <trkpt lon="7.343104" lat="45.899318"><ele>2444.0</ele></trkpt>
   <trkpt lon="7.343057" lat="45.899284"><ele>2443.75</ele></trkpt>
   <trkpt lon="7.343060" lat="45.899096"><ele>2442.25</ele></trkpt>
   <trkpt lon="7.343007" lat="45.898918"><ele>2441.0</ele></trkpt>
   <trkpt lon="7.342797" lat="45.898532"><ele>2438.0</ele></trkpt>
   <trkpt lon="7.342641" lat="45.898293"><ele>2436.25</ele></trkpt>
   <trkpt lon="7.342602" lat="45.898168"><ele>2435.5</ele></trkpt>
   <trkpt lon="7.342635" lat="45.898067"><ele>2435.0</ele></trkpt>
   <trkpt lon="7.342647" lat="45.898029"><ele>2434.5</ele></trkpt>
   <trkpt lon="7.342553" lat="45.897772"><ele>2430.5</ele></trkpt>
   <trkpt lon="7.342641" lat="45.896692"><ele>2421.5</ele></trkpt>
   <trkpt lon="7.342615" lat="45.896536"><ele>2420.25</ele></trkpt>
   <trkpt lon="7.342609" lat="45.896501"><ele>2419.75</ele></trkpt>
   <trkpt lon="7.342564" lat="45.896246"><ele>2418.5</ele></trkpt>
   <trkpt lon="7.342625" lat="45.896155"><ele>2417.25</ele></trkpt>
   <trkpt lon="7.342756" lat="45.896033"><ele>2415.5</ele></trkpt>
   <trkpt lon="7.342788" lat="45.895917"><ele>2415.5</ele></trkpt>
   <trkpt lon="7.342739" lat="45.895687"><ele>2415.25</ele></trkpt>
   <trkpt lon="7.342833" lat="45.895102"><ele>2412.25</ele></trkpt>
   <trkpt lon="7.342956" lat="45.894937"><ele>2410.0</ele></trkpt>
   <trkpt lon="7.343151" lat="45.894792"><ele>2406.25</ele></trkpt>
   <trkpt lon="7.343302" lat="45.894469"><ele>2401.5</ele></trkpt>
   <trkpt lon="7.343404" lat="45.894125"><ele>2396.0</ele></trkpt>
   <trkpt lon="7.343373" lat="45.893909"><ele>2391.75</ele></trkpt>
   <trkpt lon="7.343094" lat="45.893528"><ele>2388.5</ele></trkpt>
   <trkpt lon="7.343049" lat="45.893321"><ele>2385.75</ele></trkpt>
   <trkpt lon="7.342815" lat="45.893119"><ele>2384.5</ele></trkpt>
   <trkpt lon="7.341886" lat="45.892499"><ele>2381.75</ele></trkpt>
   <trkpt lon="7.341521" lat="45.892180"><ele>2383.5</ele></trkpt>
   <trkpt lon="7.341156" lat="45.891817"><ele>2382.25</ele></trkpt>
   <trkpt lon="7.341063" lat="45.891817"><ele>2382.5</ele></trkpt>
   <trkpt lon="7.340974" lat="45.891912"><ele>2383.75</ele></trkpt>
   <trkpt lon="7.340840" lat="45.891967"><ele>2383.75</ele></trkpt>
   <trkpt lon="7.340662" lat="45.891953"><ele>2385.0</ele></trkpt>
   <trkpt lon="7.340432" lat="45.891858"><ele>2385.5</ele></trkpt>
   <trkpt lon="7.340223" lat="45.891637"><ele>2384.0</ele></trkpt>
   <trkpt lon="7.339998" lat="45.891486"><ele>2384.0</ele></trkpt>
   <trkpt lon="7.339820" lat="45.891303"><ele>2386.5</ele></trkpt>
   <trkpt lon="7.339635" lat="45.891078"><ele>2387.0</ele></trkpt>
   <trkpt lon="7.339571" lat="45.890969"><ele>2387.5</ele></trkpt>
   <trkpt lon="7.339329" lat="45.890833"><ele>2385.75</ele></trkpt>
   <trkpt lon="7.339092" lat="45.890644"><ele>2383.5</ele></trkpt>
   <trkpt lon="7.338952" lat="45.890523"><ele>2379.75</ele></trkpt>
   <trkpt lon="7.338892" lat="45.890337"><ele>2378.0</ele></trkpt>
   <trkpt lon="7.338792" lat="45.890112"><ele>2374.0</ele></trkpt>
   <trkpt lon="7.338775" lat="45.889843"><ele>2371.75</ele></trkpt>
   <trkpt lon="7.338666" lat="45.889500"><ele>2369.5</ele></trkpt>
   <trkpt lon="7.338527" lat="45.889326"><ele>2368.5</ele></trkpt>
   <trkpt lon="7.338340" lat="45.889193"><ele>2360.0</ele></trkpt>
   <trkpt lon="7.338192" lat="45.889034"><ele>2358.25</ele></trkpt>
   <trkpt lon="7.338137" lat="45.888919"><ele>2357.75</ele></trkpt>
   <trkpt lon="7.338069" lat="45.888833"><ele>2356.5</ele></trkpt>
   <trkpt lon="7.337958" lat="45.888738"><ele>2356.25</ele></trkpt>
   <trkpt lon="7.337831" lat="45.888662"><ele>2354.75</ele></trkpt>
   <trkpt lon="7.337672" lat="45.888596"><ele>2352.5</ele></trkpt>
   <trkpt lon="7.337379" lat="45.888532"><ele>2346.5</ele></trkpt>
   <trkpt lon="7.337010" lat="45.888484"><ele>2343.75</ele></trkpt>
   <trkpt lon="7.336335" lat="45.888411"><ele>2339.25</ele></trkpt>
   <trkpt lon="7.335877" lat="45.888340"><ele>2339.0</ele></trkpt>
   <trkpt lon="7.335444" lat="45.888230"><ele>2336.5</ele></trkpt>
   <trkpt lon="7.335096" lat="45.888084"><ele>2336.0</ele></trkpt>
   <trkpt lon="7.334588" lat="45.887829"><ele>2336.0</ele></trkpt>
   <trkpt lon="7.334359" lat="45.887802"><ele>2335.25</ele></trkpt>
   <trkpt lon="7.334173" lat="45.887769"><ele>2334.0</ele></trkpt>
   <trkpt lon="7.333824" lat="45.887616"><ele>2333.25</ele></trkpt>
   <trkpt lon="7.333307" lat="45.887315"><ele>2325.75</ele></trkpt>
   <trkpt lon="7.333154" lat="45.887258"><ele>2323.0</ele></trkpt>
   <trkpt lon="7.332916" lat="45.887261"><ele>2322.0</ele></trkpt>
   <trkpt lon="7.332702" lat="45.887255"><ele>2321.5</ele></trkpt>
   <trkpt lon="7.332509" lat="45.887205"><ele>2318.75</ele></trkpt>
   <trkpt lon="7.332220" lat="45.887078"><ele>2316.75</ele></trkpt>
   <trkpt lon="7.332008" lat="45.887034"><ele>2315.0</ele></trkpt>
   <trkpt lon="7.331834" lat="45.887028"><ele>2315.25</ele></trkpt>
   <trkpt lon="7.331702" lat="45.886987"><ele>2315.0</ele></trkpt>
   <trkpt lon="7.331541" lat="45.886818"><ele>2313.0</ele></trkpt>
   <trkpt lon="7.331346" lat="45.886650"><ele>2311.25</ele></trkpt>
   <trkpt lon="7.331263" lat="45.886604"><ele>2311.75</ele></trkpt>
   <trkpt lon="7.331292" lat="45.886566"><ele>2311.25</ele></trkpt>
   <trkpt lon="7.331206" lat="45.886505"><ele>2311.0</ele></trkpt>
   <trkpt lon="7.330895" lat="45.886362"><ele>2309.25</ele></trkpt>
   <trkpt lon="7.330763" lat="45.886292"><ele>2309.25</ele></trkpt>
   <trkpt lon="7.330722" lat="45.886221"><ele>2308.75</ele></trkpt>
   <trkpt lon="7.330508" lat="45.886153"><ele>2306.5</ele></trkpt>
   <trkpt lon="7.330344" lat="45.886121"><ele>2304.5</ele></trkpt>
   <trkpt lon="7.330215" lat="45.886104"><ele>2303.0</ele></trkpt>
   <trkpt lon="7.330083" lat="45.886041"><ele>2301.0</ele></trkpt>
   <trkpt lon="7.329998" lat="45.885986"><ele>2299.25</ele></trkpt>
   <trkpt lon="7.329910" lat="45.885991"><ele>2296.25</ele></trkpt>
   <trkpt lon="7.329657" lat="45.885944"><ele>2286.75</ele></trkpt>
   <trkpt lon="7.329566" lat="45.885888"><ele>2282.5</ele></trkpt>
   <trkpt lon="7.329381" lat="45.885929"><ele>2280.25</ele></trkpt>
   <trkpt lon="7.329299" lat="45.885937"><ele>2279.0</ele></trkpt>
   <trkpt lon="7.329238" lat="45.885920"><ele>2276.75</ele></trkpt>
   <trkpt lon="7.329088" lat="45.885945"><ele>2275.5</ele></trkpt>
   <trkpt lon="7.328771" lat="45.885918"><ele>2268.0</ele></trkpt>
   <trkpt lon="7.328539" lat="45.885969"><ele>2265.5</ele></trkpt>
   <trkpt lon="7.328434" lat="45.885935"><ele>2262.5</ele></trkpt>
   <trkpt lon="7.328340" lat="45.885882"><ele>2259.0</ele></trkpt>
   <trkpt lon="7.328286" lat="45.885863"><ele>2258.5</ele></trkpt>
   <trkpt lon="7.328228" lat="45.885843"><ele>2258.0</ele></trkpt>
   <trkpt lon="7.328164" lat="45.885798"><ele>2256.25</ele></trkpt>
   <trkpt lon="7.328067" lat="45.885765"><ele>2255.0</ele></trkpt>
   <trkpt lon="7.327956" lat="45.885755"><ele>2256.75</ele></trkpt>
   <trkpt lon="7.327689" lat="45.885612"><ele>2253.25</ele></trkpt>
   <trkpt lon="7.327439" lat="45.885492"><ele>2250.25</ele></trkpt>
   <trkpt lon="7.327201" lat="45.885422"><ele>2248.25</ele></trkpt>
   <trkpt lon="7.327119" lat="45.885389"><ele>2247.5</ele></trkpt>
   <trkpt lon="7.327037" lat="45.885334"><ele>2245.75</ele></trkpt>
   <trkpt lon="7.326926" lat="45.885295"><ele>2246.5</ele></trkpt>
   <trkpt lon="7.326779" lat="45.885191"><ele>2245.25</ele></trkpt>
   <trkpt lon="7.326720" lat="45.885130"><ele>2243.25</ele></trkpt>
   <trkpt lon="7.326635" lat="45.885095"><ele>2242.75</ele></trkpt>
   <trkpt lon="7.326547" lat="45.885079"><ele>2242.5</ele></trkpt>
   <trkpt lon="7.326447" lat="45.885005"><ele>2238.75</ele></trkpt>
   <trkpt lon="7.326371" lat="45.884985"><ele>2238.5</ele></trkpt>
   <trkpt lon="7.326301" lat="45.884999"><ele>2240.0</ele></trkpt>
   <trkpt lon="7.326253" lat="45.884996"><ele>2240.75</ele></trkpt>
   <trkpt lon="7.326201" lat="45.884993"><ele>2241.25</ele></trkpt>
   <trkpt lon="7.326142" lat="45.884940"><ele>2240.25</ele></trkpt>
   <trkpt lon="7.326119" lat="45.884889"><ele>2238.75</ele></trkpt>
   <trkpt lon="7.326004" lat="45.884805"><ele>2238.75</ele></trkpt>
   <trkpt lon="7.325916" lat="45.884699"><ele>2236.75</ele></trkpt>
   <trkpt lon="7.325761" lat="45.884579"><ele>2235.25</ele></trkpt>
   <trkpt lon="7.325400" lat="45.884352"><ele>2231.5</ele></trkpt>
   <trkpt lon="7.325297" lat="45.884295"><ele>2230.25</ele></trkpt>
   <trkpt lon="7.325215" lat="45.884270"><ele>2230.25</ele></trkpt>
   <trkpt lon="7.325174" lat="45.884217"><ele>2227.5</ele></trkpt>
   <trkpt lon="7.325051" lat="45.884152"><ele>2225.75</ele></trkpt>
   <trkpt lon="7.324916" lat="45.884092"><ele>2226.5</ele></trkpt>
   <trkpt lon="7.324796" lat="45.884025"><ele>2227.0</ele></trkpt>
   <trkpt lon="7.324678" lat="45.883980"><ele>2228.5</ele></trkpt>
   <trkpt lon="7.324596" lat="45.883888"><ele>2226.0</ele></trkpt>
   <trkpt lon="7.324520" lat="45.883823"><ele>2227.0</ele></trkpt>
   <trkpt lon="7.324438" lat="45.883731"><ele>2227.5</ele></trkpt>
   <trkpt lon="7.324399" lat="45.883659"><ele>2226.5</ele></trkpt>
   <trkpt lon="7.324332" lat="45.883592"><ele>2225.5</ele></trkpt>
   <trkpt lon="7.324282" lat="45.883551"><ele>2224.25</ele></trkpt>
   <trkpt lon="7.324173" lat="45.883502"><ele>2223.75</ele></trkpt>
   <trkpt lon="7.323921" lat="45.883427"><ele>2222.5</ele></trkpt>
   <trkpt lon="7.323851" lat="45.883369"><ele>2220.0</ele></trkpt>
   <trkpt lon="7.323669" lat="45.883324"><ele>2216.75</ele></trkpt>
   <trkpt lon="7.323405" lat="45.883324"><ele>2213.5</ele></trkpt>
   <trkpt lon="7.323308" lat="45.883316"><ele>2212.0</ele></trkpt>
   <trkpt lon="7.323079" lat="45.883273"><ele>2209.5</ele></trkpt>
   <trkpt lon="7.322988" lat="45.883278"><ele>2209.25</ele></trkpt>
   <trkpt lon="7.322912" lat="45.883292"><ele>2209.5</ele></trkpt>
   <trkpt lon="7.322774" lat="45.883296"><ele>2208.75</ele></trkpt>
   <trkpt lon="7.322525" lat="45.883249"><ele>2208.0</ele></trkpt>
   <trkpt lon="7.322469" lat="45.883235"><ele>2207.75</ele></trkpt>
   <trkpt lon="7.322431" lat="45.883214"><ele>2207.25</ele></trkpt>
   <trkpt lon="7.322272" lat="45.883204"><ele>2206.75</ele></trkpt>
   <trkpt lon="7.322125" lat="45.883177"><ele>2205.25</ele></trkpt>
   <trkpt lon="7.322052" lat="45.883155"><ele>2204.0</ele></trkpt>
   <trkpt lon="7.321932" lat="45.883079"><ele>2200.0</ele></trkpt>
   <trkpt lon="7.321703" lat="45.882949"><ele>2197.5</ele></trkpt>
   <trkpt lon="7.321615" lat="45.882914"><ele>2196.75</ele></trkpt>
   <trkpt lon="7.321374" lat="45.882742"><ele>2190.5</ele></trkpt>
   <trkpt lon="7.321101" lat="45.882653"><ele>2188.25</ele></trkpt>
   <trkpt lon="7.320911" lat="45.882561"><ele>2185.75</ele></trkpt>
   <trkpt lon="7.320773" lat="45.882505"><ele>2183.5</ele></trkpt>
   <trkpt lon="7.320485" lat="45.882416"><ele>2179.5</ele></trkpt>
   <trkpt lon="7.320411" lat="45.882400"><ele>2179.0</ele></trkpt>
   <trkpt lon="7.320365" lat="45.882336"><ele>2177.25</ele></trkpt>
   <trkpt lon="7.320192" lat="45.882326"><ele>2176.0</ele></trkpt>
   <trkpt lon="7.320022" lat="45.882299"><ele>2173.5</ele></trkpt>
   <trkpt lon="7.319843" lat="45.882318"><ele>2172.75</ele></trkpt>
   <trkpt lon="7.319670" lat="45.882271"><ele>2168.5</ele></trkpt>
   <trkpt lon="7.319306" lat="45.882150"><ele>2157.25</ele></trkpt>
   <trkpt lon="7.319141" lat="45.882058"><ele>2151.75</ele></trkpt>
   <trkpt lon="7.319065" lat="45.882042"><ele>2150.25</ele></trkpt>
   <trkpt lon="7.319056" lat="45.882003"><ele>2148.5</ele></trkpt>
   <trkpt lon="7.319100" lat="45.881976"><ele>2148.0</ele></trkpt>
   <trkpt lon="7.319190" lat="45.881935"><ele>2148.5</ele></trkpt>
   <trkpt lon="7.319182" lat="45.881894"><ele>2149.5</ele></trkpt>
   <trkpt lon="7.319128" lat="45.881864"><ele>2149.0</ele></trkpt>
   <trkpt lon="7.319056" lat="45.881896"><ele>2147.0</ele></trkpt>
   <trkpt lon="7.318843" lat="45.881953"><ele>2143.25</ele></trkpt>
   <trkpt lon="7.318726" lat="45.882012"><ele>2144.0</ele></trkpt>
   <trkpt lon="7.318660" lat="45.882010"><ele>2142.75</ele></trkpt>
   <trkpt lon="7.318621" lat="45.881992"><ele>2141.0</ele></trkpt>
   <trkpt lon="7.318618" lat="45.881943"><ele>2138.0</ele></trkpt>
   <trkpt lon="7.318602" lat="45.881931"><ele>2137.5</ele></trkpt>
   <trkpt lon="7.318649" lat="45.881801"><ele>2137.75</ele></trkpt>
   <trkpt lon="7.318658" lat="45.881745"><ele>2137.5</ele></trkpt>
   <trkpt lon="7.318632" lat="45.881689"><ele>2136.5</ele></trkpt>
   <trkpt lon="7.318590" lat="45.881657"><ele>2135.5</ele></trkpt>
   <trkpt lon="7.318501" lat="45.881657"><ele>2134.0</ele></trkpt>
   <trkpt lon="7.318443" lat="45.881711"><ele>2133.25</ele></trkpt>
   <trkpt lon="7.318322" lat="45.881931"><ele>2132.5</ele></trkpt>
   <trkpt lon="7.318305" lat="45.881947"><ele>2132.25</ele></trkpt>
   <trkpt lon="7.318281" lat="45.881848"><ele>2130.75</ele></trkpt>
   <trkpt lon="7.318283" lat="45.881759"><ele>2130.25</ele></trkpt>
   <trkpt lon="7.318245" lat="45.881681"><ele>2128.75</ele></trkpt>
   <trkpt lon="7.318181" lat="45.881618"><ele>2127.25</ele></trkpt>
   <trkpt lon="7.318033" lat="45.881519"><ele>2123.75</ele></trkpt>
   <trkpt lon="7.317967" lat="45.881467"><ele>2122.0</ele></trkpt>
   <trkpt lon="7.317931" lat="45.881384"><ele>2120.25</ele></trkpt>
   <trkpt lon="7.317952" lat="45.881310"><ele>2120.0</ele></trkpt>
   <trkpt lon="7.317986" lat="45.881246"><ele>2120.5</ele></trkpt>
   <trkpt lon="7.317891" lat="45.880939"><ele>2115.75</ele></trkpt>
   <trkpt lon="7.317786" lat="45.880760"><ele>2111.0</ele></trkpt>
   <trkpt lon="7.317739" lat="45.880539"><ele>2108.5</ele></trkpt>
   <trkpt lon="7.317262" lat="45.880099"><ele>2103.75</ele></trkpt>
   <trkpt lon="7.317205" lat="45.879908"><ele>2100.5</ele></trkpt>
   <trkpt lon="7.317272" lat="45.879774"><ele>2098.5</ele></trkpt>
   <trkpt lon="7.317478" lat="45.879659"><ele>2096.0</ele></trkpt>
   <trkpt lon="7.317742" lat="45.879614"><ele>2095.0</ele></trkpt>
   <trkpt lon="7.318050" lat="45.879589"><ele>2091.75</ele></trkpt>
   <trkpt lon="7.318644" lat="45.879443"><ele>2082.25</ele></trkpt>
   <trkpt lon="7.318688" lat="45.879405"><ele>2081.5</ele></trkpt>
   <trkpt lon="7.318681" lat="45.879372"><ele>2080.5</ele></trkpt>
   <trkpt lon="7.318634" lat="45.879344"><ele>2079.25</ele></trkpt>
   <trkpt lon="7.318499" lat="45.879287"><ele>2077.5</ele></trkpt>
   <trkpt lon="7.318357" lat="45.879153"><ele>2073.5</ele></trkpt>
   <trkpt lon="7.318337" lat="45.879080"><ele>2071.75</ele></trkpt>
   <trkpt lon="7.318357" lat="45.879043"><ele>2071.0</ele></trkpt>
   <trkpt lon="7.318472" lat="45.879011"><ele>2072.0</ele></trkpt>
   <trkpt lon="7.318663" lat="45.878991"><ele>2074.25</ele></trkpt>
   <trkpt lon="7.318852" lat="45.878949"><ele>2075.5</ele></trkpt>
   <trkpt lon="7.318965" lat="45.878951"><ele>2077.0</ele></trkpt>
   <trkpt lon="7.319183" lat="45.879093"><ele>2081.75</ele></trkpt>
   <trkpt lon="7.319246" lat="45.879115"><ele>2082.25</ele></trkpt>
   <trkpt lon="7.319288" lat="45.879110"><ele>2082.25</ele></trkpt>
   <trkpt lon="7.319329" lat="45.879092"><ele>2082.25</ele></trkpt>
   <trkpt lon="7.319379" lat="45.879032"><ele>2082.5</ele></trkpt>
   <trkpt lon="7.319381" lat="45.879004"><ele>2082.5</ele></trkpt>
   <trkpt lon="7.319350" lat="45.878959"><ele>2082.25</ele></trkpt>
   <trkpt lon="7.319139" lat="45.878705"><ele>2081.75</ele></trkpt>
   <trkpt lon="7.318991" lat="45.878573"><ele>2081.5</ele></trkpt>
   <trkpt lon="7.318560" lat="45.878358"><ele>2080.0</ele></trkpt>
   <trkpt lon="7.318443" lat="45.878313"><ele>2081.25</ele></trkpt>
   <trkpt lon="7.318408" lat="45.878230"><ele>2082.0</ele></trkpt>
   <trkpt lon="7.318410" lat="45.878179"><ele>2082.5</ele></trkpt>
   <trkpt lon="7.318317" lat="45.878171"><ele>2081.5</ele></trkpt>
   <trkpt lon="7.318113" lat="45.878126"><ele>2082.5</ele></trkpt>
   <trkpt lon="7.318032" lat="45.878035"><ele>2084.25</ele></trkpt>
   <trkpt lon="7.317935" lat="45.877974"><ele>2085.25</ele></trkpt>
   <trkpt lon="7.317885" lat="45.877919"><ele>2085.25</ele></trkpt>
   <trkpt lon="7.317750" lat="45.877800"><ele>2084.75</ele></trkpt>
   <trkpt lon="7.317645" lat="45.877690"><ele>2088.5</ele></trkpt>
   <trkpt lon="7.317596" lat="45.877642"><ele>2089.25</ele></trkpt>
   <trkpt lon="7.317514" lat="45.877541"><ele>2088.5</ele></trkpt>
   <trkpt lon="7.317385" lat="45.877415"><ele>2083.75</ele></trkpt>
   <trkpt lon="7.317418" lat="45.877351"><ele>2081.0</ele></trkpt>
   <trkpt lon="7.317313" lat="45.877339"><ele>2079.25</ele></trkpt>
   <trkpt lon="7.317326" lat="45.877302"><ele>2077.25</ele></trkpt>
   <trkpt lon="7.317314" lat="45.877246"><ele>2074.25</ele></trkpt>
   <trkpt lon="7.317250" lat="45.877195"><ele>2070.5</ele></trkpt>
   <trkpt lon="7.317188" lat="45.877158"><ele>2069.0</ele></trkpt>
   <trkpt lon="7.317119" lat="45.877071"><ele>2066.5</ele></trkpt>
   <trkpt lon="7.317102" lat="45.877018"><ele>2064.5</ele></trkpt>
   <trkpt lon="7.317033" lat="45.876938"><ele>2062.0</ele></trkpt>
   <trkpt lon="7.317010" lat="45.876886"><ele>2060.5</ele></trkpt>
   <trkpt lon="7.317000" lat="45.876837"><ele>2059.25</ele></trkpt>
   <trkpt lon="7.317020" lat="45.876718"><ele>2055.5</ele></trkpt>
   <trkpt lon="7.317015" lat="45.876682"><ele>2054.25</ele></trkpt>
   <trkpt lon="7.317036" lat="45.876630"><ele>2053.0</ele></trkpt>
   <trkpt lon="7.317082" lat="45.876593"><ele>2052.5</ele></trkpt>
   <trkpt lon="7.317104" lat="45.876561"><ele>2052.0</ele></trkpt>
   <trkpt lon="7.317105" lat="45.876528"><ele>2051.25</ele></trkpt>
   <trkpt lon="7.317094" lat="45.876489"><ele>2050.5</ele></trkpt>
   <trkpt lon="7.316873" lat="45.876305"><ele>2046.75</ele></trkpt>
   <trkpt lon="7.316874" lat="45.876274"><ele>2047.0</ele></trkpt>
   <trkpt lon="7.316828" lat="45.876257"><ele>2046.5</ele></trkpt>
   <trkpt lon="7.316776" lat="45.876218"><ele>2045.25</ele></trkpt>
   <trkpt lon="7.316706" lat="45.876205"><ele>2043.75</ele></trkpt>
   <trkpt lon="7.316684" lat="45.876168"><ele>2042.25</ele></trkpt>
   <trkpt lon="7.316593" lat="45.876162"><ele>2040.75</ele></trkpt>
   <trkpt lon="7.316564" lat="45.876123"><ele>2038.5</ele></trkpt>
   <trkpt lon="7.316305" lat="45.876053"><ele>2034.0</ele></trkpt>
   <trkpt lon="7.316225" lat="45.875976"><ele>2031.5</ele></trkpt>
   <trkpt lon="7.316114" lat="45.875954"><ele>2028.25</ele></trkpt>
   <trkpt lon="7.316054" lat="45.875873"><ele>2024.25</ele></trkpt>
   <trkpt lon="7.315979" lat="45.875860"><ele>2023.25</ele></trkpt>
   <trkpt lon="7.315938" lat="45.875835"><ele>2021.75</ele></trkpt>
   <trkpt lon="7.315880" lat="45.875819"><ele>2021.25</ele></trkpt>
   <trkpt lon="7.315812" lat="45.875748"><ele>2020.5</ele></trkpt>
   <trkpt lon="7.315667" lat="45.875670"><ele>2018.25</ele></trkpt>
   <trkpt lon="7.315660" lat="45.875630"><ele>2017.0</ele></trkpt>
   <trkpt lon="7.315458" lat="45.875574"><ele>2012.75</ele></trkpt>
   <trkpt lon="7.315428" lat="45.875528"><ele>2012.5</ele></trkpt>
   <trkpt lon="7.315391" lat="45.875506"><ele>2012.5</ele></trkpt>
   <trkpt lon="7.315280" lat="45.875384"><ele>2009.5</ele></trkpt>
   <trkpt lon="7.315195" lat="45.875369"><ele>2008.5</ele></trkpt>
   <trkpt lon="7.315164" lat="45.875347"><ele>2007.75</ele></trkpt>
   <trkpt lon="7.315103" lat="45.875344"><ele>2006.75</ele></trkpt>
   <trkpt lon="7.315035" lat="45.875318"><ele>2004.75</ele></trkpt>
   <trkpt lon="7.314966" lat="45.875326"><ele>2004.0</ele></trkpt>
   <trkpt lon="7.314924" lat="45.875310"><ele>2002.0</ele></trkpt>
   <trkpt lon="7.314810" lat="45.875315"><ele>1999.5</ele></trkpt>
   <trkpt lon="7.314706" lat="45.875291"><ele>1995.75</ele></trkpt>
   <trkpt lon="7.314678" lat="45.875271"><ele>1995.0</ele></trkpt>
   <trkpt lon="7.314712" lat="45.875235"><ele>1995.25</ele></trkpt>
   <trkpt lon="7.314733" lat="45.875140"><ele>1996.75</ele></trkpt>
   <trkpt lon="7.314679" lat="45.875078"><ele>1995.25</ele></trkpt>
   <trkpt lon="7.314529" lat="45.874911"><ele>1993.0</ele></trkpt>
   <trkpt lon="7.314512" lat="45.874997"><ele>1986.75</ele></trkpt>
   <trkpt lon="7.314459" lat="45.874944"><ele>1987.0</ele></trkpt>
   <trkpt lon="7.314203" lat="45.874954"><ele>1975.0</ele></trkpt>
   <trkpt lon="7.314053" lat="45.874941"><ele>1970.75</ele></trkpt>
   <trkpt lon="7.313944" lat="45.874969"><ele>1967.0</ele></trkpt>
   <trkpt lon="7.313866" lat="45.874978"><ele>1965.0</ele></trkpt>
   <trkpt lon="7.313839" lat="45.874966"><ele>1964.75</ele></trkpt>
   <trkpt lon="7.313878" lat="45.874943"><ele>1965.75</ele></trkpt>
   <trkpt lon="7.313925" lat="45.874879"><ele>1968.5</ele></trkpt>
   <trkpt lon="7.313901" lat="45.874867"><ele>1968.0</ele></trkpt>
   <trkpt lon="7.313752" lat="45.874902"><ele>1962.5</ele></trkpt>
   <trkpt lon="7.313735" lat="45.874864"><ele>1961.25</ele></trkpt>
   <trkpt lon="7.313677" lat="45.874894"><ele>1959.75</ele></trkpt>
   <trkpt lon="7.313670" lat="45.874839"><ele>1957.75</ele></trkpt>
   <trkpt lon="7.313609" lat="45.874845"><ele>1955.0</ele></trkpt>
   <trkpt lon="7.313534" lat="45.874776"><ele>1949.0</ele></trkpt>
   <trkpt lon="7.313547" lat="45.874684"><ele>1949.75</ele></trkpt>
   <trkpt lon="7.313329" lat="45.874610"><ele>1942.0</ele></trkpt>
   <trkpt lon="7.312995" lat="45.874675"><ele>1919.0</ele></trkpt>
   <trkpt lon="7.312413" lat="45.874740"><ele>1902.25</ele></trkpt>
   <trkpt lon="7.311926" lat="45.874700"><ele>1888.25</ele></trkpt>
   <trkpt lon="7.311745" lat="45.874578"><ele>1879.5</ele></trkpt>
   <trkpt lon="7.311691" lat="45.874466"><ele>1873.0</ele></trkpt>
   <trkpt lon="7.311906" lat="45.874407"><ele>1867.5</ele></trkpt>
   <trkpt lon="7.312121" lat="45.874296"><ele>1865.0</ele></trkpt>
   <trkpt lon="7.312030" lat="45.874097"><ele>1853.75</ele></trkpt>
   <trkpt lon="7.311894" lat="45.874069"><ele>1848.75</ele></trkpt>
   <trkpt lon="7.311594" lat="45.873792"><ele>1828.0</ele></trkpt>
   <trkpt lon="7.311328" lat="45.873680"><ele>1813.75</ele></trkpt>
   <trkpt lon="7.311132" lat="45.873766"><ele>1807.0</ele></trkpt>
   <trkpt lon="7.311000" lat="45.873576"><ele>1797.75</ele></trkpt>
   <trkpt lon="7.310855" lat="45.873639"><ele>1793.5</ele></trkpt>
   <trkpt lon="7.310866" lat="45.873437"><ele>1790.5</ele></trkpt>
   <trkpt lon="7.310675" lat="45.873635"><ele>1787.25</ele></trkpt>
   <trkpt lon="7.310586" lat="45.873314"><ele>1776.25</ele></trkpt>
   <trkpt lon="7.310259" lat="45.873084"><ele>1762.0</ele></trkpt>
   <trkpt lon="7.310133" lat="45.872735"><ele>1757.5</ele></trkpt>
   <trkpt lon="7.309621" lat="45.872364"><ele>1738.25</ele></trkpt>
   <trkpt lon="7.309176" lat="45.872071"><ele>1729.25</ele></trkpt>
   <trkpt lon="7.308981" lat="45.872142"><ele>1719.5</ele></trkpt>
   <trkpt lon="7.308942" lat="45.872307"><ele>1711.0</ele></trkpt>
   <trkpt lon="7.308912" lat="45.872514"><ele>1701.25</ele></trkpt>
   <trkpt lon="7.308687" lat="45.872644"><ele>1685.25</ele></trkpt>
   <trkpt lon="7.308362" lat="45.872649"><ele>1675.0</ele></trkpt>
   <trkpt lon="7.308202" lat="45.872614"><ele>1670.25</ele></trkpt>
   <trkpt lon="7.308022" lat="45.872497"><ele>1665.75</ele></trkpt>
   <trkpt lon="7.307328" lat="45.872353"><ele>1647.5</ele></trkpt>
   <trkpt lon="7.306594" lat="45.871982"><ele>1638.0</ele></trkpt>
   <trkpt lon="7.305863" lat="45.871665"><ele>1618.0</ele></trkpt>
   <trkpt lon="7.305728" lat="45.871483"><ele>1622.25</ele></trkpt>
   <trkpt lon="7.305274" lat="45.871341"><ele>1612.5</ele></trkpt>
   <trkpt lon="7.304773" lat="45.871219"><ele>1600.75</ele></trkpt>
   <trkpt lon="7.304356" lat="45.870849"><ele>1596.5</ele></trkpt>
   <trkpt lon="7.303819" lat="45.870545"><ele>1588.5</ele></trkpt>
   <trkpt lon="7.303576" lat="45.870194"><ele>1581.0</ele></trkpt>
   <trkpt lon="7.303415" lat="45.869945"><ele>1574.75</ele></trkpt>
   <trkpt lon="7.303172" lat="45.869619"><ele>1566.0</ele></trkpt>
   <trkpt lon="7.303007" lat="45.869102"><ele>1559.75</ele></trkpt>
   <trkpt lon="7.302746" lat="45.868629"><ele>1542.5</ele></trkpt>
   <trkpt lon="7.302810" lat="45.868070"><ele>1535.25</ele></trkpt>
   <trkpt lon="7.302963" lat="45.867723"><ele>1535.0</ele></trkpt>
   <trkpt lon="7.303241" lat="45.867048"><ele>1531.5</ele></trkpt>
   <trkpt lon="7.303435" lat="45.866947"><ele>1537.25</ele></trkpt>
   <trkpt lon="7.303545" lat="45.866821"><ele>1536.5</ele></trkpt>
   <trkpt lon="7.303605" lat="45.866705"><ele>1533.5</ele></trkpt>
   <trkpt lon="7.303543" lat="45.866494"><ele>1528.5</ele></trkpt>
   <trkpt lon="7.303622" lat="45.866215"><ele>1525.75</ele></trkpt>
   <trkpt lon="7.303714" lat="45.866069"><ele>1527.25</ele></trkpt>
   <trkpt lon="7.303695" lat="45.865918"><ele>1522.0</ele></trkpt>
   <trkpt lon="7.303700" lat="45.865774"><ele>1520.5</ele></trkpt>
   <trkpt lon="7.303613" lat="45.865568"><ele>1517.0</ele></trkpt>
   <trkpt lon="7.303314" lat="45.865141"><ele>1494.25</ele></trkpt>
   <trkpt lon="7.303163" lat="45.865122"><ele>1492.75</ele></trkpt>
   <trkpt lon="7.303030" lat="45.865105"><ele>1491.75</ele></trkpt>
   <trkpt lon="7.302935" lat="45.865064"><ele>1492.25</ele></trkpt>
   <trkpt lon="7.302350" lat="45.864948"><ele>1494.25</ele></trkpt>
   <trkpt lon="7.302077" lat="45.864956"><ele>1495.0</ele></trkpt>
   <trkpt lon="7.301995" lat="45.864934"><ele>1494.75</ele></trkpt>
   <trkpt lon="7.301852" lat="45.864863"><ele>1493.75</ele></trkpt>
   <trkpt lon="7.301714" lat="45.864816"><ele>1493.75</ele></trkpt>
   <trkpt lon="7.301572" lat="45.864802"><ele>1493.75</ele></trkpt>
   <trkpt lon="7.301451" lat="45.864820"><ele>1494.25</ele></trkpt>
   <trkpt lon="7.301372" lat="45.864663"><ele>1491.75</ele></trkpt>
   <trkpt lon="7.301293" lat="45.864530"><ele>1489.5</ele></trkpt>
   <trkpt lon="7.301178" lat="45.864385"><ele>1487.5</ele></trkpt>
   <trkpt lon="7.301191" lat="45.864316"><ele>1486.5</ele></trkpt>
   <trkpt lon="7.301261" lat="45.864237"><ele>1485.0</ele></trkpt>
   <trkpt lon="7.301329" lat="45.864190"><ele>1484.25</ele></trkpt>
   <trkpt lon="7.301458" lat="45.864011"><ele>1482.25</ele></trkpt>
   <trkpt lon="7.301478" lat="45.863848"><ele>1480.25</ele></trkpt>
   <trkpt lon="7.301455" lat="45.863839"><ele>1480.25</ele></trkpt>
   <trkpt lon="7.301420" lat="45.863786"><ele>1479.5</ele></trkpt>
   <trkpt lon="7.301358" lat="45.863752"><ele>1478.75</ele></trkpt>
   <trkpt lon="7.301236" lat="45.863645"><ele>1477.25</ele></trkpt>
   <trkpt lon="7.301176" lat="45.863487"><ele>1475.5</ele></trkpt>
   <trkpt lon="7.301110" lat="45.863349"><ele>1474.0</ele></trkpt>
   <trkpt lon="7.300990" lat="45.863140"><ele>1471.5</ele></trkpt>
   <trkpt lon="7.300906" lat="45.863034"><ele>1470.25</ele></trkpt>
   <trkpt lon="7.300730" lat="45.863145"><ele>1471.75</ele></trkpt>
   <trkpt lon="7.300532" lat="45.863117"><ele>1471.5</ele></trkpt>
   <trkpt lon="7.300231" lat="45.863031"><ele>1472.0</ele></trkpt>
   <trkpt lon="7.299965" lat="45.862875"><ele>1471.5</ele></trkpt>
   <trkpt lon="7.299723" lat="45.862689"><ele>1472.25</ele></trkpt>
   <trkpt lon="7.299614" lat="45.862564"><ele>1473.25</ele></trkpt>
   <trkpt lon="7.299530" lat="45.862301"><ele>1472.0</ele></trkpt>
   <trkpt lon="7.299526" lat="45.862199"><ele>1471.75</ele></trkpt>
   <trkpt lon="7.299578" lat="45.862113"><ele>1471.75</ele></trkpt>
   <trkpt lon="7.299659" lat="45.862030"><ele>1471.0</ele></trkpt>
   <trkpt lon="7.299689" lat="45.861946"><ele>1471.5</ele></trkpt>
   <trkpt lon="7.299670" lat="45.861799"><ele>1470.75</ele></trkpt>
   <trkpt lon="7.299595" lat="45.861584"><ele>1471.0</ele></trkpt>
   <trkpt lon="7.299504" lat="45.861419"><ele>1471.0</ele></trkpt>
   <trkpt lon="7.299403" lat="45.861300"><ele>1471.0</ele></trkpt>
   <trkpt lon="7.299356" lat="45.861256"><ele>1470.75</ele></trkpt>
   <trkpt lon="7.299306" lat="45.861167"><ele>1469.25</ele></trkpt>
   <trkpt lon="7.299279" lat="45.861079"><ele>1467.0</ele></trkpt>
   <trkpt lon="7.299295" lat="45.860933"><ele>1462.25</ele></trkpt>
   <trkpt lon="7.299346" lat="45.860810"><ele>1458.25</ele></trkpt>
   <trkpt lon="7.299475" lat="45.860612"><ele>1452.25</ele></trkpt>
   <trkpt lon="7.299510" lat="45.860520"><ele>1450.0</ele></trkpt>
   <trkpt lon="7.299604" lat="45.860475"><ele>1448.5</ele></trkpt>
   <trkpt lon="7.299676" lat="45.860373"><ele>1445.75</ele></trkpt>
   <trkpt lon="7.299982" lat="45.860177"><ele>1440.5</ele></trkpt>
   <trkpt lon="7.300044" lat="45.860117"><ele>1439.25</ele></trkpt>
   <trkpt lon="7.300293" lat="45.859754"><ele>1432.25</ele></trkpt>
   <trkpt lon="7.300618" lat="45.859433"><ele>1426.5</ele></trkpt>
   <trkpt lon="7.300728" lat="45.859334"><ele>1424.75</ele></trkpt>
   <trkpt lon="7.300778" lat="45.859271"><ele>1424.0</ele></trkpt>
   <trkpt lon="7.300776" lat="45.859043"><ele>1421.5</ele></trkpt>
   <trkpt lon="7.300870" lat="45.858635"><ele>1417.0</ele></trkpt>
   <trkpt lon="7.300876" lat="45.858399"><ele>1415.0</ele></trkpt>
   <trkpt lon="7.300864" lat="45.858333"><ele>1414.75</ele></trkpt>
   <trkpt lon="7.300990" lat="45.858132"><ele>1414.0</ele></trkpt>
   <trkpt lon="7.301021" lat="45.858047"><ele>1413.5</ele></trkpt>
   <trkpt lon="7.301049" lat="45.857868"><ele>1412.5</ele></trkpt>
   <trkpt lon="7.301042" lat="45.857748"><ele>1412.25</ele></trkpt>
   <trkpt lon="7.300998" lat="45.857494"><ele>1412.0</ele></trkpt>
   <trkpt lon="7.300994" lat="45.857263"><ele>1411.75</ele></trkpt>
   <trkpt lon="7.301049" lat="45.856768"><ele>1412.25</ele></trkpt>
   <trkpt lon="7.301179" lat="45.856624"><ele>1409.5</ele></trkpt>
   <trkpt lon="7.301183" lat="45.856548"><ele>1410.5</ele></trkpt>
   <trkpt lon="7.301214" lat="45.856455"><ele>1411.0</ele></trkpt>
   <trkpt lon="7.301339" lat="45.856348"><ele>1409.25</ele></trkpt>
   <trkpt lon="7.301473" lat="45.856173"><ele>1409.25</ele></trkpt>
   <trkpt lon="7.301651" lat="45.855817"><ele>1407.25</ele></trkpt>
   <trkpt lon="7.301741" lat="45.855575"><ele>1410.25</ele></trkpt>
   <trkpt lon="7.302088" lat="45.855173"><ele>1406.25</ele></trkpt>
   <trkpt lon="7.302224" lat="45.855058"><ele>1405.5</ele></trkpt>
   <trkpt lon="7.302289" lat="45.854999"><ele>1406.25</ele></trkpt>
   <trkpt lon="7.302487" lat="45.854886"><ele>1404.0</ele></trkpt>
   <trkpt lon="7.302551" lat="45.854813"><ele>1403.0</ele></trkpt>
   <trkpt lon="7.302561" lat="45.854706"><ele>1403.0</ele></trkpt>
   <trkpt lon="7.302539" lat="45.854647"><ele>1403.5</ele></trkpt>
   <trkpt lon="7.302546" lat="45.854621"><ele>1403.5</ele></trkpt>
   <trkpt lon="7.302632" lat="45.854623"><ele>1402.0</ele></trkpt>
   <trkpt lon="7.302734" lat="45.854645"><ele>1400.25</ele></trkpt>
   <trkpt lon="7.302895" lat="45.854709"><ele>1398.5</ele></trkpt>
   <trkpt lon="7.303046" lat="45.854783"><ele>1396.75</ele></trkpt>
   <trkpt lon="7.303148" lat="45.854865"><ele>1395.0</ele></trkpt>
   <trkpt lon="7.303243" lat="45.854886"><ele>1393.75</ele></trkpt>
   <trkpt lon="7.303303" lat="45.854835"><ele>1392.75</ele></trkpt>
   <trkpt lon="7.303349" lat="45.854746"><ele>1391.75</ele></trkpt>
   <trkpt lon="7.303360" lat="45.854698"><ele>1391.75</ele></trkpt>
   <trkpt lon="7.303489" lat="45.854595"><ele>1390.5</ele></trkpt>
   <trkpt lon="7.303617" lat="45.854524"><ele>1388.75</ele></trkpt>
   <trkpt lon="7.304160" lat="45.854349"><ele>1385.0</ele></trkpt>
   <trkpt lon="7.304304" lat="45.854279"><ele>1383.5</ele></trkpt>
   <trkpt lon="7.304412" lat="45.854200"><ele>1382.25</ele></trkpt>
   <trkpt lon="7.304424" lat="45.854145"><ele>1382.0</ele></trkpt>
   <trkpt lon="7.304470" lat="45.854021"><ele>1381.0</ele></trkpt>
   <trkpt lon="7.304518" lat="45.853953"><ele>1380.0</ele></trkpt>
   <trkpt lon="7.304582" lat="45.853925"><ele>1379.0</ele></trkpt>
   <trkpt lon="7.304609" lat="45.853930"><ele>1378.75</ele></trkpt>
   <trkpt lon="7.304795" lat="45.853978"><ele>1377.75</ele></trkpt>
   <trkpt lon="7.304911" lat="45.854011"><ele>1378.75</ele></trkpt>
   <trkpt lon="7.305031" lat="45.854038"><ele>1379.5</ele></trkpt>
   <trkpt lon="7.305087" lat="45.854039"><ele>1379.75</ele></trkpt>
   <trkpt lon="7.305141" lat="45.854025"><ele>1379.75</ele></trkpt>
   <trkpt lon="7.305429" lat="45.853907"><ele>1381.5</ele></trkpt>
   <trkpt lon="7.305522" lat="45.853857"><ele>1382.0</ele></trkpt>
   <trkpt lon="7.305574" lat="45.853851"><ele>1382.5</ele></trkpt>
   <trkpt lon="7.305710" lat="45.853731"><ele>1382.5</ele></trkpt>
   <trkpt lon="7.305845" lat="45.853531"><ele>1383.25</ele></trkpt>
   <trkpt lon="7.306278" lat="45.853027"><ele>1383.25</ele></trkpt>
   <trkpt lon="7.306366" lat="45.852935"><ele>1383.25</ele></trkpt>
   <trkpt lon="7.306786" lat="45.852476"><ele>1384.0</ele></trkpt>
   <trkpt lon="7.306803" lat="45.852450"><ele>1384.0</ele></trkpt>
   <trkpt lon="7.306984" lat="45.852187"><ele>1383.75</ele></trkpt>
   <trkpt lon="7.307302" lat="45.851583"><ele>1380.75</ele></trkpt>
   <trkpt lon="7.307340" lat="45.851585"><ele>1381.0</ele></trkpt>
   <trkpt lon="7.307400" lat="45.851588"><ele>1381.5</ele></trkpt>
   <trkpt lon="7.308020" lat="45.851477"><ele>1385.75</ele></trkpt>
   <trkpt lon="7.308123" lat="45.851449"><ele>1386.25</ele></trkpt>
   <trkpt lon="7.308356" lat="45.851371"><ele>1386.75</ele></trkpt>
   <trkpt lon="7.309727" lat="45.851057"><ele>1390.0</ele></trkpt>
   <trkpt lon="7.309944" lat="45.850991"><ele>1390.25</ele></trkpt>
   <trkpt lon="7.310140" lat="45.851010"><ele>1391.5</ele></trkpt>
   <trkpt lon="7.310199" lat="45.851007"><ele>1391.75</ele></trkpt>
   <trkpt lon="7.310348" lat="45.850999"><ele>1392.25</ele></trkpt>
   <trkpt lon="7.310830" lat="45.850929"><ele>1393.5</ele></trkpt>
   <trkpt lon="7.310751" lat="45.850790"><ele>1390.25</ele></trkpt>
   <trkpt lon="7.310614" lat="45.850575"><ele>1384.75</ele></trkpt>
   <trkpt lon="7.310611" lat="45.850510"><ele>1383.25</ele></trkpt>
   <trkpt lon="7.310559" lat="45.850464"><ele>1382.0</ele></trkpt>
   <trkpt lon="7.310514" lat="45.850327"><ele>1378.75</ele></trkpt>
   <trkpt lon="7.310429" lat="45.850119"><ele>1373.75</ele></trkpt>
   <trkpt lon="7.310336" lat="45.849977"><ele>1370.0</ele></trkpt>
   <trkpt lon="7.310321" lat="45.849956"><ele>1369.5</ele></trkpt>
   <trkpt lon="7.310412" lat="45.849932"><ele>1369.5</ele></trkpt>
   <trkpt lon="7.310480" lat="45.849928"><ele>1370.0</ele></trkpt>
   <trkpt lon="7.310585" lat="45.849899"><ele>1370.0</ele></trkpt>
   <trkpt lon="7.310692" lat="45.849885"><ele>1369.75</ele></trkpt>
  </trkseg>
 </trk>
</gpx>
