<?xml version="1.0" encoding="UTF-8"?>
<!-- track-length = 11687 filtered ascend = 1366 plain-ascend = 965 cost=18956 energy=.3kwh time=3h 57m 5s -->
<gpx 
 xmlns="http://www.topografix.com/GPX/1/1" 
 xmlns:xsi="http://www.w3.org/2001/XMLSchema-instance" 
 xsi:schemaLocation="http://www.topografix.com/GPX/1/1 http://www.topografix.com/GPX/1/1/gpx.xsd" 
 creator="BRouter-1.7.9" version="1.1">
 <trk>
  <name>tour-monte-rosa-tappa-1-gressoney-rifugio-gabiet</name>
  <trkseg>
   <trkpt lon="7.826354" lat="45.783629"><ele>1399.0</ele></trkpt>
   <trkpt lon="7.826258" lat="45.783725"><ele>1400.0</ele></trkpt>
   <trkpt lon="7.826164" lat="45.783735"><ele>1398.75</ele></trkpt>
   <trkpt lon="7.826012" lat="45.783669"><ele>1395.75</ele></trkpt>
   <trkpt lon="7.825860" lat="45.783624"><ele>1393.25</ele></trkpt>
   <trkpt lon="7.825535" lat="45.783498"><ele>1391.0</ele></trkpt>
   <trkpt lon="7.825292" lat="45.783444"><ele>1391.5</ele></trkpt>
   <trkpt lon="7.825241" lat="45.783726"><ele>1391.25</ele></trkpt>
   <trkpt lon="7.825156" lat="45.783961"><ele>1391.5</ele></trkpt>
   <trkpt lon="7.825071" lat="45.784198"><ele>1392.0</ele></trkpt>
   <trkpt lon="7.824966" lat="45.784593"><ele>1393.25</ele></trkpt>
   <trkpt lon="7.824938" lat="45.785111"><ele>1394.5</ele></trkpt>
   <trkpt lon="7.824960" lat="45.785217"><ele>1394.5</ele></trkpt>
   <trkpt lon="7.825041" lat="45.785361"><ele>1395.0</ele></trkpt>
   <trkpt lon="7.825252" lat="45.786052"><ele>1394.75</ele></trkpt>
   <trkpt lon="7.825397" lat="45.786766"><ele>1396.5</ele></trkpt>
   <trkpt lon="7.825412" lat="45.786984"><ele>1397.5</ele></trkpt>
   <trkpt lon="7.825410" lat="45.787308"><ele>1399.0</ele></trkpt>
   <trkpt lon="7.825416" lat="45.787510"><ele>1399.75</ele></trkpt>
   <trkpt lon="7.825547" lat="45.787918"><ele>1399.25</ele></trkpt>
   <trkpt lon="7.825602" lat="45.788248"><ele>1401.75</ele></trkpt>
   <trkpt lon="7.825579" lat="45.788378"><ele>1401.25</ele></trkpt>
   <trkpt lon="7.825515" lat="45.788591"><ele>1401.25</ele></trkpt>
   <trkpt lon="7.825444" lat="45.788714"><ele>1401.0</ele></trkpt>
   <trkpt lon="7.825267" lat="45.789099"><ele>1400.5</ele></trkpt>
   <trkpt lon="7.825060" lat="45.789443"><ele>1401.0</ele></trkpt>
   <trkpt lon="7.824968" lat="45.789574"><ele>1401.75</ele></trkpt>
   <trkpt lon="7.824939" lat="45.789811"><ele>1403.25</ele></trkpt>
   <trkpt lon="7.824918" lat="45.789849"><ele>1403.5</ele></trkpt>
   <trkpt lon="7.824840" lat="45.789988"><ele>1403.0</ele></trkpt>
   <trkpt lon="7.824815" lat="45.790083"><ele>1402.75</ele></trkpt>
   <trkpt lon="7.824844" lat="45.790178"><ele>1403.25</ele></trkpt>
   <trkpt lon="7.824847" lat="45.790262"><ele>1403.25</ele></trkpt>
   <trkpt lon="7.824803" lat="45.790486"><ele>1403.0</ele></trkpt>
   <trkpt lon="7.824766" lat="45.790620"><ele>1403.0</ele></trkpt>
   <trkpt lon="7.824704" lat="45.790729"><ele>1403.0</ele></trkpt>
   <trkpt lon="7.824633" lat="45.790817"><ele>1403.0</ele></trkpt>
   <trkpt lon="7.824456" lat="45.791554"><ele>1404.5</ele></trkpt>
   <trkpt lon="7.824346" lat="45.791824"><ele>1405.25</ele></trkpt>
   <trkpt lon="7.824316" lat="45.791977"><ele>1405.5</ele></trkpt>
   <trkpt lon="7.824281" lat="45.792103"><ele>1405.25</ele></trkpt>
   <trkpt lon="7.824222" lat="45.792407"><ele>1405.25</ele></trkpt>
   <trkpt lon="7.823960" lat="45.793102"><ele>1406.75</ele></trkpt>
   <trkpt lon="7.823935" lat="45.793202"><ele>1407.25</ele></trkpt>
   <trkpt lon="7.823921" lat="45.793323"><ele>1408.0</ele></trkpt>
   <trkpt lon="7.823945" lat="45.793390"><ele>1408.75</ele></trkpt>
   <trkpt lon="7.823874" lat="45.793448"><ele>1408.75</ele></trkpt>
   <trkpt lon="7.823798" lat="45.793542"><ele>1408.75</ele></trkpt>
   <trkpt lon="7.823760" lat="45.793590"><ele>1408.75</ele></trkpt>
   <trkpt lon="7.823667" lat="45.793612"><ele>1408.75</ele></trkpt>
   <trkpt lon="7.823306" lat="45.793607"><ele>1408.75</ele></trkpt>
   <trkpt lon="7.822871" lat="45.793601"><ele>1407.5</ele></trkpt>
   <trkpt lon="7.822509" lat="45.793596"><ele>1407.75</ele></trkpt>
   <trkpt lon="7.822497" lat="45.793661"><ele>1407.75</ele></trkpt>
   <trkpt lon="7.822304" lat="45.794268"><ele>1410.0</ele></trkpt>
   <trkpt lon="7.822287" lat="45.794317"><ele>1410.25</ele></trkpt>
   <trkpt lon="7.822264" lat="45.794397"><ele>1410.75</ele></trkpt>
   <trkpt lon="7.822253" lat="45.794460"><ele>1411.0</ele></trkpt>
   <trkpt lon="7.822248" lat="45.794572"><ele>1411.25</ele></trkpt>
   <trkpt lon="7.822236" lat="45.794819"><ele>1412.25</ele></trkpt>
   <trkpt lon="7.822233" lat="45.794899"><ele>1412.5</ele></trkpt>
   <trkpt lon="7.822230" lat="45.794962"><ele>1412.75</ele></trkpt>
   <trkpt lon="7.822213" lat="45.795332"><ele>1413.0</ele></trkpt>
   <trkpt lon="7.822218" lat="45.795696"><ele>1414.25</ele></trkpt>
   <trkpt lon="7.822233" lat="45.795814"><ele>1414.75</ele></trkpt>
   <trkpt lon="7.822303" lat="45.796015"><ele>1414.0</ele></trkpt>
   <trkpt lon="7.822371" lat="45.796152"><ele>1414.75</ele></trkpt>
   <trkpt lon="7.822301" lat="45.796246"><ele>1415.0</ele></trkpt>
   <trkpt lon="7.822344" lat="45.796377"><ele>1415.75</ele></trkpt>
   <trkpt lon="7.822439" lat="45.796731"><ele>1418.75</ele></trkpt>
   <trkpt lon="7.822460" lat="45.796877"><ele>1420.25</ele></trkpt>
   <trkpt lon="7.822471" lat="45.796920"><ele>1420.5</ele></trkpt>
   <trkpt lon="7.822481" lat="45.797267"><ele>1421.75</ele></trkpt>
   <trkpt lon="7.822057" lat="45.797345"><ele>1424.0</ele></trkpt>
   <trkpt lon="7.821610" lat="45.797442"><ele>1428.0</ele></trkpt>
   <trkpt lon="7.821439" lat="45.797507"><ele>1431.25</ele></trkpt>
   <trkpt lon="7.821414" lat="45.797579"><ele>1433.75</ele></trkpt>
   <trkpt lon="7.821454" lat="45.797670"><ele>1435.25</ele></trkpt>
   <trkpt lon="7.821449" lat="45.797699"><ele>1436.25</ele></trkpt>
   <trkpt lon="7.821428" lat="45.797706"><ele>1437.25</ele></trkpt>
   <trkpt lon="7.821351" lat="45.797691"><ele>1439.0</ele></trkpt>
   <trkpt lon="7.821228" lat="45.797684"><ele>1441.75</ele></trkpt>
   <trkpt lon="7.821109" lat="45.797705"><ele>1446.25</ele></trkpt>
   <trkpt lon="7.821061" lat="45.797740"><ele>1449.25</ele></trkpt>
   <trkpt lon="7.821079" lat="45.797943"><ele>1455.5</ele></trkpt>
   <trkpt lon="7.821053" lat="45.797977"><ele>1457.5</ele></trkpt>
   <trkpt lon="7.821025" lat="45.797978"><ele>1458.5</ele></trkpt>
   <trkpt lon="7.820941" lat="45.797878"><ele>1457.75</ele></trkpt>
   <trkpt lon="7.820915" lat="45.797878"><ele>1458.5</ele></trkpt>
   <trkpt lon="7.820896" lat="45.797891"><ele>1459.75</ele></trkpt>
   <trkpt lon="7.820890" lat="45.798009"><ele>1465.25</ele></trkpt>
   <trkpt lon="7.820800" lat="45.798075"><ele>1471.75</ele></trkpt>
   <trkpt lon="7.820685" lat="45.798166"><ele>1477.75</ele></trkpt>
   <trkpt lon="7.820624" lat="45.798249"><ele>1480.75</ele></trkpt>
   <trkpt lon="7.820591" lat="45.798274"><ele>1482.25</ele></trkpt>
   <trkpt lon="7.820611" lat="45.798381"><ele>1483.0</ele></trkpt>
   <trkpt lon="7.820607" lat="45.798559"><ele>1488.75</ele></trkpt>
   <trkpt lon="7.820581" lat="45.798593"><ele>1491.0</ele></trkpt>
   <trkpt lon="7.820501" lat="45.798602"><ele>1495.0</ele></trkpt>
   <trkpt lon="7.820299" lat="45.798504"><ele>1503.0</ele></trkpt>
   <trkpt lon="7.820149" lat="45.798560"><ele>1511.0</ele></trkpt>
   <trkpt lon="7.820010" lat="45.798544"><ele>1518.75</ele></trkpt>
   <trkpt lon="7.819964" lat="45.798493"><ele>1523.25</ele></trkpt>
   <trkpt lon="7.819919" lat="45.798411"><ele>1529.0</ele></trkpt>
   <trkpt lon="7.819838" lat="45.798355"><ele>1534.75</ele></trkpt>
   <trkpt lon="7.819696" lat="45.798295"><ele>1542.5</ele></trkpt>
   <trkpt lon="7.819649" lat="45.798285"><ele>1544.5</ele></trkpt>
   <trkpt lon="7.819567" lat="45.798291"><ele>1546.75</ele></trkpt>
   <trkpt lon="7.819552" lat="45.798212"><ele>1550.75</ele></trkpt>
   <trkpt lon="7.819654" lat="45.798073"><ele>1554.0</ele></trkpt>
   <trkpt lon="7.819610" lat="45.797985"><ele>1551.0</ele></trkpt>
   <trkpt lon="7.819496" lat="45.797910"><ele>1551.75</ele></trkpt>
   <trkpt lon="7.819412" lat="45.797994"><ele>1560.0</ele></trkpt>
   <trkpt lon="7.819349" lat="45.797933"><ele>1562.25</ele></trkpt>
   <trkpt lon="7.819273" lat="45.797897"><ele>1567.5</ele></trkpt>
   <trkpt lon="7.819185" lat="45.797823"><ele>1576.0</ele></trkpt>
   <trkpt lon="7.819105" lat="45.797672"><ele>1573.0</ele></trkpt>
   <trkpt lon="7.818993" lat="45.797619"><ele>1579.75</ele></trkpt>
   <trkpt lon="7.818921" lat="45.797629"><ele>1587.0</ele></trkpt>
   <trkpt lon="7.818842" lat="45.797601"><ele>1592.0</ele></trkpt>
   <trkpt lon="7.818756" lat="45.797500"><ele>1595.75</ele></trkpt>
   <trkpt lon="7.818688" lat="45.797474"><ele>1597.0</ele></trkpt>
   <trkpt lon="7.818587" lat="45.797455"><ele>1599.75</ele></trkpt>
   <trkpt lon="7.818496" lat="45.797423"><ele>1602.5</ele></trkpt>
   <trkpt lon="7.818478" lat="45.797434"><ele>1604.0</ele></trkpt>
   <trkpt lon="7.818483" lat="45.797460"><ele>1605.0</ele></trkpt>
   <trkpt lon="7.818346" lat="45.797400"><ele>1608.5</ele></trkpt>
   <trkpt lon="7.818319" lat="45.797408"><ele>1610.25</ele></trkpt>
   <trkpt lon="7.818254" lat="45.797375"><ele>1612.25</ele></trkpt>
   <trkpt lon="7.818190" lat="45.797300"><ele>1612.0</ele></trkpt>
   <trkpt lon="7.818139" lat="45.797318"><ele>1615.5</ele></trkpt>
   <trkpt lon="7.818118" lat="45.797410"><ele>1621.0</ele></trkpt>
   <trkpt lon="7.818079" lat="45.797419"><ele>1623.5</ele></trkpt>
   <trkpt lon="7.818022" lat="45.797395"><ele>1625.0</ele></trkpt>
   <trkpt lon="7.818012" lat="45.797444"><ele>1627.75</ele></trkpt>
   <trkpt lon="7.817940" lat="45.797464"><ele>1631.5</ele></trkpt>
   <trkpt lon="7.817950" lat="45.797499"><ele>1632.75</ele></trkpt>
   <trkpt lon="7.817930" lat="45.797524"><ele>1633.5</ele></trkpt>
   <trkpt lon="7.817866" lat="45.797491"><ele>1635.5</ele></trkpt>
   <trkpt lon="7.817804" lat="45.797482"><ele>1637.5</ele></trkpt>
   <trkpt lon="7.817789" lat="45.797493"><ele>1638.25</ele></trkpt>
   <trkpt lon="7.817804" lat="45.797508"><ele>1638.0</ele></trkpt>
   <trkpt lon="7.817808" lat="45.797530"><ele>1638.25</ele></trkpt>
   <trkpt lon="7.817801" lat="45.797546"><ele>1638.75</ele></trkpt>
   <trkpt lon="7.817712" lat="45.797540"><ele>1641.75</ele></trkpt>
   <trkpt lon="7.817707" lat="45.797546"><ele>1642.25</ele></trkpt>
   <trkpt lon="7.817737" lat="45.797613"><ele>1642.5</ele></trkpt>
   <trkpt lon="7.817725" lat="45.797637"><ele>1643.75</ele></trkpt>
   <trkpt lon="7.817705" lat="45.797623"><ele>1644.25</ele></trkpt>
   <trkpt lon="7.817687" lat="45.797597"><ele>1644.5</ele></trkpt>
   <trkpt lon="7.817636" lat="45.797577"><ele>1646.0</ele></trkpt>
   <trkpt lon="7.817518" lat="45.797566"><ele>1650.5</ele></trkpt>
   <trkpt lon="7.817441" lat="45.797551"><ele>1653.25</ele></trkpt>
   <trkpt lon="7.817340" lat="45.797515"><ele>1656.5</ele></trkpt>
   <trkpt lon="7.817308" lat="45.797522"><ele>1658.5</ele></trkpt>
   <trkpt lon="7.817316" lat="45.797540"><ele>1659.0</ele></trkpt>
   <trkpt lon="7.817393" lat="45.797569"><ele>1656.75</ele></trkpt>
   <trkpt lon="7.817420" lat="45.797593"><ele>1657.0</ele></trkpt>
   <trkpt lon="7.817400" lat="45.797601"><ele>1658.5</ele></trkpt>
   <trkpt lon="7.817306" lat="45.797586"><ele>1662.25</ele></trkpt>
   <trkpt lon="7.817410" lat="45.797661"><ele>1661.5</ele></trkpt>
   <trkpt lon="7.817413" lat="45.797678"><ele>1662.5</ele></trkpt>
   <trkpt lon="7.817373" lat="45.797681"><ele>1664.5</ele></trkpt>
   <trkpt lon="7.817284" lat="45.797654"><ele>1667.25</ele></trkpt>
   <trkpt lon="7.817204" lat="45.797652"><ele>1670.5</ele></trkpt>
   <trkpt lon="7.817167" lat="45.797687"><ele>1673.25</ele></trkpt>
   <trkpt lon="7.817132" lat="45.797706"><ele>1675.0</ele></trkpt>
   <trkpt lon="7.817079" lat="45.797710"><ele>1676.25</ele></trkpt>
   <trkpt lon="7.817080" lat="45.797726"><ele>1676.75</ele></trkpt>
   <trkpt lon="7.817099" lat="45.797740"><ele>1676.75</ele></trkpt>
   <trkpt lon="7.817143" lat="45.797743"><ele>1676.25</ele></trkpt>
   <trkpt lon="7.817226" lat="45.797770"><ele>1676.25</ele></trkpt>
   <trkpt lon="7.817242" lat="45.797790"><ele>1676.25</ele></trkpt>
   <trkpt lon="7.817263" lat="45.797845"><ele>1677.0</ele></trkpt>
   <trkpt lon="7.817243" lat="45.797854"><ele>1678.0</ele></trkpt>
   <trkpt lon="7.817220" lat="45.797843"><ele>1678.75</ele></trkpt>
   <trkpt lon="7.817205" lat="45.797818"><ele>1678.25</ele></trkpt>
   <trkpt lon="7.817189" lat="45.797821"><ele>1678.75</ele></trkpt>
   <trkpt lon="7.817188" lat="45.797861"><ele>1680.0</ele></trkpt>
   <trkpt lon="7.817154" lat="45.797877"><ele>1681.5</ele></trkpt>
   <trkpt lon="7.817165" lat="45.797943"><ele>1683.5</ele></trkpt>
   <trkpt lon="7.817119" lat="45.797997"><ele>1687.5</ele></trkpt>
   <trkpt lon="7.817071" lat="45.798078"><ele>1693.25</ele></trkpt>
   <trkpt lon="7.817045" lat="45.798099"><ele>1695.5</ele></trkpt>
   <trkpt lon="7.817013" lat="45.798111"><ele>1697.5</ele></trkpt>
   <trkpt lon="7.817014" lat="45.798080"><ele>1696.25</ele></trkpt>
   <trkpt lon="7.816984" lat="45.798070"><ele>1697.5</ele></trkpt>
   <trkpt lon="7.816966" lat="45.798041"><ele>1696.75</ele></trkpt>
   <trkpt lon="7.816900" lat="45.798012"><ele>1697.25</ele></trkpt>
   <trkpt lon="7.816841" lat="45.797996"><ele>1698.0</ele></trkpt>
   <trkpt lon="7.816826" lat="45.798003"><ele>1699.0</ele></trkpt>
   <trkpt lon="7.816833" lat="45.798026"><ele>1700.25</ele></trkpt>
   <trkpt lon="7.816857" lat="45.798043"><ele>1700.5</ele></trkpt>
   <trkpt lon="7.816836" lat="45.798056"><ele>1702.0</ele></trkpt>
   <trkpt lon="7.816733" lat="45.798063"><ele>1705.25</ele></trkpt>
   <trkpt lon="7.816630" lat="45.798083"><ele>1709.25</ele></trkpt>
   <trkpt lon="7.816618" lat="45.798098"><ele>1710.5</ele></trkpt>
   <trkpt lon="7.816680" lat="45.798127"><ele>1710.0</ele></trkpt>
   <trkpt lon="7.816700" lat="45.798150"><ele>1710.5</ele></trkpt>
   <trkpt lon="7.816679" lat="45.798158"><ele>1711.75</ele></trkpt>
   <trkpt lon="7.816545" lat="45.798166"><ele>1716.0</ele></trkpt>
   <trkpt lon="7.816494" lat="45.798164"><ele>1717.5</ele></trkpt>
   <trkpt lon="7.816488" lat="45.798182"><ele>1718.75</ele></trkpt>
   <trkpt lon="7.816524" lat="45.798229"><ele>1720.0</ele></trkpt>
   <trkpt lon="7.816497" lat="45.798262"><ele>1722.5</ele></trkpt>
   <trkpt lon="7.816545" lat="45.798301"><ele>1723.25</ele></trkpt>
   <trkpt lon="7.816588" lat="45.798349"><ele>1725.0</ele></trkpt>
   <trkpt lon="7.816516" lat="45.798361"><ele>1728.25</ele></trkpt>
   <trkpt lon="7.816441" lat="45.798333"><ele>1728.25</ele></trkpt>
   <trkpt lon="7.816364" lat="45.798313"><ele>1729.5</ele></trkpt>
   <trkpt lon="7.816316" lat="45.798322"><ele>1731.75</ele></trkpt>
   <trkpt lon="7.816328" lat="45.798374"><ele>1735.25</ele></trkpt>
   <trkpt lon="7.816281" lat="45.798370"><ele>1736.25</ele></trkpt>
   <trkpt lon="7.816123" lat="45.798326"><ele>1738.25</ele></trkpt>
   <trkpt lon="7.815908" lat="45.798276"><ele>1742.75</ele></trkpt>
   <trkpt lon="7.815884" lat="45.798325"><ele>1745.75</ele></trkpt>
   <trkpt lon="7.815825" lat="45.798327"><ele>1748.0</ele></trkpt>
   <trkpt lon="7.815721" lat="45.798343"><ele>1752.5</ele></trkpt>
   <trkpt lon="7.815799" lat="45.798498"><ele>1757.0</ele></trkpt>
   <trkpt lon="7.815838" lat="45.798654"><ele>1763.0</ele></trkpt>
   <trkpt lon="7.815838" lat="45.798701"><ele>1765.25</ele></trkpt>
   <trkpt lon="7.815881" lat="45.798735"><ele>1766.75</ele></trkpt>
   <trkpt lon="7.815920" lat="45.798754"><ele>1767.25</ele></trkpt>
   <trkpt lon="7.815982" lat="45.798809"><ele>1769.75</ele></trkpt>
   <trkpt lon="7.816091" lat="45.798851"><ele>1771.75</ele></trkpt>
   <trkpt lon="7.816177" lat="45.798859"><ele>1772.5</ele></trkpt>
   <trkpt lon="7.816290" lat="45.799041"><ele>1778.0</ele></trkpt>
   <trkpt lon="7.816332" lat="45.799113"><ele>1779.25</ele></trkpt>
   <trkpt lon="7.816313" lat="45.799154"><ele>1780.0</ele></trkpt>
   <trkpt lon="7.816279" lat="45.799216"><ele>1780.0</ele></trkpt>
   <trkpt lon="7.816144" lat="45.799342"><ele>1781.0</ele></trkpt>
   <trkpt lon="7.816111" lat="45.799412"><ele>1781.75</ele></trkpt>
   <trkpt lon="7.816085" lat="45.799448"><ele>1782.5</ele></trkpt>
   <trkpt lon="7.816202" lat="45.799500"><ele>1781.5</ele></trkpt>
   <trkpt lon="7.816337" lat="45.799594"><ele>1781.75</ele></trkpt>
   <trkpt lon="7.816418" lat="45.799666"><ele>1782.0</ele></trkpt>
   <trkpt lon="7.816519" lat="45.799777"><ele>1780.75</ele></trkpt>
   <trkpt lon="7.816575" lat="45.799871"><ele>1779.5</ele></trkpt>
   <trkpt lon="7.816632" lat="45.799907"><ele>1778.25</ele></trkpt>
   <trkpt lon="7.816632" lat="45.799980"><ele>1778.5</ele></trkpt>
   <trkpt lon="7.816670" lat="45.800067"><ele>1778.0</ele></trkpt>
   <trkpt lon="7.816692" lat="45.800141"><ele>1777.75</ele></trkpt>
   <trkpt lon="7.816705" lat="45.800295"><ele>1777.5</ele></trkpt>
   <trkpt lon="7.816683" lat="45.800423"><ele>1774.5</ele></trkpt>
   <trkpt lon="7.816705" lat="45.800497"><ele>1771.5</ele></trkpt>
   <trkpt lon="7.816713" lat="45.800580"><ele>1769.75</ele></trkpt>
   <trkpt lon="7.816697" lat="45.800668"><ele>1772.25</ele></trkpt>
   <trkpt lon="7.816762" lat="45.800744"><ele>1769.5</ele></trkpt>
   <trkpt lon="7.816767" lat="45.800815"><ele>1770.0</ele></trkpt>
   <trkpt lon="7.816819" lat="45.800883"><ele>1767.25</ele></trkpt>
   <trkpt lon="7.816843" lat="45.801109"><ele>1767.0</ele></trkpt>
   <trkpt lon="7.816911" lat="45.801249"><ele>1766.25</ele></trkpt>
   <trkpt lon="7.816916" lat="45.801384"><ele>1769.25</ele></trkpt>
   <trkpt lon="7.817032" lat="45.801613"><ele>1764.75</ele></trkpt>
   <trkpt lon="7.817000" lat="45.801714"><ele>1768.5</ele></trkpt>
   <trkpt lon="7.817219" lat="45.801935"><ele>1768.75</ele></trkpt>
   <trkpt lon="7.817248" lat="45.802008"><ele>1770.0</ele></trkpt>
   <trkpt lon="7.817200" lat="45.802061"><ele>1773.0</ele></trkpt>
   <trkpt lon="7.817170" lat="45.802150"><ele>1776.75</ele></trkpt>
   <trkpt lon="7.817221" lat="45.802272"><ele>1778.5</ele></trkpt>
   <trkpt lon="7.817200" lat="45.802359"><ele>1782.25</ele></trkpt>
   <trkpt lon="7.817148" lat="45.802430"><ele>1786.75</ele></trkpt>
   <trkpt lon="7.817154" lat="45.802530"><ele>1789.75</ele></trkpt>
   <trkpt lon="7.817178" lat="45.802604"><ele>1791.0</ele></trkpt>
   <trkpt lon="7.817186" lat="45.802692"><ele>1793.5</ele></trkpt>
   <trkpt lon="7.817211" lat="45.802772"><ele>1795.25</ele></trkpt>
   <trkpt lon="7.817235" lat="45.802819"><ele>1796.25</ele></trkpt>
   <trkpt lon="7.817211" lat="45.802905"><ele>1801.25</ele></trkpt>
   <trkpt lon="7.817254" lat="45.802958"><ele>1802.0</ele></trkpt>
   <trkpt lon="7.817351" lat="45.803045"><ele>1801.5</ele></trkpt>
   <trkpt lon="7.817354" lat="45.803126"><ele>1804.5</ele></trkpt>
   <trkpt lon="7.817440" lat="45.803273"><ele>1807.25</ele></trkpt>
   <trkpt lon="7.817486" lat="45.803303"><ele>1807.0</ele></trkpt>
   <trkpt lon="7.817503" lat="45.803458"><ele>1807.75</ele></trkpt>
   <trkpt lon="7.817430" lat="45.803599"><ele>1811.0</ele></trkpt>
   <trkpt lon="7.817489" lat="45.803786"><ele>1807.25</ele></trkpt>
   <trkpt lon="7.817446" lat="45.803876"><ele>1808.75</ele></trkpt>
   <trkpt lon="7.817427" lat="45.803991"><ele>1805.75</ele></trkpt>
   <trkpt lon="7.817367" lat="45.804032"><ele>1807.75</ele></trkpt>
   <trkpt lon="7.817381" lat="45.804093"><ele>1804.75</ele></trkpt>
   <trkpt lon="7.817357" lat="45.804196"><ele>1803.0</ele></trkpt>
   <trkpt lon="7.817316" lat="45.804261"><ele>1804.25</ele></trkpt>
   <trkpt lon="7.817235" lat="45.804359"><ele>1807.75</ele></trkpt>
   <trkpt lon="7.817159" lat="45.804394"><ele>1812.25</ele></trkpt>
   <trkpt lon="7.817051" lat="45.804576"><ele>1817.75</ele></trkpt>
   <trkpt lon="7.817068" lat="45.804667"><ele>1816.0</ele></trkpt>
   <trkpt lon="7.817051" lat="45.804757"><ele>1816.25</ele></trkpt>
   <trkpt lon="7.817162" lat="45.804890"><ele>1807.0</ele></trkpt>
   <trkpt lon="7.817175" lat="45.804997"><ele>1805.5</ele></trkpt>
   <trkpt lon="7.817257" lat="45.805144"><ele>1804.0</ele></trkpt>
   <trkpt lon="7.817363" lat="45.805197"><ele>1799.25</ele></trkpt>
   <trkpt lon="7.817462" lat="45.805305"><ele>1794.5</ele></trkpt>
   <trkpt lon="7.817443" lat="45.805404"><ele>1793.5</ele></trkpt>
   <trkpt lon="7.817384" lat="45.805498"><ele>1794.5</ele></trkpt>
   <trkpt lon="7.817304" lat="45.805567"><ele>1797.0</ele></trkpt>
   <trkpt lon="7.817175" lat="45.805576"><ele>1804.0</ele></trkpt>
   <trkpt lon="7.817073" lat="45.805638"><ele>1810.25</ele></trkpt>
   <trkpt lon="7.817021" lat="45.805697"><ele>1813.0</ele></trkpt>
   <trkpt lon="7.817000" lat="45.805793"><ele>1813.0</ele></trkpt>
   <trkpt lon="7.816881" lat="45.805894"><ele>1815.0</ele></trkpt>
   <trkpt lon="7.816822" lat="45.805794"><ele>1821.25</ele></trkpt>
   <trkpt lon="7.816777" lat="45.805797"><ele>1822.75</ele></trkpt>
   <trkpt lon="7.816670" lat="45.805867"><ele>1824.0</ele></trkpt>
   <trkpt lon="7.816596" lat="45.805898"><ele>1825.25</ele></trkpt>
   <trkpt lon="7.816463" lat="45.805935"><ele>1828.5</ele></trkpt>
   <trkpt lon="7.816413" lat="45.805974"><ele>1828.25</ele></trkpt>
   <trkpt lon="7.816315" lat="45.806001"><ele>1830.75</ele></trkpt>
   <trkpt lon="7.815958" lat="45.806054"><ele>1839.5</ele></trkpt>
   <trkpt lon="7.815816" lat="45.806054"><ele>1842.75</ele></trkpt>
   <trkpt lon="7.815804" lat="45.806019"><ele>1845.5</ele></trkpt>
   <trkpt lon="7.815723" lat="45.805953"><ele>1852.0</ele></trkpt>
   <trkpt lon="7.815587" lat="45.805973"><ele>1852.25</ele></trkpt>
   <trkpt lon="7.815468" lat="45.806003"><ele>1852.75</ele></trkpt>
   <trkpt lon="7.815329" lat="45.806085"><ele>1849.75</ele></trkpt>
   <trkpt lon="7.815253" lat="45.806073"><ele>1853.0</ele></trkpt>
   <trkpt lon="7.815194" lat="45.806192"><ele>1851.25</ele></trkpt>
   <trkpt lon="7.815106" lat="45.806266"><ele>1854.25</ele></trkpt>
   <trkpt lon="7.815059" lat="45.806319"><ele>1855.25</ele></trkpt>
   <trkpt lon="7.815017" lat="45.806443"><ele>1854.5</ele></trkpt>
   <trkpt lon="7.814976" lat="45.806509"><ele>1854.75</ele></trkpt>
   <trkpt lon="7.814858" lat="45.806574"><ele>1858.25</ele></trkpt>
   <trkpt lon="7.814746" lat="45.806681"><ele>1859.25</ele></trkpt>
   <trkpt lon="7.814640" lat="45.806751"><ele>1860.75</ele></trkpt>
   <trkpt lon="7.814516" lat="45.807043"><ele>1853.75</ele></trkpt>
   <trkpt lon="7.814474" lat="45.807084"><ele>1853.0</ele></trkpt>
   <trkpt lon="7.814197" lat="45.807138"><ele>1860.25</ele></trkpt>
   <trkpt lon="7.814103" lat="45.807167"><ele>1861.25</ele></trkpt>
   <trkpt lon="7.814005" lat="45.807306"><ele>1860.5</ele></trkpt>
   <trkpt lon="7.813825" lat="45.807385"><ele>1865.25</ele></trkpt>
   <trkpt lon="7.813850" lat="45.807443"><ele>1863.75</ele></trkpt>
   <trkpt lon="7.814137" lat="45.807506"><ele>1859.0</ele></trkpt>
   <trkpt lon="7.814320" lat="45.807462"><ele>1854.75</ele></trkpt>
   <trkpt lon="7.814441" lat="45.807509"><ele>1854.75</ele></trkpt>
   <trkpt lon="7.814500" lat="45.807570"><ele>1856.75</ele></trkpt>
   <trkpt lon="7.814712" lat="45.807608"><ele>1849.25</ele></trkpt>
   <trkpt lon="7.814904" lat="45.807695"><ele>1849.75</ele></trkpt>
   <trkpt lon="7.814963" lat="45.807756"><ele>1851.5</ele></trkpt>
   <trkpt lon="7.815071" lat="45.807804"><ele>1850.5</ele></trkpt>
   <trkpt lon="7.815234" lat="45.807928"><ele>1848.25</ele></trkpt>
   <trkpt lon="7.815305" lat="45.807954"><ele>1845.5</ele></trkpt>
   <trkpt lon="7.815364" lat="45.808067"><ele>1844.25</ele></trkpt>
   <trkpt lon="7.815397" lat="45.808174"><ele>1844.0</ele></trkpt>
   <trkpt lon="7.815397" lat="45.808240"><ele>1844.75</ele></trkpt>
   <trkpt lon="7.815584" lat="45.808480"><ele>1837.0</ele></trkpt>
   <trkpt lon="7.815629" lat="45.808566"><ele>1835.5</ele></trkpt>
   <trkpt lon="7.815666" lat="45.808702"><ele>1835.5</ele></trkpt>
   <trkpt lon="7.815728" lat="45.808811"><ele>1834.0</ele></trkpt>
   <trkpt lon="7.815741" lat="45.808912"><ele>1835.0</ele></trkpt>
   <trkpt lon="7.815848" lat="45.808987"><ele>1832.5</ele></trkpt>
   <trkpt lon="7.815936" lat="45.809064"><ele>1831.0</ele></trkpt>
   <trkpt lon="7.815985" lat="45.809120"><ele>1829.75</ele></trkpt>
   <trkpt lon="7.816022" lat="45.809226"><ele>1828.5</ele></trkpt>
   <trkpt lon="7.816018" lat="45.809304"><ele>1828.75</ele></trkpt>
   <trkpt lon="7.816001" lat="45.809356"><ele>1829.5</ele></trkpt>
   <trkpt lon="7.816066" lat="45.809425"><ele>1826.0</ele></trkpt>
   <trkpt lon="7.816181" lat="45.809444"><ele>1821.5</ele></trkpt>
   <trkpt lon="7.816207" lat="45.809438"><ele>1820.75</ele></trkpt>
   <trkpt lon="7.816286" lat="45.809399"><ele>1817.25</ele></trkpt>
   <trkpt lon="7.816315" lat="45.809399"><ele>1816.25</ele></trkpt>
   <trkpt lon="7.816333" lat="45.809405"><ele>1815.75</ele></trkpt>
   <trkpt lon="7.816350" lat="45.809389"><ele>1814.5</ele></trkpt>
   <trkpt lon="7.816322" lat="45.809370"><ele>1815.25</ele></trkpt>
   <trkpt lon="7.816322" lat="45.809359"><ele>1814.75</ele></trkpt>
   <trkpt lon="7.816337" lat="45.809352"><ele>1814.0</ele></trkpt>
   <trkpt lon="7.816363" lat="45.809357"><ele>1813.0</ele></trkpt>
   <trkpt lon="7.816401" lat="45.809377"><ele>1812.0</ele></trkpt>
   <trkpt lon="7.816455" lat="45.809438"><ele>1811.5</ele></trkpt>
   <trkpt lon="7.816472" lat="45.809472"><ele>1811.5</ele></trkpt>
   <trkpt lon="7.816518" lat="45.809489"><ele>1809.5</ele></trkpt>
   <trkpt lon="7.816558" lat="45.809544"><ele>1808.75</ele></trkpt>
   <trkpt lon="7.816585" lat="45.809617"><ele>1809.0</ele></trkpt>
   <trkpt lon="7.816704" lat="45.809689"><ele>1805.75</ele></trkpt>
   <trkpt lon="7.816840" lat="45.809858"><ele>1804.25</ele></trkpt>
   <trkpt lon="7.816934" lat="45.809932"><ele>1802.5</ele></trkpt>
   <trkpt lon="7.817115" lat="45.810217"><ele>1803.5</ele></trkpt>
   <trkpt lon="7.817128" lat="45.810244"><ele>1803.75</ele></trkpt>
   <trkpt lon="7.817192" lat="45.810259"><ele>1802.25</ele></trkpt>
   <trkpt lon="7.817258" lat="45.810263"><ele>1800.25</ele></trkpt>
   <trkpt lon="7.817316" lat="45.810365"><ele>1802.25</ele></trkpt>
   <trkpt lon="7.817406" lat="45.810409"><ele>1801.5</ele></trkpt>
   <trkpt lon="7.817577" lat="45.810463"><ele>1799.5</ele></trkpt>
   <trkpt lon="7.817766" lat="45.810493"><ele>1796.5</ele></trkpt>
   <trkpt lon="7.817819" lat="45.810551"><ele>1798.75</ele></trkpt>
   <trkpt lon="7.817820" lat="45.810591"><ele>1799.75</ele></trkpt>
   <trkpt lon="7.817979" lat="45.810836"><ele>1799.5</ele></trkpt>
   <trkpt lon="7.818046" lat="45.810868"><ele>1798.25</ele></trkpt>
   <trkpt lon="7.818055" lat="45.810974"><ele>1801.0</ele></trkpt>
   <trkpt lon="7.818287" lat="45.811157"><ele>1798.0</ele></trkpt>
   <trkpt lon="7.818637" lat="45.811293"><ele>1796.25</ele></trkpt>
   <trkpt lon="7.818684" lat="45.811331"><ele>1797.75</ele></trkpt>
   <trkpt lon="7.818781" lat="45.811553"><ele>1800.5</ele></trkpt>
   <trkpt lon="7.818932" lat="45.811813"><ele>1798.75</ele></trkpt>
   <trkpt lon="7.818955" lat="45.811875"><ele>1798.75</ele></trkpt>
   <trkpt lon="7.818857" lat="45.811963"><ele>1802.25</ele></trkpt>
   <trkpt lon="7.819078" lat="45.812179"><ele>1800.5</ele></trkpt>
   <trkpt lon="7.819081" lat="45.812322"><ele>1803.5</ele></trkpt>
   <trkpt lon="7.818992" lat="45.812365"><ele>1806.25</ele></trkpt>
   <trkpt lon="7.819011" lat="45.812417"><ele>1806.75</ele></trkpt>
   <trkpt lon="7.819209" lat="45.812548"><ele>1806.5</ele></trkpt>
   <trkpt lon="7.819360" lat="45.812773"><ele>1805.75</ele></trkpt>
   <trkpt lon="7.819429" lat="45.813247"><ele>1808.75</ele></trkpt>
   <trkpt lon="7.819369" lat="45.813595"><ele>1816.25</ele></trkpt>
   <trkpt lon="7.819419" lat="45.813797"><ele>1818.5</ele></trkpt>
   <trkpt lon="7.819471" lat="45.813966"><ele>1818.75</ele></trkpt>
   <trkpt lon="7.819306" lat="45.814069"><ele>1826.75</ele></trkpt>
   <trkpt lon="7.819211" lat="45.814203"><ele>1830.75</ele></trkpt>
   <trkpt lon="7.819042" lat="45.814264"><ele>1837.25</ele></trkpt>
   <trkpt lon="7.818996" lat="45.814467"><ele>1839.0</ele></trkpt>
   <trkpt lon="7.818893" lat="45.814531"><ele>1844.25</ele></trkpt>
   <trkpt lon="7.818731" lat="45.814776"><ele>1850.25</ele></trkpt>
   <trkpt lon="7.818568" lat="45.814874"><ele>1855.0</ele></trkpt>
   <trkpt lon="7.818234" lat="45.815016"><ele>1862.5</ele></trkpt>
   <trkpt lon="7.818056" lat="45.815398"><ele>1856.5</ele></trkpt>
   <trkpt lon="7.818000" lat="45.815443"><ele>1857.25</ele></trkpt>
   <trkpt lon="7.817899" lat="45.815672"><ele>1861.25</ele></trkpt>
   <trkpt lon="7.818001" lat="45.815857"><ele>1860.75</ele></trkpt>
   <trkpt lon="7.818129" lat="45.815939"><ele>1856.5</ele></trkpt>
   <trkpt lon="7.818258" lat="45.815874"><ele>1845.25</ele></trkpt>
   <trkpt lon="7.818457" lat="45.815896"><ele>1835.5</ele></trkpt>
   <trkpt lon="7.819034" lat="45.816115"><ele>1827.25</ele></trkpt>
   <trkpt lon="7.819201" lat="45.816095"><ele>1820.75</ele></trkpt>
   <trkpt lon="7.819374" lat="45.816201"><ele>1817.5</ele></trkpt>
   <trkpt lon="7.819425" lat="45.816356"><ele>1815.75</ele></trkpt>
   <trkpt lon="7.819433" lat="45.816488"><ele>1812.5</ele></trkpt>
   <trkpt lon="7.819487" lat="45.817073"><ele>1796.75</ele></trkpt>
   <trkpt lon="7.819719" lat="45.817356"><ele>1791.75</ele></trkpt>
   <trkpt lon="7.820112" lat="45.817410"><ele>1786.75</ele></trkpt>
   <trkpt lon="7.820384" lat="45.817596"><ele>1786.75</ele></trkpt>
   <trkpt lon="7.821114" lat="45.818224"><ele>1766.25</ele></trkpt>
   <trkpt lon="7.821581" lat="45.818469"><ele>1748.0</ele></trkpt>
   <trkpt lon="7.821638" lat="45.818605"><ele>1741.75</ele></trkpt>
   <trkpt lon="7.821600" lat="45.818700"><ele>1741.25</ele></trkpt>
   <trkpt lon="7.821648" lat="45.818852"><ele>1734.0</ele></trkpt>
   <trkpt lon="7.821605" lat="45.819025"><ele>1732.0</ele></trkpt>
   <trkpt lon="7.821482" lat="45.819207"><ele>1732.25</ele></trkpt>
   <trkpt lon="7.821552" lat="45.819401"><ele>1728.25</ele></trkpt>
   <trkpt lon="7.821525" lat="45.819521"><ele>1728.5</ele></trkpt>
   <trkpt lon="7.821541" lat="45.819742"><ele>1726.5</ele></trkpt>
   <trkpt lon="7.821574" lat="45.819887"><ele>1726.25</ele></trkpt>
   <trkpt lon="7.821787" lat="45.820035"><ele>1717.75</ele></trkpt>
   <trkpt lon="7.821933" lat="45.820179"><ele>1712.0</ele></trkpt>
   <trkpt lon="7.821994" lat="45.820422"><ele>1708.0</ele></trkpt>
   <trkpt lon="7.822101" lat="45.821091"><ele>1691.75</ele></trkpt>
   <trkpt lon="7.822273" lat="45.821813"><ele>1672.75</ele></trkpt>
   <trkpt lon="7.822466" lat="45.822082"><ele>1662.75</ele></trkpt>
   <trkpt lon="7.822601" lat="45.822172"><ele>1657.0</ele></trkpt>
   <trkpt lon="7.822702" lat="45.822351"><ele>1649.75</ele></trkpt>
   <trkpt lon="7.822678" lat="45.822927"><ele>1640.5</ele></trkpt>
   <trkpt lon="7.822588" lat="45.823233"><ele>1638.75</ele></trkpt>
   <trkpt lon="7.822563" lat="45.823610"><ele>1636.75</ele></trkpt>
   <trkpt lon="7.822574" lat="45.823683"><ele>1636.5</ele></trkpt>
   <trkpt lon="7.822958" lat="45.823906"><ele>1628.75</ele></trkpt>
   <trkpt lon="7.823172" lat="45.824183"><ele>1626.25</ele></trkpt>
   <trkpt lon="7.823092" lat="45.824282"><ele>1627.0</ele></trkpt>
   <trkpt lon="7.823077" lat="45.824383"><ele>1626.25</ele></trkpt>
   <trkpt lon="7.823062" lat="45.824413"><ele>1626.0</ele></trkpt>
   <trkpt lon="7.823054" lat="45.824486"><ele>1625.5</ele></trkpt>
   <trkpt lon="7.823011" lat="45.824585"><ele>1625.25</ele></trkpt>
   <trkpt lon="7.823018" lat="45.824619"><ele>1624.75</ele></trkpt>
   <trkpt lon="7.822989" lat="45.824652"><ele>1625.0</ele></trkpt>
   <trkpt lon="7.823005" lat="45.824772"><ele>1624.0</ele></trkpt>
   <trkpt lon="7.823023" lat="45.824799"><ele>1623.5</ele></trkpt>
   <trkpt lon="7.823033" lat="45.824838"><ele>1623.25</ele></trkpt>
   <trkpt lon="7.823022" lat="45.824934"><ele>1623.5</ele></trkpt>
   <trkpt lon="7.823002" lat="45.824978"><ele>1623.75</ele></trkpt>
   <trkpt lon="7.823001" lat="45.825001"><ele>1623.75</ele></trkpt>
   <trkpt lon="7.823054" lat="45.825080"><ele>1623.0</ele></trkpt>
   <trkpt lon="7.823073" lat="45.825101"><ele>1622.75</ele></trkpt>
   <trkpt lon="7.823133" lat="45.825164"><ele>1622.25</ele></trkpt>
   <trkpt lon="7.823174" lat="45.825252"><ele>1622.0</ele></trkpt>
   <trkpt lon="7.823088" lat="45.825387"><ele>1622.0</ele></trkpt>
   <trkpt lon="7.823181" lat="45.825570"><ele>1620.5</ele></trkpt>
   <trkpt lon="7.823283" lat="45.825583"><ele>1620.25</ele></trkpt>
   <trkpt lon="7.823224" lat="45.825727"><ele>1620.75</ele></trkpt>
   <trkpt lon="7.823092" lat="45.825993"><ele>1621.0</ele></trkpt>
   <trkpt lon="7.823006" lat="45.826211"><ele>1621.25</ele></trkpt>
   <trkpt lon="7.822838" lat="45.826677"><ele>1623.0</ele></trkpt>
   <trkpt lon="7.822811" lat="45.826734"><ele>1623.0</ele></trkpt>
   <trkpt lon="7.822770" lat="45.826798"><ele>1623.25</ele></trkpt>
   <trkpt lon="7.822735" lat="45.826830"><ele>1623.5</ele></trkpt>
   <trkpt lon="7.822680" lat="45.826866"><ele>1623.5</ele></trkpt>
   <trkpt lon="7.822705" lat="45.826897"><ele>1623.75</ele></trkpt>
   <trkpt lon="7.822503" lat="45.826956"><ele>1624.0</ele></trkpt>
   <trkpt lon="7.822151" lat="45.827198"><ele>1625.0</ele></trkpt>
   <trkpt lon="7.822090" lat="45.827454"><ele>1625.75</ele></trkpt>
   <trkpt lon="7.822063" lat="45.827554"><ele>1626.0</ele></trkpt>
   <trkpt lon="7.822250" lat="45.827526"><ele>1626.0</ele></trkpt>
   <trkpt lon="7.822650" lat="45.827554"><ele>1626.0</ele></trkpt>
   <trkpt lon="7.822622" lat="45.827610"><ele>1626.0</ele></trkpt>
   <trkpt lon="7.822583" lat="45.827806"><ele>1626.5</ele></trkpt>
   <trkpt lon="7.822552" lat="45.828139"><ele>1627.0</ele></trkpt>
   <trkpt lon="7.822545" lat="45.828261"><ele>1627.0</ele></trkpt>
   <trkpt lon="7.822536" lat="45.828429"><ele>1627.25</ele></trkpt>
   <trkpt lon="7.822535" lat="45.828451"><ele>1627.25</ele></trkpt>
   <trkpt lon="7.822534" lat="45.828611"><ele>1627.75</ele></trkpt>
   <trkpt lon="7.822525" lat="45.828710"><ele>1628.25</ele></trkpt>
   <trkpt lon="7.822519" lat="45.828778"><ele>1628.5</ele></trkpt>
   <trkpt lon="7.822514" lat="45.828840"><ele>1628.75</ele></trkpt>
   <trkpt lon="7.822679" lat="45.829407"><ele>1630.75</ele></trkpt>
   <trkpt lon="7.822680" lat="45.829464"><ele>1631.0</ele></trkpt>
   <trkpt lon="7.822689" lat="45.829590"><ele>1631.0</ele></trkpt>
   <trkpt lon="7.822657" lat="45.829681"><ele>1631.0</ele></trkpt>
   <trkpt lon="7.822635" lat="45.829754"><ele>1631.0</ele></trkpt>
   <trkpt lon="7.822641" lat="45.829789"><ele>1631.0</ele></trkpt>
   <trkpt lon="7.822677" lat="45.829841"><ele>1631.25</ele></trkpt>
   <trkpt lon="7.822707" lat="45.829881"><ele>1631.5</ele></trkpt>
   <trkpt lon="7.822729" lat="45.829900"><ele>1631.5</ele></trkpt>
   <trkpt lon="7.822775" lat="45.829940"><ele>1631.75</ele></trkpt>
   <trkpt lon="7.822850" lat="45.830067"><ele>1632.25</ele></trkpt>
   <trkpt lon="7.822862" lat="45.830109"><ele>1632.25</ele></trkpt>
   <trkpt lon="7.822856" lat="45.830142"><ele>1632.5</ele></trkpt>
   <trkpt lon="7.822784" lat="45.830363"><ele>1633.75</ele></trkpt>
   <trkpt lon="7.822878" lat="45.830394"><ele>1633.25</ele></trkpt>
   <trkpt lon="7.823057" lat="45.830474"><ele>1633.0</ele></trkpt>
   <trkpt lon="7.823074" lat="45.830481"><ele>1633.0</ele></trkpt>
   <trkpt lon="7.823121" lat="45.830500"><ele>1633.25</ele></trkpt>
   <trkpt lon="7.823374" lat="45.830180"><ele>1632.0</ele></trkpt>
   <trkpt lon="7.823607" lat="45.829936"><ele>1630.5</ele></trkpt>
   <trkpt lon="7.823740" lat="45.829834"><ele>1630.5</ele></trkpt>
   <trkpt lon="7.824072" lat="45.829577"><ele>1628.25</ele></trkpt>
   <trkpt lon="7.824410" lat="45.829318"><ele>1628.25</ele></trkpt>
   <trkpt lon="7.825013" lat="45.828855"><ele>1627.25</ele></trkpt>
   <trkpt lon="7.825136" lat="45.828761"><ele>1626.5</ele></trkpt>
   <trkpt lon="7.825144" lat="45.828754"><ele>1626.5</ele></trkpt>
   <trkpt lon="7.825201" lat="45.828710"><ele>1626.5</ele></trkpt>
   <trkpt lon="7.825261" lat="45.828765"><ele>1627.25</ele></trkpt>
   <trkpt lon="7.825298" lat="45.828832"><ele>1627.75</ele></trkpt>
   <trkpt lon="7.825384" lat="45.829166"><ele>1628.25</ele></trkpt>
   <trkpt lon="7.825456" lat="45.829242"><ele>1629.0</ele></trkpt>
   <trkpt lon="7.825550" lat="45.829294"><ele>1629.25</ele></trkpt>
   <trkpt lon="7.825685" lat="45.829329"><ele>1630.0</ele></trkpt>
   <trkpt lon="7.825876" lat="45.829344"><ele>1631.25</ele></trkpt>
   <trkpt lon="7.826228" lat="45.829391"><ele>1634.5</ele></trkpt>
   <trkpt lon="7.826309" lat="45.829426"><ele>1635.25</ele></trkpt>
   <trkpt lon="7.826373" lat="45.829490"><ele>1635.5</ele></trkpt>
   <trkpt lon="7.826410" lat="45.829580"><ele>1635.5</ele></trkpt>
   <trkpt lon="7.826396" lat="45.829674"><ele>1634.5</ele></trkpt>
   <trkpt lon="7.826356" lat="45.829726"><ele>1634.0</ele></trkpt>
   <trkpt lon="7.826366" lat="45.829799"><ele>1634.75</ele></trkpt>
   <trkpt lon="7.826294" lat="45.829978"><ele>1637.5</ele></trkpt>
   <trkpt lon="7.826309" lat="45.830032"><ele>1638.25</ele></trkpt>
   <trkpt lon="7.826356" lat="45.830057"><ele>1638.25</ele></trkpt>
   <trkpt lon="7.826366" lat="45.830081"><ele>1638.5</ele></trkpt>
   <trkpt lon="7.826360" lat="45.830146"><ele>1639.75</ele></trkpt>
   <trkpt lon="7.826365" lat="45.830188"><ele>1640.25</ele></trkpt>
   <trkpt lon="7.826397" lat="45.830305"><ele>1642.5</ele></trkpt>
   <trkpt lon="7.826557" lat="45.830488"><ele>1645.5</ele></trkpt>
   <trkpt lon="7.826718" lat="45.830603"><ele>1646.5</ele></trkpt>
   <trkpt lon="7.826799" lat="45.830680"><ele>1648.75</ele></trkpt>
   <trkpt lon="7.826885" lat="45.830778"><ele>1651.0</ele></trkpt>
   <trkpt lon="7.826858" lat="45.830843"><ele>1652.0</ele></trkpt>
   <trkpt lon="7.826787" lat="45.830912"><ele>1655.0</ele></trkpt>
   <trkpt lon="7.826730" lat="45.830952"><ele>1656.0</ele></trkpt>
   <trkpt lon="7.826656" lat="45.831071"><ele>1659.25</ele></trkpt>
   <trkpt lon="7.826570" lat="45.831174"><ele>1661.25</ele></trkpt>
   <trkpt lon="7.826515" lat="45.831255"><ele>1663.25</ele></trkpt>
   <trkpt lon="7.826543" lat="45.831293"><ele>1666.0</ele></trkpt>
   <trkpt lon="7.826581" lat="45.831310"><ele>1668.25</ele></trkpt>
   <trkpt lon="7.826679" lat="45.831281"><ele>1670.5</ele></trkpt>
   <trkpt lon="7.826732" lat="45.831257"><ele>1671.0</ele></trkpt>
   <trkpt lon="7.826780" lat="45.831223"><ele>1670.5</ele></trkpt>
   <trkpt lon="7.826829" lat="45.831230"><ele>1672.75</ele></trkpt>
   <trkpt lon="7.826805" lat="45.831285"><ele>1675.25</ele></trkpt>
   <trkpt lon="7.826734" lat="45.831365"><ele>1677.5</ele></trkpt>
   <trkpt lon="7.826696" lat="45.831542"><ele>1684.0</ele></trkpt>
   <trkpt lon="7.826700" lat="45.831641"><ele>1688.5</ele></trkpt>
   <trkpt lon="7.826736" lat="45.831750"><ele>1695.0</ele></trkpt>
   <trkpt lon="7.826779" lat="45.831799"><ele>1698.75</ele></trkpt>
   <trkpt lon="7.826867" lat="45.831750"><ele>1701.0</ele></trkpt>
   <trkpt lon="7.826901" lat="45.831701"><ele>1701.5</ele></trkpt>
   <trkpt lon="7.826955" lat="45.831691"><ele>1703.75</ele></trkpt>
   <trkpt lon="7.826965" lat="45.831743"><ele>1705.5</ele></trkpt>
   <trkpt lon="7.826946" lat="45.831800"><ele>1705.75</ele></trkpt>
   <trkpt lon="7.826946" lat="45.831856"><ele>1707.0</ele></trkpt>
   <trkpt lon="7.826996" lat="45.831867"><ele>1709.5</ele></trkpt>
   <trkpt lon="7.827044" lat="45.831853"><ele>1711.5</ele></trkpt>
   <trkpt lon="7.827093" lat="45.831786"><ele>1712.0</ele></trkpt>
   <trkpt lon="7.827176" lat="45.831811"><ele>1716.5</ele></trkpt>
   <trkpt lon="7.827216" lat="45.831857"><ele>1719.5</ele></trkpt>
   <trkpt lon="7.827274" lat="45.831845"><ele>1720.75</ele></trkpt>
   <trkpt lon="7.827347" lat="45.831855"><ele>1723.0</ele></trkpt>
   <trkpt lon="7.827419" lat="45.831897"><ele>1725.75</ele></trkpt>
   <trkpt lon="7.827495" lat="45.832021"><ele>1731.0</ele></trkpt>
   <trkpt lon="7.827548" lat="45.832069"><ele>1733.25</ele></trkpt>
   <trkpt lon="7.827623" lat="45.832087"><ele>1735.25</ele></trkpt>
   <trkpt lon="7.827703" lat="45.832084"><ele>1736.5</ele></trkpt>
   <trkpt lon="7.827747" lat="45.832118"><ele>1738.25</ele></trkpt>
   <trkpt lon="7.827729" lat="45.832172"><ele>1739.5</ele></trkpt>
   <trkpt lon="7.827626" lat="45.832255"><ele>1741.5</ele></trkpt>
   <trkpt lon="7.827530" lat="45.832306"><ele>1743.25</ele></trkpt>
   <trkpt lon="7.827470" lat="45.832360"><ele>1745.75</ele></trkpt>
   <trkpt lon="7.827531" lat="45.832389"><ele>1748.75</ele></trkpt>
   <trkpt lon="7.827685" lat="45.832370"><ele>1750.25</ele></trkpt>
   <trkpt lon="7.827785" lat="45.832390"><ele>1753.5</ele></trkpt>
   <trkpt lon="7.827690" lat="45.832471"><ele>1757.25</ele></trkpt>
   <trkpt lon="7.827724" lat="45.832527"><ele>1762.25</ele></trkpt>
   <trkpt lon="7.827875" lat="45.832541"><ele>1765.75</ele></trkpt>
   <trkpt lon="7.827959" lat="45.832579"><ele>1770.25</ele></trkpt>
   <trkpt lon="7.828043" lat="45.832588"><ele>1772.25</ele></trkpt>
   <trkpt lon="7.828181" lat="45.832619"><ele>1777.5</ele></trkpt>
   <trkpt lon="7.828193" lat="45.832656"><ele>1780.75</ele></trkpt>
   <trkpt lon="7.828170" lat="45.832685"><ele>1782.5</ele></trkpt>
   <trkpt lon="7.828059" lat="45.832680"><ele>1780.5</ele></trkpt>
   <trkpt lon="7.828039" lat="45.832718"><ele>1783.5</ele></trkpt>
   <trkpt lon="7.828220" lat="45.832744"><ele>1787.5</ele></trkpt>
   <trkpt lon="7.828231" lat="45.832772"><ele>1789.75</ele></trkpt>
   <trkpt lon="7.828197" lat="45.832795"><ele>1791.5</ele></trkpt>
   <trkpt lon="7.828091" lat="45.832809"><ele>1792.0</ele></trkpt>
   <trkpt lon="7.828094" lat="45.832837"><ele>1794.75</ele></trkpt>
   <trkpt lon="7.828186" lat="45.832851"><ele>1796.75</ele></trkpt>
   <trkpt lon="7.828208" lat="45.832891"><ele>1800.5</ele></trkpt>
   <trkpt lon="7.828190" lat="45.832914"><ele>1802.5</ele></trkpt>
   <trkpt lon="7.828067" lat="45.832930"><ele>1803.25</ele></trkpt>
   <trkpt lon="7.828043" lat="45.832994"><ele>1809.0</ele></trkpt>
   <trkpt lon="7.828136" lat="45.833023"><ele>1812.5</ele></trkpt>
   <trkpt lon="7.828433" lat="45.833093"><ele>1821.0</ele></trkpt>
   <trkpt lon="7.828519" lat="45.833105"><ele>1822.75</ele></trkpt>
   <trkpt lon="7.828604" lat="45.833105"><ele>1823.5</ele></trkpt>
   <trkpt lon="7.828582" lat="45.833154"><ele>1827.0</ele></trkpt>
   <trkpt lon="7.828598" lat="45.833202"><ele>1831.0</ele></trkpt>
   <trkpt lon="7.828542" lat="45.833234"><ele>1833.0</ele></trkpt>
   <trkpt lon="7.828547" lat="45.833256"><ele>1834.75</ele></trkpt>
   <trkpt lon="7.828494" lat="45.833285"><ele>1837.0</ele></trkpt>
   <trkpt lon="7.828582" lat="45.833294"><ele>1837.75</ele></trkpt>
   <trkpt lon="7.828491" lat="45.833348"><ele>1841.75</ele></trkpt>
   <trkpt lon="7.828557" lat="45.833373"><ele>1843.25</ele></trkpt>
   <trkpt lon="7.828536" lat="45.833397"><ele>1844.75</ele></trkpt>
   <trkpt lon="7.828165" lat="45.833486"><ele>1851.5</ele></trkpt>
   <trkpt lon="7.828413" lat="45.833550"><ele>1855.0</ele></trkpt>
   <trkpt lon="7.828477" lat="45.833595"><ele>1857.25</ele></trkpt>
   <trkpt lon="7.828574" lat="45.833651"><ele>1860.25</ele></trkpt>
   <trkpt lon="7.828699" lat="45.833662"><ele>1860.5</ele></trkpt>
   <trkpt lon="7.828751" lat="45.833695"><ele>1862.75</ele></trkpt>
   <trkpt lon="7.828804" lat="45.833757"><ele>1866.5</ele></trkpt>
   <trkpt lon="7.828929" lat="45.833776"><ele>1867.75</ele></trkpt>
   <trkpt lon="7.829030" lat="45.833784"><ele>1869.0</ele></trkpt>
   <trkpt lon="7.829119" lat="45.833812"><ele>1871.0</ele></trkpt>
   <trkpt lon="7.829211" lat="45.833815"><ele>1872.25</ele></trkpt>
   <trkpt lon="7.829293" lat="45.833848"><ele>1875.5</ele></trkpt>
   <trkpt lon="7.829282" lat="45.833914"><ele>1879.0</ele></trkpt>
   <trkpt lon="7.829179" lat="45.833951"><ele>1879.75</ele></trkpt>
   <trkpt lon="7.829107" lat="45.833998"><ele>1883.0</ele></trkpt>
   <trkpt lon="7.829061" lat="45.834064"><ele>1888.0</ele></trkpt>
   <trkpt lon="7.829077" lat="45.834191"><ele>1898.0</ele></trkpt>
   <trkpt lon="7.829026" lat="45.834207"><ele>1899.25</ele></trkpt>
   <trkpt lon="7.829000" lat="45.834226"><ele>1900.75</ele></trkpt>
   <trkpt lon="7.829005" lat="45.834274"><ele>1904.75</ele></trkpt>
   <trkpt lon="7.829035" lat="45.834299"><ele>1906.75</ele></trkpt>
   <trkpt lon="7.829080" lat="45.834319"><ele>1908.75</ele></trkpt>
   <trkpt lon="7.829122" lat="45.834333"><ele>1910.0</ele></trkpt>
   <trkpt lon="7.829159" lat="45.834335"><ele>1910.5</ele></trkpt>
   <trkpt lon="7.829263" lat="45.834419"><ele>1917.0</ele></trkpt>
   <trkpt lon="7.829291" lat="45.834461"><ele>1920.25</ele></trkpt>
   <trkpt lon="7.829328" lat="45.834469"><ele>1920.5</ele></trkpt>
   <trkpt lon="7.829406" lat="45.834501"><ele>1922.25</ele></trkpt>
   <trkpt lon="7.829483" lat="45.834575"><ele>1927.5</ele></trkpt>
   <trkpt lon="7.829557" lat="45.834625"><ele>1930.75</ele></trkpt>
   <trkpt lon="7.829688" lat="45.834700"><ele>1935.5</ele></trkpt>
   <trkpt lon="7.829764" lat="45.834776"><ele>1939.5</ele></trkpt>
   <trkpt lon="7.829851" lat="45.834838"><ele>1942.5</ele></trkpt>
   <trkpt lon="7.830023" lat="45.834939"><ele>1947.5</ele></trkpt>
   <trkpt lon="7.830084" lat="45.834983"><ele>1950.25</ele></trkpt>
   <trkpt lon="7.830144" lat="45.835014"><ele>1951.5</ele></trkpt>
   <trkpt lon="7.830199" lat="45.835079"><ele>1954.75</ele></trkpt>
   <trkpt lon="7.830125" lat="45.835153"><ele>1959.0</ele></trkpt>
   <trkpt lon="7.830017" lat="45.835217"><ele>1962.0</ele></trkpt>
   <trkpt lon="7.829940" lat="45.835288"><ele>1965.5</ele></trkpt>
   <trkpt lon="7.829934" lat="45.835424"><ele>1972.5</ele></trkpt>
   <trkpt lon="7.829912" lat="45.835483"><ele>1975.5</ele></trkpt>
   <trkpt lon="7.829905" lat="45.835559"><ele>1979.25</ele></trkpt>
   <trkpt lon="7.829950" lat="45.835626"><ele>1982.0</ele></trkpt>
   <trkpt lon="7.829969" lat="45.835701"><ele>1985.25</ele></trkpt>
   <trkpt lon="7.829936" lat="45.835843"><ele>1991.5</ele></trkpt>
   <trkpt lon="7.829960" lat="45.835899"><ele>1994.25</ele></trkpt>
   <trkpt lon="7.829934" lat="45.835955"><ele>1997.0</ele></trkpt>
   <trkpt lon="7.829857" lat="45.836020"><ele>1999.75</ele></trkpt>
   <trkpt lon="7.829784" lat="45.836107"><ele>2003.25</ele></trkpt>
   <trkpt lon="7.829552" lat="45.836290"><ele>2011.5</ele></trkpt>
   <trkpt lon="7.829501" lat="45.836391"><ele>2015.25</ele></trkpt>
   <trkpt lon="7.829615" lat="45.836496"><ele>2021.75</ele></trkpt>
   <trkpt lon="7.829536" lat="45.836551"><ele>2024.25</ele></trkpt>
   <trkpt lon="7.829361" lat="45.836598"><ele>2027.25</ele></trkpt>
   <trkpt lon="7.829347" lat="45.836741"><ele>2036.0</ele></trkpt>
   <trkpt lon="7.829371" lat="45.836805"><ele>2040.25</ele></trkpt>
   <trkpt lon="7.829411" lat="45.836855"><ele>2043.5</ele></trkpt>
   <trkpt lon="7.829526" lat="45.836930"><ele>2049.0</ele></trkpt>
   <trkpt lon="7.829458" lat="45.836995"><ele>2053.25</ele></trkpt>
   <trkpt lon="7.829303" lat="45.837046"><ele>2056.0</ele></trkpt>
   <trkpt lon="7.829276" lat="45.837063"><ele>2057.0</ele></trkpt>
   <trkpt lon="7.829245" lat="45.837109"><ele>2059.75</ele></trkpt>
   <trkpt lon="7.829224" lat="45.837220"><ele>2066.25</ele></trkpt>
   <trkpt lon="7.829011" lat="45.837339"><ele>2075.75</ele></trkpt>
   <trkpt lon="7.829072" lat="45.837437"><ele>2080.5</ele></trkpt>
   <trkpt lon="7.829200" lat="45.837519"><ele>2085.25</ele></trkpt>
   <trkpt lon="7.829343" lat="45.837580"><ele>2090.5</ele></trkpt>
   <trkpt lon="7.829370" lat="45.837616"><ele>2092.75</ele></trkpt>
   <trkpt lon="7.829390" lat="45.837675"><ele>2096.25</ele></trkpt>
   <trkpt lon="7.829374" lat="45.837726"><ele>2099.25</ele></trkpt>
   <trkpt lon="7.829476" lat="45.837815"><ele>2105.0</ele></trkpt>
   <trkpt lon="7.829613" lat="45.837882"><ele>2110.25</ele></trkpt>
   <trkpt lon="7.829753" lat="45.837910"><ele>2114.25</ele></trkpt>
   <trkpt lon="7.829792" lat="45.837935"><ele>2116.0</ele></trkpt>
   <trkpt lon="7.829775" lat="45.837989"><ele>2119.25</ele></trkpt>
   <trkpt lon="7.829699" lat="45.838032"><ele>2120.75</ele></trkpt>
   <trkpt lon="7.829751" lat="45.838127"><ele>2124.0</ele></trkpt>
   <trkpt lon="7.829899" lat="45.838212"><ele>2128.75</ele></trkpt>
   <trkpt lon="7.830039" lat="45.838271"><ele>2133.5</ele></trkpt>
   <trkpt lon="7.830205" lat="45.838375"><ele>2137.0</ele></trkpt>
   <trkpt lon="7.830273" lat="45.838452"><ele>2138.5</ele></trkpt>
   <trkpt lon="7.830351" lat="45.838570"><ele>2141.5</ele></trkpt>
   <trkpt lon="7.830512" lat="45.838697"><ele>2146.5</ele></trkpt>
   <trkpt lon="7.830673" lat="45.838760"><ele>2148.75</ele></trkpt>
   <trkpt lon="7.830703" lat="45.838842"><ele>2150.25</ele></trkpt>
   <trkpt lon="7.830705" lat="45.838874"><ele>2150.75</ele></trkpt>
   <trkpt lon="7.830754" lat="45.838899"><ele>2152.0</ele></trkpt>
   <trkpt lon="7.830669" lat="45.838986"><ele>2157.0</ele></trkpt>
   <trkpt lon="7.830710" lat="45.839045"><ele>2161.0</ele></trkpt>
   <trkpt lon="7.830918" lat="45.839129"><ele>2166.75</ele></trkpt>
   <trkpt lon="7.830885" lat="45.839181"><ele>2170.0</ele></trkpt>
   <trkpt lon="7.831084" lat="45.839209"><ele>2174.0</ele></trkpt>
   <trkpt lon="7.831287" lat="45.839204"><ele>2176.0</ele></trkpt>
   <trkpt lon="7.831431" lat="45.839166"><ele>2176.0</ele></trkpt>
   <trkpt lon="7.831521" lat="45.839121"><ele>2177.0</ele></trkpt>
   <trkpt lon="7.831551" lat="45.839057"><ele>2175.25</ele></trkpt>
   <trkpt lon="7.831606" lat="45.839030"><ele>2175.5</ele></trkpt>
   <trkpt lon="7.831828" lat="45.839151"><ele>2187.5</ele></trkpt>
   <trkpt lon="7.831847" lat="45.839197"><ele>2189.75</ele></trkpt>
   <trkpt lon="7.831841" lat="45.839257"><ele>2192.0</ele></trkpt>
   <trkpt lon="7.831853" lat="45.839282"><ele>2193.25</ele></trkpt>
   <trkpt lon="7.831883" lat="45.839290"><ele>2194.5</ele></trkpt>
   <trkpt lon="7.831934" lat="45.839263"><ele>2195.0</ele></trkpt>
   <trkpt lon="7.832059" lat="45.839236"><ele>2197.75</ele></trkpt>
   <trkpt lon="7.832148" lat="45.839250"><ele>2201.0</ele></trkpt>
   <trkpt lon="7.832304" lat="45.839255"><ele>2206.0</ele></trkpt>
   <trkpt lon="7.832337" lat="45.839272"><ele>2207.75</ele></trkpt>
   <trkpt lon="7.832336" lat="45.839309"><ele>2209.0</ele></trkpt>
   <trkpt lon="7.832310" lat="45.839390"><ele>2211.0</ele></trkpt>
   <trkpt lon="7.832258" lat="45.839504"><ele>2214.5</ele></trkpt>
   <trkpt lon="7.832166" lat="45.839662"><ele>2219.75</ele></trkpt>
   <trkpt lon="7.832137" lat="45.839806"><ele>2224.75</ele></trkpt>
   <trkpt lon="7.832226" lat="45.839946"><ele>2228.75</ele></trkpt>
   <trkpt lon="7.832366" lat="45.839933"><ele>2228.25</ele></trkpt>
   <trkpt lon="7.832700" lat="45.839860"><ele>2235.0</ele></trkpt>
   <trkpt lon="7.832776" lat="45.839824"><ele>2237.25</ele></trkpt>
   <trkpt lon="7.832913" lat="45.839682"><ele>2238.5</ele></trkpt>
   <trkpt lon="7.832992" lat="45.839620"><ele>2239.25</ele></trkpt>
   <trkpt lon="7.833109" lat="45.839563"><ele>2241.75</ele></trkpt>
   <trkpt lon="7.833221" lat="45.839554"><ele>2245.25</ele></trkpt>
   <trkpt lon="7.833314" lat="45.839519"><ele>2247.75</ele></trkpt>
   <trkpt lon="7.833409" lat="45.839454"><ele>2248.25</ele></trkpt>
   <trkpt lon="7.833492" lat="45.839432"><ele>2248.25</ele></trkpt>
   <trkpt lon="7.833570" lat="45.839455"><ele>2250.75</ele></trkpt>
   <trkpt lon="7.833776" lat="45.839562"><ele>2254.25</ele></trkpt>
   <trkpt lon="7.833947" lat="45.839636"><ele>2258.0</ele></trkpt>
   <trkpt lon="7.834198" lat="45.839771"><ele>2260.0</ele></trkpt>
   <trkpt lon="7.834277" lat="45.839862"><ele>2260.0</ele></trkpt>
   <trkpt lon="7.834339" lat="45.839980"><ele>2260.5</ele></trkpt>
   <trkpt lon="7.834341" lat="45.840071"><ele>2260.75</ele></trkpt>
   <trkpt lon="7.834349" lat="45.840107"><ele>2260.25</ele></trkpt>
   <trkpt lon="7.834422" lat="45.840288"><ele>2258.5</ele></trkpt>
   <trkpt lon="7.834451" lat="45.840396"><ele>2259.0</ele></trkpt>
   <trkpt lon="7.834506" lat="45.840510"><ele>2258.0</ele></trkpt>
   <trkpt lon="7.834542" lat="45.840619"><ele>2259.25</ele></trkpt>
   <trkpt lon="7.834634" lat="45.840742"><ele>2260.75</ele></trkpt>
   <trkpt lon="7.834865" lat="45.840994"><ele>2266.5</ele></trkpt>
   <trkpt lon="7.835014" lat="45.841086"><ele>2268.25</ele></trkpt>
   <trkpt lon="7.835176" lat="45.841134"><ele>2269.5</ele></trkpt>
   <trkpt lon="7.835323" lat="45.841168"><ele>2270.25</ele></trkpt>
   <trkpt lon="7.835582" lat="45.841257"><ele>2271.75</ele></trkpt>
   <trkpt lon="7.835658" lat="45.841370"><ele>2276.75</ele></trkpt>
   <trkpt lon="7.835751" lat="45.841584"><ele>2279.25</ele></trkpt>
   <trkpt lon="7.835827" lat="45.841685"><ele>2277.75</ele></trkpt>
   <trkpt lon="7.835891" lat="45.841805"><ele>2277.25</ele></trkpt>
   <trkpt lon="7.835931" lat="45.841899"><ele>2276.5</ele></trkpt>
   <trkpt lon="7.836006" lat="45.842011"><ele>2276.25</ele></trkpt>
   <trkpt lon="7.836104" lat="45.842134"><ele>2276.25</ele></trkpt>
   <trkpt lon="7.836159" lat="45.842231"><ele>2279.0</ele></trkpt>
   <trkpt lon="7.836220" lat="45.842364"><ele>2284.0</ele></trkpt>
   <trkpt lon="7.836353" lat="45.842470"><ele>2282.75</ele></trkpt>
   <trkpt lon="7.836473" lat="45.842518"><ele>2281.75</ele></trkpt>
   <trkpt lon="7.836705" lat="45.842559"><ele>2280.25</ele></trkpt>
   <trkpt lon="7.836884" lat="45.842628"><ele>2279.75</ele></trkpt>
   <trkpt lon="7.837028" lat="45.842652"><ele>2283.25</ele></trkpt>
   <trkpt lon="7.837123" lat="45.842597"><ele>2287.5</ele></trkpt>
   <trkpt lon="7.837113" lat="45.842508"><ele>2286.25</ele></trkpt>
   <trkpt lon="7.837185" lat="45.842469"><ele>2289.25</ele></trkpt>
   <trkpt lon="7.837286" lat="45.842517"><ele>2294.5</ele></trkpt>
   <trkpt lon="7.837424" lat="45.842798"><ele>2306.5</ele></trkpt>
   <trkpt lon="7.837501" lat="45.842811"><ele>2311.5</ele></trkpt>
   <trkpt lon="7.837568" lat="45.842766"><ele>2315.25</ele></trkpt>
   <trkpt lon="7.837618" lat="45.842677"><ele>2316.25</ele></trkpt>
   <trkpt lon="7.837959" lat="45.842342"><ele>2325.5</ele></trkpt>
   <trkpt lon="7.838016" lat="45.842146"><ele>2328.25</ele></trkpt>
   <trkpt lon="7.838084" lat="45.842089"><ele>2330.25</ele></trkpt>
   <trkpt lon="7.838176" lat="45.842055"><ele>2333.0</ele></trkpt>
   <trkpt lon="7.838341" lat="45.842015"><ele>2338.0</ele></trkpt>
   <trkpt lon="7.838376" lat="45.841892"><ele>2341.5</ele></trkpt>
   <trkpt lon="7.838442" lat="45.841845"><ele>2345.75</ele></trkpt>
   <trkpt lon="7.838472" lat="45.841737"><ele>2350.0</ele></trkpt>
   <trkpt lon="7.838480" lat="45.841596"><ele>2352.5</ele></trkpt>
   <trkpt lon="7.838509" lat="45.841435"><ele>2354.25</ele></trkpt>
   <trkpt lon="7.838618" lat="45.841403"><ele>2358.0</ele></trkpt>
   <trkpt lon="7.838798" lat="45.841441"><ele>2361.5</ele></trkpt>
   <trkpt lon="7.839347" lat="45.841587"><ele>2368.25</ele></trkpt>
   <trkpt lon="7.839695" lat="45.841700"><ele>2363.5</ele></trkpt>
   <trkpt lon="7.839882" lat="45.841836"><ele>2365.75</ele></trkpt>
   <trkpt lon="7.839974" lat="45.841917"><ele>2368.0</ele></trkpt>
   <trkpt lon="7.839971" lat="45.841950"><ele>2370.25</ele></trkpt>
   <trkpt lon="7.840154" lat="45.842069"><ele>2371.0</ele></trkpt>
   <trkpt lon="7.840283" lat="45.842097"><ele>2368.25</ele></trkpt>
   <trkpt lon="7.840382" lat="45.842106"><ele>2364.75</ele></trkpt>
   <trkpt lon="7.840478" lat="45.842156"><ele>2364.75</ele></trkpt>
   <trkpt lon="7.840580" lat="45.842295"><ele>2367.5</ele></trkpt>
   <trkpt lon="7.840644" lat="45.842410"><ele>2366.75</ele></trkpt>
   <trkpt lon="7.840730" lat="45.842607"><ele>2367.25</ele></trkpt>
   <trkpt lon="7.840871" lat="45.842825"><ele>2367.5</ele></trkpt>
   <trkpt lon="7.840972" lat="45.842955"><ele>2369.0</ele></trkpt>
   <trkpt lon="7.841086" lat="45.843068"><ele>2368.5</ele></trkpt>
   <trkpt lon="7.841346" lat="45.843276"><ele>2367.5</ele></trkpt>
   <trkpt lon="7.841620" lat="45.843449"><ele>2365.0</ele></trkpt>
   <trkpt lon="7.841728" lat="45.843529"><ele>2365.0</ele></trkpt>
   <trkpt lon="7.841836" lat="45.843629"><ele>2366.5</ele></trkpt>
   <trkpt lon="7.841920" lat="45.843721"><ele>2369.0</ele></trkpt>
   <trkpt lon="7.842004" lat="45.843769"><ele>2368.25</ele></trkpt>
   <trkpt lon="7.842124" lat="45.843836"><ele>2366.5</ele></trkpt>
   <trkpt lon="7.842190" lat="45.843890"><ele>2366.5</ele></trkpt>
   <trkpt lon="7.842256" lat="45.844060"><ele>2366.5</ele></trkpt>
   <trkpt lon="7.842268" lat="45.844143"><ele>2368.0</ele></trkpt>
   <trkpt lon="7.842328" lat="45.844340"><ele>2369.25</ele></trkpt>
   <trkpt lon="7.842370" lat="45.844415"><ele>2369.0</ele></trkpt>
   <trkpt lon="7.842427" lat="45.844487"><ele>2368.5</ele></trkpt>
   <trkpt lon="7.842505" lat="45.844565"><ele>2367.5</ele></trkpt>
   <trkpt lon="7.842689" lat="45.844641"><ele>2367.75</ele></trkpt>
   <trkpt lon="7.842866" lat="45.844673"><ele>2365.75</ele></trkpt>
   <trkpt lon="7.842989" lat="45.844717"><ele>2364.25</ele></trkpt>
   <trkpt lon="7.843076" lat="45.844806"><ele>2364.75</ele></trkpt>
   <trkpt lon="7.843147" lat="45.844910"><ele>2365.25</ele></trkpt>
   <trkpt lon="7.843184" lat="45.845023"><ele>2366.5</ele></trkpt>
   <trkpt lon="7.843278" lat="45.845114"><ele>2366.75</ele></trkpt>
   <trkpt lon="7.843432" lat="45.845179"><ele>2365.75</ele></trkpt>
   <trkpt lon="7.843604" lat="45.845234"><ele>2365.75</ele></trkpt>
   <trkpt lon="7.843792" lat="45.845253"><ele>2364.75</ele></trkpt>
   <trkpt lon="7.843893" lat="45.845273"><ele>2365.5</ele></trkpt>
   <trkpt lon="7.843983" lat="45.845341"><ele>2367.75</ele></trkpt>
   <trkpt lon="7.844111" lat="45.845454"><ele>2372.5</ele></trkpt>
   <trkpt lon="7.844111" lat="45.845495"><ele>2375.0</ele></trkpt>
   <trkpt lon="7.844189" lat="45.845584"><ele>2378.5</ele></trkpt>
   <trkpt lon="7.844309" lat="45.845668"><ele>2378.5</ele></trkpt>
   <trkpt lon="7.844407" lat="45.845778"><ele>2379.25</ele></trkpt>
   <trkpt lon="7.844437" lat="45.845864"><ele>2381.5</ele></trkpt>
   <trkpt lon="7.844430" lat="45.845945"><ele>2385.0</ele></trkpt>
   <trkpt lon="7.844505" lat="45.846042"><ele>2387.25</ele></trkpt>
   <trkpt lon="7.844531" lat="45.846193"><ele>2392.0</ele></trkpt>
   <trkpt lon="7.844621" lat="45.846399"><ele>2392.75</ele></trkpt>
   <trkpt lon="7.844591" lat="45.846480"><ele>2393.75</ele></trkpt>
   <trkpt lon="7.844662" lat="45.846473"><ele>2390.25</ele></trkpt>
   <trkpt lon="7.844681" lat="45.846517"><ele>2388.75</ele></trkpt>
   <trkpt lon="7.844733" lat="45.846491"><ele>2386.25</ele></trkpt>
   <trkpt lon="7.844771" lat="45.846507"><ele>2383.25</ele></trkpt>
   <trkpt lon="7.844760" lat="45.846616"><ele>2382.0</ele></trkpt>
   <trkpt lon="7.844767" lat="45.846703"><ele>2380.25</ele></trkpt>
   <trkpt lon="7.844850" lat="45.846789"><ele>2373.5</ele></trkpt>
   <trkpt lon="7.844689" lat="45.846804"><ele>2385.25</ele></trkpt>
   <trkpt lon="7.844651" lat="45.846875"><ele>2388.25</ele></trkpt>
   <trkpt lon="7.844662" lat="45.846946"><ele>2387.0</ele></trkpt>
   <trkpt lon="7.844700" lat="45.847032"><ele>2386.0</ele></trkpt>
   <trkpt lon="7.844748" lat="45.847308"><ele>2389.75</ele></trkpt>
   <trkpt lon="7.844834" lat="45.847454"><ele>2386.0</ele></trkpt>
   <trkpt lon="7.844850" lat="45.847607"><ele>2385.75</ele></trkpt>
   <trkpt lon="7.844850" lat="45.847746"><ele>2386.25</ele></trkpt>
   <trkpt lon="7.844978" lat="45.848093"><ele>2383.5</ele></trkpt>
   <trkpt lon="7.845150" lat="45.848328"><ele>2386.75</ele></trkpt>
   <trkpt lon="7.845249" lat="45.848428"><ele>2390.75</ele></trkpt>
   <trkpt lon="7.845215" lat="45.848463"><ele>2394.25</ele></trkpt>
   <trkpt lon="7.845448" lat="45.848764"><ele>2401.5</ele></trkpt>
   <trkpt lon="7.845476" lat="45.848828"><ele>2401.0</ele></trkpt>
   <trkpt lon="7.845692" lat="45.849016"><ele>2389.75</ele></trkpt>
   <trkpt lon="7.845767" lat="45.849085"><ele>2384.5</ele></trkpt>
   <trkpt lon="7.845802" lat="45.849175"><ele>2382.75</ele></trkpt>
   <trkpt lon="7.845842" lat="45.849235"><ele>2381.75</ele></trkpt>
   <trkpt lon="7.845947" lat="45.849354"><ele>2381.75</ele></trkpt>
   <trkpt lon="7.845979" lat="45.849475"><ele>2384.5</ele></trkpt>
   <trkpt lon="7.846086" lat="45.849625"><ele>2384.25</ele></trkpt>
   <trkpt lon="7.846365" lat="45.849810"><ele>2381.5</ele></trkpt>
   <trkpt lon="7.846625" lat="45.849870"><ele>2373.5</ele></trkpt>
   <trkpt lon="7.846941" lat="45.849892"><ele>2364.25</ele></trkpt>
   <trkpt lon="7.847126" lat="45.850088"><ele>2364.0</ele></trkpt>
  </trkseg>
 </trk>
</gpx>
