{"type":"FeatureCollection","features":[{"type":"Feature","properties":{"slug":"02-s11","sct_code":"02_S11","source":"Catasto Sentieri VdA"},"geometry":{"type":"LineString","coordinates":[[7.580061079282223,45.81797000878488,1092],[7.580482152104423,45.818062354100704,1117],[7.581092008166239,45.818427256963695,1142],[7.580552008715345,45.818987257241105,1166],[7.581842008210943,45.818897257160614,1191],[7.582462008215061,45.81851725641525,1216],[7.582982008004125,45.81863725691877,1241],[7.583082007540732,45.818937257123196,1265],[7.583432008377342,45.81872725722785,1290],[7.583282008252106,45.81939725756431,1315],[7.583982008210462,45.81906725694795,1340],[7.584182008468172,45.819457257753875,1364],[7.5840720078529005,45.819737257328846,1389],[7.584030007760767,45.820188257910075,1414],[7.5849720082890375,45.82092725879128,1439],[7.585782007943904,45.82087725890361,1463],[7.586342007567541,45.8207672584038,1488],[7.587906018854762,45.81841802870418,1513],[7.588173275549149,45.818494724908916,1538],[7.588684907833822,45.81859291222095,1562],[7.589090361083816,45.81859792047112,1587],[7.589530077276092,45.818603350317616,1612]]}}]}