{"type":"FeatureCollection","features":[{"type":"Feature","properties":{"slug":"02-s23","sct_code":"02_S23","source":"Catasto Sentieri VdA"},"geometry":{"type":"LineString","coordinates":[[7.600530008444053,45.79134823324038,1005],[7.6005246568392275,45.79126515286885,1006],[7.600474031020484,45.79123590130396,1007],[7.6004001866680655,45.791178570940104,1009],[7.600330952837079,45.791144961018865,1010],[7.600259371923521,45.79112786333621,1011],[7.6001867863754695,45.79109919851162,1012],[7.600176475672312,45.79105192597402,1013],[7.600168679730505,45.79098160347849,1014],[7.600136745840386,45.791005994020686,1016],[7.600094502492774,45.79106039174739,1017],[7.600037591821992,45.791089979961335,1018],[7.5999787518126585,45.791110347835044,1019],[7.599902898104141,45.7911095945959,1020],[7.599828551895207,45.7911112710059,1022],[7.599790583064415,45.79112736466435,1023],[7.59975563175087,45.79113557939534,1024],[7.599745321159242,45.79111898307756,1025],[7.599734090226089,45.7911095956441,1026],[7.599738951297938,45.79110146571342,1027],[7.599762671441872,45.79108906041775,1029],[7.599778596184826,45.79108872548506,1030],[7.599745069427199,45.791072632138984,1031],[7.599703495140943,45.79105746168952,1032],[7.599626132745551,45.79105905509325,1033],[7.599581457765483,45.79103977838265,1035],[7.59959646076366,45.791014297499416,1036],[7.599622861445172,45.79097331083959,1037],[7.599652532411027,45.79092637265736,1038],[7.59968572306625,45.790901227216544,1039],[7.599674910813975,45.790883961408625,1041],[7.599667449840881,45.79084934509669,1042],[7.599688235317837,45.79077390964115,1043],[7.5997029025008445,45.790707023422115,1044],[7.599725782646924,45.79064642388726,1045],[7.599754950276324,45.79057149078303,1046],[7.5997848713222815,45.79050695163342,1048],[7.599803393284144,45.79043763482125,1049],[7.599844714367883,45.79039036145595,1050],[7.599899613709292,45.79035716920179,1051],[7.599935151666525,45.790319702926794,1052],[7.599919980075665,45.79029439040601,1054],[7.599900031687143,45.79026865841961,1055],[7.599916374832993,45.79024384914973,1056],[7.599937160952778,45.79020797516386,1057],[7.599995497075938,45.790144189223426,1058],[7.5999807444545695,45.790095827170475,1059],[7.599931710324724,45.79008752993181,1061],[7.599912180349479,45.79007093403971,1062],[7.599905810312077,45.79003313324643,1063],[7.599887704425421,45.78998284268628,1064],[7.599870185577169,45.78994034741466,1065],[7.599901280788676,45.78989332581127,1067],[7.599902202702275,45.78985024471408,1068],[7.599873955153211,45.78981227568639,1069],[7.599842522270171,45.78976022509387,1070],[7.599809246265597,45.7897209991563,1071],[7.5997958362287985,45.78973323652146,1072],[7.599769434850681,45.78977397210785,1074],[7.599785947356996,45.78982099309261,1075],[7.599752421433545,45.789863405437416,1076],[7.599712859843803,45.789901877191156,1077],[7.599678496278588,45.78997069109191,1078],[7.599589651378243,45.789996842774336,1080],[7.599511030977756,45.790032382107974,1081],[7.599425203098812,45.790047637792725,1082],[7.59934197246395,45.79007286716439,1083],[7.599282462821566,45.79009457654056,1084],[7.599202502302325,45.790118632645424,1085],[7.5991331861409135,45.79015785989132,1087],[7.5990889303990645,45.79017898218289,1088],[7.599029421413223,45.79019172337831,1089],[7.5989685694378775,45.79019583103306,1090],[7.598919704262804,45.79020379386005,1091],[7.598900679262483,45.7902413435454,1093],[7.598880061082144,45.790284760886586,1094],[7.5988724332729465,45.79030831423428,1095],[7.598880397135939,45.79034368470767,1096],[7.598868243639668,45.79036480642584,1097],[7.598861874576304,45.79038022889674,1099],[7.598843349945294,45.79037578677128,1100],[7.598826587474654,45.790376290407316,1101],[7.598826754782245,45.790396154670326,1102],[7.598829604971896,45.790416773677066,1103],[7.598821475888439,45.79046027488782,1104],[7.598793648766438,45.79047787688065,1106],[7.598789123369605,45.7905131634708,1107],[7.598780491071171,45.79053495570159,1108],[7.598778060271207,45.79056957224785,1109],[7.598720982587134,45.79065791634775,1110],[7.598668346637962,45.79069110789779,1112],[7.598630209222047,45.79068892907463,1113],[7.598607242152611,45.79061760131581,1114],[7.598533985111833,45.79056789853008,1115],[7.5984481553118535,45.790529762740206,1116],[7.598369366545665,45.79049816390442,1117],[7.598355620662624,45.79048282587564,1119],[7.59832192584726,45.79048634654578,1120],[7.5982730596839865,45.79044686946972,1121],[7.598212375981475,45.79040479383575,1122],[7.598172309438088,45.79036313677883,1123],[7.598134843528496,45.790329108008294,1125],[7.598112632319284,45.790336902549136,1126],[7.598107435384564,45.790325839313155,1127],[7.598102656129927,45.790292731879994,1128],[7.5980604119795,45.79025778040233,1129],[7.59803258464543,45.79023372538643,1130],[7.598011713486353,45.79019039214868,1132],[7.597989919421918,45.790167342713914,1133],[7.59798690100421,45.79012040517984,1134],[7.597968126192994,45.79007966999265,1135],[7.5979644355517015,45.789995769223594,1136],[7.597946833417557,45.78994598226224,1138],[7.597977006799194,45.789906336544604,1139],[7.597978850106262,45.789883622208286,1140],[7.597965103322184,45.789850681922154,1141],[7.597952111464843,45.7898401215404,1142],[7.597939287580874,45.78982671097329,1143],[7.597943645299129,45.78978622728958,1145],[7.597945236730098,45.789735182717024,1146],[7.5979225210847305,45.78968455715041,1147],[7.597898632508156,45.78965849023649,1148],[7.597878601732486,45.78968405499983,1149],[7.597796291972445,45.78962362367788,1151],[7.597797296143401,45.78956260478883,1152],[7.59780441947651,45.78949798162134,1153],[7.597798969854987,45.78944718903976,1154],[7.59778011062335,45.7893819796308,1155],[7.597759658030497,45.78932397802882,1156],[7.597781617253851,45.78928902607534,1158],[7.5977718934268585,45.78923496426149,1159],[7.597799216629464,45.78920856197939,1160],[7.5977987130929066,45.78917000592867,1161],[7.59782125891774,45.78909842569435,1162],[7.597829388536498,45.78903958686705,1164],[7.597840869474286,45.78898644596278,1165],[7.597854446685879,45.78893271965553,1166],[7.597867773188322,45.78889894158956,1167],[7.597893923208177,45.78885108128685,1168],[7.597880763963995,45.78881252560839,1170],[7.597838351277933,45.788779418865204,1171],[7.597794177922393,45.78872602775748,1172],[7.597752101591352,45.78871773037996,1173],[7.5977433852786636,45.78875092149107,1174],[7.597730561111994,45.78873466134859,1175],[7.597710529167969,45.7887393549037,1177],[7.597689742664708,45.78876592561276,1178],[7.59763040062575,45.78875159294512,1179],[7.5975853067215,45.7887376799767,1180],[7.597534596654756,45.788752097194966,1181],[7.597495705630409,45.788734831167666,1183],[7.59748439035248,45.78875679107765,1184],[7.597448517392605,45.788738351526106,1185],[7.597407028065063,45.78875142742199,1186],[7.597370231334847,45.78869560569086,1187],[7.597365787029535,45.78865101504207,1188],[7.597301583890223,45.78867507158508,1190],[7.597257664226887,45.7887096880891,1191],[7.597242326759715,45.78872561327902,1192],[7.597246601912365,45.78875612333447,1193],[7.597165132289249,45.78879811630541,1194],[7.5971161849228785,45.78888486738405,1196],[7.5970239864284625,45.788910767979935,1197],[7.5969539150242404,45.78892174839097,1198],[7.596954083360478,45.78896533338791,1199],[7.596908990778528,45.78900171024142,1200],[7.596849732638254,45.78902601717533,1201],[7.596805393917054,45.78907228485254,1203],[7.596763905083104,45.78910229218611,1204],[7.596737336114347,45.78912492239283,1205],[7.5967404372664,45.78915098981772,1206],[7.596708503625593,45.78915459374931,1207],[7.596667182726876,45.78919692204004,1209],[7.5966886407680745,45.789272944311165,1210],[7.596611112133625,45.78936346717327,1211],[7.596551938466301,45.789417445904945,1212],[7.596471305954382,45.78942490579719,1213],[7.596432751024656,45.78946153469184,1214],[7.596422357609875,45.78950050948922,1216],[7.596389084098789,45.78954476544564,1217],[7.596331585130487,45.7895465259715,1218],[7.596325047307019,45.78954292195832,1219],[7.596283559115006,45.78959086523906,1220],[7.5962170093603465,45.78967803595787,1222],[7.596210304607134,45.789711311069276,1223],[7.59615750072644,45.78976612840761,1224],[7.596113666351482,45.789812143695976,1225],[7.596086508727454,45.78980644476989,1226],[7.596067063000236,45.78980585837083,1228],[7.596040242756344,45.78983083624492,1229],[7.596019623799046,45.789852377448405,1230],[7.596021301114534,45.789893531061075,1231],[7.596002945419525,45.78994206185223,1232],[7.595995905744018,45.78999394398244,1233],[7.595939162610792,45.7900447382,1235],[7.595885771902936,45.79007935476801,1236],[7.595853590632049,45.790129011664334,1237],[7.595818751121182,45.79016771201969,1238],[7.595793877666942,45.79024409828271,1239],[7.595805766239506,45.79032131624444,1241],[7.59580732470626,45.79038671203104,1242],[7.595835404140746,45.79041898180608,1243],[7.595885947072362,45.790462985265634,1244],[7.5959219891913925,45.79049341059167,1245],[7.595914278162581,45.79052785957362,1246],[7.595923679630523,45.79056088260234,1248],[7.595918134577563,45.790594894682584,1249],[7.595865576434148,45.790697818746544,1250]]}}]}