{"type":"FeatureCollection","features":[{"type":"Feature","properties":{"slug":"02-s24","sct_code":"02_S24","source":"Catasto Sentieri VdA"},"geometry":{"type":"LineString","coordinates":[[7.595865576434148,45.790697818746544,1005],[7.595701007825951,45.79098823330525,1013],[7.595891008329679,45.79106823285778,1021],[7.595721008245461,45.79143823381171,1029],[7.595871007682392,45.79164823388029,1038],[7.596091008215051,45.79170823379643,1046],[7.596061008426736,45.79181823410536,1054],[7.5965610082911255,45.791798234268875,1062],[7.596491008516222,45.79192823370436,1070],[7.597031008366369,45.79209823414103,1078],[7.597611008745983,45.79194823395398,1087],[7.598001008664141,45.79273823421916,1095],[7.598460008121061,45.79296823521934,1103],[7.598810008016259,45.792998234939986,1111],[7.599071007854486,45.792438234336934,1119],[7.599261008372613,45.792418234102804,1127],[7.599351007822185,45.79224823446486,1136],[7.599541007915953,45.792168234024274,1144],[7.599821008711009,45.79218823433003,1152],[7.600461007823831,45.79173823362785,1160],[7.600530008444053,45.79134823324038,1168],[7.600721008490849,45.79065823260246,1176],[7.601041007615593,45.790708233257675,1184],[7.6012410075709465,45.79138823310772,1193],[7.6017656320827545,45.79132302188977,1201],[7.601894944840138,45.791554116214456,1209],[7.602122252399359,45.791853912974354,1217],[7.6021860100688095,45.792005450767974,1225],[7.602213900577138,45.79230505716858,1233],[7.602337808479156,45.792623839249394,1242],[7.602353671326723,45.79276129025484,1250],[7.602551483452987,45.7930832263602,1258],[7.602964699134311,45.793538303109855,1266],[7.603079405113929,45.79371071442865,1274],[7.603112933768873,45.79391363460394,1282],[7.603111832792384,45.794215136289075,1291],[7.603226496224904,45.794518053467414,1299],[7.603215725029881,45.79456292402498,1307],[7.603150061049368,45.794616123835844,1315]]}}]}