{"type":"FeatureCollection","features":[{"type":"Feature","properties":{"slug":"02-s8","sct_code":"02_S8","source":"Catasto Sentieri VdA"},"geometry":{"type":"LineString","coordinates":[[7.589190359906063,45.80451310730323,1015],[7.589135992012914,45.80451215594583,1015],[7.589088408872969,45.80449590481011,1015],[7.589027515120356,45.80446829990861,1015],[7.588968757167921,45.804419463220206,1015],[7.588852331290929,45.80431033485755,1015],[7.588775368660543,45.80415889770068,1015],[7.588942010039028,45.803597244269426,1015],[7.58890200779951,45.80336724434597,1015],[7.588452007867749,45.80308724350281,1015],[7.588302010160405,45.80095824176354,1015],[7.587592008792346,45.80059824132851,1015],[7.587482009213627,45.799888240255854,1015],[7.58705200937599,45.79952824023483,1015],[7.58679222108687,45.79913202405642,1015],[7.586586175390619,45.79900711474268,1015],[7.586401245350723,45.79894182339259,1015],[7.586314060816412,45.79889124205775,1015],[7.5861683292698725,45.79872292936515,1015],[7.586088979492388,45.79853743901386,1015],[7.585999747469508,45.79834911984691,1015],[7.585961599324513,45.798247848037434,1015],[7.586006306712143,45.79787938305513,1015],[7.5859830838595785,45.79778009067466,1015],[7.585874342441161,45.79762798711465,1015],[7.5856430017946135,45.79749011640601,1015],[7.585806524990688,45.79738413547061,1015],[7.585846423818063,45.79733287680902,1015],[7.585812984885355,45.79725595904089,1015],[7.585657658518299,45.797038025296324,1015],[7.5856429455916645,45.79698384044,1015],[7.585663207995149,45.79694583939468,1015],[7.5857445704351445,45.79690859478318,1015],[7.5858282379658935,45.796907380447976,1015],[7.586093896975379,45.796960171288134,1015],[7.586186586095636,45.79698381958643,1015],[7.586431585703433,45.797090356650195,1015],[7.586559307753797,45.79712793881225,1015],[7.586626839695668,45.79712877435881,1015],[7.5867471326900855,45.79707851001481,1015],[7.5869906181710975,45.79686326107797,1015],[7.587097023617417,45.796853326609586,1015],[7.58754544812162,45.79705688182258,1015],[7.5879072193665795,45.79725261383208,1015],[7.588033793066125,45.79728793003595,1015],[7.588033647521444,45.797395461099605,1015],[7.588085377664994,45.79743810826647,1015],[7.588212536959169,45.79737558043024,1015],[7.588382966311031,45.79734682310284,1015],[7.588387138920081,45.797316009424264,1015],[7.58861495113088,45.79729983150229,1015],[7.58855470237855,45.79699757747497,1015],[7.58868893326402,45.796996760753586,1015],[7.588740954048919,45.79697490229678,1015],[7.588923594353583,45.796875903397975,1015],[7.589031930147704,45.796789487150114,1015],[7.5890858243704775,45.7966933979654,1015],[7.589204942410163,45.796562112470674,1015],[7.589226735160105,45.79646337665405,1015],[7.589198097522979,45.79632351601123,1015],[7.588863040200006,45.79596160971618,1015],[7.588711751436929,45.79583823469641,1015],[7.588690263594977,45.795797467202284,1015],[7.588764836150026,45.79551937447766,1015],[7.588763948870879,45.795427108888234,1015],[7.588692713603402,45.79531822343187,1015],[7.588686098102716,45.79507062927306,1015],[7.588603079820802,45.79491884603366,1015],[7.588557479119299,45.79468652097261,1015],[7.588508754805268,45.79457791351794,1015],[7.588464246740558,45.79455711255433,1015],[7.588393388581747,45.79456073721692,1015],[7.588147180269102,45.79462969820797,1015],[7.587895108267348,45.79467608505344,1015],[7.587738222537106,45.794647144284454,1015],[7.5876916925313465,45.79457906564534,1015],[7.587705578152496,45.79453873527423,1015],[7.587809047531884,45.79451751327683,1015],[7.587936106062344,45.7944538306186,1015],[7.58801307754497,45.794335526023296,1015],[7.588219810568139,45.794173822826,1015],[7.588724183629346,45.79368953022545,1015],[7.588857521162065,45.793504417971796,1015],[7.5888983796510905,45.79341491813727,1015],[7.588895923174943,45.79325737983639,1015],[7.588867174253475,45.79312201788793,1015],[7.588802883821906,45.79299296722059,1015],[7.588651659862137,45.792867342742284,1015],[7.588615515139553,45.79277014128485,1015],[7.588627149509662,45.792691531039665,1015],[7.5887575177254885,45.792369125233314,1015],[7.588770571412552,45.792234279650415,1015],[7.588738778098162,45.792092129694566,1015],[7.588748161958886,45.79197523968489,1015],[7.588858418867113,45.79181234338696,1015],[7.588917547051734,45.79176357125949,1015],[7.589102363437676,45.791705100937456,1015],[7.589311995220251,45.791682938589474,1015],[7.589431876733977,45.79164841709986,1015],[7.589459870918903,45.79155875819158,1015],[7.5894356422755465,45.791371699532284,1015],[7.589453479085915,45.79130216622969,1015],[7.58946906520215,45.79119435318747,1015],[7.589566343090552,45.79103579615707,1015],[7.589584122872448,45.7909685122408,1015],[7.589569804831838,45.79089858191115,1015],[7.589517014946225,45.79082367634079,1015],[7.5895316360202765,45.79075410331483,1015],[7.58968453999168,45.79055798102308,1015],[7.58983980723456,45.79039563941506,1015],[7.58993441614967,45.790342804499865,1015],[7.59001535075929,45.79044955887556,1015],[7.590056754211524,45.79046582070275,1015],[7.590102280755731,45.790446131566675,1015],[7.590181322909043,45.79037285328919,1015],[7.59048235935847,45.790169557508314,1015],[7.590561910993441,45.79007603421737,1015],[7.590758747713901,45.78992320468367,1015],[7.590832037835191,45.78982285361285,1015],[7.590886092063849,45.78972001510315,1015],[7.590921364039696,45.789596693857256,1015],[7.590970647132108,45.78930028655548,1015],[7.590982236608775,45.78909566902452,1015],[7.5908873229465845,45.78890548861345,1015],[7.590853501163796,45.78871606172716,1015],[7.590921719413216,45.788561645246865,1015],[7.591035631864354,45.788380790930034,1015],[7.591120987072046,45.78831209007469,1015],[7.5911597407863605,45.78830581767425,1015],[7.591377304824518,45.788351252821336,1015],[7.591582054107564,45.788362777828766,1015],[7.591668488287372,45.7886023547795,1015],[7.591663608555074,45.7890523185765,1015],[7.592120007670151,45.78917823185323,1015],[7.5916910086168725,45.790318232628714,1015],[7.59192672172384,45.79035635436595,1015],[7.591881007846607,45.79040823296094,1015],[7.5920710078606,45.790658233235206,1015],[7.592251008759828,45.79040823260621,1015],[7.592651008725086,45.79055823325788,1015],[7.592411788728596,45.79024711919539,1015],[7.5924410080177624,45.79001823213087,1015],[7.593381008186631,45.79003823219918,1015],[7.594248126639958,45.789907694160874,1015],[7.594419366849187,45.789928705822746,1015],[7.5949267868903325,45.78999096423578,1015],[7.595025755008273,45.790022676828954,1015],[7.5951443257113,45.7900606706149,1015],[7.595193107063421,45.79010500913885,1015],[7.59521439744596,45.79014524109068,1015],[7.595273573207988,45.79017482784289,1015],[7.595376082653159,45.79020801835081,1015],[7.5954749032576485,45.79024229927039,1015],[7.5955910080302065,45.7902582327498,1015],[7.595865576434148,45.790697818746544,1015],[7.594951007853162,45.79113823373521,1015],[7.5942598617042805,45.7917754335741,1015],[7.594342164086446,45.79182819894446,1015],[7.594624435166219,45.7921151862595,1015],[7.594667805062479,45.792309229602076,1015],[7.594663620540066,45.792475686551214,1015],[7.5947095354076355,45.79256850605362,1015],[7.594907026980427,45.79277344558345,1015],[7.595375860015277,45.793188731885735,1015],[7.595455848300475,45.79333372264012,1015],[7.595466450012162,45.79342385752791,1015],[7.595433779317823,45.79357196332614,1015],[7.59544527937937,45.79375436390593,1015],[7.595463047136703,45.79381533542176,1015],[7.5955729379808945,45.793922441800056,1015],[7.595641472481835,45.79413929521531,1015],[7.595614051915675,45.79420646151549,1015],[7.5954594686407795,45.79434181792064,1015],[7.595376590167377,45.794439803876635,1015],[7.595358929180431,45.79450258988705,1015],[7.595285471199425,45.79460969205962,1015],[7.595183693658377,45.794691694686264,1015],[7.595127218050039,45.794763003784354,1015],[7.595140356734488,45.794880171236095,1015],[7.595305474748943,45.795093712316124,1015],[7.5952783359273965,45.79514963142589,1015],[7.5947968209570105,45.79523821416268,1015],[7.594670948056048,45.79538292308825,1015],[7.594580390923324,45.79553031646903,1015],[7.594568707667506,45.795611176790246,1015],[7.594599895509701,45.79577806881983,1015],[7.5945224751285085,45.796042629612415,1015],[7.594661464165741,45.796399857304166,1015],[7.594526433487992,45.79678071517677,1015],[7.594258825726895,45.797060936585105,1015],[7.594253007534296,45.7971643701476,1015],[7.594190030923848,45.79736610525695,1015],[7.594184656121735,45.797579799754544,1015],[7.594185807981015,45.79804558708835,1015],[7.594224493580427,45.798298075666345,1015],[7.594108486138122,45.798433904859166,1015],[7.5940495299141295,45.79859338633015,1015],[7.594135945320578,45.798764378262156,1015],[7.5941208211604705,45.798797764699074,1015],[7.59398390596282,45.79885422252857,1015],[7.593405143064607,45.79900451192524,1015],[7.593345415711836,45.79903378487718,1015],[7.593325005662806,45.7990770615129,1015],[7.593394399657646,45.79964827420226,1015],[7.593489521890836,45.799974363255124,1015],[7.593582677824352,45.80010250553837,1015],[7.593605696874814,45.80022069474948,1015],[7.593590307308403,45.800469187547655,1015],[7.593534516932939,45.80057425589432,1015],[7.593460829659021,45.80063887187744,1015],[7.5933164970154134,45.80070351797376,1015],[7.593171429943536,45.80073593235586,1015],[7.592805693302467,45.80079317168068,1015],[7.592400405693299,45.800816439056675,1015],[7.59216744099495,45.80089007296375,1015],[7.592027311830193,45.80101237206725,1015],[7.591977534941858,45.801139204829106,1015],[7.591831073689967,45.80172224828718,1015],[7.591515890771684,45.80217306500555,1015],[7.591244943814585,45.80280875626357,1015],[7.591013943800288,45.80312199474357,1015],[7.590824753513841,45.80329129863648,1015],[7.590665152647222,45.80337915506108,1015],[7.590535798451279,45.80342607063159,1015],[7.590300395999851,45.80355734274529,1015],[7.590192872139472,45.8037310950886,1015],[7.590148981416957,45.803756923811406,1015],[7.589862392657159,45.80382611729835,1015],[7.589805412814344,45.803873109957536,1015],[7.5897836064872735,45.80393665298158,1015],[7.589902365028712,45.80410627324102,1015],[7.589941528982085,45.80427609270571,1015],[7.589798225505773,45.804233485204186,1015],[7.589663306313347,45.804191540859264,1015],[7.589486918451928,45.80414460932301,1015],[7.58936551354084,45.804117795617046,1015],[7.589266909308283,45.804268289378044,1015],[7.589241698627634,45.804333045815355,1015],[7.589214204687613,45.80440550902583,1015],[7.5891985661027155,45.80447320980055,1015],[7.589190359906063,45.80451310730323,1015]]}}]}