{"type":"FeatureCollection","features":[{"type":"Feature","properties":{"slug":"06-s9","sct_code":"06_S9","source":"Catasto Sentieri VdA"},"geometry":{"type":"LineString","coordinates":[[7.139796407024856,45.7701891206353,1868],[7.140025089990256,45.77027384975537,1877],[7.140251081966076,45.77043953946392,1886],[7.140463622924888,45.77062301080734,1895],[7.141005295099153,45.77096484835781,1904],[7.1413822575273125,45.77123199883933,1913],[7.141607061911913,45.77143366866197,1922],[7.141732916897218,45.77151672120016,1931],[7.1421589144214535,45.77185667116792,1940],[7.142310779107988,45.77193114559295,1949],[7.1423472515609046,45.77199474256338,1958],[7.142317957225142,45.77210227256349,1967],[7.142325434132961,45.772264403850976,1976],[7.142495242324857,45.77257318383543,1985],[7.14279270430203,45.772911040928996,1994],[7.142918265669411,45.7730030878989,2003],[7.143030375277776,45.77311291710007,2012],[7.143156833405031,45.77317797677509,2021],[7.143319467591554,45.77331562867195,2030],[7.143615744142684,45.77368946644567,2039],[7.1436886942913524,45.77381665958592,2048],[7.14377151433573,45.77403401843035,2057],[7.14384536088201,45.77413422442665,2066],[7.144087229597876,45.77440367057685,2076],[7.1442543467318025,45.77440638593993,2085],[7.144281559867873,45.774555336897755,2094],[7.144403247439694,45.774764326207155,2103],[7.144477692942347,45.77484654044457,2112],[7.144660065738014,45.77497101025139,2121],[7.144740193537734,45.775075817950636,2130],[7.144815236728806,45.77514004060512,2139],[7.144874440896979,45.77529401128246,2148],[7.144935435637913,45.77539400780991,2157],[7.145099273959919,45.7754956745403,2166],[7.145260129616954,45.775687297923426,2175],[7.145348029696521,45.775751728998614,2184],[7.14541141219896,45.77577975977813,2193],[7.145566274635109,45.775764273167155,2202],[7.145719049214331,45.77581175617584,2211],[7.145882293737924,45.77593141319728,2220],[7.145933119405726,45.77595023931517,2229],[7.146107729379036,45.77611508316182,2238],[7.146329221745827,45.77629913510434,2247],[7.1465410085302,45.77620222063801,2256],[7.147591008421053,45.77624222130048,2265],[7.147691008610498,45.776052220872245,2274],[7.14860100802137,45.77605222049057,2283],[7.148621008174724,45.77577222042187,2292],[7.149031008232819,45.77579222046745,2301],[7.149091007891847,45.77558222031812,2310],[7.149431008421314,45.775602220422385,2319],[7.14937100837346,45.77532222007857,2328],[7.150031007967646,45.775262219955316,2337],[7.151001008606623,45.77616222096892,2346],[7.151151007927315,45.77575222047541,2355],[7.151811007706496,45.77629222056907,2364],[7.152161008430451,45.77676222175373,2373],[7.1523710076019045,45.77669222145074,2382],[7.152821008733777,45.77715222209276,2391],[7.152971008654506,45.777022221267984,2400],[7.152931008350686,45.77603222083183,2409],[7.15340100859611,45.776012220337314,2418],[7.153511007595342,45.77631222136018,2427],[7.153791007975573,45.776222221343076,2436],[7.154331007503425,45.776722220921414,2445],[7.154411008196828,45.77620222093939,2454],[7.154691008070074,45.77603222109031,2463],[7.154581008048778,45.775662220448645,2472],[7.154971008309641,45.77539222001843,2481],[7.154881008307575,45.775002219498774,2491],[7.155531008305866,45.77481221946436,2500],[7.1564510075238355,45.7749822201413,2509],[7.156654007866587,45.77500822016337,2518],[7.1568090082132665,45.77501122021994,2527],[7.156881008367378,45.77470221926722,2536],[7.157671007807518,45.7745722198331,2545],[7.158791008350894,45.77470221954127,2554],[7.159731007577633,45.775262220285875,2563],[7.161211007998426,45.77536222062976,2572],[7.161771007621566,45.775732220735854,2581],[7.16302100786131,45.77575222073647,2590],[7.163171008690106,45.77620222135187,2599],[7.163491008443251,45.77637222075574,2608],[7.165401007605608,45.776332220918036,2617],[7.165851007753934,45.77581222043943,2626],[7.166211007676362,45.775712220332,2635],[7.167971007787208,45.776092220686465,2644],[7.170551007765566,45.77624222116381,2653],[7.170891007761808,45.77635222110894,2662],[7.170981008658225,45.77657222127839,2671],[7.17042100840134,45.77667222092316,2680],[7.171111008209171,45.77678222141825,2689],[7.171081007953254,45.777252221998026,2698]]}}]}