{"type":"FeatureCollection","features":[{"type":"Feature","properties":{"slug":"07-s63","sct_code":"07_S63","source":"Catasto Sentieri VdA"},"geometry":{"type":"LineString","coordinates":[[7.730331007574908,45.86561229851134,1731],[7.730154008086119,45.866182298863755,1734],[7.729872008260518,45.866579300025414,1736],[7.729860007584118,45.867112300294174,1739],[7.7297430078935125,45.86747330060921,1742],[7.730730008212769,45.867974301025164,1745],[7.730860008743418,45.86831430155563,1747],[7.731010008382967,45.86829430122306,1750],[7.730780007746744,45.868634301540084,1753],[7.73118000798822,45.86872430159624,1756],[7.7310300077924206,45.86904430195754,1758],[7.730710007569558,45.86925430165748,1761],[7.730840007619499,45.86945430205288,1764],[7.730150008088751,45.869935302381414,1767],[7.730164316988772,45.87013301406838,1769],[7.730225344092329,45.87044283641174,1772],[7.7302837567832015,45.870616524039775,1775],[7.730266235677044,45.870813957549345,1777],[7.730371894850606,45.87098348641956,1780],[7.730537372965788,45.87119142182069,1783],[7.7306414674933155,45.87139074751704,1786],[7.730656777115529,45.871472217533274,1788],[7.730704821445283,45.8715321021356,1791],[7.730779942931776,45.87156412191003,1794],[7.73109156147273,45.87156626562653,1797],[7.731173929064516,45.871649987873006,1799],[7.7314000078168785,45.87211430495712,1802],[7.732040008470391,45.8725143050526,1805],[7.732300008668409,45.87339430574011,1808],[7.732580007821539,45.87363430602098,1810],[7.732833007728038,45.87429030693115,1813],[7.733727007860601,45.87452830671027,1816],[7.734704008122202,45.87474930717268,1818],[7.7355200086453015,45.87475430724395,1821],[7.735900008423399,45.87492430712247,1824],[7.736230007840337,45.875244307282465,1827],[7.736720007971518,45.875974308463846,1829],[7.736781495752499,45.876475584981144,1832],[7.7369953420388695,45.87690958357088,1835],[7.737081636568466,45.876997363522754,1838],[7.7372021083892,45.87703684026545,1840],[7.737281416357997,45.877095005611395,1843],[7.737346028763624,45.87720156069005,1846],[7.73742673760212,45.87754542037999,1849],[7.737597752533243,45.87778637192919,1851],[7.737728545240381,45.87810238966349,1854],[7.73772230506487,45.878165015100045,1857],[7.7376128942011935,45.87846218731784,1860],[7.737561799309058,45.8788171053776,1862],[7.737575453877352,45.878873066287305,1865],[7.737759426047324,45.87899927263247,1868],[7.73763786970764,45.87911449536473,1870],[7.737630714947139,45.87914591740183,1873],[7.737626476479949,45.879226830170744,1876],[7.73768270414298,45.87953639879082,1879],[7.7376502315685824,45.879702895870444,1881],[7.737874221874875,45.88075291291542,1884],[7.7380587201954425,45.8812320851409,1887],[7.738218260256032,45.881494271091356,1890],[7.7384718359181806,45.88180737754973,1892],[7.73885136945097,45.88214934188711,1895],[7.7388846481249844,45.882194915060744,1898],[7.73890536196507,45.88227614645617,1901],[7.738969882320167,45.88261998087287,1903],[7.739012569186757,45.882710133756525,1906],[7.739157722399549,45.88290769665069,1909],[7.739495028919643,45.88320623701713,1911],[7.739612447158387,45.883338884635265,1914],[7.739768481459978,45.88364845674938,1917],[7.739971539649482,45.88394262210447,1920],[7.740063766697887,45.88415514632254,1922],[7.74027038497159,45.884444645020025,1925],[7.740358583772292,45.88471881174091,1928],[7.740453387563521,45.88481095617795,1931],[7.740753978718085,45.88502687199745,1933],[7.740893304638148,45.88522175288811,1936],[7.740974426768382,45.88527314214535,1939],[7.741049749669388,45.88528956247309,1942],[7.740985296550999,45.88534476662265,1944],[7.740974783909814,45.8853978236597,1947],[7.74104036192957,45.88551980464715,1950],[7.74104911145528,45.88560878623386,1952],[7.741088779948113,45.88566638784566,1955],[7.741132833371393,45.88572938843633,1958],[7.74116000843982,45.88585431772164,1961],[7.741132967575079,45.885903257728195,1963],[7.741146437503117,45.88594560045211,1966],[7.741150949368157,45.88598844839408,1969],[7.741162751306353,45.88601289364022,1972],[7.741144266722277,45.88606844323825,1974],[7.741209957975539,45.88617273977133,1977],[7.741225159998144,45.88630243238069,1980],[7.7413209309614865,45.88648926988197,1983],[7.74141000864564,45.88672431837226,1985],[7.7414300086396635,45.88682431870601,1988],[7.741438026339964,45.88688770613081,1991],[7.741450007718173,45.88695431882178,1993],[7.741508111202043,45.88701665769276,1996],[7.741540949848676,45.88708478805486,1999],[7.7415300082904634,45.88716431838235,2002],[7.741573025552585,45.88721095563056,2004],[7.741611880592484,45.88737951996627,2007],[7.741676955556399,45.88747314586504,2010],[7.741736955908176,45.88752314629514,2013],[7.741757460360575,45.88761676820175,2015],[7.7417608094066805,45.88770480009819,2018],[7.741780007778653,45.88776431898605,2021],[7.741770007586465,45.88791431942521,2024],[7.741840008654024,45.88805431950252,2026],[7.74189000824976,45.88811431975211,2029],[7.741890007756922,45.88818431955923,2032],[7.741930007778592,45.88823431925189,2035],[7.741994321471395,45.88827884445249,2037],[7.742024057549392,45.88835349901553,2040],[7.742081827122304,45.88840040649333,2043],[7.742109851378013,45.88845841053693,2045],[7.742113970261598,45.88857037007438,2048],[7.742188386233481,45.88864401794047,2051],[7.74224772434605,45.888899222057205,2054],[7.742316757358637,45.88901797946283,2056],[7.742423469320354,45.88911124690679,2059],[7.742563470426937,45.88919124697528,2062],[7.742650007471452,45.88932432097878,2065],[7.742710007903744,45.88950432114677,2067],[7.742785109449807,45.88971674360384,2070],[7.742824122005222,45.88980447663978,2073],[7.742872424281873,45.889861502067085,2076],[7.743020440212335,45.889991228174324,2078],[7.74303044018768,45.89005122794911,2081],[7.743080008271509,45.89011432170982,2084],[7.743218386939211,45.890271882946024,2086],[7.74326838614921,45.890301882783795,2089],[7.743328579473767,45.890369408946086,2092],[7.7434185790600845,45.89035940855218,2095],[7.743549477261135,45.89033957502142,2097],[7.743678590998288,45.890412818958104,2100],[7.74371000832797,45.890424322079056,2103],[7.743803795666709,45.890452861786564,2106],[7.743900008572996,45.8904743214516,2108],[7.744033954268088,45.89055034609551,2111],[7.744162530280437,45.890576192525785,2114],[7.744290156485332,45.890575963522494,2117],[7.744476655870414,45.890558646264395,2119],[7.744648541847504,45.89055105226187,2122],[7.744760008595913,45.890534322250126,2125],[7.744934530941756,45.89050283760154,2127],[7.745170008147978,45.89051432173805,2130],[7.74537000844744,45.890474322054345,2133],[7.745570008372696,45.8904643217945,2136],[7.745810008036327,45.89038432128016,2138],[7.745970008705898,45.89029432133686,2141],[7.74627000840734,45.890224321593244,2144],[7.746390008149734,45.8901643211089,2147],[7.746470008340683,45.89016432132575,2149],[7.746650008556308,45.89008432136925,2152],[7.746870007570125,45.89001432175221,2155],[7.746940008539254,45.88997432086543,2158],[7.747000008397287,45.889904321178896,2160],[7.747070007920867,45.8899043211035,2163],[7.747220007649982,45.889854321342845,2166],[7.747300008295271,45.88979432142193,2168],[7.747370007631343,45.88970432091712,2171],[7.747450008073944,45.88966432134209,2174],[7.747600007580878,45.88962432130585,2177],[7.74767000751913,45.88958432085842,2179],[7.7477100075860195,45.88947432117422,2182],[7.74772000754403,45.889274320922596,2185],[7.747760007881008,45.889074320065646,2188],[7.74781000846836,45.88902432061038,2190],[7.747830007472789,45.88902432018501,2193],[7.747810008008326,45.88895431990732,2196],[7.747690008198721,45.88889432005197,2199],[7.747650008215815,45.888834320357375,2201],[7.747660007495331,45.88872432034153,2204],[7.74780000843454,45.88862431977338,2207],[7.747910008726025,45.888634320392825,2210],[7.748060008166724,45.888554319731014,2212],[7.748140007770277,45.88857432013117,2215],[7.748360008513754,45.88882432047109,2218],[7.748490007724482,45.8888843202509,2220],[7.748510008749733,45.888934319970346,2223],[7.748610007754348,45.888924320611224,2226],[7.748650007642393,45.888904319940856,2229],[7.748750007886222,45.88893432048593,2231],[7.748980008276121,45.8888843205787,2234],[7.7490800076406945,45.88890432059697,2237],[7.749290007598971,45.88890432003557,2240],[7.74940000802206,45.888884320335784,2242],[7.749470007741406,45.88880432056584,2245],[7.749500008389038,45.88871432015771,2248],[7.749650007681451,45.88884432040707,2251],[7.749640008090504,45.88889432011989,2253],[7.749670007538402,45.8889543203794,2256],[7.749760007898623,45.88901432019374,2259],[7.749820008400764,45.8891443208839,2261],[7.749900007756453,45.889204320956644,2264],[7.749940008606853,45.8893143210051,2267],[7.7500000082978175,45.88933432088379,2270],[7.750070007665684,45.889424321015035,2272],[7.750180008680528,45.88964432062276,2275],[7.750380008157451,45.88980432119213,2278],[7.750420007812196,45.88990432082104,2281],[7.750570008538428,45.890044320974894,2283],[7.750630008017747,45.89011432164792,2286],[7.750640008442213,45.89015432120294,2289],[7.751200008563875,45.89049432186719,2292],[7.751250008151917,45.89050432136062,2294],[7.751470152300508,45.89061446703742,2297]]}}]}