{"type":"FeatureCollection","features":[{"type":"Feature","properties":{"slug":"07-s33","sct_code":"07_S33","source":"Catasto Sentieri VdA"},"geometry":{"type":"LineString","coordinates":[[7.741878801124447,45.866158908923786,2082],[7.7414583537677055,45.86613215809095,2082],[7.7413117024517994,45.866139343062564,2082],[7.741063828365739,45.866072966147236,2082],[7.740866008944806,45.86610520885035,2082],[7.740601444453449,45.866226313780345,2082],[7.7404024911451,45.866390728332405,2082],[7.740314890650001,45.86648019783152,2082],[7.7402668497799425,45.866578707771396,2083],[7.739680007969994,45.867924301131715,2083],[7.7397000079269365,45.86874430126955,2083],[7.739440008199099,45.86910430178089,2083],[7.739140008251251,45.86925430206244,2083],[7.739140007693129,45.86962430274766,2083],[7.738890008081539,45.86970430239873,2083],[7.73859000845905,45.87005430284978,2083],[7.738780007526528,45.870584303644875,2083],[7.738780007892627,45.87185430414138,2083],[7.738590008130292,45.87200430481645,2083],[7.738030007858887,45.87204430491605,2083],[7.738017434915231,45.87388623374795,2083],[7.7379200099002,45.87427605673273,2083],[7.73803980495327,45.874389592358035,2084],[7.738215479265745,45.874743976983986,2084],[7.738437158736636,45.8750546858564,2084],[7.7384855828797745,45.875188705149604,2084],[7.73846509159694,45.87530297012592,2084],[7.738387226689675,45.87537364575583,2084],[7.738302522558517,45.87541560769748,2084],[7.738060033470261,45.87562674562187,2084],[7.737931473287692,45.875785665305656,2084],[7.737894246553899,45.87586850700411,2084],[7.737830047379094,45.87608015305322,2084],[7.737827908046996,45.876174632735584,2084],[7.73784055641574,45.87659898523245,2084],[7.737883843770146,45.876871138832676,2084],[7.737917640500547,45.87694351469027,2085],[7.738184093688178,45.877193177070914,2085],[7.738583572323263,45.87763588555971,2085],[7.7386933206890385,45.87780187943771,2085],[7.738778928337425,45.87799747065825,2085],[7.738800249715686,45.87809802440861,2085],[7.738793532336423,45.87813970810788,2085],[7.7387275500433175,45.87822495070919,2085],[7.738281675940436,45.87854707741344,2085],[7.737759426047324,45.87899927263247,2085],[7.73763786970764,45.87911449536473,2085],[7.737630714947139,45.87914591740183,2085],[7.737626476479949,45.879226830170744,2085],[7.73768270414298,45.87953639879082,2085],[7.7376502315685824,45.879702895870444,2086],[7.737874221874875,45.88075291291542,2086],[7.7380587201954425,45.8812320851409,2086],[7.738218260256032,45.881494271091356,2086],[7.7384718359181806,45.88180737754973,2086],[7.73885136945097,45.88214934188711,2086],[7.7388846481249844,45.882194915060744,2086],[7.73890536196507,45.88227614645617,2086]]}}]}