{"type":"FeatureCollection","features":[{"type":"Feature","properties":{"slug":"07-s52","sct_code":"07_S52","source":"Catasto Sentieri VdA"},"geometry":{"type":"LineString","coordinates":[[7.6938597413356185,45.803353131851715,1508],[7.693934575026171,45.80322424082545,1513],[7.694019007823058,45.80301624310038,1518],[7.694219008557642,45.80298624295525,1523],[7.694489007607515,45.80269624323859,1528],[7.694719008768302,45.802146242248625,1533],[7.694899008705388,45.80196624250961,1538],[7.695150008157828,45.801808242271726,1543],[7.695419007715444,45.80140724186178,1548],[7.695459007844256,45.801497242137955,1553],[7.696209008579738,45.80064724114212,1558],[7.696799008440011,45.80045724072163,1563],[7.69745900854178,45.799827240940616,1568],[7.698109007916062,45.79977724094177,1573],[7.698949008371695,45.7994872400747,1578],[7.69943900826094,45.79942724051454,1583],[7.699639008753423,45.79950724047892,1588],[7.700639008544394,45.7990672397427,1593],[7.701019008016114,45.79901723995999,1598],[7.701760059019309,45.79864649158775,1603],[7.701922844373487,45.798550081821965,1608],[7.702335667262718,45.798056458197046,1613],[7.703565571672533,45.79737559019877,1618],[7.703719783474509,45.797215914588634,1623],[7.7039411763235215,45.79675520546664,1628],[7.704114958301822,45.79661680605607,1633],[7.704572699028116,45.79634827617719,1638],[7.705049522168957,45.79612207111575,1643],[7.705486381171538,45.79588839356817,1648],[7.705711286370127,45.79570846064625,1653],[7.706050591155835,45.795354360408425,1658],[7.706268384579834,45.795048012039786,1663],[7.70691120032212,45.79458505016087,1668],[7.706993556492662,45.7944947421494,1673],[7.7070152409999375,45.794424802136895,1678],[7.70700796927057,45.79430540548028,1683],[7.707039684405513,45.79423557898911,1688],[7.707111521000537,45.794166207461366,1693],[7.7074957692725805,45.79403720311368,1698],[7.707639279735366,45.79390547523886,1703],[7.708061076300944,45.79345404337332,1708],[7.708152323198731,45.79341296397379,1713],[7.708263145996772,45.79339316148789,1718],[7.708375426487399,45.79331020936639,1723],[7.708539008025404,45.79309723526099,1728],[7.709319008664215,45.79293723442959,1733],[7.7094290078866985,45.79283723475466,1738],[7.709599008574264,45.79280723505361,1743],[7.7097190079394675,45.79283723435758,1748],[7.709969007740617,45.79298723475077,1753],[7.7098890083602765,45.79305723504021,1758],[7.7102090083559105,45.793157234990325,1763],[7.7102690084412115,45.7932072348139,1768],[7.710219008228616,45.79324723531486,1773],[7.710229008490802,45.79329723497328,1778],[7.710389007845522,45.79343723495175,1783],[7.710339007906117,45.79346723511505,1788],[7.7102590084432805,45.79359723530704,1793],[7.71027900834891,45.79371723538548,1798],[7.710229007972592,45.79390723545371,1803],[7.710129008300973,45.79399723588927,1808],[7.710069008161702,45.7941372362249,1813],[7.710129008731881,45.794287235524074,1818],[7.7104690086456085,45.79430723600183,1823],[7.710499007834309,45.794357236360284,1828],[7.710559008642857,45.79435723587756,1833],[7.710629008145393,45.79431723594707,1838],[7.7108190083684125,45.79429723553708,1843],[7.711419008181496,45.79415723555168,1849],[7.711559007654079,45.79416723541214,1854],[7.711619008719742,45.79421723542782,1859],[7.711759008216011,45.79423723633357,1864],[7.711919008293406,45.79419723612634,1869],[7.711889008291909,45.7942272356545,1874],[7.711889007973119,45.79447723640484,1879],[7.711849008531494,45.79455723582745,1884],[7.711779008630481,45.79466723652723,1889],[7.711509007666367,45.79489723637438,1894],[7.711309007546928,45.795237236581485,1899],[7.711219008579985,45.795327236458974,1904],[7.7107290075154316,45.7954972368324,1909],[7.7105890078742,45.79565723715705,1914],[7.710589008096186,45.79568723742386,1919],[7.710659007977737,45.79564723748717,1924],[7.711029008065587,45.79551723693319,1929],[7.711369007831693,45.79542723674973,1934],[7.711649007865345,45.795377236407,1939],[7.71173900806597,45.795416236807405,1944],[7.711889007703649,45.795366236892306,1949],[7.711899008746031,45.79539623651777,1954],[7.711769008542772,45.795496237101396,1959],[7.711779008255893,45.79552623672178,1964],[7.711829007995111,45.79549623683549,1969],[7.71212900818392,45.79544623672478,1974],[7.712189007896842,45.795396237030985,1979],[7.71233900840374,45.79533623704628,1984],[7.712449008162366,45.79532623710603,1989],[7.712489008611716,45.7952662364722,1994],[7.712629008428176,45.79524623655565,1999],[7.7127190078836865,45.79526623714777,2004],[7.71279900813826,45.79517623683453,2009],[7.712869008537372,45.79516623671316,2014],[7.71294900855245,45.795096236168504,2019],[7.713069007871054,45.795096236170494,2024],[7.7131490080510545,45.79507623653134,2029],[7.713179007745009,45.7950362362842,2034],[7.713409008713277,45.79495623607841,2039],[7.713469007869375,45.79489623621374,2044],[7.713899008045173,45.79466623660752,2049],[7.714079007912324,45.79448723611377,2054],[7.714109008746177,45.79447723590099,2059],[7.714129007911923,45.79440723597056,2064],[7.714219008531571,45.79440723641739,2069],[7.714429008273066,45.79421723605573,2074],[7.714579007968534,45.79421723545221,2079],[7.7146090087568595,45.79424723576767,2084],[7.714699007968708,45.79421723555033,2089],[7.714759007861749,45.794266235752126,2094],[7.714879007539206,45.79425623616743,2099],[7.714959007624786,45.79430623618742,2104],[7.715139008218542,45.79432623557465,2109],[7.715189008052469,45.79438623592262,2114],[7.715329008048836,45.79435623590748,2119],[7.715839008000288,45.79442623573105,2124],[7.715999007535967,45.7944162363735,2129],[7.716099008155667,45.794356235589426,2134],[7.716209007702425,45.79422623544739,2139],[7.7164690077427025,45.79415623536064,2144],[7.716789008478469,45.79399623551328,2149],[7.716899007539387,45.7939062353564,2154],[7.716939007487159,45.79381623557606,2159],[7.717079008191158,45.79366623503422,2164],[7.717179008768165,45.793636235370485,2169],[7.717149007839125,45.79358623494433,2174],[7.717249008414525,45.79337623537961,2179],[7.717369007516982,45.79323723523375,2184]]}}]}