{"type":"FeatureCollection","features":[{"type":"Feature","properties":{"slug":"07-s28","sct_code":"07_S28","source":"Catasto Sentieri VdA"},"geometry":{"type":"LineString","coordinates":[[7.730331007574908,45.86561229851134,1731],[7.730154008086119,45.866182298863755,1734],[7.729872008260518,45.866579300025414,1738],[7.729860007584118,45.867112300294174,1741],[7.7297430078935125,45.86747330060921,1744],[7.730730008212769,45.867974301025164,1747],[7.730860008743418,45.86831430155563,1751],[7.731010008382967,45.86829430122306,1754],[7.730780007746744,45.868634301540084,1757],[7.73118000798822,45.86872430159624,1761],[7.7310300077924206,45.86904430195754,1764],[7.730710007569558,45.86925430165748,1767],[7.730840007619499,45.86945430205288,1770],[7.730150008088751,45.869935302381414,1774],[7.730164316988772,45.87013301406838,1777],[7.730225344092329,45.87044283641174,1780],[7.7302837567832015,45.870616524039775,1783],[7.730266235677044,45.870813957549345,1787],[7.730371894850606,45.87098348641956,1790],[7.730537372965788,45.87119142182069,1793],[7.7306414674933155,45.87139074751704,1797],[7.730656777115529,45.871472217533274,1800],[7.730704821445283,45.8715321021356,1803],[7.730779942931776,45.87156412191003,1806],[7.73109156147273,45.87156626562653,1810],[7.731173929064516,45.871649987873006,1813],[7.7314000078168785,45.87211430495712,1816],[7.732040008470391,45.8725143050526,1820],[7.732300008668409,45.87339430574011,1823],[7.732580007821539,45.87363430602098,1826],[7.732833007728038,45.87429030693115,1829],[7.733727007860601,45.87452830671027,1833],[7.734704008122202,45.87474930717268,1836],[7.7355200086453015,45.87475430724395,1839],[7.735900008423399,45.87492430712247,1843],[7.736230007840337,45.875244307282465,1846],[7.736720007971518,45.875974308463846,1849],[7.736781495752499,45.876475584981144,1852],[7.7369953420388695,45.87690958357088,1856],[7.737081636568466,45.876997363522754,1859],[7.7372021083892,45.87703684026545,1862],[7.737281416357997,45.877095005611395,1865],[7.737346028763624,45.87720156069005,1869],[7.73742673760212,45.87754542037999,1872],[7.737597752533243,45.87778637192919,1875],[7.737728545240381,45.87810238966349,1879],[7.73772230506487,45.878165015100045,1882],[7.7376128942011935,45.87846218731784,1885],[7.737561799309058,45.8788171053776,1888],[7.737575453877352,45.878873066287305,1892],[7.737759426047324,45.87899927263247,1895],[7.73763786970764,45.87911449536473,1898],[7.737630714947139,45.87914591740183,1902],[7.737626476479949,45.879226830170744,1905],[7.73768270414298,45.87953639879082,1908],[7.7376502315685824,45.879702895870444,1911],[7.737874221874875,45.88075291291542,1915],[7.7380587201954425,45.8812320851409,1918],[7.738218260256032,45.881494271091356,1921],[7.7384718359181806,45.88180737754973,1925],[7.73885136945097,45.88214934188711,1928],[7.7388846481249844,45.882194915060744,1931],[7.73890536196507,45.88227614645617,1934],[7.738969882320167,45.88261998087287,1938],[7.739012569186757,45.882710133756525,1941],[7.739157722399549,45.88290769665069,1944],[7.739495028919643,45.88320623701713,1947],[7.739612447158387,45.883338884635265,1951],[7.739768481459978,45.88364845674938,1954],[7.739971539649482,45.88394262210447,1957],[7.740063766697887,45.88415514632254,1961],[7.74027038497159,45.884444645020025,1964],[7.740358583772292,45.88471881174091,1967],[7.740453387563521,45.88481095617795,1970],[7.740753978718085,45.88502687199745,1974],[7.740893304638148,45.88522175288811,1977],[7.740974426768382,45.88527314214535,1980],[7.741049749669388,45.88528956247309,1984],[7.740985296550999,45.88534476662265,1987],[7.740974783909814,45.8853978236597,1990],[7.74104036192957,45.88551980464715,1993],[7.74104911145528,45.88560878623386,1997],[7.741088779948113,45.88566638784566,2000],[7.741132833371393,45.88572938843633,2003],[7.74116000843982,45.88585431772164,2007],[7.741132967575079,45.885903257728195,2010],[7.741146437503117,45.88594560045211,2013],[7.741150949368157,45.88598844839408,2016],[7.741162751306353,45.88601289364022,2020],[7.741144266722277,45.88606844323825,2023],[7.741209957975539,45.88617273977133,2026],[7.741225159998144,45.88630243238069,2029],[7.7413209309614865,45.88648926988197,2033],[7.74141000864564,45.88672431837226,2036],[7.7414300086396635,45.88682431870601,2039],[7.741438026339964,45.88688770613081,2043],[7.741450007718173,45.88695431882178,2046],[7.741508111202043,45.88701665769276,2049],[7.741540949848676,45.88708478805486,2052],[7.7415300082904634,45.88716431838235,2056],[7.741573025552585,45.88721095563056,2059],[7.741611880592484,45.88737951996627,2062],[7.741676955556399,45.88747314586504,2066],[7.741736955908176,45.88752314629514,2069],[7.741757460360575,45.88761676820175,2072],[7.7417608094066805,45.88770480009819,2075],[7.741780007778653,45.88776431898605,2079],[7.741770007586465,45.88791431942521,2082],[7.741840008654024,45.88805431950252,2085],[7.74189000824976,45.88811431975211,2089],[7.741890007756922,45.88818431955923,2092],[7.741930007778592,45.88823431925189,2095],[7.741994321471395,45.88827884445249,2098],[7.742024057549392,45.88835349901553,2102],[7.742081827122304,45.88840040649333,2105],[7.742109851378013,45.88845841053693,2108],[7.742113970261598,45.88857037007438,2111],[7.742188386233481,45.88864401794047,2115],[7.74224772434605,45.888899222057205,2118],[7.742316757358637,45.88901797946283,2121],[7.742423469320354,45.88911124690679,2125],[7.742563470426937,45.88919124697528,2128],[7.742650007471452,45.88932432097878,2131],[7.742710007903744,45.88950432114677,2134],[7.742785109449807,45.88971674360384,2138],[7.742824122005222,45.88980447663978,2141],[7.742872424281873,45.889861502067085,2144],[7.743020440212335,45.889991228174324,2148],[7.74303044018768,45.89005122794911,2151],[7.743080008271509,45.89011432170982,2154],[7.743218386939211,45.890271882946024,2157],[7.74326838614921,45.890301882783795,2161],[7.743328579473767,45.890369408946086,2164],[7.7434185790600845,45.89035940855218,2167],[7.743549477261135,45.89033957502142,2171],[7.743678590998288,45.890412818958104,2174],[7.74371000832797,45.890424322079056,2177],[7.743803795666709,45.890452861786564,2180],[7.743900008572996,45.8904743214516,2184],[7.744033954268088,45.89055034609551,2187],[7.744162530280437,45.890576192525785,2190],[7.744290156485332,45.890575963522494,2193],[7.744476655870414,45.890558646264395,2197],[7.744648541847504,45.89055105226187,2200],[7.744760008595913,45.890534322250126,2203],[7.744934530941756,45.89050283760154,2207],[7.745170008147978,45.89051432173805,2210],[7.74537000844744,45.890474322054345,2213],[7.745570008372696,45.8904643217945,2216],[7.745810008036327,45.89038432128016,2220],[7.745970008705898,45.89029432133686,2223],[7.74627000840734,45.890224321593244,2226],[7.746390008149734,45.8901643211089,2230],[7.746470008340683,45.89016432132575,2233],[7.746650008556308,45.89008432136925,2236],[7.746870007570125,45.89001432175221,2239],[7.746940008539254,45.88997432086543,2243],[7.747000008397287,45.889904321178896,2246],[7.747070007920867,45.8899043211035,2249],[7.747220007649982,45.889854321342845,2253],[7.747300008295271,45.88979432142193,2256],[7.747370007631343,45.88970432091712,2259],[7.747450008073944,45.88966432134209,2262],[7.747600007580878,45.88962432130585,2266],[7.74767000751913,45.88958432085842,2269],[7.7477100075860195,45.88947432117422,2272],[7.74772000754403,45.889274320922596,2275],[7.747760007881008,45.889074320065646,2279],[7.74781000846836,45.88902432061038,2282],[7.747830007472789,45.88902432018501,2285],[7.747810008008326,45.88895431990732,2289],[7.747690008198721,45.88889432005197,2292],[7.747650008215815,45.888834320357375,2295],[7.747660007495331,45.88872432034153,2298],[7.74780000843454,45.88862431977338,2302],[7.747910008726025,45.888634320392825,2305],[7.748060008166724,45.888554319731014,2308],[7.748140007770277,45.88857432013117,2312],[7.748360008513754,45.88882432047109,2315],[7.748490007724482,45.8888843202509,2318],[7.748510008749733,45.888934319970346,2321],[7.748610007754348,45.888924320611224,2325],[7.748650007642393,45.888904319940856,2328],[7.748750007886222,45.88893432048593,2331],[7.748980008276121,45.8888843205787,2335],[7.7490800076406945,45.88890432059697,2338],[7.749290007598971,45.88890432003557,2341],[7.74940000802206,45.888884320335784,2344],[7.749470007741406,45.88880432056584,2348],[7.749500008389038,45.88871432015771,2351],[7.749650007681451,45.88884432040707,2354],[7.749640008090504,45.88889432011989,2357],[7.749670007538402,45.8889543203794,2361],[7.749760007898623,45.88901432019374,2364],[7.749820008400764,45.8891443208839,2367],[7.749900007756453,45.889204320956644,2371],[7.749940008606853,45.8893143210051,2374],[7.7500000082978175,45.88933432088379,2377],[7.750070007665684,45.889424321015035,2380],[7.750180008680528,45.88964432062276,2384],[7.750380008157451,45.88980432119213,2387],[7.750420007812196,45.88990432082104,2390],[7.750570008538428,45.890044320974894,2394],[7.750630008017747,45.89011432164792,2397],[7.750640008442213,45.89015432120294,2400],[7.751200008563875,45.89049432186719,2403],[7.751250008151917,45.89050432136062,2407],[7.751470152300508,45.89061446703742,2410],[7.751816347425889,45.89083875677982,2413],[7.751951542874922,45.89098873847982,2417],[7.752087494859255,45.89110497718433,2420],[7.752350690634713,45.891438612285555,2423],[7.752380487195684,45.89154694115309,2426],[7.752556756967946,45.891877376443205,2430],[7.75271002496816,45.89222781099148,2433],[7.752735691050316,45.892664605233094,2436],[7.752792468347238,45.89286323139542,2439],[7.752851761059225,45.893237390609244,2443],[7.752981526616115,45.89363031953398,2446],[7.7531274531828585,45.893877169981046,2449],[7.753262055254319,45.89405414443312,2453],[7.753467282234484,45.894243139628,2456],[7.75365222399758,45.894330659941716,2459],[7.753860824875251,45.89436893642219,2462],[7.7538180077004455,45.89444932529659,2466],[7.75382900789044,45.894671325737896,2469],[7.75374700763601,45.8946703260322,2472],[7.753827007950983,45.894757325960406,2476],[7.753786008632969,45.89475632615717,2479],[7.753825008418531,45.89481432546433,2482],[7.753783007958295,45.89487132608431,2485],[7.753824008709182,45.89490032579386,2489],[7.753822007914411,45.89498532607195,2492],[7.7537810079713285,45.89498532619196,2495],[7.753779007936285,45.895071326408136,2499],[7.753533007933153,45.895096326005074,2502],[7.753490007995765,45.89515332641146,2505],[7.753367008095907,45.89518032632615,2508],[7.753365008697156,45.8952663265396,2512],[7.7534460076767315,45.89529632621472,2515],[7.753526008300103,45.89541132623514,2518],[7.75348500850862,45.8954103263191,2521],[7.753483008568651,45.895467326706616,2525],[7.753646008023881,45.89552632692227,2528],[7.753726008092213,45.895613326905426,2531],[7.753929008425779,45.895672326517804,2535],[7.754130008342623,45.89581732687564,2538],[7.754253008075897,45.8958473267417,2541],[7.754536007807476,45.895993326616136,2544],[7.7547400075471735,45.89602432679196,2548],[7.754864007509731,45.89596832658425,2551],[7.754944007521276,45.89605532660569,2554],[7.75493900864467,45.89625532684358,2558],[7.754814008463563,45.8963683276267,2561],[7.754894007668955,45.896455327668235,2564],[7.755058008088835,45.896428327355586,2567],[7.755180007517946,45.89648632780187,2571],[7.7553030085041685,45.89648832756461,2574],[7.7553010078047615,45.89654532706424,2577],[7.755423007746106,45.896603327255114,2581],[7.75546200745864,45.896689327663566,2584],[7.755582008299455,45.89680532803155,2587],[7.755620008627319,45.89692032810941,2590],[7.7556610086998585,45.8969203282298,2594],[7.755780007913634,45.89709332796552,2597],[7.755738007691462,45.89715032838505,2600],[7.755778007971607,45.897207328063715,2604],[7.755776008289852,45.89729332828484,2607],[7.755897008125696,45.8973803285789,2610],[7.755854007527832,45.89743732804579,2613],[7.755894008107399,45.8974943285842,2617],[7.756097008093927,45.897554328746764,2620],[7.756096008324905,45.89763932822264,2623],[7.7562560085619685,45.897784328424024,2626],[7.756294008294739,45.897927329025784,2630],[7.756576007759999,45.898102328902226,2633],[7.75661500768468,45.89818832889594,2636],[7.756690007861577,45.89850332955285,2640],[7.756809008397991,45.898676329080956,2643],[7.7569310076786095,45.89873532936047,2646],[7.757050008540913,45.898907329602515,2649],[7.757250008475572,45.89908132950097,2653],[7.75724700766973,45.899252330066716,2656],[7.7568730081384185,45.89950633007065,2659],[7.756910007632243,45.89964933034202,2663],[7.756951008304781,45.8996783307019,2666],[7.7569090087082255,45.89970633083763,2669],[7.756920008111204,45.89975833081432,2672],[7.756745008545456,45.899733330201435,2676],[7.756623008570757,45.899674330626844,2679],[7.75621400758995,45.899670330785796,2682],[7.7562120084128665,45.899756330984246,2686],[7.756291007695532,45.899899330539846,2689],[7.756450007673152,45.9001013308824,2692],[7.756488008038862,45.90021633060594,2695],[7.756687007936467,45.900475330885754,2699],[7.75684900803233,45.90056333158829,2702],[7.756848007741137,45.90062033115978,2705],[7.756888008735255,45.90064933146051,2708],[7.756886007954232,45.900735331638565,2712],[7.757048008250518,45.900822331225754,2715],[7.757320008390461,45.90148233256912,2718],[7.7576370081719555,45.90194333230973,2722],[7.757714008672858,45.90214433296164,2725],[7.757670007466712,45.90231533316553,2728],[7.757751008611114,45.9023453333681,2731],[7.757709008035915,45.902401332729184,2735],[7.757627008619288,45.9023723332732,2738],[7.757626007764048,45.902429332827644,2741],[7.757827008105261,45.90260333348183,2745],[7.757945008508019,45.90283333305999,2748],[7.7580640085589945,45.902977334061,2751],[7.7582200084748925,45.90335033410223,2754],[7.7583390077621415,45.90349433389484,2758],[7.758744008007841,45.90369933432707,2761],[7.758784008176936,45.90375633468453,2764],[7.7587820080440935,45.90381333417989,2768],[7.758660007549828,45.90381233457603,2771],[7.758656007525165,45.90398333498513,2774],[7.758776008517457,45.90409933454347,2777],[7.758773008064999,45.904242335162536,2781],[7.758691007835525,45.904241334516875,2784],[7.758648008304338,45.90432633482736,2787],[7.758766007844463,45.90455633527727,2790],[7.758762007672055,45.90472833559706,2794],[7.758841008685673,45.90487133508026,2797],[7.75883600816711,45.90507133516753,2800],[7.758875008109733,45.90515833601425,2804],[7.758831008385176,45.90530033592526,2807],[7.758868008240733,45.90547233609061,2810],[7.758739007857192,45.90575633596644,2813],[7.75873600858463,45.90587133672124,2817],[7.758934007979255,45.9061873368532,2820],[7.758892007813343,45.906244336548625,2823],[7.758888008169577,45.90641533690007,2827],[7.758764008111587,45.90647133688945,2830],[7.758841007792535,45.90670133727646,2833],[7.75871600769037,45.90678533698085,2836],[7.758668007748185,45.90712733777204,2840],[7.75858500860287,45.907155337661585,2843],[7.758540008523009,45.907355337764976,2846],[7.758412008612065,45.907582337669425,2850],[7.758409007577058,45.90769633843227,2853],[7.758368008222969,45.90772433823929,2856],[7.758408008601039,45.907753337962774,2859],[7.758406008392518,45.907839338070126,2863],[7.758241008086237,45.90789533834892,2866],[7.758238007979908,45.90800933821162,2869],[7.758279007684911,45.90803833803934,2872],[7.758237007507497,45.90806633862152,2876],[7.758234007841374,45.90820933824106,2879],[7.758108007924088,45.908350338576064,2882],[7.758147007644328,45.90843733872046,2886],[7.758179008448162,45.9088373387912,2889],[7.758175007550611,45.90900833903138,2892],[7.7580890081141725,45.90920833969255,2895],[7.758169008139233,45.90926633929724,2899],[7.75824800863972,45.9094093399733,2902],[7.758200007588066,45.90972333969015,2905],[7.758278008363739,45.90989633994534,2909],[7.758194007645332,45.91000934063819,2912],[7.758190007923064,45.91018034085818,2915],[7.758024008683327,45.91029334031123,2918],[7.757980008190655,45.91040734085253,2922],[7.7580190081817895,45.910493341083715,2925],[7.758140007560084,45.910580340584126,2928],[7.7580950076501916,45.91075134065925,2932],[7.75825300766497,45.91101034118751,2935],[7.758252008378518,45.911067341581834,2938],[7.75833300787785,45.91112534111377,2941],[7.758331008612056,45.91121134118172,2945],[7.758450007787109,45.911355341557126,2948],[7.7585280080349595,45.91152734165774,2951],[7.758610008695603,45.91152834151701,2954],[7.758731008608086,45.911615342180106,2958],[7.75869000777501,45.911643342070015,2961],[7.758771008064015,45.91164434174565,2964],[7.758769007545963,45.91175934243781,2968],[7.7590110084531405,45.9119043417644,2971],[7.758926008397155,45.91207534237778,2974],[7.758923007999263,45.912189342174806,2977],[7.759086008069439,45.9122193427988,2981],[7.759044008533886,45.91227634250226,2984],[7.759084008176496,45.91233434259178,2987],[7.759206008004073,45.91233534262216,2991],[7.759123007708392,45.91239134267662,2994],[7.759205007987678,45.91242134273833,2997],[7.759202008127468,45.91253534254156,3000],[7.759281007987023,45.91265034260868,3004],[7.759323008556016,45.912622342566486,3007],[7.759362008224282,45.912708343201444,3010],[7.759319008077625,45.912793342740926,3014],[7.759360007861488,45.91279434325172,3017],[7.759356008470519,45.9129943431661,3020],[7.7595590081170664,45.913053343349674,3023],[7.759517008415037,45.91311034321737,3027],[7.759721007690823,45.91314134336184,3030],[7.759803008230159,45.91311334353057,3033],[7.759802007889533,45.913170343005916,3036],[7.759964008171244,45.913258343579,3040],[7.760243008379916,45.9136043440345,3043],[7.760346830465067,45.91370377132125,3046],[7.760383790725299,45.91377034130954,3050],[7.760398008033757,45.91397734395657,3053],[7.76043700795712,45.914092343932225,3056],[7.760598008117622,45.91420834423738,3059],[7.760796008057397,45.91452434428113,3063],[7.7608360085332375,45.91452534512312,3066],[7.760835008704761,45.91461034439408,3069],[7.761117008438934,45.91481434483357,3073],[7.76111400839447,45.914928344636984,3076],[7.761275008479961,45.91504434486844,3079],[7.761273008039021,45.91515834560832,3082],[7.761352008061588,45.915273345089254,3086],[7.761433007978128,45.91530334528911,3089],[7.761432007910861,45.915360345659806,3092],[7.7615140078267455,45.915361345221974,3096],[7.761430007786522,45.915474345499604,3099],[7.7615110080365115,45.91550434564656,3102],[7.7615520077581195,45.9154763456492,3105],[7.761715008538987,45.91550634520571,3109],[7.76183600762983,45.91559334610421,3112],[7.76187500802765,45.915679345842456,3115],[7.762039008579617,45.91571034579676,3118],[7.762078008061566,45.915796346353844,3122],[7.762118008530088,45.91579634591782,3125],[7.762117007681537,45.91588234599779,3128],[7.762237007588542,45.91596934644014,3132],[7.762276007477538,45.91608434574584,3135],[7.762398007786463,45.91611434658203,3138],[7.762562007596727,45.91611534613048,3141],[7.762436007763868,45.91622834677155,3145],[7.762435008707139,45.91628534625248,3148],[7.762762008226056,45.91631834634856,3151],[7.762720007841911,45.91634634674061,3155],[7.762598008514315,45.91634434604704,3158],[7.762515007819038,45.91637234603978,3161],[7.762432008604829,45.91642834667427,3164],[7.762554008529339,45.916487346151186,3168],[7.762552007637463,45.916544346480755,3171],[7.7625110076097785,45.91654334621547,3174],[7.762469008201004,45.9166293468514,3178],[7.762428008112854,45.916628346555754,3181],[7.762589008043819,45.91674434669555,3184],[7.762588007506552,45.916802346984795,3187],[7.76254500766012,45.91685834707069,3191],[7.762586007920585,45.916859347326074,3194],[7.762584008694808,45.9169443474543,3197],[7.7626250081162445,45.91697334747002,3200],[7.76262200806514,45.9170883471978,3204],[7.762743008113764,45.917175347119716,3207],[7.763028007547782,45.91726434751236,3210],[7.7629850077739455,45.91732034776029,3214],[7.763187008330947,45.91746534782377,3217],[7.763185008395236,45.9175513478735,3220],[7.763226007893063,45.91755234789046,3223],[7.7631840081038,45.91758034755419,3227],[7.763348007522614,45.91761034747505,3230],[7.763346008668395,45.91766734782935,3233],[7.7633870077280935,45.917696347563535,3237],[7.763345007888415,45.9177243481853,3240],[7.763504008234982,45.9179263479615,3243],[7.763627007446329,45.91795634838248,3246],[7.7636250075886855,45.91801334782732,3250],[7.763825008123085,45.918244348588914,3253],[7.7651160080622,45.91911534939146,3256],[7.765236008050587,45.91923134902915,3260],[7.765195008574518,45.919230348834965,3263],[7.765276007635285,45.919288349647324,3266],[7.765398007550987,45.91931834905341,3269],[7.765559008432058,45.919434349456154,3273],[7.765781951003338,45.91946346882947,3276],[7.765843008125448,45.91955234967834,3279],[7.765964008163264,45.919639349745594,3282],[7.766006008130716,45.91961134997115,3286],[7.766169007898285,45.91964134943083,3289],[7.76645100867069,45.91984435008499,3292],[7.766614007825448,45.91987534972872,3296],[7.766656008082038,45.919818350023476,3299],[7.766737008240778,45.919876349804426,3302],[7.766861008507092,45.91982034937374,3305],[7.766941007813063,45.91993535027238,3309],[7.766942007576181,45.91987834989741,3312],[7.766983007834378,45.91985034977666,3315],[7.767024007782508,45.91987935000219,3319],[7.767107007780287,45.919794349975454,3322],[7.7671070075849755,45.919823349669436,3325],[7.767189007715711,45.91982434965499,3328],[7.767397007528809,45.91965434968161,3332],[7.767642007876084,45.91968634944842,3335],[7.767681008360018,45.919772349838745,3338],[7.767844008200957,45.919802349607345,3342],[7.768173007709093,45.91977735005416,3345],[7.768130007587028,45.91986235010506,3348],[7.768418007952224,45.919808350026734,3351],[7.7684580079314705,45.919837349759,3355],[7.768414008444272,45.919980350234255,3358],[7.76853600768304,45.920010349876016,3361],[7.768535008257797,45.92006735026629,3364],[7.768451008031731,45.92015235044484,3368],[7.768491007707277,45.92020934992683,3371],[7.7684490085134925,45.92023735062003,3374],[7.768447007990622,45.92035235040355,3378],[7.768364008302702,45.92037935021301,3381],[7.768404008657641,45.920408349965236,3384],[7.768279007632013,45.920521350634736,3387],[7.768318008373893,45.92060735079733,3391],[7.768113007601846,45.92060535046029,3394]]}}]}