{"type":"FeatureCollection","features":[{"type":"Feature","properties":{"slug":"07-s49","sct_code":"07_S49","source":"Catasto Sentieri VdA"},"geometry":{"type":"LineString","coordinates":[[7.7169830083641475,45.82482426227542,1553],[7.7179890080514815,45.8247762619868,1561],[7.720089008024715,45.82529626270742,1570],[7.723589008747439,45.825446263046175,1578],[7.726309008409231,45.82578626337617,1586],[7.726666007664994,45.8255982627524,1595],[7.727209007849593,45.82524626262539,1603],[7.728441007655271,45.82540926301053,1611],[7.729449007762541,45.8244362621936,1620],[7.729639007911538,45.82439626224211,1628],[7.730390008557609,45.82358226075709,1637],[7.730450008382332,45.82337326060711,1645],[7.730837787698523,45.82310935197056,1653],[7.7309044173182295,45.82304056409006,1662],[7.730921221083673,45.82299415300308,1670],[7.7309095931677305,45.82294609672364,1678],[7.730975885315169,45.822861329347056,1687],[7.730928594421511,45.822818052147795,1695],[7.730822519979143,45.822812373584895,1703],[7.730493263665024,45.82285596738226,1712],[7.730471457260545,45.82282422367499,1720],[7.730518087142233,45.82275498876012,1728],[7.730632948434748,45.822657260673274,1737],[7.730657055739838,45.82258777544998,1745],[7.730835808753405,45.822369251662174,1753],[7.731350205614658,45.82140067195906,1762],[7.731579845146327,45.821310328692284,1770],[7.731858681294035,45.821107105339905,1779],[7.73241829077368,45.821033322931534,1787],[7.7331790080483485,45.82118625863477,1795],[7.733649008278377,45.82133625877151,1804],[7.733779008570608,45.82170625970629,1812],[7.733629008173075,45.821856259193204,1820],[7.733389008522317,45.82215625947616,1829],[7.733416008546503,45.82235826042012,1837]]}}]}