{"type":"FeatureCollection","features":[{"type":"Feature","properties":{"slug":"07-s11","sct_code":"07_S11","source":"Catasto Sentieri VdA"},"geometry":{"type":"LineString","coordinates":[[7.716347881927721,45.82470050332482,1550],[7.716052292428074,45.82476378731513,1558],[7.71592283671584,45.82482794791926,1566],[7.715809958993991,45.82491317294233,1574],[7.715614603479689,45.825011765957726,1583],[7.7142990075100615,45.82627626316743,1591],[7.713309007873549,45.82589626334935,1599],[7.713289007487385,45.82634626386799,1607],[7.712600008648413,45.826196263126086,1615],[7.711440008082336,45.82647626339608,1623],[7.71206000766029,45.82698626411447,1632],[7.709744338548393,45.82706624586721,1640],[7.709559481896869,45.82706293932697,1648],[7.709688093705392,45.827159186812246,1656],[7.7097035146141755,45.82722725633761,1664],[7.710038173512157,45.827501040997205,1672],[7.710344014415188,45.82768372860599,1681],[7.710521698547598,45.827824386191935,1689],[7.710704318750714,45.82790185435646,1697],[7.710584168437477,45.82811891533221,1705],[7.710465725140429,45.82822885659502,1713],[7.7103354807667355,45.82827742585984,1721],[7.710038848422455,45.828245804876126,1730],[7.70987298381248,45.82821732318649,1738],[7.709760440364781,45.82814620288272,1746],[7.709640032724222,45.828106593115365,1754],[7.709521310856964,45.82809693666255,1762],[7.709423762951809,45.82809749711551,1770],[7.709283791683151,45.82808094817864,1778],[7.70920285270474,45.82808336025889,1787],[7.70910093337338,45.828067241023085,1795],[7.70900837328873,45.82805787964736,1803],[7.708944352098555,45.82804884071282,1811],[7.7088496441843875,45.82802947710276,1819],[7.70880806037025,45.828078898996765,1827],[7.708736328025058,45.82809471917722,1836],[7.7087274620355455,45.82816945721728,1844],[7.708674130652963,45.82821250991085,1852],[7.7086379381678825,45.82823455228962,1860],[7.708678146172925,45.82826416893905,1868],[7.708645338990953,45.82827454907675,1876],[7.708417870770917,45.828235390192,1885],[7.708345795011902,45.828214618756355,1893],[7.708270571454928,45.82822707262783,1901],[7.70819669101557,45.828232889448124,1909],[7.708143699012738,45.82820983876177,1917],[7.708082803226003,45.82821996051628,1925],[7.708053493582744,45.828252890012564,1934],[7.7080131400070595,45.82824910801828,1942],[7.707887706989705,45.82822107977699,1950],[7.707690140919122,45.82817477380824,1958],[7.707560237233898,45.82818577793263,1966],[7.707365102629664,45.828188559138695,1974],[7.707173347509602,45.82814813857685,1982],[7.706918103370164,45.82817851171274,1991],[7.706852772940586,45.828182374148135,1999],[7.706740008485929,45.82816626505342,2007],[7.705840008202605,45.827756264320314,2015],[7.705649404731929,45.827697653648954,2023],[7.705441865711391,45.82767118736281,2031],[7.705331830874235,45.82769738174634,2040],[7.705208598311344,45.82772841446489,2048],[7.705098891024077,45.827740475420946,2056],[7.705062046722289,45.82773922706757,2064],[7.705034008254968,45.8277372648819,2072],[7.704953302067026,45.82795712154965,2080],[7.705087201801177,45.82827731077605,2089],[7.705194222747558,45.828636901318426,2097],[7.705930007970969,45.828816265287145,2105],[7.706210007579675,45.8289862659809,2113],[7.7068100083821705,45.82943626633163,2121],[7.7069100084068625,45.82969626651944,2129],[7.706988813818471,45.82980698930064,2138],[7.706995956077706,45.8298170245655,2146],[7.707090008625426,45.82990626670406,2154],[7.706890008281302,45.830806267679776,2162],[7.707080008002686,45.832352268657345,2170],[7.707093007490422,45.832943269393276,2178],[7.7070320079391275,45.83324726993072,2187],[7.706720007925622,45.83344626957003,2195],[7.70619000778271,45.834046270685214,2203],[7.704770007718088,45.83492627116614,2211],[7.7038010078328405,45.83504027132928,2219],[7.703748704825807,45.83505760575882,2227],[7.70155000835524,45.835786271979096,2235],[7.700650007984492,45.836236272136894,2244],[7.7000900085873045,45.83632627236748,2252],[7.698420007952378,45.83619627211721,2260],[7.695390008595555,45.83589627235218,2268],[7.6947700077107495,45.8356162720896,2276],[7.694020008365541,45.83569627196374,2284],[7.691940007667072,45.835526271724824,2293],[7.691593008351292,45.83612027180222,2301],[7.691425728993093,45.83734851697455,2309],[7.691624238137028,45.83735132966569,2317],[7.6916623827458555,45.83737201735662,2325],[7.691590686177354,45.83754670364489,2333],[7.691581718511424,45.83765460548066,2342],[7.691638120185642,45.83785775992542,2350],[7.691617493876863,45.83805103182845,2358],[7.691490008619074,45.83827627415292,2366],[7.690760008531198,45.8381862737316,2374],[7.6899600075625045,45.83868627413436,2382],[7.689811008063379,45.83890127474416,2391],[7.690760007603387,45.839606274812205,2399],[7.691060008281558,45.83956627478024,2407],[7.692110008023203,45.84003627605191,2415],[7.692370008596184,45.84037627577443,2423],[7.693140007963084,45.84089627613961,2431],[7.693460008078643,45.84123627651785,2439],[7.6933800079855,45.84142627659296,2448],[7.6938000080766935,45.841685276839264,2456],[7.694000007564381,45.84194527725068,2464],[7.69378000843287,45.84198527717684,2472],[7.693850008764797,45.842155277279524,2480],[7.694560007509964,45.84267527763146,2488],[7.694510008083575,45.84357527879318,2497],[7.6941500079361385,45.84368527928306,2505],[7.694430008116184,45.844255279388115,2513],[7.693870008460596,45.8456152809418,2521],[7.693950007740101,45.846017280610724,2529],[7.694880008072516,45.84599528124292,2537],[7.69567000788581,45.845715280815725,2546],[7.695780008166089,45.84552528064105,2554],[7.69604000864497,45.845395280664206,2562],[7.697130007718009,45.84509528023765,2570],[7.697320008589506,45.84488528031379,2578],[7.698220008397033,45.84449527998392,2586],[7.698680008697675,45.843855278769055,2595],[7.699600007818408,45.84333527887808,2603],[7.700610007599143,45.84348527824134,2611],[7.70074000801957,45.8435952786815,2619]]}}]}