{"type":"FeatureCollection","features":[{"type":"Feature","properties":{"slug":"08-s18","sct_code":"08_S18","source":"Catasto Sentieri VdA"},"geometry":{"type":"LineString","coordinates":[[7.257340008380269,45.622903106011364,1300],[7.257338008394638,45.622960105964026,1304],[7.257466007848248,45.62322910640616,1308],[7.2579730084589205,45.62352310678372,1312],[7.257776007758781,45.623729106858185,1315],[7.2587110080084365,45.624239106463016,1319],[7.259117008489751,45.62428310722336,1323],[7.259260008782387,45.62491410706936,1327],[7.259102008559147,45.625636107431184,1331],[7.258990008332728,45.62576810778168,1335],[7.2585800079489955,45.62586810772579,1338],[7.258586008283713,45.62597510812253,1342],[7.258486008594205,45.62612510790689,1346],[7.258726008756334,45.626275108513404,1350],[7.258446008612451,45.62656510808067,1354],[7.25841600874677,45.62698510897074,1358],[7.258186008803573,45.627385108609,1361],[7.258266007872903,45.627485109010166,1365],[7.258416008811641,45.62740510917743,1369],[7.2586660084558465,45.62742510910093,1373],[7.258716008484681,45.627515109200885,1377],[7.258666008249162,45.62765510926145,1381],[7.259076008817966,45.62830510924143,1384],[7.259016007736042,45.6283651097186,1388],[7.259446007540129,45.628915109946746,1392],[7.259406007657434,45.629145109777525,1396],[7.259606008595534,45.62929510997191,1400],[7.2597560084686075,45.62935511020315,1404],[7.2596760078863545,45.6294851100503,1407],[7.259486008234656,45.62952511025179,1411],[7.259586008222566,45.629735110868516,1415],[7.2597960079643205,45.629785110199116,1419],[7.25960600754996,45.629945110978895,1423],[7.259476008696453,45.629955110707506,1427],[7.25952600830963,45.630165110795204,1431],[7.259346007923446,45.630145111291704,1434],[7.259326008245479,45.63029511139886,1438],[7.2592160082216655,45.63029511071097,1442],[7.2591760076836715,45.63036511079339,1446],[7.259276007934414,45.63057511075732,1450],[7.259196008492765,45.63080511102476,1454],[7.2594560075542285,45.631335111295215,1457],[7.259116007889348,45.631475111652115,1461],[7.258896007733694,45.63141511183564,1465],[7.258806007976272,45.63145511155869,1469],[7.258466007743568,45.63152511223407,1473],[7.258586008809451,45.63187511169674,1477],[7.258486008240257,45.631945111998036,1480],[7.258506008198484,45.6320251120839,1484],[7.258796008078094,45.632215112561155,1488],[7.259126008267787,45.632485112916825,1492],[7.258986008243788,45.63258511267948,1496],[7.258926008028337,45.63256511285762,1500],[7.258896007547327,45.63265511276276,1503],[7.258556008336717,45.6326751128966,1507],[7.258266008742417,45.63280511273679,1511],[7.2586160077836235,45.63283511284489,1515],[7.259006008258742,45.63306511288739,1519],[7.259676007919667,45.63298511306268,1523],[7.260236007929493,45.63299511323349,1527],[7.2605760082202755,45.63303511322748,1530],[7.260606008493385,45.63285511286023,1534],[7.261156008358598,45.633175113001144,1538],[7.261326007745025,45.63342511303728,1542],[7.261496008689473,45.63406511317437,1546],[7.261646007687025,45.63431511336304,1550],[7.26160600787907,45.63445511376438,1553],[7.261666007711789,45.63458511356368,1557],[7.261396008505622,45.63483511371294,1561],[7.26133600810201,45.63497511375531,1565],[7.26137600761631,45.634945113949,1569],[7.261396008540605,45.635045114000135,1573],[7.261446008592473,45.635065114194646,1576],[7.261416008761968,45.63542511470222,1580],[7.261446007770568,45.635365114449776,1584],[7.261656008500483,45.635545114894754,1588],[7.261966008476883,45.63626511466359,1592],[7.262016008016489,45.63656511520992,1596],[7.2624360086767075,45.63661511533498,1599],[7.263226008609,45.636555115289056,1603],[7.263396007651241,45.63640511483074,1607],[7.26365600797967,45.63642511542652,1611],[7.2642160085746905,45.63654511541552,1615],[7.264646007977227,45.63652511498755,1619],[7.265296008029905,45.63620511530917,1622],[7.265256008350782,45.63600511484758,1626],[7.266546008565709,45.63542511470983,1630],[7.266666008745797,45.63530511401282,1634],[7.267096008282398,45.63524511416733,1638],[7.267396008151703,45.635025114063204,1642],[7.267606008773916,45.635075114280184,1646],[7.267986008559477,45.63498511379255,1649],[7.2681260086562745,45.63508511430812,1653],[7.268446007924743,45.63497511457912,1657],[7.268976008349081,45.635175114514624,1661],[7.269226007568387,45.63534511432462,1665],[7.269746007667262,45.63535511417378,1669],[7.270156007674369,45.6354951143827,1672],[7.270276007887329,45.63566511482337,1676],[7.270236008641978,45.635765114526194,1680],[7.27030600822456,45.63591511497973,1684],[7.270666008088991,45.63608511511447,1688],[7.270746008189347,45.636195115420804,1692],[7.27166600834965,45.636345115543236,1695],[7.272876008143934,45.636345114817225,1699],[7.273626008084364,45.63626511514124,1703],[7.2740060080786835,45.63613511525029,1707],[7.274166007576754,45.63617511477751,1711],[7.274985007772396,45.63618511462593,1715],[7.275175008164548,45.63611511538511,1718],[7.275365008636346,45.636145114688325,1722],[7.275595007860519,45.63610511510105,1726],[7.275955008101725,45.63590511509647,1730],[7.27613500872309,45.6358751145982,1734],[7.277055008331749,45.63542511409835,1738],[7.27721500822496,45.63508511437351,1741],[7.277635008472899,45.63474511417398,1745],[7.277965008470316,45.63467511356779,1749],[7.278795008611039,45.63456511396586,1753],[7.2790650079578665,45.63477511381214,1757],[7.279285007996836,45.634835114301,1761],[7.279595007823418,45.63510511398203,1765],[7.280455007584776,45.635445114843,1768],[7.280765007562558,45.63573511450893,1772],[7.280805007635669,45.63592511512055,1776],[7.281235008023054,45.63656511519759,1780],[7.281315008427792,45.63683511558777,1784],[7.281235008729835,45.63686511533816,1788],[7.281315008806343,45.63694511512788,1791],[7.281265007965307,45.63703511596911,1795],[7.281485007935429,45.63743511596466,1799],[7.281655008199961,45.637495115539174,1803],[7.282115008093114,45.63751511552178,1807],[7.282415007560587,45.63756511636095,1811],[7.282555007771259,45.63765511642762,1814],[7.28282500820415,45.6377451160661,1818],[7.283355008378546,45.63780511590743,1822],[7.283555007775965,45.63779511587556,1826],[7.284115008166054,45.63796511613854,1830],[7.284925007694164,45.638005116707085,1834],[7.285215008401792,45.6379151159528,1837],[7.285385008343012,45.63795511667587,1841],[7.285675008720405,45.63788511613189,1845],[7.285885008112569,45.63790511658722,1849],[7.2862450084143395,45.6378651159776,1853],[7.286445008240076,45.63792511663213,1857],[7.286555008117732,45.63790511578539,1861],[7.286835007786379,45.63802511671069,1864],[7.287125008603069,45.637965115882885,1868],[7.287245007880977,45.6379751161041,1872],[7.287465008609615,45.63807511616021,1876],[7.287705007920133,45.638115116254944,1880],[7.287905007624219,45.63810511670653,1884],[7.288145007943196,45.63823511671173,1887],[7.288305008486821,45.638185116292966,1891],[7.288575008245852,45.63820511636841,1895],[7.288895007669918,45.63818511600586,1899],[7.289145008822156,45.638225116210414,1903],[7.289385008809775,45.638305116444776,1907],[7.289484174358785,45.63830698334118,1910],[7.289475008071053,45.63831511680951,1914],[7.289585007942602,45.638435116415145,1918],[7.289635007557501,45.63858511681344,1922],[7.28947500805188,45.63850511643269,1926],[7.289275007855579,45.638535116505736,1930],[7.289185008270173,45.638485116816675,1933],[7.289005008172553,45.6386051171041,1937],[7.28899500853315,45.6386551165589,1941],[7.289055007902025,45.63867511673272,1945],[7.289095008312411,45.63886511703647,1949],[7.289005008450758,45.638885116634604,1953],[7.289015008075347,45.63894511667043,1956],[7.288955007871926,45.63904511664227,1960],[7.288760008262327,45.639168116767465,1964],[7.288545008323284,45.639085117304546,1968],[7.2884450085718395,45.63913511718865,1972],[7.288225008279904,45.63911511736678,1976],[7.288035007795989,45.63915511732144,1980],[7.2877550077025255,45.639145117048,1983],[7.287195007756749,45.63897511669505,1987],[7.286995007886213,45.639085117397556,1991],[7.286675007563308,45.63907511665121,1995],[7.2864650082122,45.63915511735587,1999],[7.2861250077571444,45.63917511678462,2003],[7.285715007589406,45.63928511750245,2006],[7.285585007821699,45.63927511676785,2010],[7.285475008369765,45.63932511695284,2014],[7.285345007977728,45.63929511725623,2018],[7.284695008655687,45.639425117003974,2022],[7.284575008053947,45.639515117381904,2026],[7.284365007623023,45.63956511753603,2029],[7.28418500784011,45.639485117127094,2033],[7.284015008013775,45.639455117120484,2037],[7.283865008302138,45.639505116885786,2041],[7.283745008768075,45.63958511751755,2045],[7.283765008688234,45.639605117019215,2049],[7.283895007596956,45.63959511753398,2052],[7.283875007764427,45.6397251175966,2056],[7.2837850084520825,45.63978511764335,2060],[7.283825008441694,45.63981511774092,2064],[7.284055007832481,45.639795117806244,2068],[7.284175008324521,45.63987511799106,2072],[7.2839950085365945,45.64005511809817,2075],[7.283785008113418,45.640135117448416,2079],[7.2835650078834675,45.6401651174939,2083],[7.2830250086997195,45.640385118131455,2087],[7.2821250079560915,45.64051511759225,2091],[7.2819650081538,45.64048511824351,2095],[7.2818150076854655,45.64053511799828,2099],[7.281795008694538,45.640605118064755,2102],[7.281715007792948,45.64066511838255,2106],[7.281785008801009,45.640685118036245,2110],[7.2815550084736556,45.64077511819805,2114],[7.28171500757893,45.64080511810925,2118],[7.281625007541279,45.640845118658945,2122],[7.281675007567915,45.64088511854128,2125],[7.281985008766475,45.6409351179422,2129],[7.281845008145564,45.64101511810997,2133],[7.2819550085291915,45.641055118632956,2137],[7.28203500779627,45.641015118600734,2141],[7.28256500754578,45.64094511851847,2145],[7.282835008437689,45.641025118295765,2148],[7.282915007733187,45.64109511800699,2152],[7.283135008739526,45.64111511816355,2156],[7.283205007887053,45.641055118619526,2160],[7.283295007896048,45.64106511846148,2164],[7.2835450081526005,45.64122511843679,2168],[7.283555008335006,45.64130411853507,2171],[7.283515008332447,45.64133411887089,2175],[7.283555008575234,45.64148411829737,2179],[7.28323500823529,45.641564118597266,2183],[7.283585008424702,45.64179411880136,2187],[7.283135008769821,45.64195411914451,2191],[7.282895008377551,45.64210411888591,2195],[7.282645008437235,45.64218411957063,2198],[7.282825008819906,45.64216411912468,2202],[7.283005007615561,45.642234119139545,2206],[7.283125008750458,45.64234411885975,2210],[7.283545008649818,45.64253411920824,2214],[7.285025008576974,45.64250411900891,2218],[7.2850250086624815,45.64270411920016,2221],[7.284785007674401,45.64278411989801,2225],[7.284835008110724,45.64284411975577,2229],[7.284785008542591,45.64292411958878,2233],[7.284945007758266,45.642954119459105,2237],[7.28497500808864,45.64298411928399,2241],[7.284755007735729,45.643114119451944,2244],[7.284765007587825,45.643194119392454,2248],[7.284875008177582,45.643254120253815,2252],[7.285135008409934,45.64317411994344,2256],[7.285685008494037,45.64320412000905,2260],[7.285895007698819,45.64305411959344,2264],[7.286055008702999,45.643174119585474,2267],[7.285885008025925,45.643284120244296,2271],[7.285985007994948,45.643394120065324,2275],[7.285885008236865,45.643624120070925,2279],[7.285975008199323,45.64368412030579,2283],[7.286098824816719,45.64367415873859,2287],[7.286308744332759,45.643654238159314,2290],[7.286789478714915,45.643774708208504,2294],[7.287117625703046,45.64384487088975,2298],[7.287159220589481,45.64390230446062,2302]]}}]}