{"type":"FeatureCollection","features":[{"type":"Feature","properties":{"slug":"08-s8","sct_code":"08_S8","source":"Catasto Sentieri VdA"},"geometry":{"type":"LineString","coordinates":[[7.23341700783357,45.67145413940932,762],[7.233416564565672,45.6716113319542,764],[7.233518631671962,45.671720917816806,765],[7.233555761197122,45.67181600002699,767],[7.233699982529502,45.67205224887459,768],[7.23397455878006,45.672200504803094,770],[7.23400614608197,45.67248451250111,772],[7.233457509268328,45.67288555993442,773],[7.2332548272316775,45.672976930865005,775],[7.233192952474252,45.673043479594085,777],[7.233162425808635,45.67322302069954,778],[7.232927609167726,45.673646919501,780],[7.2328233146873595,45.67396482855668,781],[7.232720532201215,45.67410725060689,783],[7.232742067660601,45.67417508794258,785],[7.232817887909863,45.674162761048706,786],[7.232872757010343,45.67412760736971,788],[7.23318731574932,45.673857908677874,789],[7.233179417817925,45.6739682597788,791],[7.233133519913682,45.67410210969145,793],[7.233170345172122,45.6742256860926,794],[7.233049219428972,45.67428565487906,796],[7.233035554809092,45.67431942278533,798],[7.2330837300701125,45.674359584724215,799],[7.233077211119992,45.67438191082972,801],[7.232929894131278,45.674503997408266,802],[7.232917303904202,45.67453438417121,804],[7.233049272106286,45.67462273422993,806],[7.233041438642096,45.674670256260015,807],[7.233025303572985,45.67472401062273,809],[7.233042309128315,45.67478277894566,810],[7.233269689734254,45.67516882393602,812],[7.233353620001047,45.675408639851916,814],[7.233376737599472,45.67564301381432,815],[7.233331702741083,45.675786327818564,817],[7.233317857311255,45.675852876071716,819],[7.233499125551582,45.67588422283012,820],[7.233542885521571,45.675910723469556,822],[7.2335410896710455,45.67596778240276,823],[7.23361463128953,45.67609532335209,825],[7.233589096238128,45.676105802121285,827],[7.233573948158401,45.67615585814069,828],[7.233630376540221,45.676211098484366,830],[7.233653104878808,45.67635144631405,831],[7.2338251119883425,45.67636905741838,833],[7.233824513477022,45.67638807646446,835],[7.233881142016227,45.676375360271486,836],[7.233888380355335,45.67639178230511,838],[7.233932569647889,45.67640469843054,840],[7.233958931139556,45.67642957166723,841],[7.233937371305008,45.67649855688733,843],[7.233959899938138,45.67652201085441,844],[7.234131702402868,45.67657699628347,846],[7.234162858732812,45.676572721156724,848],[7.23417965944683,45.67659336831841,849],[7.234145233163152,45.67670157124564,851],[7.234229007517573,45.67675043769442,852],[7.234381410366209,45.6768982265607,854],[7.234372282724818,45.67691099780211,856],[7.234482498959414,45.676951438688704,857],[7.234507765300157,45.67716522146092,859],[7.2346137227160385,45.677310253377996,861],[7.234643521622581,45.677472457674334,862],[7.234759380577665,45.67751842190863,864],[7.235661644344097,45.67768255426977,865],[7.235913344949294,45.67776137641845,867],[7.236223768877855,45.67775389480495,869],[7.236460806268586,45.677832834920984,870],[7.236576337862146,45.67789762433399,872],[7.2366236976335925,45.67819087612836,873],[7.236688369664399,45.67836738930122,875],[7.2367296097240335,45.67840852807669,877],[7.236848917824755,45.67845537419231,878],[7.2369130635085925,45.67846986363185,880],[7.237023234496929,45.67846256545477,882],[7.237207151318409,45.67840690000863,883],[7.237343647448521,45.67832799896048,885],[7.237475569357289,45.67824190943574,886],[7.237609970535523,45.678241960129135,888],[7.237865728829028,45.67823690582324,890],[7.237953625414404,45.67828367926609,891],[7.238079563532228,45.678352857113765,893],[7.23829290385854,45.67836964820894,894],[7.238425823151465,45.6784012926003,896],[7.238600601438444,45.678475187961176,898],[7.23872692781032,45.67858346094297,899],[7.239118081690686,45.678415068612736,901],[7.239426139143679,45.67833794690261,903],[7.23948505290252,45.678343026861704,904],[7.239223985355383,45.67840945404662,906],[7.238981443197508,45.67849587862498,907],[7.23871948135026,45.67861088812574,909],[7.238325706677315,45.67882018715953,911],[7.237831992761586,45.67901733561691,912],[7.237607287197743,45.67911962611384,914],[7.2373882914233505,45.67924450593331,915],[7.2372696062556825,45.679343931603675,917],[7.237208532636536,45.67944874670619,919],[7.236959203053082,45.67972166835883,920],[7.236704471713597,45.68006426115414,922],[7.2364681125049115,45.6803328816317,924],[7.236376152193171,45.680398966553184,925],[7.23633309688265,45.68039577430424,927],[7.236257008485253,45.68046414647589,928],[7.236037007893598,45.68076414654088,930],[7.235887008453305,45.681014146918045,932],[7.235917008730503,45.68121414674691,933],[7.2361970076960604,45.681544147367454,935],[7.236237007746902,45.681674147719,936],[7.236111665509392,45.68216796084295,938],[7.235905426739303,45.6822612813798,940],[7.235923889710592,45.6823697976251,941],[7.236132201330613,45.682701765669464,943],[7.236367008545743,45.68293414790361,945],[7.236477008560435,45.68332414813958,946],[7.236517008156386,45.68358414837204,948],[7.236727007779953,45.68374414876568,949],[7.236927007628219,45.68383414844242,951],[7.23702700838391,45.684004149214175,953],[7.2370670085228594,45.68414414894673,954],[7.237137007632437,45.684104148644025,956],[7.237157008428206,45.68405414911624,957],[7.237257007571031,45.68416414951226,959],[7.237137008778648,45.6847641493066,961],[7.237277008585752,45.68500414963132,962],[7.2376370084250805,45.6852741497827,964],[7.237777007730592,45.68527414984137,966],[7.238107007675701,45.685424149780786,967],[7.238067008624624,45.68551415036084,969],[7.23807700791181,45.6856141497234,970],[7.238297008647295,45.68558415013927,972],[7.238317007693765,45.685554149836314,974],[7.23836700868219,45.68560415013379,975],[7.238297007819021,45.68569415066137,977],[7.238397007537923,45.685754150529746,978],[7.238467008467722,45.68576414985488,980],[7.238597008373361,45.6857341503284,982],[7.238957008342408,45.68582415040495,983],[7.2391270078881815,45.686014150645256,985],[7.2392070082506725,45.68627415088357,986],[7.2393570087177475,45.686464151160465,988],[7.239337008331457,45.686554150839314,990],[7.239667008527151,45.68697415125454,991],[7.239717008609938,45.68707415132836,993],[7.239734812555956,45.6872530237678,995],[7.239536838839125,45.68714196368599,996],[7.239207056137762,45.68701087173931,998],[7.239175179195414,45.68703048683337,999],[7.239187008065249,45.68709415166615,1001],[7.239387007919103,45.68735415119058,1003],[7.23950700845591,45.68780415216994,1004],[7.239557008074777,45.68792415172832,1006],[7.239647007632027,45.688044152150006,1007],[7.2397570076959,45.68814415169476,1009],[7.239717007892639,45.68817415179937,1011],[7.239667008599954,45.688184152245356,1012],[7.239417007789303,45.68810415235607,1014],[7.2392970079068695,45.688114151825836,1016],[7.239267008801858,45.68823415218902,1017],[7.23916700764454,45.68827415205926,1019],[7.239047008418597,45.688264151842226,1020],[7.238937008057971,45.68823415233029,1022],[7.238857008002626,45.688104151916605,1024],[7.238637008730622,45.687994152052894,1025],[7.238457008697702,45.68796415169804,1027],[7.238327007996372,45.68798415222823,1028],[7.238307007685171,45.688154152146836,1030],[7.238277007931266,45.68821415213727,1032],[7.238297007677829,45.68828415173272,1033],[7.238367007681163,45.688394151869154,1035],[7.238377007893641,45.688454152305965,1037],[7.238437008608474,45.68845415249072,1038],[7.238517008804144,45.68855415224399,1040],[7.2385070084959064,45.68861415201932,1041],[7.2383870084172015,45.68874415252751,1043],[7.2383870086352085,45.68899415263594,1045],[7.238317008544545,45.689084153142076,1046],[7.238247007909348,45.68910415288517,1048],[7.238207007601285,45.6890641526383,1049],[7.238087008270924,45.689034152880865,1051],[7.237907008549353,45.689114153046205,1053],[7.238037008234971,45.6893241527416,1054],[7.238057008578984,45.68940415299134,1056],[7.238017008067081,45.68945415281521,1058],[7.237797008357271,45.68955415347438,1059],[7.237847008050214,45.68964415280593,1061],[7.23813152023963,45.68982049405077,1062],[7.238187008185754,45.6898341534313,1064],[7.238317007763313,45.689914152892406,1066],[7.238367008767954,45.689924153394834,1067],[7.238457008313837,45.68997415311524,1069],[7.238467008183878,45.690064153566475,1070],[7.238427007972418,45.69024415341698,1072],[7.238382270557036,45.69032389132944,1074],[7.238347008778337,45.69036415365261,1075],[7.2383570084787525,45.69047415353269,1077],[7.238307007718693,45.690754153720846,1079],[7.238247240150203,45.69086372817971,1080],[7.238237008054706,45.69091415395209,1082],[7.238267007692345,45.69093415439915,1083],[7.238267007611531,45.69095415382369,1085],[7.238397007882434,45.69104415380104,1087],[7.2385570084026805,45.691074154507284,1088],[7.238677008515388,45.69112415409495,1090],[7.238737008782737,45.691094154075344,1091],[7.23886700825889,45.69108415457706,1093],[7.239017008648144,45.690994154195444,1095],[7.239167008219835,45.69093415454174,1096],[7.239227008521709,45.69094415401581,1098],[7.239317008363719,45.69098415424027,1100],[7.239537008506557,45.69132415422936,1101],[7.239537008269421,45.691384154298355,1103],[7.2395970075466405,45.69148415456883,1104],[7.239577008080042,45.691574154233045,1106],[7.239487007799339,45.691654154352186,1108],[7.239527007839555,45.69178415513154,1109],[7.239617008702574,45.69186415487404,1111],[7.239697008324626,45.69201415498787,1112],[7.239776683232243,45.69209151487398,1114],[7.240277008031391,45.69250415542773,1116],[7.240407007682515,45.692624154909495,1117],[7.240547008752457,45.692794155652564,1119],[7.240847007944936,45.693034155201545,1121],[7.241117008018276,45.69317415570644,1122],[7.241247008299264,45.693374155496194,1124],[7.241260506499783,45.693554476016544,1125],[7.241280946196047,45.693645311975885,1127],[7.2411499226627,45.693684270604734,1129],[7.241080855497132,45.69371518442151,1130],[7.2410604943215136,45.69374300323966,1132],[7.241208481781429,45.69391449693036,1133],[7.241279199663283,45.69395562975396,1135],[7.241378908617206,45.69393759951952,1137],[7.241639466039203,45.6937022915127,1138],[7.241742349035004,45.69366501426026,1140],[7.241774079191158,45.69372105916617,1142],[7.241612123160912,45.69386039967305,1143],[7.241508647678253,45.69399693751065,1145],[7.241561462106091,45.69399586593535,1146],[7.241612999573693,45.693976326970265,1148],[7.241647008037536,45.69398415637079,1150],[7.241777007868594,45.693904156510136,1151],[7.2418970077829306,45.693964155988695,1153],[7.241987007736385,45.69403415680859,1154],[7.242267007746373,45.694104156627596,1156],[7.242367008622961,45.694244156900226,1158],[7.24266700804864,45.69452415673037,1159],[7.242797007564988,45.694694156475045,1161],[7.242897007772105,45.694684157064145,1163],[7.243047007597991,45.69477415694235,1164],[7.243227008468504,45.695014157348886,1166],[7.243327007635814,45.69519415735343,1167],[7.243327008565046,45.69524415769517,1169],[7.243407007852218,45.69542415782847,1171],[7.243647008347176,45.695684158073554,1172],[7.24381700862704,45.695954157645495,1174],[7.243917008274014,45.69616415802297,1175],[7.243927007852505,45.696473158604796,1177],[7.243947008302887,45.69654315802226,1179],[7.2440270081814635,45.696663158571916,1180],[7.244147007989284,45.696783158369165,1182],[7.244307008516607,45.69688315879449,1184],[7.2444670081078195,45.696943158368825,1185],[7.244877007787661,45.69699315861838,1187],[7.245240316474294,45.6969850322108,1188],[7.245399774480092,45.69704288270457,1190]]}}]}