{"type":"FeatureCollection","features":[{"type":"Feature","properties":{"slug":"08-s16","sct_code":"08_S16","source":"Catasto Sentieri VdA"},"geometry":{"type":"LineString","coordinates":[[7.267487495006317,45.68984653847752,770],[7.267316887872622,45.69012072095118,775],[7.266863207324501,45.690671877037985,781],[7.266674722916269,45.6908490294715,786],[7.266381595836057,45.6910875977484,792],[7.2660501638947705,45.69131883325728,797],[7.265588690021674,45.69160209690515,803],[7.265492144301,45.691713138709616,808],[7.265420467971947,45.69216208202583,813],[7.265407929056176,45.692359905602466,819],[7.265465497967572,45.69247103770706,824],[7.265497008449426,45.692753155158265,830],[7.26598700840389,45.69305315580584,835],[7.26615700809417,45.693253155703246,841],[7.266727008097014,45.693633156438246,846],[7.267067008254633,45.693653155956255,851],[7.267197007656412,45.693713156332294,857],[7.267397008634258,45.693733155806214,862],[7.267677008782292,45.69370315653409,868],[7.267747008200715,45.693733156167696,873],[7.267897008581518,45.693723156040654,879],[7.267988136926496,45.69386250963993,884],[7.268058872254942,45.69397067904745,889],[7.267822176463451,45.69401982872963,895],[7.267686447443763,45.69400931585851,900],[7.267578793387312,45.69407286106672,906],[7.267492366068349,45.6941849220592,911],[7.2675099690719,45.69434269926888,917],[7.267489167934269,45.694405387270365,922],[7.267378148414152,45.69454321386538,927],[7.267066565315157,45.694768002841386,933],[7.266821998201702,45.69486329696927,938],[7.266717073073112,45.69493370974919,944],[7.2666735404797205,45.69499155410862,949],[7.266718936374341,45.69505524836825,955],[7.266838253573705,45.695142564156306,960],[7.266877368552004,45.695201662723086,965],[7.266882980003426,45.69531875519384,971],[7.2670077883891615,45.69551416261016,976],[7.267047260284012,45.69561376847369,982],[7.267117092183291,45.69570483612739,987],[7.267307190349811,45.695878730406,992],[7.267463668716589,45.695984610544095,998],[7.267687340355237,45.696384031931906,1003],[7.267849434301795,45.69660700579933,1009],[7.2679400115090385,45.696806394214114,1014],[7.267905214171151,45.696945375365615,1020],[7.267983991765637,45.69730597777288,1025],[7.267832939164048,45.6972297567295,1030],[7.267733996220853,45.69723338556978,1036],[7.267712456109717,45.69733822402337,1041],[7.267989972879935,45.697581658736055,1047],[7.268192079919199,45.69775528176125,1052],[7.268370707270855,45.69779399264701,1058],[7.2685630065935785,45.69780590863077,1063],[7.2687070080902,45.69808315975467,1068],[7.26877700831351,45.69811315964376,1074],[7.26885700862574,45.69819315924001,1079],[7.268847008395555,45.6982731591562,1085],[7.2688170077602186,45.69832315924646,1090],[7.268857007667537,45.69840316007178,1096],[7.269047008216962,45.698563160120365,1101],[7.269077007627863,45.69861315962292,1106],[7.2692870087492665,45.6987331602679,1112],[7.2694970076890515,45.698913160469104,1117],[7.269507008181128,45.69901316044324,1123],[7.269487008055449,45.69908316040629,1128],[7.269587008350562,45.699223160060335,1134],[7.269627007577215,45.699343160275674,1139],[7.269747008618747,45.699513160364326,1144],[7.269787008167922,45.69979316104364,1150],[7.269867008158837,45.69988316049791,1155],[7.269937008705209,45.7000231608111,1161],[7.270307008063204,45.70045316137168,1166],[7.270370007924386,45.70054816117032,1172],[7.270347008693101,45.70063316129215,1177],[7.270217008469159,45.70076316144685,1182],[7.270177008612864,45.700833161031795,1188],[7.270167008369162,45.70091316192879,1193],[7.270087008354937,45.70098316139058,1199],[7.270067008175223,45.701053161432434,1204],[7.270097008039953,45.70112316183804,1210],[7.270187008011948,45.701203161605235,1215],[7.270217008479749,45.70125316170151,1220],[7.270207007679875,45.70129316201834,1226],[7.27001801559996,45.70143720770902,1231],[7.269780730666406,45.70121759838082,1237],[7.269561179508611,45.70104776066452,1242],[7.269440456257791,45.701005428731236,1248],[7.269196788919208,45.70099273581676,1253],[7.268475848950831,45.70104481273576,1258],[7.2682835385629865,45.70103289645121,1264],[7.268050820672666,45.700977614142374,1269],[7.2676919585950746,45.700852838781245,1275],[7.2671333730949685,45.70089199381123,1280],[7.266209085026439,45.700887491997825,1286],[7.265670860142986,45.70070785844807,1291],[7.264981991804816,45.70056403637355,1296],[7.264400652734449,45.7004599465578,1302],[7.264252657846111,45.70041006980975,1307],[7.2640535526435,45.700254632567535,1313],[7.263865384363379,45.700185093083114,1318],[7.263474577286199,45.70007436925531,1324],[7.263099128605289,45.69990672367511,1329],[7.262887622014146,45.6997129934369,1334],[7.262661347122031,45.699557140507814,1340],[7.262350598209094,45.699495259196986,1345],[7.261609764528107,45.69927442050165,1351],[7.260964049799341,45.699055025328015,1356],[7.260457464213183,45.698732962993496,1362],[7.259921937826308,45.698467612361476,1367],[7.259628921777422,45.69827263417405,1372],[7.259147163002632,45.69802714990828,1378],[7.25853633317564,45.69756060502773,1383],[7.258269614463909,45.69739460128306,1389],[7.25762245579521,45.69722279373323,1394],[7.257086069797614,45.69698599270261,1400],[7.256844165296131,45.69689656991855,1405],[7.257190601466998,45.697559129668605,1410],[7.257162834811912,45.697577756699104,1416],[7.256920927658369,45.69748833404752,1421],[7.256421455654669,45.69737592754172,1427],[7.256118140371264,45.69740344606661,1432],[7.2561247787601975,45.697517855431435,1437],[7.2562184678350246,45.697783623602035,1443],[7.256144890667745,45.69818257910157,1448],[7.256152193990196,45.698275566304844,1454],[7.256269819341209,45.6984273918794,1459],[7.2564490317364925,45.698565869021614,1465],[7.256512374637295,45.69882402894349,1470],[7.256536709239779,45.69935307569958,1475],[7.256620433620236,45.69961154754976,1481],[7.256764639202753,45.699892374760424,1486],[7.2570388466079745,45.70026780849916,1492],[7.257028658150414,45.70028565426927,1497],[7.256996420930481,45.70028966261591,1503],[7.25673280269722,45.70029914018292,1508],[7.256155888714412,45.70026333125117,1513],[7.256257008442917,45.70031316079522,1519],[7.2566270087371185,45.70041316091634,1524],[7.257107008511642,45.700593161025246,1530],[7.257127008524099,45.700623161087854,1535],[7.25711700759605,45.700683161456546,1541],[7.257017007787547,45.70097316118286,1546],[7.2570535005591115,45.701073560219406,1551],[7.2561485181524095,45.701413000919786,1557],[7.25598851827839,45.70149300089126,1562],[7.255797997607735,45.70174243573122,1568],[7.255363033788947,45.70225124191028,1573],[7.2553913440782205,45.702258794746605,1579],[7.255979065705772,45.70242528068717,1584],[7.25639806638067,45.70254418578175,1589],[7.25653347135773,45.70260475776632,1595],[7.2574118856261745,45.703131199745044,1600],[7.2574943284521884,45.70319095981158,1606],[7.257566984420964,45.703268573554666,1611],[7.257611953101416,45.70334576576973,1617],[7.257652154380883,45.70341478737934,1622]]}}]}