{"type":"FeatureCollection","features":[{"type":"Feature","properties":{"slug":"08-s23","sct_code":"08_S23","source":"Catasto Sentieri VdA"},"geometry":{"type":"LineString","coordinates":[[7.2585800079489955,45.62586810772579,2266],[7.257506007772748,45.62619510862006,2263],[7.257036008709478,45.62627510871406,2259],[7.256336008702168,45.62660510831833,2256],[7.25614600873378,45.626785108452026,2253],[7.25595600782385,45.626815108358684,2250],[7.255466007716057,45.6268451089053,2246],[7.255116008278088,45.626725108861876,2243],[7.254936008197718,45.62680510862121,2240],[7.254636008108442,45.62668510872414,2236],[7.254406008449467,45.62668510826618,2233],[7.253976008410125,45.62652510855409,2230],[7.253116007972409,45.62673510877845,2226],[7.2529360082241325,45.626665108190096,2223],[7.25265600762182,45.626715108831256,2220],[7.251576007703912,45.627295108593124,2217],[7.250686007723874,45.62739510941495,2213],[7.249726008439153,45.62776510915077,2210],[7.2493660078530695,45.627975109325476,2207],[7.249246007661512,45.62826510948381,2203],[7.2492760076463245,45.62839510968514,2200],[7.249226008355658,45.62856510955323,2197],[7.249056008770926,45.62876510974905,2194],[7.247866007927572,45.62936511008653,2190],[7.247616008170368,45.62973511058712,2187],[7.247556007704979,45.63015511076206,2184],[7.247286008669655,45.63038511142453,2180],[7.246886007591518,45.630935111519626,2177],[7.247236008686259,45.63157511228736,2174],[7.247476008069779,45.63175511242788,2171],[7.247636007638682,45.63223511273542,2167],[7.247236008009555,45.63275511271019,2164],[7.247116007667542,45.63304511311964,2161],[7.246556008766416,45.63368511322839,2157],[7.2466360078180285,45.63368511285773,2154],[7.246886007646301,45.633835113486604,2151],[7.246736008437517,45.634335114129996,2147],[7.246346008004768,45.63462511408819,2144],[7.245806008471057,45.634865114003475,2141],[7.245736008285134,45.635105114094785,2138],[7.2454860082862895,45.635325114407244,2134],[7.245466008497485,45.63542511478322,2131],[7.245586008397906,45.63576511442325,2128],[7.245766007823771,45.635895114480974,2124],[7.245856008123445,45.63626511503802,2121],[7.2456660077548385,45.63672511524408,2118],[7.245356007960389,45.63719511555686,2115],[7.245126007738937,45.637385115969934,2111],[7.245026008593698,45.63761511560951,2108],[7.244906008483278,45.63821511617231,2105],[7.2450260082241655,45.63870511677601,2101],[7.2448460079086745,45.63936511739015,2098],[7.244736008139246,45.639505116980416,2095],[7.244176008028922,45.63980511722278,2091],[7.244066008359672,45.63934511683154,2088],[7.243156008407801,45.63946511728744,2085],[7.242646008640982,45.63941511682587,2082],[7.2421160078917355,45.63924511741671,2078],[7.2418660079344495,45.6388951168729,2075],[7.241506008475635,45.63882511660159,2072],[7.241086007938262,45.63884511725145,2068],[7.240886007931771,45.63894511662727,2065],[7.2404860086853855,45.638885116960154,2062],[7.240316007866152,45.638945116597654,2059],[7.240086007819503,45.63881511696963,2055],[7.23944600787826,45.638965117194196,2052],[7.2388360079581755,45.63905511685297,2049],[7.2381460078424595,45.63906511655275,2045],[7.237776007531424,45.63935511747611,2042],[7.237616008609191,45.6394051173146,2039],[7.237476007590324,45.639555117478636,2036],[7.237396008337141,45.63997511719588,2032],[7.236946008139772,45.64031511814899,2029],[7.236626008573491,45.64116511860081,2026],[7.2368060075310305,45.641265118895035,2022],[7.2368860081943716,45.64134511831171,2019],[7.237086008500563,45.64209511904585,2016],[7.2374400077055006,45.642918119300376,2012],[7.237440007737044,45.643028119682995,2009],[7.2369100075724075,45.6434381199855,2006],[7.23693000864689,45.64370812061775,2003],[7.237000008015791,45.6439181202802,1999],[7.237100007701997,45.64393812078232,1996]]}}]}