{"type":"FeatureCollection","features":[{"type":"Feature","properties":{"slug":"10-s24","sct_code":"10_S24","source":"Catasto Sentieri VdA"},"geometry":{"type":"LineString","coordinates":[[7.3909408431673445,45.859691739739816,1495],[7.391132751573904,45.85969409072428,1497],[7.391117305085959,45.85955486861582,1499],[7.391141822300819,45.85941994719192,1501],[7.391549307875909,45.85936420005173,1504],[7.391718607938755,45.859320183983186,1506],[7.392421481594069,45.8590272431256,1508],[7.393237008532866,45.85863829223353,1510],[7.393357007863589,45.85831829194177,1512],[7.393220007926251,45.858058291744456,1514],[7.3941077892049165,45.8585335387483,1517],[7.39479771863491,45.85920032248699,1519],[7.394837008297384,45.859238292734354,1521],[7.395097008481536,45.85840829176427,1523],[7.396470008198846,45.85897829316539,1525],[7.397607007578658,45.859328292769106,1527],[7.398730007898343,45.85934829290612,1529],[7.399706374489605,45.85970471513928,1532],[7.399867532507661,45.85958771757136,1534],[7.39999024660001,45.859575935790936,1536],[7.400125191911449,45.859586826121195,1538],[7.400346150581539,45.85963042207665,1540],[7.4007840113741326,45.85974680714585,1542],[7.40120133399614,45.859905654893055,1544],[7.401896853190826,45.86024615065552,1547],[7.402629785034916,45.86074242179626,1549],[7.403070813070794,45.8609735971516,1551],[7.40325675382577,45.861115702080106,1553],[7.403537340428698,45.86143913691492,1555],[7.403911481952759,45.86175712790273,1557],[7.404441506110563,45.86214254766088,1560],[7.404583992916297,45.86222779113146,1562],[7.405041909348604,45.862432193535994,1564],[7.405266427373101,45.86257708383832,1566],[7.4056398146565385,45.862922059681416,1568],[7.40588223763516,45.86311670069663,1570],[7.406223497969302,45.86334647153448,1572],[7.406606875774765,45.86368033307831,1575],[7.406687237551744,45.86379845876207,1577],[7.406684473959983,45.86389517421417,1579],[7.406589761953633,45.86394110515836,1581],[7.406386104675793,45.863967515565946,1583],[7.405986647403825,45.86408344752779,1585],[7.405937391927089,45.86411651163311,1587],[7.405919430194473,45.864181513691065,1590],[7.405967597089003,45.8642991906236,1592],[7.406011768669393,45.86433130826128,1594],[7.406214591675006,45.864334138088736,1596],[7.40642900674386,45.86438213111443,1598],[7.4066920348342,45.864419551295704,1600],[7.4067966047285125,45.86447951210843,1603],[7.4068745197517,45.86457060240888,1605],[7.406928819237259,45.864924624169966,1607],[7.407670038186926,45.8654727301853,1609],[7.40807468260717,45.86573938032538,1611],[7.408225622614329,45.86586748873651,1613],[7.408422021712038,45.86598272973527,1615],[7.4085338700263215,45.86601353914327,1618],[7.4086304554378,45.86601488463121,1620],[7.408893269225999,45.865948761002215,1622],[7.409150254633126,45.86612350716465,1624],[7.40983000872686,45.86611829960673,1626],[7.41079400831475,45.86648029918456,1628],[7.411631008443216,45.86638929957964,1630],[7.413703007632708,45.86691630033128,1633],[7.414256008717883,45.86733630075999,1635],[7.4151340078010435,45.867520300823095,1637],[7.415395008723416,45.86783230093677,1639],[7.416364008612549,45.8682923015597,1641],[7.418496007660769,45.86844230155983,1643],[7.420193008687878,45.86922130184857,1646],[7.42155000779951,45.86969830208252,1648],[7.421873960997111,45.8698977497813,1650],[7.422041170367357,45.87002156437424,1652],[7.4225604553710385,45.870224493718155,1654],[7.42346732772374,45.8703900183881,1656],[7.423849887000963,45.87053030250836,1658],[7.424882150317396,45.870704296116244,1661],[7.425244972297758,45.87074529946484,1663],[7.425849617901128,45.87066362903262,1665],[7.425968496811288,45.87067426739197,1667],[7.426491847751067,45.87084798367386,1669],[7.426596197370879,45.87091692359045,1671],[7.426742831884797,45.871085449687605,1673],[7.426818584551276,45.871140495035746,1676],[7.4269960394907555,45.871244192618825,1678],[7.427094902723875,45.8712793051872,1680],[7.427197984717426,45.871393228885616,1682],[7.427348984309376,45.87152131267408,1684],[7.427677157461134,45.871991598371274,1686],[7.427967868873377,45.872191356891804,1689],[7.428607397123207,45.87247241622557,1691],[7.428741555887216,45.8725125130238,1693],[7.429090498909911,45.872589314664204,1695],[7.4292606479286345,45.8726096549403,1697],[7.429538258689568,45.87258872058882,1699],[7.42969419759538,45.87265611674191,1701],[7.430030062312324,45.87285424054105,1704],[7.4302549515562,45.87287533159363,1706],[7.430421438644701,45.87291137044301,1708],[7.430541453471492,45.872996272572095,1710],[7.430672512130177,45.87314657885815,1712],[7.430793540932691,45.873195493227115,1714],[7.430982505787145,45.87323409009459,1716],[7.431032885681501,45.87327528361094,1719],[7.43104045641189,45.87334964051329,1721],[7.430885635421045,45.87347126901444,1723],[7.4308621458305995,45.87350469771012,1725],[7.43089371249236,45.87352763216983,1727],[7.43102162545177,45.87356089022672,1729],[7.43128471470436,45.873598254495356,1732],[7.431625962501252,45.87371994446916,1734],[7.431771930740903,45.873798451326735,1736],[7.431853499316519,45.873876074025276,1738],[7.431873951235928,45.87395060767857,1740],[7.431862772573623,45.87400445635759,1742],[7.431770288554742,45.8740571880578,1744],[7.431897008657912,45.87440730689702,1747],[7.432567008220928,45.87483730758809,1749],[7.433527008341947,45.87462730684969,1751],[7.434347008497813,45.87466730742881,1753],[7.435787008500213,45.87513730731407,1755],[7.435997008507852,45.87533730816832,1757],[7.439047008402223,45.875847308388664,1759],[7.4400970075236215,45.87633730888936,1762],[7.44039700764033,45.87640730896766,1764],[7.440547007950654,45.87629730858838,1766],[7.440997007641378,45.87653730916487,1768],[7.442177008689741,45.876817308764274,1770],[7.442567008107057,45.87670730922744,1772],[7.443097008000835,45.87672730934351,1775],[7.443207008269138,45.87687730873077,1777],[7.445676008254573,45.87672730863303,1779],[7.44605600867569,45.876967308876345,1781],[7.446466008642156,45.87702730923591,1783],[7.4469860085227335,45.877417309886624,1785],[7.448506007691561,45.87775731027506,1787],[7.449556008341752,45.878617310561246,1790],[7.450116008410859,45.878747311217566,1792],[7.451166008382583,45.879307311473994,1794],[7.451726007580005,45.879927311671096,1796],[7.452886008376278,45.880657312698474,1798],[7.453596008698185,45.88151731371988,1800],[7.453936008698232,45.882347314102475,1802],[7.453773618390911,45.88276151880515,1805],[7.453845187829426,45.88304116670381,1807],[7.453868456019396,45.883131484987004,1809],[7.453818275112919,45.88319830837631,1811],[7.453528310069448,45.883430642448275,1813],[7.45342437724505,45.883460736680206,1815],[7.4532058765987115,45.883439777833665,1818],[7.454166007752781,45.88369731531086,1820],[7.455096008436921,45.88357731504864,1822],[7.455756008512071,45.88380731532773,1824],[7.456296007666882,45.88417731602847,1826],[7.456686008627319,45.88425731589397,1828],[7.4573660087559785,45.885097316387245,1830],[7.458136008604987,45.8852873172675,1833],[7.459216007629303,45.88513731699857,1835],[7.459726007841598,45.884557316527896,1837],[7.459896008383716,45.88460731648148,1839],[7.460176008664848,45.88498731645911,1841],[7.4610360075975946,45.88550731727219,1843],[7.4615960075037036,45.88522731692666,1845],[7.462236008264324,45.885457317254605,1848],[7.462306008164593,45.885787317027756,1850],[7.463316008698269,45.88605731736332,1852],[7.463766008424661,45.88640731795024,1854],[7.464086007512804,45.8868373181747,1856],[7.464406008282866,45.88696731847618,1858],[7.464926007851395,45.88766731958991,1861],[7.467196007888553,45.88932632052139,1863],[7.467946008477762,45.89000632178917,1865],[7.470546008053724,45.89078632188144,1867],[7.471056008538497,45.891256322136485,1869],[7.471296008213212,45.89125632248808,1871],[7.471446008098709,45.89153632251071,1873],[7.472516008425311,45.89211632373993,1876],[7.4735460086099454,45.892306323920614,1878],[7.474036007709817,45.89258632390741,1880],[7.474706008425022,45.892606323466566,1882],[7.475376007686497,45.89307632430802,1884],[7.476376008333454,45.893446324370366,1886],[7.476746008560037,45.89374632470994,1888],[7.479296007873385,45.89419632557353,1891],[7.4801560075137985,45.89511632646718,1893],[7.480906007701391,45.89526632657773,1895],[7.480946008179907,45.89541632669785,1897],[7.480846008644655,45.89567632660245,1899],[7.480306008516592,45.895956326903736,1901],[7.479686008069267,45.89599632690657,1904],[7.479597361293917,45.89606787786657,1906],[7.47958838010178,45.89609835941563,1908],[7.479696631874691,45.896150570781145,1910],[7.47992789483714,45.896178398892104,1912],[7.480529339149262,45.896339405025884,1914],[7.480913664445847,45.8963085146357,1916],[7.481398129652103,45.89638695787011,1919],[7.481517565995229,45.8963795450843,1921],[7.48172520581163,45.89632830281402,1923],[7.481919285403625,45.896301630847006,1925],[7.48228915774333,45.896209791654144,1927],[7.482366593220166,45.89620632016701,1929],[7.482430591649055,45.89622292084788,1931],[7.482535513947988,45.89615681215518,1934],[7.482716768392156,45.89612771840452,1936],[7.483038415031692,45.89614999031266,1938],[7.483696002997692,45.89614296932379,1940],[7.484081465433112,45.89618858604137,1942],[7.484333038533779,45.89618067346144,1944],[7.484406640463445,45.8961996505192,1947],[7.484495614908706,45.89624583239432,1949],[7.4847014552127,45.896379067289146,1951],[7.486009830965198,45.89673392512308,1953],[7.4867495324904665,45.896788726799585,1955],[7.487091063195749,45.89679099995366,1957],[7.487346007773173,45.89691632821866,1959],[7.48730600873277,45.897136327883985,1962],[7.4877760087692495,45.89758632841474,1964],[7.488736008155084,45.89788632855793,1966],[7.487456008130557,45.89786632843338,1968],[7.488696008768542,45.89861632948464,1970],[7.488416008209097,45.89876632977833,1972],[7.486371435281625,45.898369801733715,1974],[7.486545991384315,45.89845333846335,1977],[7.4865673182069905,45.89849862253815,1979],[7.486552210212448,45.89852092227797,1981],[7.486492527834874,45.898538134060225,1983],[7.486155913840635,45.89854717376347,1985],[7.4861193049922345,45.89856018913247,1987],[7.486106771683924,45.8985915241413,1990],[7.486159507988068,45.898637224497136,1992],[7.4863016075956414,45.89867060840605,1994],[7.486478337443516,45.898704450918906,1996],[7.48666534584572,45.89871592853363,1998],[7.486692641892846,45.89873429072053,2000],[7.486602094126268,45.898805093776964,2002],[7.486210369491636,45.89888540697527,2005],[7.485930605086148,45.898922201100184,2007],[7.4856173347119155,45.89893334324109,2009],[7.485420222269151,45.89891559894961,2011]]}}]}