{"type":"FeatureCollection","features":[{"type":"Feature","properties":{"slug":"12-s9","sct_code":"12_S9","source":"Catasto Sentieri VdA"},"geometry":{"type":"LineString","coordinates":[[7.774458509419678,45.75929342307803,1884],[7.774324876788729,45.75939549590745,1887],[7.774230590362177,45.75944398694075,1890],[7.773952718015346,45.75950850870175,1893],[7.773669403051033,45.75952796892051,1895],[7.77323330045334,45.75947828413716,1898],[7.772874923675288,45.75940243116765,1901],[7.772599319332394,45.75936346838379,1904],[7.772305869627056,45.75940531755049,1907],[7.771853112898919,45.759528707914725,1910],[7.771926555181334,45.759990772455446,1913],[7.771959736420637,45.76009013451512,1915],[7.772016007528942,45.76016274330529,1918],[7.7720820745031,45.76037496490942,1921],[7.772117735825297,45.76065436330666,1924],[7.772087132192977,45.76073053849537,1927],[7.772011927907504,45.760788233281666,1930],[7.771892122908485,45.76082744757741,1933],[7.771691771191117,45.76087479620873,1935],[7.771333934833525,45.76092045079977,1938],[7.771233709233322,45.760946374256136,1941],[7.771047351706527,45.76108837738275,1944],[7.770406096215129,45.761743012751495,1947],[7.770293755226791,45.761881311037456,1950],[7.770119852800606,45.76204144767158,1952],[7.769369743753294,45.762528396217206,1955],[7.770017007592368,45.763687210137746,1958],[7.770087008740898,45.76424721143382,1961],[7.770165643786056,45.76460862177459,1964],[7.770116071895989,45.76496367997799,1967],[7.770136742024736,45.765442933245204,1970],[7.770117007770959,45.765727212436836,1972],[7.770187007770809,45.76595721272554,1975],[7.770077008133311,45.76631721229065,1978],[7.77035901087037,45.76637325367314,1981],[7.770300264018768,45.76641312347006,1984],[7.770096083290836,45.766487429486006,1987],[7.769956978991651,45.766526433941756,1990],[7.769621407250361,45.76658132334929,1992],[7.769452285416122,45.766669506517,1995],[7.76897681495012,45.76679939105235,1998],[7.768679172135944,45.76673768019409,2001],[7.768544171701745,45.76673622501251,2004],[7.768373021788168,45.766770381853526,2007],[7.768144311426457,45.76679041705149,2010],[7.768011138364471,45.76685198428753,2012],[7.76793117174731,45.76697937867485,2015],[7.767795966919395,45.7671331786365,2018],[7.76775180284236,45.767240707988314,2021],[7.767767620978474,45.76739838695538,2024],[7.767801294316257,45.76747525421823,2027],[7.767854650092876,45.76753433280791,2030],[7.767993208270462,45.76766633407912,2032],[7.768026337237382,45.76776794671048,2035],[7.768015852146879,45.767806085660006,2038],[7.7678534995766,45.76787858861399,2041],[7.7675889805998874,45.76791848754237,2044],[7.767596344473408,45.76802207245596,2047],[7.767776293782113,45.768172521448776,2049],[7.767787665065888,45.76824014766927,2052],[7.76771269387144,45.76828659147968,2055],[7.767555476148607,45.76825533521163,2058],[7.76745257656146,45.7682725347188,2061],[7.767443156868878,45.76833578923335,2064],[7.767542518214214,45.76838662845755,2067],[7.76761945485219,45.76847669726823,2069],[7.767564835353119,45.768574279814395,2072],[7.767376847946431,45.76864523735856,2075],[7.767056176985383,45.76861239575726,2078],[7.766821351079336,45.76861224083885,2081],[7.766405462805976,45.76851774592388,2084],[7.766097674598572,45.768478419992505,2087],[7.765720796661934,45.768510350582105,2089],[7.765549341874799,45.768558000603896,2092],[7.765302069234978,45.768690335463,2095],[7.765078574337113,45.76891068145267,2098],[7.7650057220508675,45.76900664899785,2101],[7.764926824606534,45.76923080789743,2104],[7.7648163779863495,45.76942762419836,2107],[7.7647116999158,45.7698000119956,2109],[7.764530951130534,45.7702683320933,2112],[7.764464028311647,45.77038686457952,2115],[7.764040213801802,45.770796301805824,2118],[7.763699639929964,45.77107613146391,2121],[7.763469468590259,45.77116139490289,2124],[7.7633523527293695,45.77122313047267,2127],[7.763135119823384,45.771450290714895,2129],[7.763001533418736,45.77151612641875,2132],[7.7629677890818245,45.77155132008507,2135],[7.762975211671222,45.77158393806203,2138],[7.763015565802001,45.77162225530637,2141],[7.76359094001428,45.771920999318,2144],[7.763788653806528,45.77199514276292,2146],[7.764031670674646,45.77205627530828,2149],[7.764250064461592,45.7720676384005,2152],[7.764399128339934,45.77201524793996,2155],[7.764484993080132,45.77191267120731,2158],[7.76465638805285,45.77157700710325,2161],[7.7647148463440425,45.77155063782473,2164],[7.764807969481067,45.77155614497704,2166],[7.7650234813485985,45.771697982254686,2169],[7.765116144916299,45.771869992887865,2172],[7.765273175133201,45.772330714180164,2175],[7.765395169246496,45.772485040637555,2178],[7.765483044111899,45.77258274532718,2181],[7.765905081403879,45.77283706826849,2184],[7.766083215968074,45.77292449691847,2186],[7.766228906884343,45.773025075608636,2189],[7.7667416063609185,45.7732511230199,2192],[7.767115087165373,45.773520668077296,2195],[7.767500991140394,45.773664339389754,2198],[7.767750789518939,45.773856043934025,2201],[7.76790360893532,45.773925195726974,2204],[7.768103262346281,45.7740578556231,2206],[7.768297973178069,45.77412295837876,2209],[7.768742937825505,45.77421325944062,2212],[7.768851248331745,45.774259429075464,2215],[7.7689749396224945,45.774337265980265,2218],[7.769034534510724,45.77440541164405,2221],[7.769058173383735,45.77450017124989,2224],[7.769138687846374,45.77464054599134,2226],[7.769340423241744,45.77482497881391,2229],[7.769591668031408,45.77495144149792,2232],[7.769778371066139,45.77508845918953,2235],[7.770032684433655,45.775221704289905,2238],[7.770227649086953,45.775421813439564,2241],[7.770313162858154,45.77548123696767,2243],[7.770482261716118,45.77554156005523,2246],[7.770824960571709,45.77560375089127,2249],[7.7710400561903015,45.77561956572906,2252],[7.7712557943244445,45.775606135564466,2255],[7.772024632509275,45.77573815885055,2258],[7.772209610636663,45.775807650526886,2261],[7.772439892991058,45.77586412803117,2263],[7.772525804723123,45.7759055532459,2266],[7.772630215809932,45.775983179003816,2269],[7.773235064424663,45.77626193977944,2272],[7.773494883991725,45.7764379884622,2275],[7.773721816746164,45.77664743527136,2278],[7.7738552633879365,45.77672087133758,2281],[7.773983720462561,45.7768752578565,2283],[7.774257144252325,45.77701769905199,2286],[7.77449447748062,45.77733976165953,2289],[7.774751459850146,45.77779254117515,2292],[7.775040891565319,45.778232167334316,2295],[7.7751162772203655,45.778313979781196,2298],[7.775299987078664,45.778441955803366,2301],[7.7753217038247975,45.77847819045073,2303],[7.775413290814059,45.77884819106556,2306],[7.775501305403973,45.77908764664694,2309],[7.775525512661975,45.77930391711032,2312],[7.775561433613683,45.779425808302626,2315],[7.775666263592244,45.77963169224468,2318],[7.775731331843382,45.779891152722705,2321],[7.775827158165799,45.78006768852647,2323],[7.775841460967664,45.78014884590236,2326],[7.77581783751194,45.78034660280534,2329],[7.7757768929221145,45.78045416951929,2332],[7.775517008276429,45.780576224178255,2335],[7.7756170076927535,45.78087622451685,2338],[7.775507008129279,45.78097622505597,2340],[7.775449464611169,45.781161696274324,2343],[7.77534425189108,45.78112006639652,2346],[7.7751809699619,45.7810868143082,2349],[7.774924055360803,45.78107055885129,2352],[7.774653036769515,45.780964146981695,2355],[7.774376536404683,45.7809611808968,2358],[7.774237008115948,45.78126622500162,2360],[7.774192988994709,45.78141294882577,2363],[7.774068127734972,45.78162711588104,2366],[7.77391987409314,45.78182872811667,2369],[7.77306700856168,45.782416226106285,2372],[7.772547008254842,45.78259622592374,2375],[7.771937008093748,45.782696226546655,2378],[7.771997007966619,45.78279622661948,2380],[7.771907007536743,45.78281622660142,2383],[7.771786066704356,45.782794756401984,2386],[7.771507008411408,45.78263622624224,2389],[7.7709270075300445,45.782496225657994,2392],[7.770147007474145,45.78249622598216,2395],[7.769827008734423,45.7825962264132,2398],[7.7696870080639435,45.78281622622277,2400],[7.7697070086847075,45.78293622594884,2403],[7.769613143418058,45.78303858524899,2406],[7.769539292031101,45.78303328960941,2409],[7.769105975111548,45.78314112728811,2412],[7.768894508462829,45.78325135428942,2415],[7.76881486629586,45.78336300166176,2418],[7.768800519498027,45.78343035043736,2420],[7.76884429495707,45.78348707503515,2423],[7.768937008414576,45.783886227154056,2426],[7.768817008258256,45.78398622684739,2429],[7.768789008830694,45.7842568953813,2432],[7.7685170078704715,45.78477622827174,2435],[7.768477008465147,45.785096228410374,2437],[7.768087007771645,45.785396228816296,2440],[7.767807007866001,45.785526228545656,2443],[7.7675268468380905,45.785730894474256,2446],[7.76753055170583,45.78583882372585,2449],[7.7671918604264425,45.786093196873544,2452],[7.7669450621134475,45.7864797982212,2455],[7.766894270472668,45.78660045002427,2457],[7.76684193051329,45.78664038707518,2460],[7.766567605913195,45.786974942371195,2463],[7.766440813540886,45.787036576485555,2466],[7.765936024389903,45.78717513188002,2469],[7.76536172509736,45.78717208224991,2472],[7.763798007910163,45.78720622970413,2475],[7.763628008606474,45.78716622991859,2477],[7.762378008191337,45.78711622964634,2480],[7.7614180083654984,45.78711623003104,2483],[7.761118008098532,45.78713622973743,2486],[7.760188008208649,45.7872662298607,2489],[7.7588380086824476,45.78709622943471,2492],[7.758518007552076,45.78713622991827,2495],[7.7583280086753295,45.7872262296772,2497],[7.758108008314641,45.78726623041208,2500],[7.758108007955557,45.78728623030276,2503],[7.757918007467523,45.78733623047184,2506],[7.7574480081320125,45.78731623000256,2509],[7.757378007926546,45.78733622994909,2512],[7.756628008646987,45.78735623018312,2515],[7.756248007794812,45.787336230415356,2517],[7.755898008134831,45.7872862299965,2520],[7.755448008371902,45.78735623025992,2523],[7.755318007611906,45.78739623040279,2526],[7.75512800782881,45.78748623022789,2529],[7.753838008223054,45.78759622989541,2532],[7.753798007637946,45.787616229969665,2534],[7.753308007584689,45.78765623067829,2537],[7.752898008471391,45.7876362299118,2540],[7.752768007889938,45.78759623027585,2543],[7.752658007995443,45.7875962299501,2546],[7.752618008298505,45.7875662303345,2549],[7.752278008537451,45.78752623030259,2552],[7.752318007523968,45.78776623027152,2554],[7.752278007549603,45.78778623071992,2557],[7.752168008367505,45.787896230696525,2560],[7.75207800762535,45.78829623100798,2563],[7.751378008176895,45.78857623120835,2566],[7.751158008368922,45.7885762313754,2569],[7.750988008480902,45.788666231421004,2572],[7.750858008683919,45.78866623120992,2574],[7.750428007660678,45.78881623101153,2577],[7.7490380081079335,45.78881623121664,2580],[7.748708007854001,45.788646231313514,2583],[7.7467380085662825,45.788556231496095,2586],[7.74615800807815,45.78842623076688,2589],[7.74634800838523,45.7887062308402,2592],[7.746698008476454,45.788926231246336,2594],[7.746928008333868,45.78913623165702,2597],[7.747168008506408,45.789306231680754,2600],[7.747278008330485,45.78941623173513,2603],[7.747488008090638,45.78952623184901,2606],[7.747598008676314,45.78965623238763,2609],[7.7478280075548325,45.7898262320699,2612],[7.747938008537853,45.790076232502784,2614],[7.74817800837681,45.7904862326045,2617],[7.748308008481545,45.79052623293852,2620],[7.748518008144375,45.79072623286657,2623],[7.749008008250277,45.79085623328264,2626],[7.749008008350088,45.791106233183754,2629],[7.74915800855423,45.79168623417078,2631],[7.7493180080676645,45.79173623368356,2634],[7.74928800780696,45.79194623386197,2637],[7.749188007824656,45.79213623368621,2640],[7.7492480075049945,45.79222623437685,2643],[7.749288008589008,45.79233623468187,2646],[7.749488008129986,45.792376234051964,2649],[7.749468007531724,45.79243623436696,2651],[7.749568008099179,45.79248623466487,2654],[7.749548007564746,45.79254623409342,2657],[7.749628008121716,45.79260623452152,2660]]}}]}