{"type":"FeatureCollection","features":[{"type":"Feature","properties":{"slug":"12-s5","sct_code":"12_S5","source":"Catasto Sentieri VdA"},"geometry":{"type":"LineString","coordinates":[[7.725658007572539,45.76821721440596,1372],[7.726058008275543,45.76808721403145,1375],[7.726518008527516,45.768167214272125,1377],[7.727367321692854,45.768078274032135,1380],[7.727554170295097,45.767920596907544,1383],[7.727853577509449,45.767620165302986,1385],[7.727982719438238,45.767455094472,1388],[7.728123285965288,45.76735315405038,1391],[7.728140226637259,45.76731509061901,1393],[7.728127581185393,45.767164191784076,1396],[7.728513261037139,45.76674546253368,1398],[7.728594997293552,45.76668561899831,1401],[7.728834231174205,45.76662752805132,1404],[7.7289191300544635,45.76656996959512,1406],[7.729014902616451,45.766316771580776,1409],[7.729271742338958,45.766049614388336,1412],[7.729282713170664,45.7659912332889,1414],[7.729206496158616,45.765808125698435,1417],[7.729213895204494,45.765765455714515,1420],[7.729296753109584,45.76565612149113,1422],[7.729417670056787,45.76556971172332,1425],[7.729777303767278,45.76544770435201,1428],[7.729872659349652,45.76535425951418,1430],[7.729954598727453,45.76514365915742,1433],[7.7300502598014145,45.76503671683804,1436],[7.730038220040485,45.76500058105994,1438],[7.729947051973282,45.76490956268296,1441],[7.729919656397674,45.764841754476244,1444],[7.72989333310622,45.764726705643106,1446],[7.729904200886567,45.76467282356788,1449],[7.730242349771273,45.7645055734247,1451],[7.730491725334298,45.76442509050479,1454],[7.7305698847378,45.76438095663432,1457],[7.730629524764153,45.764302865112676,1459],[7.73078375170636,45.763881555943385,1462],[7.730888438989687,45.7636599569962,1465],[7.730964046102501,45.76358654291829,1467],[7.731215967567017,45.76353533826772,1470],[7.7313198376634436,45.763491489433385,1473],[7.731423706168671,45.76330588283371,1475],[7.731623332449843,45.763150590954794,1478],[7.731664603136978,45.76303179273283,1481],[7.7316425087255904,45.76273003112204,1483],[7.731657962896946,45.7624736888256,1486],[7.731684694584077,45.76242898318058,1489],[7.7318575345436,45.76232064603296,1491],[7.732126892227935,45.762067121951155,1494],[7.732394158414205,45.76190582901981,1497],[7.732673361986794,45.76178517008847,1499],[7.732870223768054,45.7616095942275,1502],[7.733010511972417,45.761518895227304,1504],[7.733269512127546,45.761438512955884,1507],[7.733514579898087,45.76126347050355,1510],[7.733828622198499,45.76116569619398,1512],[7.733995687793633,45.761028040200365,1515],[7.734092817927911,45.76099761486887,1518],[7.734257135077573,45.760981434639,1520],[7.734406847292653,45.76093584168027,1523]]}}]}