{"type":"FeatureCollection","features":[{"type":"Feature","properties":{"slug":"12-s10","sct_code":"12_S10","source":"Catasto Sentieri VdA"},"geometry":{"type":"LineString","coordinates":[[7.7372580077826765,45.795676237422754,1884],[7.737448008382288,45.795746237591686,1888],[7.737908008511159,45.79563623723085,1892],[7.737798008675614,45.79550623739159,1896],[7.738308007519242,45.79523623711979,1901],[7.738198007708715,45.795126236629784,1905],[7.738698008258487,45.79511623682053,1909],[7.739418007898787,45.795046236454205,1913],[7.739968008050673,45.794806236577074,1917],[7.74012800853718,45.79459623619587,1921],[7.740748007525431,45.79469623640414,1925],[7.740688007931404,45.79443623640232,1930],[7.741408008382031,45.79399623526371,1934],[7.741468007809665,45.79370623517688,1938],[7.741628008391114,45.79369623502919,1942],[7.741828008280686,45.7934462356456,1946],[7.741958008477207,45.79309623522221,1950],[7.742228007993558,45.79295623438797,1954],[7.742198008596953,45.792856235018036,1959],[7.74256800754951,45.79243623435911,1963],[7.742848008406619,45.792166234446825,1967],[7.743858008432229,45.792096234231906,1971],[7.7453980084647025,45.79217623387911,1975],[7.74580800833451,45.792366233977795,1979],[7.74673800851144,45.79240623432546,1983],[7.747138008208248,45.792446234694516,1988],[7.747078007543799,45.79252623411199,1992],[7.747438007570019,45.79255623446377,1996],[7.747388008714248,45.792806235115776,2000],[7.7482280079559285,45.79277623458611,2004],[7.748508007850918,45.7926862341253,2008],[7.748768008543642,45.7927562343746,2012],[7.749078007683176,45.792676234753834,2017],[7.749218007846962,45.792706234238246,2021],[7.74936800835593,45.792616234853014,2025],[7.749628008121716,45.79260623452152,2029],[7.750058008547536,45.79254623410703,2033],[7.750268007910463,45.79239623421621,2037],[7.750458007686131,45.79240623473185,2041],[7.750358008614386,45.79230623418118,2046],[7.75040800843961,45.79225623462441,2050],[7.750798007710252,45.79208623420788,2054],[7.7510880087336185,45.79186623359749,2058],[7.751238008220948,45.79165623334878,2062],[7.751508007557631,45.79173623355253,2066],[7.751748008005235,45.79168623327907,2070],[7.752158007506328,45.79146623327199,2075],[7.752408007543167,45.7916062339536,2079],[7.75247800848994,45.79158623347154,2083],[7.752468008016396,45.79153623391718,2087],[7.752588007777723,45.791576233569,2091],[7.7525780079618585,45.79153623352212,2095],[7.753258008090112,45.79149623322524,2099],[7.753388007753569,45.79140623348245,2104],[7.75396800783276,45.791286233529995,2108],[7.7550280074925855,45.79102623322019,2112],[7.755488007672834,45.79068623310097,2116],[7.756728008060488,45.78998623256715,2120],[7.756738007865286,45.78995623220919,2124],[7.7576580086191225,45.789716231750745,2128],[7.758538008522913,45.789416231452435,2133],[7.75996000804292,45.78921823177915,2137],[7.760420007560794,45.78913823185902,2141],[7.760988007498571,45.7884762311262,2145],[7.761538008543142,45.78802623050421,2149],[7.76185800846045,45.78750623043594,2153],[7.762378008191337,45.78711622964634,2157],[7.763628008606474,45.78716622991859,2162],[7.763798007910163,45.78720622970413,2166],[7.76536172509736,45.78717208224991,2170],[7.765936024389903,45.78717513188002,2174],[7.766440813540886,45.787036576485555,2178],[7.766567605913195,45.786974942371195,2182],[7.76684193051329,45.78664038707518,2186],[7.766894270472668,45.78660045002427,2190],[7.7669450621134475,45.7864797982212,2195],[7.7671918604264425,45.786093196873544,2199],[7.76753055170583,45.78583882372585,2203],[7.7675268468380905,45.785730894474256,2207],[7.767807007866001,45.785526228545656,2211],[7.768087007771645,45.785396228816296,2215],[7.768477008465147,45.785096228410374,2219],[7.7685170078704715,45.78477622827174,2224],[7.768789008830694,45.7842568953813,2228],[7.768817008258256,45.78398622684739,2232],[7.768937008414576,45.783886227154056,2236],[7.76884429495707,45.78348707503515,2240],[7.768800519498027,45.78343035043736,2244],[7.76881486629586,45.78336300166176,2248],[7.768894508462829,45.78325135428942,2253],[7.769105975111548,45.78314112728811,2257],[7.769539292031101,45.78303328960941,2261],[7.769613143418058,45.78303858524899,2265],[7.7697070086847075,45.78293622594884,2269],[7.7696870080639435,45.78281622622277,2273],[7.769827008734423,45.7825962264132,2277],[7.770147007474145,45.78249622598216,2282],[7.7709270075300445,45.782496225657994,2286],[7.771507008411408,45.78263622624224,2290],[7.771786066704356,45.782794756401984,2294],[7.771907007536743,45.78281622660142,2298],[7.771997007966619,45.78279622661948,2302],[7.771937008093748,45.782696226546655,2306],[7.772547008254842,45.78259622592374,2311],[7.77306700856168,45.782416226106285,2315],[7.77391987409314,45.78182872811667,2319],[7.774068127734972,45.78162711588104,2323],[7.774192988994709,45.78141294882577,2327],[7.774237008115948,45.78126622500162,2331],[7.774376536404683,45.7809611808968,2335],[7.774653036769515,45.780964146981695,2340],[7.774924055360803,45.78107055885129,2344],[7.7751809699619,45.7810868143082,2348],[7.77534425189108,45.78112006639652,2352],[7.775449464611169,45.781161696274324,2356],[7.775507008129279,45.78097622505597,2360],[7.7756170076927535,45.78087622451685,2364],[7.775517008276429,45.780576224178255,2369],[7.7757768929221145,45.78045416951929,2373],[7.77581783751194,45.78034660280534,2377],[7.775841460967664,45.78014884590236,2381],[7.775827158165799,45.78006768852647,2385],[7.775731331843382,45.779891152722705,2389],[7.775666263592244,45.77963169224468,2393],[7.775561433613683,45.779425808302626,2398],[7.775525512661975,45.77930391711032,2402],[7.775501305403973,45.77908764664694,2406],[7.775413290814059,45.77884819106556,2410],[7.7753217038247975,45.77847819045073,2414],[7.775299987078664,45.778441955803366,2418],[7.7751162772203655,45.778313979781196,2422],[7.775040891565319,45.778232167334316,2427],[7.774751459850146,45.77779254117515,2431],[7.77449447748062,45.77733976165953,2435],[7.774257144252325,45.77701769905199,2439],[7.773983720462561,45.7768752578565,2443],[7.7738552633879365,45.77672087133758,2447],[7.773721816746164,45.77664743527136,2451],[7.773494883991725,45.7764379884622,2456],[7.773235064424663,45.77626193977944,2460],[7.772630215809932,45.775983179003816,2464],[7.772525804723123,45.7759055532459,2468],[7.772439892991058,45.77586412803117,2472],[7.772209610636663,45.775807650526886,2476],[7.772024632509275,45.77573815885055,2480],[7.7712557943244445,45.775606135564466,2485],[7.7710400561903015,45.77561956572906,2489],[7.770824960571709,45.77560375089127,2493],[7.770482261716118,45.77554156005523,2497],[7.770313162858154,45.77548123696767,2501],[7.770227649086953,45.775421813439564,2505],[7.770032684433655,45.775221704289905,2509],[7.769778371066139,45.77508845918953,2514],[7.769591668031408,45.77495144149792,2518],[7.769340423241744,45.77482497881391,2522],[7.769138687846374,45.77464054599134,2526],[7.769058173383735,45.77450017124989,2530],[7.769034534510724,45.77440541164405,2534],[7.7689749396224945,45.774337265980265,2538],[7.768851248331745,45.774259429075464,2543],[7.768742937825505,45.77421325944062,2547],[7.768297973178069,45.77412295837876,2551],[7.768103262346281,45.7740578556231,2555],[7.76790360893532,45.773925195726974,2559],[7.767750789518939,45.773856043934025,2563],[7.767500991140394,45.773664339389754,2567],[7.767115087165373,45.773520668077296,2572],[7.7667416063609185,45.7732511230199,2576],[7.766228906884343,45.773025075608636,2580],[7.766083215968074,45.77292449691847,2584],[7.765905081403879,45.77283706826849,2588],[7.765483044111899,45.77258274532718,2592],[7.765395169246496,45.772485040637555,2596],[7.765273175133201,45.772330714180164,2601],[7.765116144916299,45.771869992887865,2605],[7.7650234813485985,45.771697982254686,2609],[7.764807969481067,45.77155614497704,2613],[7.7647148463440425,45.77155063782473,2617],[7.76465638805285,45.77157700710325,2621],[7.764484993080132,45.77191267120731,2625],[7.764399128339934,45.77201524793996,2630],[7.764250064461592,45.7720676384005,2634],[7.764031670674646,45.77205627530828,2638],[7.763788653806528,45.77199514276292,2642],[7.76359094001428,45.771920999318,2646],[7.763015565802001,45.77162225530637,2650],[7.762975211671222,45.77158393806203,2654],[7.7629677890818245,45.77155132008507,2659],[7.763001533418736,45.77151612641875,2663],[7.763135119823384,45.771450290714895,2667],[7.7633523527293695,45.77122313047267,2671],[7.763469468590259,45.77116139490289,2675],[7.763699639929964,45.77107613146391,2679],[7.764040213801802,45.770796301805824,2683],[7.764464028311647,45.77038686457952,2688],[7.764530951130534,45.7702683320933,2692],[7.7647116999158,45.7698000119956,2696],[7.7648163779863495,45.76942762419836,2700],[7.764926824606534,45.76923080789743,2704],[7.7650057220508675,45.76900664899785,2708],[7.765078574337113,45.76891068145267,2712],[7.765302069234978,45.768690335463,2717],[7.765549341874799,45.768558000603896,2721],[7.765720796661934,45.768510350582105,2725],[7.766097674598572,45.768478419992505,2729],[7.766405462805976,45.76851774592388,2733],[7.766821351079336,45.76861224083885,2737],[7.767056176985383,45.76861239575726,2741],[7.767376847946431,45.76864523735856,2745],[7.767564835353119,45.768574279814395,2750],[7.76761945485219,45.76847669726823,2754],[7.767542518214214,45.76838662845755,2758],[7.767443156868878,45.76833578923335,2762],[7.76745257656146,45.7682725347188,2766],[7.767555476148607,45.76825533521163,2770],[7.76771269387144,45.76828659147968,2774],[7.767787665065888,45.76824014766927,2779],[7.767776293782113,45.768172521448776,2783],[7.767596344473408,45.76802207245596,2787],[7.7675889805998874,45.76791848754237,2791],[7.7678534995766,45.76787858861399,2795],[7.768015852146879,45.767806085660006,2799],[7.768026337237382,45.76776794671048,2803],[7.767993208270462,45.76766633407912,2808],[7.767854650092876,45.76753433280791,2812],[7.767801294316257,45.76747525421823,2816],[7.767767620978474,45.76739838695538,2820],[7.76775180284236,45.767240707988314,2824],[7.767795966919395,45.7671331786365,2828],[7.76793117174731,45.76697937867485,2832],[7.768011138364471,45.76685198428753,2837],[7.768144311426457,45.76679041705149,2841],[7.768373021788168,45.766770381853526,2845],[7.768544171701745,45.76673622501251,2849],[7.768679172135944,45.76673768019409,2853],[7.76897681495012,45.76679939105235,2857],[7.769452285416122,45.766669506517,2861],[7.769621407250361,45.76658132334929,2866],[7.769956978991651,45.766526433941756,2870],[7.770096083290836,45.766487429486006,2874],[7.770300264018768,45.76641312347006,2878],[7.77035901087037,45.76637325367314,2882],[7.770077008133311,45.76631721229065,2886],[7.770187007770809,45.76595721272554,2890],[7.770117007770959,45.765727212436836,2895],[7.770136742024736,45.765442933245204,2899],[7.770116071895989,45.76496367997799,2903],[7.770165643786056,45.76460862177459,2907],[7.770087008740898,45.76424721143382,2911],[7.770017007592368,45.763687210137746,2915],[7.769369743753294,45.762528396217206,2919],[7.770119852800606,45.76204144767158,2924],[7.770293755226791,45.761881311037456,2928],[7.770406096215129,45.761743012751495,2932],[7.771047351706527,45.76108837738275,2936],[7.771233709233322,45.760946374256136,2940],[7.771333934833525,45.76092045079977,2944],[7.771691771191117,45.76087479620873,2948],[7.771892122908485,45.76082744757741,2953],[7.772011927907504,45.760788233281666,2957],[7.772087132192977,45.76073053849537,2961],[7.772117735825297,45.76065436330666,2965],[7.7720820745031,45.76037496490942,2969],[7.772016007528942,45.76016274330529,2973],[7.771959736420637,45.76009013451512,2977],[7.771926555181334,45.759990772455446,2982],[7.771853112898919,45.759528707914725,2986],[7.772305869627056,45.75940531755049,2990],[7.772599319332394,45.75936346838379,2994],[7.772874923675288,45.75940243116765,2998],[7.77323330045334,45.75947828413716,3002],[7.773669403051033,45.75952796892051,3006],[7.773952718015346,45.75950850870175,3011],[7.774230590362177,45.75944398694075,3015],[7.774324876788729,45.75939549590745,3019],[7.774458509419678,45.75929342307803,3023]]}}]}