{"type":"FeatureCollection","features":[{"type":"Feature","properties":{"slug":"14-s26","sct_code":"14_S26","source":"Catasto Sentieri VdA"},"geometry":{"type":"LineString","coordinates":[[7.69127900760248,45.67322114126418,703],[7.691317007886229,45.67331014098401,704],[7.6913570079383025,45.67330014143172,706],[7.691857007923413,45.673480141443186,707],[7.691947007603209,45.67345014155569,708],[7.692027007799935,45.673660141242436,710],[7.691977007507257,45.67373014168063,711],[7.692036008469383,45.67380614171673,712],[7.691987008594092,45.673820141832756,714],[7.692037007647173,45.67394014183972,715],[7.6920270078824915,45.67410014122281,716],[7.6920870080895725,45.67419014143808,718],[7.692077007558486,45.674470141612034,719],[7.6921770087878585,45.6746201416092,720],[7.692047008518201,45.67471014172994,722],[7.692087007939425,45.674810142120386,723],[7.692058008436432,45.67506614237705,725],[7.691917008115473,45.67524014249646,726],[7.691857007701162,45.675240142120515,727],[7.691927007990957,45.67527014267515,729],[7.691727008440418,45.675630142482554,730],[7.69149700807669,45.675740142639725,731],[7.691345589516333,45.67596181148464,733],[7.691382966742436,45.67606186576506,734],[7.691634653511474,45.67628076378962,735],[7.6914595408842175,45.67653069963224,737],[7.69144802627681,45.67657564642655,738],[7.691343239347618,45.67666445215398,739],[7.691314839771705,45.676781134835025,741],[7.691402175734579,45.676890142836584,742],[7.692010373894687,45.677113132711895,743],[7.692317749688112,45.67723696688857,745],[7.69250886536958,45.67733484563001,746],[7.692702667539009,45.677283060114014,747],[7.692845962375929,45.67719469382268,749],[7.693369527105189,45.67731769210388,750],[7.69381565731109,45.677457803774374,751],[7.694020829562258,45.677469150365624,753],[7.694161981753077,45.67755653909722,754],[7.694247697434056,45.677651756336864,755],[7.6943222040383015,45.67776061542906,757],[7.694418407103068,45.67804073418497,758],[7.694557934221242,45.678114333799684,759],[7.695011680103032,45.678479543223176,761],[7.69525327443907,45.678581309859716,762],[7.695762975455279,45.678749141850275,764],[7.6960182452238595,45.678815060544714,765],[7.696119475354423,45.678879220428634,766],[7.696361073455648,45.67898098475571,768],[7.696629181732606,45.679047048602975,769],[7.696946177541329,45.67904599839485,770],[7.697387008784829,45.679210145559445,772],[7.697817007589408,45.67949014584798,773],[7.698097007662243,45.67994014599813,774],[7.698521090964954,45.68018681170706,776],[7.698574583210469,45.680149302677435,777],[7.699149507957152,45.68075889352836,778],[7.699601168650713,45.68104305527282,780],[7.6998100778484915,45.68115344072322,781],[7.7003198767466,45.68137075676106,782],[7.700813951819787,45.68167789688716,784],[7.701105998880756,45.68180272822633,785],[7.701474596307361,45.681896925123446,786],[7.70165727502442,45.68196200503284,788],[7.702612534255068,45.682490394821535,789],[7.703020604172642,45.68264803840095,790],[7.703180598082055,45.68273986101666,792],[7.703357606531868,45.682876880493055,793],[7.703795165620763,45.683286872174385,794],[7.703737085908231,45.683337936890425,796],[7.703677007614076,45.68332914825139,797],[7.703617008185641,45.68337914884944,799],[7.703557008194816,45.6833891480058,800],[7.703407007895151,45.68332914851016,801],[7.703317007872819,45.68325914802093,803],[7.703307008044894,45.683199148055316,804],[7.703217008779887,45.683199147928036,805],[7.703167008703139,45.68329914858249,807],[7.703160007717081,45.683546148397916,808],[7.703206008780055,45.68379814853154,809],[7.703267008287472,45.6839691487247,811],[7.703977008616246,45.68434914948755,812],[7.704064008372434,45.68445614930023,813],[7.704062007894821,45.68452814945849,815],[7.7030070077746995,45.684079149067706,816],[7.700867007915011,45.68362914844241,817],[7.700817008372197,45.683869148925005,819],[7.700367008708515,45.683479148581156,820],[7.700167008688316,45.68356914891822,821],[7.699477008429349,45.68332914866588,823],[7.699605007899823,45.684045148904495,824],[7.69945200859742,45.68397214920209,825],[7.699057008330954,45.683869148538555,827],[7.698307007566804,45.683549148099296,828],[7.698197008701998,45.6834591485357,829],[7.697614008488602,45.68348314808311,831],[7.697517007514085,45.683230148323204,832],[7.697627007862013,45.683109148185046,833],[7.697457008628383,45.682779148376675,835],[7.695787008738628,45.68211014718638,836],[7.694937008578393,45.68222014795896,838],[7.694317008240551,45.68201014747921,839],[7.6942600082718995,45.68193214736746,840],[7.694058008271456,45.68178614694161,842],[7.693367008636158,45.68171014699805,843],[7.692976527759565,45.68164455288612,844],[7.692967007860497,45.681930147668304,846],[7.6933470077032196,45.68250014755599,847],[7.694027007957404,45.682930148150184,848],[7.695127008441912,45.68330914853458,850],[7.695327008318841,45.68377914879431,851],[7.695787008204568,45.68414914881749,852],[7.696044451905807,45.6841952899661,854],[7.695822748253248,45.6843617057043,855]]}}]}