{"type":"FeatureCollection","features":[{"type":"Feature","properties":{"slug":"14-s11","sct_code":"14_S11","source":"Catasto Sentieri VdA"},"geometry":{"type":"LineString","coordinates":[[7.745873008044978,45.679990145876125,700],[7.74628100752128,45.680103145888616,700],[7.746826007832991,45.68022914581031,700],[7.7472560085185265,45.680419146299,700],[7.74755600845742,45.68045914589913,700],[7.747676008079244,45.68038914613283,700],[7.747656008321597,45.68022914624703,700],[7.747766008606123,45.680079146442985,700],[7.748016008498582,45.67998914632676,700],[7.74808600870942,45.67987914572714,700],[7.748036007854244,45.67978914605427,700],[7.748216008168174,45.679689145439056,700],[7.7485760082470785,45.679689145913045,700],[7.7491060087409895,45.67978914607952,700],[7.749226007707097,45.67969914531499,700],[7.749406008523568,45.67966914597627,700],[7.750306008629446,45.67973914599978,700],[7.7505160082304725,45.67969914580438,700],[7.750866007986753,45.67973914538941,700],[7.751067007532924,45.67972314579476,700],[7.751176008505705,45.67976914616009,700],[7.751272008147176,45.67972514580271,700],[7.751206008251059,45.67959914568824,700],[7.751076008667331,45.67955914598431,700],[7.750946008607957,45.67940914516563,700],[7.7509760086903485,45.67933914513319,700],[7.750975008510266,45.679218145286534,700],[7.7507560077323525,45.679039144928396,700],[7.750706008057797,45.67892914526814,700],[7.750756007854034,45.67888914524272,700],[7.750646008165467,45.67871914472095,700],[7.750696007919289,45.67861914484198,700],[7.750736008227165,45.678419144988055,700],[7.750896008390884,45.67813914496371,700],[7.750596007736146,45.67771914463466,700],[7.750546007576182,45.67723914404999,700],[7.750756007938393,45.676749143298466,700],[7.750906008784014,45.6766291430651,700],[7.750936008627985,45.67642914352646,700],[7.751066007755293,45.676319143658084,700],[7.751446008515851,45.676349143110464,700],[7.751586007580156,45.67626914299528,700],[7.7517360082275895,45.67628914353246,700],[7.75235600844025,45.67616914344855,700],[7.753206008035252,45.67624914306705,700],[7.753306008266446,45.676219142797756,700],[7.75330200839789,45.67618314348503,700],[7.75333600874364,45.676149143014555,700],[7.753276008461292,45.6760591426571,700],[7.75291600868498,45.67602914263989,700],[7.752856007901336,45.67593914295417,700],[7.752795007777608,45.67589014272979,700],[7.752626008283271,45.67588914252916,700],[7.752506008070688,45.67582914264197,700],[7.7523060085004465,45.675859142652676,700],[7.752246008705844,45.67577914323852,700],[7.752182007676204,45.6757391429232,700],[7.752234008306388,45.67570414322892,700],[7.752096007984989,45.67561914238514,700],[7.751786008324396,45.6756291428284,700],[7.751676007553213,45.675519143101965,700],[7.751356008752812,45.675419142776406,700],[7.751166008115568,45.67529914230791,700],[7.751166008554229,45.67513914284688,700],[7.750964007861231,45.67507814219502,700],[7.75071600773282,45.674899142249856,700],[7.750556008349639,45.67495914189354,700],[7.750426008657254,45.67485914239627,700],[7.7502660075228915,45.674899142243106,700],[7.7501160081009015,45.674839141937646,700],[7.749536008014363,45.67485914248557,700],[7.749456007910595,45.674769142570916,700],[7.749406007848475,45.67473914244672,700],[7.749416008400323,45.67465914193637,700],[7.749166007972754,45.674709141933846,700],[7.749076008587217,45.67482914177537,700],[7.748826007893375,45.67496914269932,700],[7.748806008031842,45.67493914238928,700],[7.748706008473617,45.67495914264595,700],[7.748336007573248,45.67528914232014,700],[7.748226008608826,45.67544914248787,700],[7.74808000812922,45.675478142731976,700],[7.74787600771121,45.675404143014305,700],[7.747726008377958,45.67546914284191,700],[7.747696008354744,45.67551914269719,700],[7.747466008052445,45.67558914248786,700],[7.747456008145247,45.67551914304771,700],[7.747206008683898,45.67551914303479,700],[7.747126007984897,45.675569142483276,700],[7.747056008399789,45.675719143118556,700],[7.746816008393866,45.675949142974915,700],[7.746766008295305,45.675979143407325,700],[7.746073007635284,45.675636142769434,700],[7.745336007537997,45.675119142524395,700],[7.745126008600341,45.675069142351454,700],[7.744806008483191,45.67490914262528,700],[7.743734008543791,45.67456614232545,700],[7.74368500815318,45.67449414210129,700],[7.743476007802446,45.67450914153636,700],[7.743056008122667,45.67442914230414,700],[7.7429860080377555,45.67435914195134,700],[7.742786008628365,45.67438914149865,700],[7.7425660079135215,45.67433914173488,700],[7.742426008503863,45.67439914224332,700],[7.742076007653322,45.674329141962076,700],[7.741876008376022,45.674459142192575,700],[7.741476008715354,45.67451914153961,700],[7.740296008626121,45.67458914184881,700],[7.7395360075136175,45.67454914242069,700],[7.738886007917911,45.674589142063496,700],[7.738716007904189,45.67455914173674,700],[7.738216007815813,45.67463914178043,700],[7.738056008152144,45.67473914246589,700],[7.737466007844025,45.67494914259807,700],[7.737226007646465,45.67508914226469,700],[7.7369260077593545,45.67516914231637,700],[7.736666007510902,45.675149142478716,700],[7.735700008500608,45.67555814262077,700],[7.735493008749048,45.67566314316217,700],[7.7353660080416216,45.67568914316168,700],[7.735336007920596,45.67576914242982,700],[7.734926007648108,45.67590914330031,700],[7.734662008319593,45.67605014265352,700],[7.734276007732551,45.676359143395324,700],[7.73400600833043,45.676419142995876,700],[7.733886008743478,45.67653914307227,700],[7.73392600821758,45.676549143280035,700],[7.733746008710709,45.67669914326239,700],[7.73352600762537,45.67673914395873,700],[7.733336008531278,45.676859144077234,700],[7.732966008265869,45.67697914374514,700],[7.73252600855515,45.6770391441659,700],[7.732176008021121,45.67724914432643,700],[7.732016008747564,45.67727914413445,700],[7.732116008255641,45.67739914416333,700],[7.732526007532799,45.67749914399691,700],[7.732286008729829,45.67766914399744,700],[7.73199600811802,45.67774914393916,700],[7.731906008443726,45.6777191439644,700],[7.731976007951819,45.67780914413316,700],[7.73222600760447,45.6778291444493,700],[7.732396007813349,45.67795914404459,700],[7.732236008258927,45.67801914410209,700],[7.731976007823078,45.67796914445242,700],[7.731516008722231,45.67813914498367,700],[7.732056008053616,45.678279145082364,700],[7.732426008488628,45.678489145084264,700],[7.732206007748521,45.678469145144334,700],[7.732276007906973,45.67849914523577,700],[7.731656008229892,45.67868914476488,700],[7.731516008106369,45.678689144570605,700],[7.731406008437591,45.67877914509722,700],[7.731296007706898,45.67875914541328,700],[7.731186008704618,45.678869145096535,700],[7.730856007727146,45.67890914551554,700],[7.730426008395387,45.67890914555155,700],[7.730216007568882,45.67884914529091,700],[7.730106008114023,45.67888914526148,700],[7.730026008776133,45.67885914517932,700],[7.730006007747611,45.67876914529202,700],[7.729896007924987,45.67877914511314,700],[7.72967600826047,45.679359145459514,700],[7.729646008208017,45.67954914597032,700],[7.729516008520592,45.679789146049416,700],[7.729196008208742,45.67992914618648,700],[7.728996007987181,45.679969145538585,700],[7.72883600829927,45.6799191461428,700],[7.728563008012927,45.680015146002866,700],[7.728556008111277,45.68022914582682,700],[7.728386008272565,45.68041914649228,700],[7.728236008538278,45.6805091459747,700],[7.728136007650051,45.680499146258576,700],[7.728116007904022,45.68044914659254,700],[7.728046008235563,45.68048914621668,700],[7.727926008219293,45.68020914650702,700],[7.727736008561701,45.68028914572865,700],[7.727636008284815,45.68025914622298,700],[7.72759600875565,45.68013914644863,700],[7.727556008099909,45.680179146012954,700],[7.727186008261351,45.680069145988874,700],[7.726976007585767,45.679919146268375,700],[7.7268160081624355,45.680009145857866,700],[7.726646008004565,45.67999914585274,700],[7.726446008503816,45.67986914619481,700],[7.7260060087722975,45.6797991454427,700],[7.725856008146679,45.679839146100655,700],[7.726336007862291,45.680349146405085,700],[7.726256008555504,45.68043914613616,700],[7.726136008125976,45.680479145961904,700],[7.725716007904537,45.68028914597141,700],[7.7256260086129185,45.68036914653427,700],[7.725306007656251,45.68031914635745,700],[7.725206008340992,45.68035914608759,700],[7.725516008490893,45.68049914637847,700],[7.7255260076441195,45.68057914646459,700],[7.72537600862135,45.680629146184394,700],[7.724536008152574,45.68055914621754,700],[7.724389008335909,45.680617146371254,700],[7.724076008637288,45.680539146228945,700],[7.723666008231568,45.68094914650722,700],[7.723576008577965,45.68095914679693,700],[7.723526007582868,45.68102914653939,700],[7.723136008515839,45.68129914699474,700],[7.722896007840685,45.681349147224964,700],[7.722706008024435,45.68144914732113,700],[7.72259600772392,45.681469146981414,700],[7.722346008390785,45.68157914751091,700],[7.722260008604349,45.68163714674947,700],[7.722096008545289,45.68170914683986,700],[7.721846008758162,45.681729147373865,700],[7.720986007740685,45.68166914740691,700],[7.720563008567083,45.681726147251155,700],[7.720211072506426,45.68180845669134,700],[7.7196980734108935,45.681802456852566,700],[7.719375834833357,45.68174015256029,700],[7.719179913201533,45.681727893199216,700],[7.719117007708484,45.68177914744827,700],[7.719026762448049,45.68183351260255,700],[7.719071599944353,45.68186084982859,700],[7.719096650073124,45.681916476380735,700],[7.719120635087071,45.681978602023975,700],[7.719135708184717,45.68198735402468,700],[7.719185598252003,45.68200300836639,700],[7.719275350245729,45.682054329010576,700],[7.719362786013788,45.68210226908888,700],[7.719395051001196,45.68215629874722,700],[7.719428982026128,45.68224221372884,700],[7.719488314614933,45.68232876358177,700],[7.7191833414241415,45.68267128995398,700],[7.718821293988771,45.68300908188611,700],[7.718610257995169,45.68312094141896,700],[7.718145494631529,45.68328596250994,700],[7.717947329327613,45.683393162522904,700],[7.717832991350752,45.68349727988366,700],[7.717658727148842,45.68370642392674,700],[7.717504361165163,45.68379720091585,700],[7.717400257760731,45.68390989331577,700],[7.717232811266495,45.68412861608792,700],[7.717136091587318,45.68436236650302,700],[7.716969133252318,45.68455974491939,700],[7.716773185829394,45.684692752721155,700],[7.71649717522202,45.684775047645026,700],[7.716342967150435,45.68485870894632,700],[7.7162792987126165,45.68497897057359,700],[7.716197664942427,45.685440608593154,700],[7.716143168856183,45.68560367028607,700],[7.716019573296674,45.68568055932646,700],[7.715734381139973,45.68572005032571,700],[7.715469979727473,45.68573842678126,700],[7.715295790619488,45.68580763020722,700],[7.7151019526650435,45.68584814703813,700],[7.714878967844289,45.685831405007924,700],[7.7144246389061575,45.68571954910966,700],[7.713999620399579,45.68565783613119,700],[7.713776473604472,45.68564820780123,700],[7.713531067146778,45.685723722473206,700],[7.7133136656370604,45.68590629563573,700],[7.713087578511897,45.68602472583138,700],[7.712862309001449,45.686107581804805,700],[7.712717589137604,45.68621981041864,700],[7.712632955703707,45.6863682990321,700],[7.712665234583104,45.686731590524374,700],[7.712630110324418,45.68686101936266,700],[7.7127525674842685,45.687033411755586,700],[7.712883590100294,45.68714739571518,700],[7.713145407423794,45.6872628521878,700],[7.713496855427335,45.68759983410048,700],[7.713565933432364,45.687650115383626,700],[7.7136978043928,45.687692103141806,700],[7.713846747250517,45.68770728116715,700],[7.713984374357701,45.6876908294988,700],[7.714179019583012,45.68760301470144,700],[7.714627935130956,45.687347049653994,700],[7.714705985072191,45.687320926094834,700],[7.7148672830112766,45.687304739703904,700],[7.715001575571054,45.68732875200024,700],[7.715068358103167,45.68735650414989,700],[7.715563796884227,45.687627594820064,700],[7.715810098426036,45.687702368898115,700],[7.7168845040481155,45.68761093486366,700],[7.717479521196295,45.68740610387481,700],[7.717603782982453,45.687430000486614,700],[7.718109068317903,45.68769218914639,700],[7.718172048835113,45.68771089711058,700],[7.7182697485219665,45.68770299282002,700],[7.718428781474914,45.68761026997809,700],[7.718806884565522,45.68750200483334,700],[7.718928982726603,45.68744487032642,700],[7.719287008501795,45.68721915098999,700],[7.719667007813796,45.687269151024935,700],[7.719947008023083,45.6869791511954,700],[7.72036700820753,45.68679915114567,700],[7.720854008300531,45.68702215113833,700],[7.721270007829783,45.68677415112662,700],[7.721397008608143,45.68667915112246,700],[7.721410298844453,45.68662526477084,700],[7.721477008520177,45.686559150480576,700],[7.721687008382593,45.6864891503171,700],[7.7219670080443805,45.68653915045294,700],[7.722207008528278,45.686739151125806,700],[7.7223070085535515,45.68666915055949,700],[7.722427007509295,45.68671915089267,700],[7.722567008211657,45.68668915062012,700],[7.72270700864989,45.68677915069631,700],[7.72286700876972,45.68663915051703,700],[7.7229770083158735,45.68663915083706,700],[7.723207008224469,45.68622915050627,700],[7.723437007590547,45.68599915003795,700],[7.72347700870802,45.685839150517985,700],[7.723637007551241,45.68580915009746,700],[7.723666007984538,45.685389149560855,700],[7.723836007623417,45.68515914927758,700],[7.723876008185013,45.68477914961571,700],[7.723956007881031,45.68463914965684,700],[7.724046007739561,45.6846891498048,700],[7.72412600757308,45.68425914932838,700],[7.7242460082813675,45.68400914860909,700],[7.724416008322904,45.68418914931127,700],[7.724606007991976,45.68404914861956,700],[7.724966007625638,45.6840191488838,700],[7.725436008413659,45.684189149340405,700],[7.726066008088285,45.68428914893917,700],[7.726496008641873,45.6843191490305,700],[7.726796008021859,45.684449148880425,700],[7.727006008742423,45.684409148744294,700],[7.727396008335016,45.68445914902876,700],[7.727746007994844,45.684469149316925,700],[7.727946008361233,45.68458114898937,700],[7.728286008009169,45.68467914947803,700],[7.728446008183166,45.68467914944636,700],[7.728776008054205,45.68450914946883,700],[7.728756008066311,45.68454914969263,700],[7.729246007499272,45.68453914960656,700],[7.729686007882876,45.684449149360354,700],[7.729976008515231,45.684439149458846,700],[7.7300960080583225,45.68431914913656,700],[7.7305560077346085,45.684129148835716,700],[7.731316008731861,45.6839991486728,700],[7.731918007702119,45.6838691491479,700],[7.732246008286355,45.68356914818632,700],[7.732406008256957,45.683399148162,700],[7.73288600828573,45.68310914854575,700],[7.733096008586455,45.68311914817047,700],[7.733220008291257,45.6830551483801,700],[7.733271008565652,45.68309214841264,700],[7.733416007672392,45.68315914838982,700],[7.733586007974771,45.68315914853442,700],[7.733776008744978,45.68306914805603,700],[7.733826007737454,45.6828291475748,700],[7.73389600782615,45.68295914788747,700],[7.733996008541812,45.68267914750147,700],[7.7340960083524015,45.68272914796548,700],[7.734246008642023,45.68252914800759,700],[7.734346007989872,45.682489147577556,700],[7.73452600803643,45.68248914821383,700],[7.734436008558132,45.682539147660194,700],[7.734526007759106,45.682559147732775,700],[7.734446007886987,45.68261914783362,700],[7.734506007691768,45.68262914799671,700],[7.734786008268411,45.68248914813372,700],[7.734916007803158,45.68247914819065,700],[7.734906007751861,45.68250914807014,700],[7.7349560079459465,45.68246914778369,700],[7.735296008224252,45.682469147733286,700],[7.735986008772911,45.68237914747402,700],[7.736506008559046,45.682279147819536,700],[7.737016008514754,45.682299147437455,700],[7.736926008634796,45.682359147616815,700],[7.7371360087365755,45.68234914766327,700],[7.737786008121566,45.68225914791321,700],[7.738056008445632,45.68229914788006,700],[7.738266008325849,45.68238914799193,700],[7.738636008207884,45.68240914738812,700],[7.738846008069078,45.682609148246705,700],[7.73893300858385,45.68254214787518,700],[7.738946007914242,45.68240914810813,700],[7.738816008136028,45.682259147943434,700],[7.738806008057809,45.68190914701717,700],[7.738656007562328,45.681809147419294,700],[7.738646007609217,45.681699146772885,700],[7.738706008667682,45.68162914733963,700],[7.738826007675156,45.68170914750854,700],[7.738876008157683,45.68157914752401,700],[7.738966008547929,45.681519146707245,700],[7.739006008350783,45.681439147145504,700],[7.739319008689975,45.68135814660202,700],[7.7395760078225635,45.681399147071346,700],[7.739726008321734,45.68129914654721,700],[7.740326007942443,45.68120914681279,700],[7.7407660074992055,45.6810691468565,700],[7.741216008568021,45.68079914621346,700],[7.741406007976141,45.68061914670609,700],[7.74199600754227,45.68038914593252,700],[7.7421260077145915,45.68018914571272,700],[7.742336007912029,45.680059146363725,700],[7.7436560078600705,45.67978914570046,700],[7.744106008529745,45.67975914570485,700],[7.744636007942775,45.67965914604032,700],[7.7448260076940345,45.679669145513394,700],[7.745466007826446,45.679806145962246,700],[7.745873008044978,45.679990145876125,700]]}}]}