{"type":"FeatureCollection","features":[{"type":"Feature","properties":{"slug":"15-s1","sct_code":"15_S1","source":"Catasto Sentieri VdA"},"geometry":{"type":"LineString","coordinates":[[7.566465299829118,45.73020342733468,500],[7.566478850768854,45.730303784322196,503],[7.566465422586223,45.730434846525974,506],[7.566449663042044,45.73049955801395,509],[7.56645790853681,45.7305682294841,512],[7.566513520284181,45.73075999826064,515],[7.566626948109589,45.73097308397086,518],[7.566701786927394,45.73111936391838,520],[7.566700198972391,45.731181431581106,523],[7.5666048645316595,45.731363676402296,526],[7.566551007513683,45.731430185159795,529],[7.566499935180581,45.73144843549365,532],[7.566408678683968,45.73147127850153,535],[7.566181008276669,45.73150018479263,538],[7.565953912969467,45.73152624647594,541],[7.56584164754895,45.731582691642046,544],[7.5658210077022146,45.731650185031626,547],[7.565751008375761,45.73199018570424,550],[7.565661007998277,45.732120185506645,553],[7.565231007927342,45.73230918540994,556],[7.564901007670635,45.732360185405234,558],[7.5647410087051705,45.732529185557155,561],[7.564561008769215,45.73259918553977,564],[7.564421008570424,45.732729186063295,567],[7.564111008590379,45.7327791858522,570],[7.563801008231419,45.7328891860402,573],[7.5636410083393795,45.73288018621529,576],[7.563461008581271,45.732910186033585,579],[7.562901008370691,45.73285018555877,582],[7.562421008644472,45.73265018570964,585],[7.562281008255417,45.73271018545338,588],[7.5620610082297,45.73258018540154,591],[7.561821008002048,45.73252018598772,593],[7.561491008343516,45.732320185963026,596],[7.561321008613893,45.73236018554424,599],[7.5611710087574915,45.7322401856391,602],[7.560901008803945,45.73220018544424,605],[7.560761007606529,45.73195018553543,608],[7.560771007716016,45.73165018463615,611],[7.560731008552227,45.73161018534623,614],[7.560511008681196,45.731620184922996,617],[7.560491007651569,45.73157018503576,620],[7.560211007803759,45.73134018519483,623],[7.560241007744581,45.73116018421165,626],[7.560211008377519,45.73116018501103,629],[7.560221008262504,45.73108018456004,631],[7.5600410083376826,45.73085018460378,634],[7.5601510082312675,45.73068018453242,637],[7.560121007761256,45.730640184147646,640],[7.5596820734019206,45.73077129765347,643],[7.559494107619833,45.731083947562645,646],[7.559308409681877,45.73123011468336,649],[7.559245558369214,45.731175318659936,652],[7.559354318745536,45.730866171425305,655],[7.559343619471158,45.73073552760533,658],[7.559296890347129,45.730662933838275,661],[7.55920990191414,45.73056283060354,664],[7.559010056633267,45.73038479897878,667],[7.558644956751435,45.73024518527444,669],[7.558527660541114,45.730261706243624,672],[7.558580240738915,45.73032537271371,675],[7.558767656946873,45.730440244418205,678],[7.558835207855071,45.73049960118049,681],[7.558871150266422,45.73058555897737,684],[7.5588515088057004,45.73069331778121,687],[7.55862981557055,45.73100554074908,690],[7.558556386158973,45.73104961601602,693],[7.558441665237359,45.73107517084336,696],[7.558191108828786,45.731166513416,699],[7.558151285189483,45.73124701659524,702],[7.558182756342668,45.73131941823531,705],[7.5584410324156615,45.73158369301156,707],[7.558562859649667,45.73182824613353,710],[7.5585872692714196,45.731941060114664,713],[7.558721613228473,45.73213626708038,716],[7.558735996828171,45.732185950681355,719],[7.558356008080857,45.73235518566888,722],[7.557946007633909,45.73203518563528,725],[7.557376008256753,45.73171318514142,728],[7.556730008652174,45.731839185146974,731],[7.556400008161593,45.73219518557502,734],[7.556318008162573,45.732869185843136,737],[7.556163682729144,45.732959015664925,740],[7.555951008410333,45.732900186359494,742],[7.555961007541982,45.73276018593995,745],[7.555871007811451,45.73280018605609,748],[7.555701008721575,45.73301018592045,751],[7.5554910086539815,45.73314018595364,754],[7.55538100764408,45.73334018658756,757],[7.5552210078547475,45.733420186774644,760],[7.555171008440722,45.73357018661151,763],[7.554831007867966,45.73388018644436,766],[7.554911007722773,45.73411018683501,769],[7.554791007613298,45.734140186773566,772],[7.554711008479445,45.734230187218884,775],[7.554645660875722,45.73445639104038,778],[7.554581008502222,45.73468018696733,780],[7.554211008645943,45.73475018739097,783],[7.554321007739088,45.73490018759559,786],[7.553951007807576,45.73506018812018,789],[7.553821007740608,45.735070188140966,792],[7.553391008358221,45.73520018804453,795],[7.5528310087182655,45.73529018809501,798],[7.552601008330914,45.7353701878781,801],[7.552415907333774,45.735510450512756,804],[7.552154770476984,45.7356006781484,807],[7.552187081730091,45.73569397240222,810],[7.5524110083872635,45.735770188227434,813],[7.552611008521553,45.7357701880565,816],[7.552351008392253,45.73592018874949,818],[7.552631007776581,45.736330188848356,821],[7.55284100828001,45.736460189216686,824],[7.552832992244056,45.73649225470027,827],[7.552991007992084,45.73674018912292,830],[7.552951008345987,45.736870189372844,833],[7.553041008302666,45.73702918906318,836],[7.55336100785966,45.73707918899241,839],[7.553321008113786,45.73710918974672,842],[7.55333079368423,45.73713600388443,845],[7.553368639449369,45.73719149179304,848],[7.553393599289313,45.737469352181,851],[7.553486556977021,45.73760304883769,853],[7.553496298564024,45.73764068015192,856],[7.553449784187092,45.737782613780844,859],[7.5533862597133234,45.737891825617815,862],[7.553411202304066,45.738032163798884,865],[7.553274328896958,45.73807793880479,868],[7.553087067665359,45.738185405043644,871],[7.553173061351711,45.738168493198295,874],[7.553231007898569,45.73833919063395,877],[7.553191008552842,45.73838919054142,880],[7.55302100872428,45.73839919064057,883],[7.55297100764268,45.73843919018219,886],[7.5531210079030116,45.73871919072997,889],[7.55317100862436,45.738899190397156,891],[7.553071008294305,45.739019190701306,894],[7.552321008592579,45.73939919083202,897],[7.552211007921028,45.739409191364835,900],[7.552111007773014,45.73932919076161,903],[7.551941008363987,45.739359191154904,906],[7.551531007885417,45.7396491916572,909],[7.551191008230487,45.73980919182734,912],[7.551061008598219,45.74002919195465,915],[7.550921008381763,45.740119191809534,918],[7.5506910078232705,45.740429191918295,921],[7.550401810223427,45.740662532510925,924],[7.550370007857418,45.74068819177836,927],[7.54942100774344,45.7409991926172,929],[7.549251008094736,45.74106919278112,932],[7.549071008068062,45.741219192938885,935],[7.548761007591289,45.74131919219261,938],[7.548450008060266,45.74148819311547,941],[7.548311007541931,45.74160919310052,944],[7.547952008656891,45.74160919253037,947],[7.5477157774424795,45.74181377681918,950],[7.547609074782728,45.74195165484813,953],[7.547574490554039,45.74198759977545,956],[7.547475993037563,45.742110829228594,959],[7.547446350626383,45.74214144473559,962],[7.547408210961655,45.74217643354586,965],[7.547376873344272,45.742201037621605,967],[7.547346059708961,45.742218622534864,970],[7.547316296976077,45.742229887128246,973],[7.547275735515102,45.74223865623967,976],[7.54694715205679,45.74228055788788,979],[7.546750990484255,45.742300063343514,982],[7.546600368374528,45.74231067573389,985],[7.545984666546309,45.74234488793732,988],[7.545813888088624,45.74235292508121,991],[7.545653988339331,45.74235700793344,994],[7.545207392746995,45.7423609750356,997],[7.544988545266313,45.742359567413764,1000],[7.544936181211096,45.74236142055384,1002],[7.5448975989545275,45.74236667502174,1005],[7.544880061274919,45.74237206975044,1008],[7.544866769868537,45.742378340317615,1011],[7.54485768533249,45.74238477698066,1014],[7.5448509764945,45.742392098057515,1017],[7.544838059769107,45.74241882530908,1020],[7.544839798295796,45.742488357684095,1023],[7.544840006043416,45.74254917514145,1026],[7.544832678135544,45.74258472210687,1029],[7.544812116397983,45.74262847638061,1032],[7.544794306600406,45.74265527179982,1035],[7.544777735805039,45.74267584113002,1038],[7.544741396268825,45.74270633101217,1040],[7.544674146084257,45.742754977172034,1043],[7.544605192807082,45.74280158457312,1046],[7.544487748764178,45.74287746574265,1049],[7.544437355145707,45.74291748712408,1052],[7.544407546255972,45.742933556655515,1055],[7.544299091927622,45.742947540305614,1058]]}}]}