{"type":"FeatureCollection","features":[{"type":"Feature","properties":{"slug":"16-s7","sct_code":"16_S7","source":"Catasto Sentieri VdA"},"geometry":{"type":"LineString","coordinates":[[7.6289500076396095,45.85303828759744,1775],[7.629172008196753,45.85241628685925,1778],[7.6288120077910415,45.852266286776036,1780],[7.628722007846641,45.851946285879926,1783],[7.629202007900015,45.85181628660301,1786],[7.629002007883899,45.851496285442124,1789],[7.629112007886134,45.85112628551501,1791],[7.629522007797987,45.85080628512163,1794],[7.629622007598502,45.84992628407232,1797],[7.628942595710926,45.84922580352154,1800],[7.628860963164444,45.84927207574488,1802],[7.62870174586009,45.84933091722481,1805],[7.628605069139298,45.84933425694163,1808],[7.6284224229685105,45.84929831293272,1811],[7.628288557781757,45.849242703517376,1813],[7.6282329963860915,45.84914528243962,1816],[7.628194359070578,45.849014313172844,1819],[7.628137448868391,45.84870986738216,1822],[7.628051680520407,45.848400574813155,1824],[7.627822560810457,45.848028807985635,1827],[7.6274430838225165,45.84735597204296,1830],[7.627276567133514,45.84692645374773,1833],[7.627008272073339,45.84644621000334,1835],[7.626864964360059,45.846120474245005,1838],[7.6267715039853,45.84599334566675,1841],[7.626754129527849,45.845914383563084,1843],[7.62676816675964,45.84586730033719,1846],[7.626187597045645,45.84541185424591,1849],[7.626071770591829,45.84536560168654,1852],[7.625982007679383,45.845246280633106,1854],[7.625802326982806,45.84518591404993,1857],[7.625668896054324,45.845101567647475,1860],[7.6256121990248396,45.84502911029875,1863],[7.625618738713008,45.844961918376974,1865],[7.625324785264173,45.84485518698491,1868],[7.625143268584171,45.84481213018857,1871],[7.624626674190011,45.84470974222514,1874],[7.6245283392427,45.844650055902484,1876],[7.624499604775809,45.84459397062184,1879],[7.624493685914918,45.84445939145596,1882],[7.624502510335922,45.844332894826344,1885],[7.624269489027675,45.844296195399664,1887],[7.624246537934709,45.84424358273714,1890],[7.624249779592075,45.84399639585914,1893],[7.623902008318214,45.843706278949654,1896],[7.623442008050104,45.84359627883106,1898],[7.623322008562384,45.843386278833606,1901],[7.623062008437043,45.843356278421105,1904],[7.623142008193576,45.84322627811637,1906],[7.6229927359229395,45.84318534896138,1909],[7.622522008735808,45.84305627813513,1912],[7.621682007896317,45.84241627791224,1915],[7.621688586711663,45.842317593431375,1917],[7.621792007780277,45.84076627654201,1920],[7.622210650410829,45.840331197654294,1923],[7.622302985170625,45.840242307371106,1926],[7.622328123321074,45.84013685603375,1928],[7.6223204673083815,45.84005576027353,1931],[7.622234130215341,45.83990171259554,1934],[7.62174777887619,45.83978109132837,1937],[7.621614953288985,45.83962080667757,1939],[7.621430008073487,45.839478275335146,1942],[7.622202008048333,45.83932627456541,1945],[7.622160008110633,45.83911827499932,1948],[7.62201000843737,45.83880827468809,1950],[7.622562008750983,45.83880627495722,1953],[7.623114815924567,45.83855552337674,1956],[7.623455823412625,45.83835262303495,1959],[7.623603238108532,45.8382981467743,1961],[7.623903751420944,45.83818701204991,1964],[7.6242729969841,45.837948448753714,1967],[7.624854595787361,45.83739789418789,1969],[7.624863726655741,45.83721302907114,1972],[7.624284247143122,45.83716555070903,1975],[7.624015833743333,45.83711731532784,1978],[7.623946102572927,45.837089475181386,1980],[7.6236467008393065,45.83682935749635,1983],[7.623585749146828,45.83665761581399,1986],[7.6234225802093745,45.83650264324066,1989],[7.62338061845219,45.836295127808775,1991],[7.6233598075317,45.83620941295885,1994],[7.623304929401519,45.836126385512124,1997],[7.623110384215874,45.835933172439304,2000],[7.622907199159351,45.83570379122735,2002],[7.622692390905391,45.835561935099655,2005],[7.622595590590991,45.83547084155544,2008],[7.622540603980768,45.83532539202609,2011],[7.622513283528113,45.835095552693346,2013],[7.622477957587566,45.83501282718497,2016],[7.622450020088337,45.83496985457113,2019],[7.62241490919788,45.83493805673788,2022],[7.622200263245088,45.83480137414483,2024],[7.622111867968604,45.834731766470625,2027],[7.6220022053108405,45.83460381278506,2030],[7.621998743143768,45.8345826822106,2032],[7.621983927317513,45.834568216281276,2035],[7.621658358504155,45.83432577840554,2038],[7.6212761470562,45.83409615660488,2041],[7.620720385397093,45.833643928741935,2043],[7.620352932681672,45.83325697424537,2046],[7.6202514542221165,45.83304874057506,2049],[7.619990736762159,45.83269007508194,2052],[7.619969854987373,45.832590819411585,2054],[7.619987989538984,45.83249203504762,2057],[7.620052285240021,45.83234880360771,2060],[7.6201924673861035,45.832179491122,2063],[7.620279697930878,45.832117540994666,2065],[7.62065317355788,45.83195104341864,2068],[7.620799591505773,45.83182230454237,2071],[7.620854462992297,45.831750964716555,2074],[7.620895121851777,45.83165245210986,2076],[7.620934061721396,45.83142791141111,2079],[7.620834906942927,45.83104419763894,2082],[7.62083938026143,45.83089574511712,2085],[7.620885487761624,45.83078829698182,2087],[7.621035496102236,45.830628100637654,2090],[7.621438725081584,45.830331453849375,2093],[7.621703143593382,45.830051130895775,2095],[7.622062288959774,45.82981245349903,2098],[7.6221720956334655,45.829683272128136,2101],[7.622199419748726,45.82952159451801,2104],[7.62218099094883,45.82940436619016,2106],[7.621993080772666,45.828916079145685,2109],[7.621889134918285,45.828710066217376,2112],[7.621601258363816,45.828192367968654,2115],[7.621526941378536,45.8281141794323,2117],[7.621361552898647,45.828030920880636,2120],[7.621356563030618,45.82797235806538,2123],[7.621535596039833,45.827565000247596,2126],[7.621544460231998,45.82751560590182,2128],[7.621526846302795,45.827479390866266,2131],[7.621449901548478,45.82746721190225,2134],[7.621331848142613,45.82749053839728,2137],[7.621278979885102,45.82748089997071,2139],[7.6212430468654935,45.827453465107126,2142],[7.621165606506872,45.82733102596093,2145],[7.621055196700047,45.82728919061788,2148],[7.620691763162028,45.82726230224251,2150],[7.620501539336893,45.82721050319181,2153],[7.620226118012388,45.827171174568996,2156],[7.620058221692579,45.82716014714648,2158],[7.619645301171009,45.82718215897478,2161],[7.619555389235041,45.82719007385582,2164],[7.618996033470036,45.827309319097694,2167],[7.618882392195679,45.82731694569548,2169],[7.618764127548888,45.827365018086304,2172],[7.61853291295338,45.827425226064136,2175],[7.618309476755092,45.827512527951924,2178],[7.617756500891711,45.82756884057566,2180],[7.617399687720151,45.82763202583486,2183],[7.616911218928516,45.827666614937556,2186],[7.616630971665581,45.827627220120625,2189],[7.616121093052906,45.82761654458264,2191],[7.61593371095871,45.82759627375142,2194],[7.615685442599031,45.82759776584601,2197],[7.614895164929693,45.827586073678695,2200],[7.613714370320064,45.82732635345453,2202],[7.613456963741706,45.82732322961297,2205],[7.613160521171594,45.82728813081253,2208],[7.612914736394775,45.82722214311874,2211],[7.612760116386269,45.82713026164437,2213],[7.612392734373141,45.82695479227066,2216],[7.612157651758789,45.82691143393923,2219],[7.612113924999468,45.82690640342229,2221],[7.6115937284294795,45.82700358714261,2224],[7.611409345309181,45.82699234483279,2227],[7.611242279593207,45.82693181232967,2230],[7.611139096645335,45.82685855473451,2232],[7.610785251435775,45.826462733971944,2235],[7.610646262824081,45.82619553273459,2238],[7.610617756394888,45.82609618070698,2241],[7.61026921428946,45.82571392429205,2243],[7.609991721639038,45.82546753826324,2246],[7.609959571649215,45.82541764575292,2249],[7.6099532079126755,45.82535006438448,2252],[7.609973593080147,45.82524230666204,2254],[7.6100152454113825,45.82515280940682,2257],[7.610045174848822,45.824968667047884,2260],[7.61000210137064,45.824905138331644,2263],[7.60985792627114,45.82478187945037,2265],[7.609658899666849,45.82468045295582,2268],[7.60944318500995,45.824538320256266,2271],[7.609398279698986,45.82448377211616,2274],[7.609362426360992,45.82438883141762,2276],[7.609414764694198,45.824209460380764,2279]]}}]}