{"type":"FeatureCollection","features":[{"type":"Feature","properties":{"slug":"16-s3","sct_code":"16_S3","source":"Catasto Sentieri VdA"},"geometry":{"type":"LineString","coordinates":[[7.620927158156545,45.83850922022123,1812],[7.621785257438778,45.83874620601229,1822],[7.62201000843737,45.83880827468809,1831],[7.622160008110633,45.83911827499932,1841],[7.622440789204862,45.839231967932186,1850],[7.6231883072556395,45.83945869660705,1860],[7.623379573988904,45.839535254667275,1869],[7.623556913981412,45.839654396428344,1879],[7.62380589086739,45.83987115498919,1888],[7.623853389144361,45.8399032284876,1898],[7.624217505265944,45.840020118727445,1907],[7.624772835029757,45.84008530744476,1917],[7.624888750440478,45.8400844526442,1926],[7.625460112900661,45.840021575562176,1936],[7.625703819753972,45.84006050902863,1945],[7.62594974843442,45.840139970413105,1955],[7.626116437504701,45.840168976268274,1964],[7.627223602007806,45.840180035479996,1974],[7.627303839243692,45.84018999998168,1983],[7.6276165817424015,45.84030176188961,1993],[7.628105121791915,45.84030077848091,2003],[7.628231784158852,45.840288899669574,2012],[7.628337033243796,45.8402988064543,2022],[7.628562610852997,45.840319872700114,2031],[7.628839765676234,45.840306033042744,2041],[7.629150395274581,45.84024367372391,2050],[7.62949082208448,45.84027700935559,2060],[7.630111577311773,45.840300205145425,2069],[7.630476631154619,45.84024832952078,2079],[7.630985002166329,45.8401284172799,2088],[7.631230423831903,45.840097606547566,2098],[7.631831040779083,45.84015430313866,2107],[7.632064601709293,45.840213352376374,2117],[7.632497642850231,45.840273855757,2126],[7.632617615824768,45.840263657884016,2136],[7.632760008081637,45.84022827601978,2145],[7.632892008720664,45.84016627610614,2155],[7.633492007689889,45.839516275459914,2164],[7.63379200782423,45.83958627548492,2174],[7.6343420074899315,45.83923627523904,2184],[7.634562007761389,45.839326275194544,2193],[7.635631008451004,45.839046274350544,2203],[7.634751007943442,45.837696273149284,2212],[7.634841008383562,45.83743627360692,2222],[7.6355710075376075,45.83698627274166,2231],[7.636211007990233,45.83627627245613,2241],[7.636341007493291,45.83629627235279,2250],[7.636401008498859,45.83604627198098,2260],[7.637461007699985,45.835636271780665,2269],[7.637781008494503,45.83541627164698,2279],[7.638011007957356,45.83548627198517,2288],[7.638251007682615,45.83529627177532,2298],[7.6384410082467,45.834946271109395,2307],[7.638381007911068,45.83419627008288,2317],[7.639131713717315,45.83344846135212,2326],[7.639233921083908,45.83348118016941,2336],[7.639320587000646,45.8334912128169,2346],[7.6394139081995105,45.833492324270615,2355],[7.639565810749651,45.83346713209476,2365],[7.639633278512724,45.833472435692215,2374],[7.6396877647719155,45.83348208487238,2384],[7.639725613052983,45.83351403689619,2393],[7.639740716293966,45.83355471848058,2403],[7.64035100854777,45.833726270231125,2412],[7.642221007851707,45.833506269485255,2422],[7.643191008069678,45.83365627019872,2431],[7.643871008441752,45.833576269988185,2441],[7.644001008408641,45.83333626963577,2450],[7.6443710077921985,45.83333626941979,2460],[7.645011008215784,45.832736269060774,2469],[7.645515935352448,45.83262309600105,2479],[7.6455910081965035,45.832606268782826,2488],[7.645651007981104,45.832176269094816,2498],[7.645981007894075,45.8319062682519,2507],[7.647351007981057,45.83129626813991,2517],[7.650031007814899,45.8303562668725,2527],[7.651771008663462,45.830226266812055,2536],[7.651851008653111,45.83003626664888,2546],[7.6522210086991365,45.82990626633649,2555],[7.652521007956723,45.82960626598914,2565],[7.652461008134683,45.829066266339616,2574],[7.652631007668919,45.82898626612342,2584],[7.652561008283186,45.828836265285666,2593],[7.652737149056735,45.828716103773836,2603],[7.652911007874202,45.828616265875525,2612],[7.6551410078478135,45.8291362656039,2622],[7.657301007983545,45.82926626609853,2631],[7.6578410082813075,45.82923626605358,2641],[7.659650007995125,45.82872826585541,2650],[7.660161008259232,45.82870626516339,2660],[7.660201008021412,45.82883626615214,2669],[7.661271008697834,45.828686265266526,2679],[7.661771007680771,45.82848626535288,2688],[7.663291007663944,45.82855626530747,2698]]}}]}