{"type":"FeatureCollection","features":[{"type":"Feature","properties":{"slug":"16-s2","sct_code":"16_S2","source":"Catasto Sentieri VdA"},"geometry":{"type":"LineString","coordinates":[[7.620927158156545,45.83850922022123,1812],[7.621785257438778,45.83874620601229,1818],[7.62201000843737,45.83880827468809,1825],[7.622160008110633,45.83911827499932,1831],[7.622440789204862,45.839231967932186,1838],[7.6231883072556395,45.83945869660705,1844],[7.623379573988904,45.839535254667275,1851],[7.623556913981412,45.839654396428344,1857],[7.62380589086739,45.83987115498919,1864],[7.623853389144361,45.8399032284876,1870],[7.624217505265944,45.840020118727445,1877],[7.624772835029757,45.84008530744476,1883],[7.624888750440478,45.8400844526442,1890],[7.625460112900661,45.840021575562176,1896],[7.625703819753972,45.84006050902863,1903],[7.62594974843442,45.840139970413105,1909],[7.626116437504701,45.840168976268274,1916],[7.627223602007806,45.840180035479996,1922],[7.627303839243692,45.84018999998168,1929],[7.6276165817424015,45.84030176188961,1935],[7.628105121791915,45.84030077848091,1942],[7.628231784158852,45.840288899669574,1948],[7.628337033243796,45.8402988064543,1955],[7.628562610852997,45.840319872700114,1961],[7.628839765676234,45.840306033042744,1968],[7.629150395274581,45.84024367372391,1974],[7.62949082208448,45.84027700935559,1981],[7.630111577311773,45.840300205145425,1987],[7.630476631154619,45.84024832952078,1994],[7.630985002166329,45.8401284172799,2000],[7.631230423831903,45.840097606547566,2007],[7.631831040779083,45.84015430313866,2013],[7.632064601709293,45.840213352376374,2020],[7.632497642850231,45.840273855757,2026],[7.632617615824768,45.840263657884016,2033],[7.632760008081637,45.84022827601978,2039],[7.632857541515894,45.840353529676705,2046],[7.634753971732545,45.84161680525158,2052],[7.635317202223454,45.841904883729036,2058],[7.635524346748464,45.84209755392797,2065],[7.635603708416023,45.842143503644095,2071],[7.635741002655043,45.84219014512789,2078],[7.636145760157534,45.84222647918925,2084],[7.63623532765824,45.84225004935999,2091],[7.636552778358511,45.842433845956045,2097],[7.636938039327945,45.8426094503595,2104],[7.637206305481869,45.84269815433751,2110],[7.637470035866184,45.842840805844276,2117],[7.63767572446465,45.8429872648116,2123],[7.637882622074385,45.84308423575335,2130],[7.638073976745634,45.8431585200906,2136],[7.638368544520316,45.84322503393231,2143],[7.638640034500354,45.843313772953444,2149],[7.63879287822324,45.84338309698335,2156],[7.639240220161884,45.8436539371883,2162],[7.639656696775003,45.843870405862006,2169],[7.640638292048449,45.84401709540888,2175],[7.641269462650665,45.84401110321879,2182],[7.641805980336293,45.844057984542786,2188],[7.642060139075626,45.844065506008675,2195],[7.642662780700286,45.844041166264184,2201],[7.643054463525182,45.84408632084982,2208],[7.643241141644878,45.84408853797599,2214],[7.643354448492551,45.84406288242166,2221],[7.64369327495461,45.8440309039632,2227],[7.643917325307407,45.84395256029699,2234],[7.644437265604472,45.84388672781348,2240],[7.644561156098627,45.843822945052295,2247],[7.645161008589203,45.843016277996036,2253],[7.645011008137501,45.841046276903505,2260],[7.645911007721751,45.840656276133615,2266],[7.648681008634777,45.84086627634778,2273],[7.650331007655835,45.84142627720472,2279],[7.652561008381046,45.84241627780723,2286],[7.653721007642914,45.84400627879004,2292],[7.6553710075085295,45.84466627978658,2298],[7.657711008653912,45.84404627957426,2305],[7.657911007655038,45.84425627951082,2311],[7.659841008310681,45.84417627936606,2318],[7.661811007934963,45.843146278518354,2324],[7.665271008253621,45.843146278631615,2331],[7.66711100835736,45.84350627897827,2337],[7.6680510076596775,45.84451627958776,2344],[7.667841007643033,45.84522628054972,2350],[7.668481008493492,45.84586628109888,2357],[7.66821100839266,45.84614628104034,2363],[7.668931008040549,45.84739628249207,2370],[7.670051007678055,45.84754628189336,2376],[7.670331007525373,45.84797628257792,2383],[7.67132100812309,45.8480562825382,2389],[7.67187100858055,45.8485562828892,2396],[7.671251008292284,45.849686283883834,2402],[7.671901008281839,45.85020528476924,2409],[7.671811801362286,45.851894874471796,2415],[7.672481008387479,45.85252528646083,2422],[7.67263100761711,45.85327528752592,2428],[7.673227020620203,45.853704727045304,2435],[7.673418817890512,45.853698898949595,2441],[7.673587513596769,45.853639798326476,2448],[7.673745811077674,45.853609395885115,2454],[7.673974806737857,45.85352329428001,2461],[7.674250938304544,45.85349089620639,2467],[7.674409034771653,45.8534266950749,2474],[7.674520831518031,45.85336049491103,2480],[7.67469592908179,45.853346392201644,2487],[7.674850026360636,45.85329619092306,2493],[7.675207520083805,45.85322578698549,2500],[7.675371217321374,45.85317808591746,2506],[7.675420016358992,45.85314228576413,2513],[7.675493112761507,45.853025587663,2519],[7.675777205851058,45.85283258672577,2526],[7.676106300628989,45.85277328305278,2532],[7.676279697855364,45.8527576812531,2538],[7.6765964937310525,45.85276597575385,2545],[7.67674259199556,45.85274367397113,2551],[7.676874289660332,45.85268137324403,2558],[7.67698448518115,45.852561174275756,2564],[7.677172181718396,45.85249817252215,2571],[7.677266080748257,45.85250377159072,2577],[7.677594975243727,45.85244336776477,2584],[7.678077969912528,45.852448259874784,2590],[7.678284765574336,45.85242435702664,2597],[7.678473064006265,45.852430254234555,2603],[7.6787033618487195,45.852477849511295,2610],[7.678862260576422,45.85252834574149,2616],[7.6790329601574525,45.85263014072679,2623],[7.6794021576052485,45.85278003201258,2629],[7.679525657834121,45.852882727018745,2636],[7.679659357604693,45.852926024007346,2642],[7.679687657714045,45.85295122355095,2649],[7.679816156288773,45.85298322060162,2655],[7.679976555767668,45.853075016352165,2662],[7.679979357166279,45.853182413969336,2668],[7.67999905863103,45.853228412011376,2675],[7.680148358827443,45.85335630660793,2681],[7.680140959460586,45.85341530576152,2688],[7.680191061181809,45.85350180285564,2694],[7.680379260259551,45.853604897809326,2701],[7.680325462522114,45.85370309670299,2707],[7.680396263014592,45.85377899366577,2714],[7.680404463736251,45.853814393180755,2720],[7.680473262817092,45.85386459076429,2727],[7.680526363602503,45.85393868835237,2733],[7.680645067985653,45.8542196804646,2740],[7.6807735692474415,45.85438607425176,2746],[7.680806069095016,45.85445857206557,2753],[7.680864970220144,45.85451586980025,2759],[7.6810490696178855,45.854624164399844,2766],[7.681288367645283,45.854684959258634,2772]]}}]}