{"type":"FeatureCollection","features":[{"type":"Feature","properties":{"slug":"17-s16","sct_code":"17_S16","source":"Catasto Sentieri VdA"},"geometry":{"type":"LineString","coordinates":[[7.624334154501758,45.68584301915272,1231],[7.624329007549109,45.68598015078027,1237],[7.6241290083936315,45.6863701505379,1243],[7.623789007561338,45.686580150348355,1248],[7.623659007884844,45.686810150800646,1254],[7.623759007985126,45.68696015107521,1260],[7.623719007881109,45.687000151168576,1266],[7.623719007887214,45.687120150893996,1271],[7.623589008227886,45.687220150949244,1277],[7.623229007842181,45.687260151183196,1283],[7.6231000083766105,45.68740815128259,1289],[7.623010008186186,45.687548151805125,1294],[7.623209008537791,45.68772015176014,1300],[7.623649007941019,45.68772015120236,1306],[7.623979008527017,45.688120152010576,1312],[7.624229008611593,45.68820015187653,1317],[7.624949008597197,45.688570151834895,1323],[7.625899007902705,45.68875015279687,1329],[7.626339008404969,45.688990152955796,1335],[7.626979008155531,45.6894501524733,1340],[7.627079007814712,45.68943015262592,1346],[7.627069008100822,45.689290153121256,1352],[7.627299008521768,45.68936015280117,1358],[7.627579007591022,45.68950015283119,1364],[7.627839007622265,45.68979015273033,1369],[7.6282190084910875,45.68992015297773,1375],[7.628429008749191,45.69014015367201,1381],[7.628629008663441,45.69021015314771,1387],[7.6287290087625035,45.69023015324847,1392],[7.629009008622391,45.69046015399679,1398],[7.629049008321037,45.69058015400371,1404],[7.629279007521541,45.6906901537443,1410],[7.629259007768405,45.69072015397103,1415],[7.629259008318024,45.69099015407589,1421],[7.629399007957826,45.69123015378991,1427],[7.629619008182036,45.69145015432458,1433],[7.629989008348842,45.691910154535016,1438],[7.629958006932735,45.69197240078918,1444],[7.6300777355847815,45.69212760034526,1450],[7.630148990816905,45.692155361291846,1456],[7.630309525494288,45.692098367551054,1461],[7.630496039789885,45.69195584453157,1467],[7.630579590566613,45.69192017057663,1473],[7.630712055454987,45.69193395529796,1479],[7.6308124933714945,45.692006265810306,1484],[7.631309007964346,45.69202015481673,1490],[7.631369008216951,45.69199015469048,1496],[7.63137900766985,45.69175015465126,1502],[7.631489007871987,45.691690154188606,1508],[7.6315949779282235,45.691689537213676,1513],[7.6316504365106,45.69172240213712,1519],[7.631537730774475,45.69192175365869,1525],[7.631474177694581,45.69215289454923,1531],[7.631478373106799,45.692295642143556,1536],[7.631512094870941,45.69244229331666,1542],[7.6316831392333295,45.6927343282396,1548],[7.631655311555024,45.69278288254796,1554],[7.631559599807577,45.692846843591916,1559],[7.631097769795435,45.6930851334355,1565],[7.63109698657922,45.69311270368724,1571],[7.631751277422254,45.69330121287675,1577],[7.633164337860013,45.693851367262496,1582],[7.63422547153329,45.694169612216555,1588],[7.6343946894687,45.69428500961878,1594],[7.634471857322684,45.6943041826672,1600],[7.634873518000912,45.69434099787649,1605],[7.635112972395405,45.69444841120384,1611],[7.635810690529655,45.694538023283705,1617]]}}]}