{"type":"FeatureCollection","features":[{"type":"Feature","properties":{"slug":"17-s8","sct_code":"17_S8","source":"Catasto Sentieri VdA"},"geometry":{"type":"LineString","coordinates":[[7.587295008384437,45.67302814101248,1286],[7.58702300829103,45.673333140980326,1288],[7.5868300076073405,45.673948141811714,1290],[7.586749008322586,45.67426114199742,1291],[7.58692900753689,45.67446114162351,1293],[7.586929007559311,45.674611141643496,1295],[7.58710900809087,45.67464114247302,1297],[7.587049007559113,45.67475114223624,1299],[7.587209008816498,45.67485114183433,1300],[7.587439008611647,45.67482114221173,1302],[7.587484831441055,45.67500529204404,1304],[7.587566345691696,45.675141608324054,1306],[7.587635163285843,45.675191340798214,1308],[7.587764948735842,45.67522533699152,1309],[7.588103322579846,45.675249631111434,1311],[7.588296343753615,45.67528932267805,1313],[7.5884364329251195,45.67534804777451,1315],[7.588673195384455,45.67550407595101,1317],[7.5887443590801045,45.67553092113824,1318],[7.5887648554782166,45.67552991248725,1320],[7.588771388858526,45.67551287761048,1322],[7.588787870970408,45.67538100510633,1324],[7.588887834940879,45.675242555733526,1326],[7.58892829745884,45.675057119684595,1327],[7.588961171075178,45.67500134205583,1329],[7.589002739901627,45.674988038697144,1331],[7.589049375433691,45.67499668474346,1333],[7.589172627982281,45.67507321122275,1335],[7.589228091649632,45.67508579960514,1337],[7.5892697841280885,45.675061394499195,1338],[7.589286278373459,45.67498252677624,1340],[7.5893212256997185,45.674956153612534,1342],[7.589463643573984,45.67495680714299,1344],[7.589577618868062,45.67498520295766,1346],[7.589630513783477,45.67504969486254,1347],[7.58962990596534,45.675271338673625,1349],[7.589717132573335,45.6754479873593,1351],[7.589695735391368,45.67564817439015,1353],[7.589637539985931,45.675748012669054,1355],[7.5894083318068715,45.67595915335178,1356],[7.589186351913386,45.67609821040683,1358],[7.589115647076743,45.67622766798238,1360],[7.589110085426372,45.67632868894291,1362],[7.589155739024774,45.67639003409402,1364],[7.589251863001949,45.67645104942255,1365],[7.589655841731809,45.67660249730488,1367],[7.589726332894476,45.676643867784136,1369],[7.589811371893699,45.67684466953273,1371],[7.5898853527810095,45.67694979213695,1373],[7.590360794140672,45.677386034589176,1374],[7.590472505154019,45.67773146391894,1376],[7.590550462353323,45.67783837586476,1378],[7.590658913164682,45.67790668589447,1380],[7.590808254117536,45.677954644047055,1382],[7.59092326883439,45.67796711931666,1383],[7.591202154224587,45.67796342366199,1385],[7.591396592905968,45.678018307902,1387],[7.59150933650408,45.67802264770991,1389],[7.591626062483531,45.677985152997934,1391],[7.592195593745556,45.6777141625841,1392],[7.592295022835382,45.677685750747344,1394],[7.592372944540996,45.677682756166405,1396],[7.592668786797193,45.67772496207498,1398],[7.592831126391598,45.677770118330926,1400],[7.592866476556346,45.677807782209825,1401],[7.59287421258178,45.67795866409397,1403],[7.592890534371278,45.678002670307265,1405],[7.592938624729886,45.678036277914636,1407],[7.5934320291897,45.67819208297101,1409],[7.5935686705962535,45.67827473514425,1410],[7.593696834911811,45.678470046212766,1412],[7.593720961192048,45.678589453917475,1414],[7.593721757965604,45.67877063279706,1416],[7.593744226759747,45.67881967840593,1418],[7.593788013075806,45.67885779417758,1420],[7.593896288364136,45.67889787839985,1421],[7.594365985751929,45.67893274768957,1423],[7.594472955470372,45.678972997110435,1425],[7.594569191145486,45.67904072467086,1427],[7.594633544564003,45.67911380048258,1429],[7.594716052120565,45.67927259833159,1430],[7.594852679936392,45.67944408313593,1432],[7.594913512376874,45.67965142186722,1434],[7.595013580184176,45.6797369913158,1436],[7.595255415521018,45.67982528621978,1438],[7.595623677431355,45.67985118927116,1439],[7.595838181897068,45.679972344797875,1441],[7.5959559420400025,45.68001756420285,1443],[7.596129978200145,45.68005286342992,1445],[7.596454835484655,45.680081061918905,1447],[7.597176697906888,45.6803182106498,1448],[7.597262715809964,45.68038048206506,1450],[7.59734220809609,45.680651097970326,1452],[7.597407284121713,45.68072424857462,1454],[7.597559042779037,45.68077315281968,1456],[7.598132847555792,45.680808838349044,1457],[7.598246765327864,45.68083427346432,1459],[7.598520418418717,45.68104137486104,1461],[7.598672185108128,45.68123468907523,1463],[7.59878230405829,45.68131244265689,1465],[7.598872716760164,45.68132616161102,1466],[7.598952317298585,45.6813157207185,1468],[7.5993324247400516,45.68111987290055,1470],[7.599449701024187,45.68108980876933,1472],[7.599578585011198,45.68108804977389,1474],[7.600863076999981,45.681299334734476,1475],[7.602066532843473,45.681574041730855,1477],[7.60287294374808,45.68167829767642,1479],[7.603149468327043,45.68175746846112,1481],[7.6036096824172645,45.68193133238876,1483],[7.60368045424888,45.68193036142826,1484],[7.603771828982303,45.68189579724062,1486],[7.604089290337846,45.681688020567286,1488],[7.604259656394278,45.681669219218485,1490],[7.6049063143690825,45.68169036263124,1492],[7.605512776300333,45.681753564786646,1493],[7.605699316574379,45.681784368547056,1495],[7.6060056490056605,45.681888460751686,1497],[7.606171498971118,45.68191655046321,1499],[7.606316762709141,45.68194277944566,1501],[7.6064840206844995,45.68200291728338,1502],[7.60659445249431,45.682054033401336,1504],[7.606655786980733,45.68210874120416,1506],[7.606644541007777,45.682157096652226,1508],[7.6064310749183175,45.6824140370199,1510],[7.6063981382981485,45.68247938469107,1512],[7.606397022759681,45.68259173479176,1513],[7.606429319432161,45.68263138051935,1515],[7.6064833399181175,45.682656053221585,1517],[7.60669412165425,45.68267664376915,1519],[7.6077029669213125,45.682648712453116,1521],[7.607912279375871,45.6826597025853,1522],[7.608194762802786,45.682748026177734,1524],[7.609158481555515,45.683174324299216,1526],[7.609515435614894,45.68328035012569,1528],[7.609680895805822,45.6833022249604,1530],[7.6102227357717265,45.68331450545339,1531],[7.610960506244331,45.68339291124493,1533],[7.611085257901041,45.683386320480864,1535],[7.611278291699369,45.68333969246786,1537],[7.611312393765197,45.68337259569414,1539],[7.611342352706511,45.68347210170187,1540],[7.611387884326073,45.683508968218256,1542],[7.61147753185564,45.683524400499216,1544],[7.611657601621413,45.68351689834071,1546],[7.611765517622478,45.68354388421382,1548],[7.611801085810607,45.68359332484136,1549],[7.611853955204386,45.683744139934575,1551],[7.611974669944346,45.68378298824891,1553]]}}]}