{"type":"FeatureCollection","features":[{"type":"Feature","properties":{"slug":"18-s49","sct_code":"18_S49","source":"Catasto Sentieri VdA"},"geometry":{"type":"LineString","coordinates":[[7.622213008753806,45.61429810001579,1451],[7.622187008530744,45.61425210053213,1454],[7.6221370076770185,45.6142420997079,1457],[7.622061007758596,45.61418810022247,1459],[7.622007008815987,45.61421209992386,1462],[7.62185700773334,45.61418209986667,1465],[7.621807008583011,45.614072100038925,1468],[7.621827007546575,45.61390209996448,1470],[7.621787008380111,45.61383210026855,1473],[7.6216970087238245,45.61380209943678,1476],[7.621657008379014,45.61375210017703,1479],[7.621597007974804,45.613592099371964,1482],[7.6215370080749585,45.61357209932308,1484],[7.621437008094203,45.61365209958983,1487],[7.621177007556265,45.61368210002742,1490],[7.621097008408207,45.613642099938225,1493],[7.620937007869181,45.613632099955915,1496],[7.620847008696882,45.61355209946404,1498],[7.620642008153589,45.613487099541324,1501],[7.620227007597696,45.613472099790464,1504],[7.620047007560274,45.61344209948081,1507],[7.619427008125335,45.61346209977409,1509],[7.619177007598486,45.61343209982553,1512],[7.618707008558596,45.613162098999275,1515],[7.618607008170688,45.61302209939285,1518],[7.618287008568336,45.612812099634596,1521],[7.618117008245099,45.612752099034985,1523],[7.617977008717966,45.61265209926209,1526],[7.617847007829706,45.61250209889625,1529],[7.617757008181846,45.612442099147415,1532],[7.617687008762999,45.612472099271976,1534],[7.617637007970104,45.61254209938176,1537],[7.617467008549444,45.612602099033076,1540],[7.617217008217434,45.61261209939243,1543],[7.616927008530228,45.612602099490125,1546],[7.6166270075403855,45.612462099114445,1548],[7.6163670086432305,45.612402098513094,1551],[7.616267007920601,45.61241209925281,1554],[7.615997007715244,45.612362098853616,1557],[7.615827008411862,45.6122920986492,1559],[7.615657008202141,45.61214209886632,1562],[7.615567008222394,45.61212209838955,1565],[7.615567008715131,45.61224209871575,1568],[7.615487008425795,45.612242098376306,1571],[7.615417008036322,45.61227209889898,1573],[7.615447008122801,45.612382098554406,1576],[7.615317007916328,45.61233209872158,1579],[7.61524700834219,45.6123320988452,1582],[7.615257007547649,45.61243209927795,1585],[7.6151870081042725,45.61246209877023,1587],[7.6149370077365415,45.612402099128076,1590],[7.6150170087505895,45.61276209899994,1593],[7.615147008226899,45.61297209957035,1596],[7.615127008254231,45.613072098996795,1598],[7.615147008356888,45.61317209917685,1601],[7.615028008208326,45.61317209908454,1604],[7.615008007570014,45.613192099178995,1607],[7.6150780075446765,45.6133020997059,1610],[7.615008008196925,45.613332099085845,1612],[7.614398008360969,45.61328209931814,1615],[7.6141780088110025,45.61329209963963,1618],[7.614158008360913,45.61326209968737,1621],[7.613968008088122,45.61327209906435,1623],[7.613928008686337,45.61330209910086,1626],[7.613988008620185,45.61338209925011,1629],[7.613968008391911,45.61343209946622,1632],[7.61414800769882,45.61358209974673,1635],[7.61415800844886,45.61361209987893,1637],[7.61408800840742,45.613732099579245,1640],[7.613828007685417,45.61382210007723,1643],[7.613818008633189,45.61385209963239,1646],[7.613698008266494,45.61390210031188,1648],[7.6133880080487675,45.613942099684,1651],[7.613238007983732,45.614022099600824,1654],[7.613068007628551,45.61406210028366,1657],[7.612598007881567,45.61410209958919,1660],[7.6123580084519284,45.61409209958479,1662],[7.612078008586485,45.614022100258744,1665],[7.611958008002722,45.613962099517835,1668],[7.611828008789483,45.61393209983634,1671],[7.611698008259109,45.61388209949218,1674],[7.611548008234466,45.61392209979483,1676],[7.611495008207957,45.614096100055036,1679],[7.611548008695317,45.61418209997274,1682],[7.611748007944469,45.614302100227654,1685],[7.611808008735934,45.614472100605234,1687],[7.611848008793132,45.61449210031531,1690],[7.611868008394964,45.614572100546646,1693],[7.611838007608513,45.614662100440675,1696],[7.611878008020862,45.614752100528534,1699],[7.611828007633435,45.61483210057514,1701],[7.611768008021868,45.615322101258656,1704],[7.611598008236607,45.61542210123382,1707],[7.611558007928159,45.615552101085115,1710],[7.611598007647211,45.61561210096027,1712],[7.611648008587435,45.615632100794905,1715],[7.611968007533674,45.6156521013316,1718],[7.612248008459668,45.6157321007137,1721],[7.612348007688744,45.615702101185825,1724],[7.6123880088068105,45.61572210071503,1726],[7.61238800791097,45.6157721014845,1729],[7.612428008672958,45.61580210079106,1732],[7.612428008673085,45.615862101366616,1735],[7.612528008118074,45.615862101071926,1737],[7.612558008461329,45.61593210134323,1740],[7.61251800817296,45.61601210164139,1743],[7.612568007686347,45.61621210187182,1746],[7.612548008122751,45.61625210112972,1749],[7.61260800864425,45.61631210148152,1751],[7.612598008101336,45.6165121019136,1754],[7.612568007703065,45.6165621018966,1757],[7.612618008137496,45.61672210202024,1760],[7.612608008556261,45.61683210160371,1763],[7.6126480083105355,45.616942101868396,1765],[7.612688007969084,45.6169921015522,1768],[7.612578008739242,45.61702210231066,1771],[7.612598008444713,45.617082101893274,1774],[7.6125880080960355,45.61711210220948,1776],[7.612598007729087,45.61713210175357,1779],[7.612718008001548,45.61719210178305,1782],[7.612738007890913,45.61725210224167,1785],[7.612848008314906,45.61734210246647,1788],[7.612768007895612,45.61739210189065,1790],[7.612898008555329,45.61753410268169,1793],[7.612908007795578,45.617622102584626,1796],[7.612968008518518,45.617692102528,1799],[7.612888008737249,45.617712102663134,1801],[7.612698008316093,45.61766210206806,1804],[7.612578008528174,45.617692102864815,1807],[7.61255800810532,45.61780210245344,1810],[7.612488008577104,45.617822102274744,1813],[7.612448008079323,45.61787210224396,1815],[7.612278008445902,45.617992102779155,1818],[7.612468008755782,45.618092103029724,1821],[7.612538007891132,45.618152102453685,1824],[7.612648008347288,45.61821210258165,1826],[7.612688008476129,45.61827210295216,1829],[7.612568008358824,45.61837210317428,1832],[7.612388008163439,45.61843210334411,1835],[7.612218008057084,45.61844210336716,1838],[7.612058007829236,45.61849210321015,1840],[7.611828008402331,45.61848210301531,1843],[7.611718007807219,45.61852210271432,1846],[7.611728007664124,45.61858210329864,1849],[7.611838007553274,45.618652103087065,1852],[7.6118780076651555,45.61870210304578,1854],[7.611838007805107,45.618742103011186,1857],[7.61184800824549,45.618842102753845,1860],[7.6118080082402155,45.61888210360619,1863],[7.6118680077481145,45.61890210334398,1865],[7.611781008722594,45.6191411030584,1868],[7.611882008484932,45.61921410315389,1871],[7.611879008583518,45.61935810327778,1874],[7.611928007905243,45.61943010321204,1877],[7.611657699281145,45.61944345928202,1879],[7.611367707909416,45.619593458227804,1882],[7.611157713421937,45.619603460061064,1885],[7.611097714693166,45.61958346086208,1888],[7.610707722550583,45.61959346460267,1890],[7.610587727878259,45.619723463059955,1893],[7.610727728537055,45.61988345702358,1896],[7.610607731149775,45.619923457359924,1899],[7.610526290995439,45.61989568234397,1902],[7.610427008042888,45.61995210425876,1904],[7.610348008364301,45.62005210408857,1907],[7.610458007604377,45.62011210359195,1910],[7.6105260080873744,45.620097103998795,1913],[7.610525007881993,45.62016910381268,1915],[7.610472008741756,45.620205104548944,1918],[7.610522008758546,45.62027710375005,1921],[7.610624008643922,45.6202791042106,1924],[7.610743314575483,45.6204706783111,1927],[7.610795669424055,45.62054940615942,1929],[7.610630585959507,45.62050954388329,1932],[7.6103387871704005,45.62049865032702,1935],[7.609613823195283,45.62051403226012,1938],[7.60902921861316,45.620502277133355,1941],[7.608680874906747,45.6205113365358,1943],[7.608464300722882,45.620537907279285,1946],[7.608218292165153,45.62059751788097,1949],[7.608086602909971,45.620598679043844,1952],[7.608011651881146,45.620601955458866,1954],[7.607875519989265,45.620628122010814,1957],[7.607790677271594,45.620651435706186,1960],[7.607719837569914,45.62069412484595,1963],[7.607674101032482,45.620737646496174,1966],[7.607573911599414,45.620962925281,1968],[7.607533703954818,45.62101382105134,1971],[7.607201289501633,45.621391375541734,1974],[7.607059297781894,45.6215232711891,1977],[7.607105995978903,45.621555940812954,1979],[7.607412994564553,45.621667843982074,1982],[7.607630423248356,45.621751917854894,1985]]}}]}