{"type":"FeatureCollection","features":[{"type":"Feature","properties":{"slug":"18-s21","sct_code":"18_S21","source":"Catasto Sentieri VdA"},"geometry":{"type":"LineString","coordinates":[[7.606681581861338,45.629066690369065,1778],[7.6069680087384715,45.62912710985846,1783],[7.606965008288181,45.62923511042997,1787],[7.606808007558623,45.62922211024653,1792],[7.606868008683366,45.62930211033787,1796],[7.606758008431104,45.62936211015144,1801],[7.606848007789176,45.62941211051706,1805],[7.606888008149072,45.62947211011026,1810],[7.606918008179303,45.62969211010627,1815],[7.607028008726238,45.629722110806796,1819],[7.607358008577082,45.62956211071271,1824],[7.607626008452491,45.62949511052659,1828],[7.6075680085617075,45.62960211030072,1833],[7.607398008524753,45.62973211032867,1837],[7.607288008673384,45.62995211062418,1842],[7.607308008214955,45.63035211137383,1847],[7.607358007691391,45.63050211095372,1851],[7.607240008220218,45.630571110690035,1856],[7.607078008362714,45.63052211104934,1860],[7.60702800759484,45.630572111275086,1865],[7.60704800857549,45.63062211103968,1869],[7.6069680085169775,45.630652111262926,1874],[7.606938008083534,45.630772111657926,1879],[7.606778008644813,45.63089211143053,1883],[7.606958007633283,45.63097211159164,1888],[7.606828008627881,45.631032111464485,1892],[7.606968008564712,45.631082111339985,1897],[7.607118007559571,45.6312321118817,1901],[7.607119008519927,45.63128911198138,1906],[7.607067008794614,45.631325111563925,1911],[7.606918008624774,45.631532111354595,1915],[7.606908008063879,45.63167211217533,1920],[7.60679800784945,45.63169211202602,1924],[7.606758007930493,45.63178211168202,1929],[7.606808007759537,45.63196211168105,1933],[7.606698008809803,45.63201211165931,1938],[7.606678008004964,45.63211211199172,1943],[7.606738008082303,45.63219211209897,1947],[7.606718008559347,45.63229211245106,1952],[7.60678800794771,45.632382112763985,1956],[7.606718008750056,45.63245211235867,1961],[7.606828007730875,45.632502112754196,1965],[7.606968007846107,45.63246211199831,1970],[7.607058008469625,45.63266211231613,1975],[7.60722800838584,45.632692112749396,1979],[7.607208008273229,45.632792112271446,1984],[7.607338008341511,45.63295211229606,1988],[7.607338008772446,45.633022112477406,1993],[7.607268008687898,45.633052112419605,1997],[7.607418008596224,45.63319211275889,2002],[7.607338008770268,45.63323211300078,2007],[7.607368008141228,45.633362113026195,2011],[7.607228007642501,45.633382112928075,2016],[7.607248008341451,45.633532113002424,2020],[7.607368008530816,45.63376211361333,2025],[7.6073630086934365,45.63388511368613,2029],[7.607412008037258,45.63395711358239,2034]]}}]}