{"type":"FeatureCollection","features":[{"type":"Feature","properties":{"slug":"18-s23","sct_code":"18_S23","source":"Catasto Sentieri VdA"},"geometry":{"type":"LineString","coordinates":[[7.606681581861338,45.629066690369065,1778],[7.6069680087384715,45.62912710985846,1782],[7.606965008288181,45.62923511042997,1785],[7.606808007558623,45.62922211024653,1789],[7.606868008683366,45.62930211033787,1792],[7.606758008431104,45.62936211015144,1796],[7.606848007789176,45.62941211051706,1800],[7.606888008149072,45.62947211011026,1803],[7.606918008179303,45.62969211010627,1807],[7.607028008726238,45.629722110806796,1810],[7.607358008577082,45.62956211071271,1814],[7.607626008452491,45.62949511052659,1818],[7.6075680085617075,45.62960211030072,1821],[7.607398008524753,45.62973211032867,1825],[7.607288008673384,45.62995211062418,1828],[7.607308008214955,45.63035211137383,1832],[7.607358007691391,45.63050211095372,1836],[7.607240008220218,45.630571110690035,1839],[7.607078008362714,45.63052211104934,1843],[7.60702800759484,45.630572111275086,1846],[7.60704800857549,45.63062211103968,1850],[7.6069680085169775,45.630652111262926,1854],[7.606938008083534,45.630772111657926,1857],[7.606778008644813,45.63089211143053,1861],[7.606958007633283,45.63097211159164,1864],[7.606828008627881,45.631032111464485,1868],[7.606968008564712,45.631082111339985,1872],[7.607118007559571,45.6312321118817,1875],[7.607119008519927,45.63128911198138,1879],[7.607067008794614,45.631325111563925,1882],[7.606918008624774,45.631532111354595,1886],[7.606908008063879,45.63167211217533,1890],[7.60679800784945,45.63169211202602,1893],[7.606758007930493,45.63178211168202,1897],[7.606808007759537,45.63196211168105,1900],[7.606698008809803,45.63201211165931,1904],[7.606678008004964,45.63211211199172,1908],[7.606738008082303,45.63219211209897,1911],[7.606718008559347,45.63229211245106,1915],[7.60678800794771,45.632382112763985,1918],[7.606718008750056,45.63245211235867,1922],[7.606828007730875,45.632502112754196,1926],[7.606968007846107,45.63246211199831,1929],[7.607058008469625,45.63266211231613,1933],[7.60722800838584,45.632692112749396,1937],[7.607208008273229,45.632792112271446,1940],[7.607338008341511,45.63295211229606,1944],[7.607338008772446,45.633022112477406,1947],[7.607268008687898,45.633052112419605,1951],[7.607418008596224,45.63319211275889,1955],[7.607338008770268,45.63323211300078,1958],[7.607368008141228,45.633362113026195,1962],[7.607228007642501,45.633382112928075,1965],[7.607248008341451,45.633532113002424,1969],[7.607368008530816,45.63376211361333,1973],[7.6073630086934365,45.63388511368613,1976],[7.607412008037258,45.63395711358239,1980],[7.607308008094238,45.63402811387846,1983],[7.606918008264031,45.634112113677176,1987],[7.606738007789409,45.63422211353876,1991],[7.6061730083572545,45.634266113682884,1994],[7.6059660080917135,45.63433611410278,1998],[7.605868008803274,45.634422113964526,2001],[7.605888008615901,45.63454211404549,2005],[7.605988007910607,45.63475211363346,2009],[7.606188007934917,45.635002113842305,2012],[7.6063280087846845,45.6350721140056,2016],[7.606318008062871,45.63600211492995,2019],[7.606268007610059,45.63630211515515,2023],[7.605948008394931,45.63689211575924,2027],[7.605808007970037,45.63690211505224,2030],[7.605695007524806,45.636997115921474,2034],[7.605508008172672,45.63711211554725,2037],[7.605298007854498,45.63752211587764,2041],[7.605208008259976,45.63760211574907,2045],[7.604938008756454,45.63772111602381,2048],[7.604608008330278,45.63809111648841,2052],[7.604498008746636,45.63817111627504,2055],[7.60423800785948,45.638211116535494,2059],[7.60404800774156,45.63839111602029,2063],[7.6035980087769435,45.6386211164699,2066],[7.60356800780841,45.63868111636731,2070],[7.603238008698295,45.63869111702565,2073],[7.6028780086810785,45.63875111668787,2077],[7.602628007967392,45.63891111659692,2081],[7.602438008619072,45.6389711171936,2084],[7.602358008203108,45.639051116540685,2088],[7.602228007567017,45.63907111655463,2091],[7.602128007596872,45.63918111688438,2095],[7.601998008786924,45.639391117461855,2099],[7.601608007751948,45.639681117464775,2102],[7.601298008108248,45.63980111708295,2106],[7.601118007646668,45.639921117653735,2109],[7.601018007761971,45.63995111714269,2113],[7.601008008383422,45.63991111714872,2117],[7.600838007782835,45.63996111724873,2120],[7.600558008493369,45.64021111735815,2124],[7.600518007725301,45.64028111788616,2127],[7.600448007592049,45.640321117873704,2131],[7.600438008310298,45.640306118124656,2135],[7.600328007643094,45.640361118065684,2138],[7.600228008363207,45.640351117842805,2142],[7.600188008660673,45.640401117854104,2145],[7.600208008255044,45.64044111806366,2149],[7.599908008269021,45.64064111838449,2153],[7.5997480083317015,45.640841117872455,2156],[7.599578007625109,45.64089111788956,2160],[7.599318008767961,45.640881118083755,2163],[7.599108008146356,45.640931118308956,2167],[7.598998007969772,45.64090111814753,2171],[7.598738008434511,45.64094111849119,2174],[7.598588008161625,45.64102111864901,2178],[7.598448007659479,45.641031117915986,2181],[7.598288007795692,45.64115111820722,2185],[7.598268008121563,45.641241118083386,2189],[7.598158008599142,45.64132111892922,2192],[7.59800800840077,45.64134111889195,2196],[7.597834008346376,45.64143711829608,2199],[7.597833008790151,45.64150911866132,2203],[7.598188007620303,45.64180111890666,2207],[7.598318008782009,45.64217111930881,2210],[7.598368008541776,45.642231119361526,2214],[7.598348008252884,45.64230111882139,2217],[7.598358008212491,45.64235111879378,2221],[7.598538008729353,45.642511119308274,2225],[7.598648007961526,45.64269111978509,2228],[7.598688007873162,45.64280111907651,2232],[7.598558008424007,45.643031119619394,2236],[7.59859800878348,45.64316111934568,2239],[7.598978007858459,45.643561120474175,2243],[7.599438008118825,45.64377112047318,2246],[7.600028007739604,45.6441811202511,2250],[7.600088007733424,45.64429112024056,2254],[7.600238008451309,45.64437112045718,2257],[7.600638008138545,45.64448112082598,2261],[7.600939007868556,45.64453512099264,2264],[7.600988008134937,45.644644120802354,2268],[7.6010870078311275,45.6447891209211,2272],[7.601448008628333,45.6447111207494,2275],[7.601748008062849,45.64469112098981,2279],[7.601968008488444,45.64460112052445,2282],[7.602118008490258,45.64452112046798,2286],[7.602498008567111,45.64437112088184,2290],[7.602798008143529,45.64430112051682,2293],[7.6031480083077545,45.644391120205306,2297],[7.603658008396744,45.644371120944534,2300],[7.604238007920076,45.644261120206586,2304],[7.6044080075271605,45.64424112061199,2308],[7.6044280085357965,45.64421112092442,2311],[7.604748008337823,45.644211120432686,2315],[7.605178008690551,45.64406112054552,2318],[7.6053280086216635,45.64394111996697,2322],[7.605458008139412,45.6438911198705,2326],[7.605758007580619,45.64394112042652,2329],[7.605888008433325,45.643941120407405,2333],[7.60597800785145,45.6440011201777,2336],[7.606128008748828,45.64404111995964,2340],[7.606408008494231,45.64404112080923,2344],[7.607048007991506,45.64413112087825,2347],[7.6072680083388144,45.644091120646046,2351],[7.607568007880625,45.6439411205502,2354],[7.607688008681899,45.64394111988191,2358],[7.607783008565713,45.64386312052982,2362],[7.608357007753754,45.6434741199996,2365],[7.609238008326207,45.64316011972982,2369],[7.610628008533186,45.64296111983275,2372],[7.6111890082213325,45.64311211978288,2376]]}}]}