{"type":"FeatureCollection","features":[{"type":"Feature","properties":{"slug":"18-s37","sct_code":"18_S37","source":"Catasto Sentieri VdA"},"geometry":{"type":"LineString","coordinates":[[7.5798361410984985,45.61714064964731,1450],[7.580019143944085,45.61692039932434,1452],[7.580140714871458,45.61686790547121,1453],[7.580289074001818,45.61683374770412,1455],[7.581080961118879,45.616933595297766,1457],[7.581229325655673,45.616930937086686,1458],[7.581439847542838,45.61687954854535,1460],[7.581548658205741,45.616871898297376,1462],[7.581764182933549,45.61692407863582,1463],[7.581788564365624,45.61691088030396,1465],[7.581786204018509,45.616861348851344,1467],[7.581596379643386,45.61679148628349,1468],[7.581660542894905,45.616774281646116,1470],[7.581839646885427,45.61677650561927,1472],[7.581877539401781,45.61676797358535,1473],[7.581887322871332,45.61674559506415,1475],[7.581863448920551,45.61672279684878,1477],[7.581767162772225,45.61669459734517,1478],[7.581456399392936,45.61666823815837,1480],[7.581229897843202,45.616669923390496,1482],[7.581143806665698,45.6166508543178,1483],[7.581009563315902,45.61658618157338,1485],[7.580822316688514,45.6165253504574,1487],[7.580683733293732,45.6165056287911,1489],[7.580589566993111,45.616472954276354,1490],[7.580413207506037,45.61645726137591,1492],[7.58038956137035,45.61642546496441,1494],[7.580390183281516,45.61638496766297,1495],[7.5804345250110625,45.616295511602445,1497],[7.580438003758431,45.61623705197052,1499],[7.580288124639281,45.61610917900995,1500],[7.580278766296882,45.6159875529845,1502],[7.580197678286555,45.61580203028727,1504],[7.5801839223823,45.61571185209917,1505],[7.579988628044637,45.61546190445871,1507],[7.579743111388112,45.61535984385458,1509],[7.579490226316873,45.61534319791686,1510],[7.579280609547045,45.615295585316346,1512],[7.578899772907208,45.61515583850806,1514],[7.578884311752079,45.61513314433619,1515],[7.578885562061227,45.615083654132455,1517],[7.578905537879763,45.61507040159618,1519],[7.579239931327423,45.61509706348031,1520],[7.579320744868812,45.61507106834919,1522],[7.579427940067182,45.61500039588679,1524],[7.579625119934716,45.614953342394834,1525],[7.579680411255161,45.61495402997597,1527],[7.5797566585111324,45.61498198207371,1529],[7.579775209199345,45.61500921490488,1530],[7.579831935418763,45.61503242025505,1532],[7.5800654759219075,45.61505332710768,1534],[7.580416082896516,45.61515219287162,1535],[7.580463590657718,45.61514378081181,1537],[7.580490487845518,45.61512611546077,1539],[7.580504847266514,45.615081290322856,1540],[7.5804904692637605,45.61503160767,1542],[7.5802168433455845,45.61491569764359,1544],[7.580142585750369,45.6148247673448,1545],[7.580020364226607,45.61472873853967,1547],[7.579915896077351,45.61469143862094,1549],[7.579669197459048,45.6146838707149,1550],[7.579652017577412,45.61463415130993,1552],[7.57974782982033,45.61461734131267,1554],[7.579944081676551,45.614543275365754,1556],[7.579997258896957,45.61454843686935,1557],[7.580166127952871,45.61462254199079,1559],[7.580227027041965,45.614623299018085,1561],[7.580348514252438,45.614542814344304,1562],[7.580383587697764,45.61449977680338,1564],[7.580415680548874,45.61430549009259,1566],[7.580461195825598,45.614260332126264,1567],[7.580582165234743,45.61419829044264,1569],[7.580758310943053,45.61417581737676,1571],[7.5809077901256225,45.61420377678873,1572],[7.5810504615630805,45.61425757350686,1574],[7.581184436408599,45.61427480909521,1576],[7.581444334018217,45.6143692146031,1577],[7.581513766185135,45.61437498231695,1579],[7.581756318004162,45.61433078560482,1581],[7.5818291976754635,45.61432953036916,1582],[7.582434066665802,45.614445587846724,1584],[7.58291544545551,45.614561010108034,1586],[7.583430723772166,45.61474111592408,1587],[7.583570343509394,45.61482457401429,1589],[7.58366542630319,45.614955183478244,1591],[7.5837398008717365,45.61500155936828,1592],[7.583903833285682,45.61502726511408,1594],[7.584289585404685,45.61512565464522,1596],[7.585005936715728,45.61533290742194,1597],[7.585770799847082,45.61552383502714,1599],[7.586025922026295,45.61555363579625,1601],[7.586372868530459,45.61552759796755,1602],[7.586779005642033,45.61561129018062,1604],[7.586852029809926,45.615655397148146,1606],[7.586900117236126,45.615752749826136,1607],[7.58735768298078,45.61601538047326,1609],[7.5878633423233355,45.616186346540616,1611],[7.58824620869393,45.61634409173463,1612],[7.588332458544019,45.61639790198232,1614],[7.589150301942025,45.616730097904444,1616],[7.589618639634096,45.61698074653422,1617],[7.589993898850321,45.61715072288727,1619],[7.590208191644714,45.61721331290132,1621],[7.590497198780073,45.617247662236615,1623],[7.590737376195544,45.617249815852304,1624],[7.590852732701254,45.617237558031285,1626],[7.590976538869718,45.617123516226705,1628],[7.591204643281563,45.61711606916975,1629],[7.5915087529237475,45.6171670735347,1631],[7.5917821480068355,45.617174404958945,1633],[7.591871871330104,45.61716138002924,1634],[7.591960110196978,45.61714104614901,1636],[7.592135651196564,45.617050682684514,1638],[7.592509812497547,45.61690606220163,1639],[7.592794783120906,45.61674288026303,1641],[7.592861754583067,45.6167215636011,1643],[7.592916139824487,45.616726553952425,1644],[7.592952760576882,45.61676233290521,1646],[7.592860615146404,45.61692604584053,1648],[7.592855001826511,45.617109411279706,1649],[7.592827964070653,45.61718018382879,1651],[7.592857750276465,45.61719949730336,1653],[7.592921915715034,45.61719808262314,1654],[7.592963340200701,45.617182841686,1656],[7.59315620190238,45.61699476223523,1658],[7.593350922302724,45.616845138403434,1659],[7.593432956251448,45.61680618549109,1661],[7.593503047465757,45.61680371836994,1663],[7.593625377905833,45.61685616876959,1664],[7.593679275135523,45.61689607552734,1666],[7.593720566351605,45.616957968811974,1668],[7.593703580448854,45.617016624357426,1669],[7.593595780762422,45.617075511811514,1671],[7.593563628770952,45.61711489906929,1673],[7.593903363801195,45.61736219130449,1674],[7.59413686692998,45.61762113601829,1676],[7.594177344888693,45.61768994967026,1678],[7.5942289756789165,45.61771281691494,1679],[7.594306290933005,45.61768307603947,1681],[7.594353887666813,45.61762614724417,1683],[7.594450181438017,45.617565767381365,1684],[7.594861258478908,45.61738604065818,1686],[7.594940300517273,45.6173538904025,1688],[7.59512913120892,45.61732696085575,1690],[7.595174950558064,45.61730520265126,1691],[7.595209622503416,45.61723677362376,1693],[7.5951512947670485,45.61706094729208,1695],[7.595187010075351,45.617027768904954,1696],[7.595256650496638,45.6170253851699,1698],[7.595586117790044,45.61719360983984,1700],[7.595659962194877,45.61721035906811,1701],[7.595831877039672,45.61721364278971,1703],[7.59653348759637,45.61712514842285,1705],[7.596849442960216,45.616994559665734,1706],[7.59704985017139,45.616976499852626,1708],[7.5976041060871315,45.61708267444907,1710],[7.5976647691452515,45.617134273318555,1711],[7.597748158569267,45.61726207220596,1713],[7.597892460785729,45.61693239237285,1715],[7.597759219959294,45.61679007546288,1716],[7.5977587351026,45.616724634303964,1718],[7.597802768738364,45.61669727267618,1720],[7.597892445530673,45.61669117299543,1721],[7.598229495546014,45.616763805516364,1723],[7.59838830529507,45.616840010365564,1725],[7.598467488039851,45.616910197533336,1726],[7.59858041386804,45.617201316202916,1728],[7.5986498666011375,45.61717300603481,1730],[7.598717828129625,45.617173659833206,1731],[7.598770824170806,45.61722930437899,1733],[7.598755501786316,45.61729347151547,1735],[7.598665672012373,45.61738804702737,1736],[7.598567613495604,45.61743193748314,1738],[7.598282304949668,45.61745480851217,1740],[7.598253380898439,45.6174831658218,1741],[7.598252900168761,45.617548775134146,1743],[7.598279789605065,45.61759176852455,1745],[7.598441195461319,45.61764109301203,1746],[7.598467375020963,45.617666256231466,1748],[7.598604237443282,45.61790789460833,1750],[7.598621109046852,45.61799005311834,1751],[7.598647261092159,45.61799316420753,1753],[7.598662119034586,45.61797854032679,1755],[7.598670499116926,45.61775029501736,1756],[7.598702181663038,45.61772962205406,1758],[7.5987349043038215,45.617731553635956,1760],[7.598815204140362,45.61778528294881,1762],[7.5988749081127285,45.617957839003594,1763],[7.599043841857943,45.61885332205549,1765],[7.5991133238998385,45.61907109145924,1767],[7.599155478815052,45.61917070633097,1768],[7.599413620094034,45.619572108582965,1770],[7.599441162334894,45.61955547997389,1772],[7.599440627233197,45.61953576185332,1773],[7.599403566032046,45.61947365251728,1775],[7.59937769862651,45.61936379664786,1777],[7.59935376209543,45.619099152195204,1778],[7.599366356961381,45.61897968717462,1780],[7.599382052123604,45.618910844174785,1782],[7.599478865640542,45.61874704826657,1783],[7.599531109267644,45.61871452123374,1785],[7.599565229280424,45.61871444455042,1787],[7.59960284638624,45.61874906347954,1788],[7.599650205755735,45.61906210387963,1790],[7.599781409164329,45.61929696587303,1792],[7.599807769634524,45.61929688399771,1793],[7.599810345964154,45.619280984320355,1795],[7.599778141031588,45.61917321101752,1797],[7.599781037861729,45.61910322098772,1798],[7.5998030474172,45.6190589372795,1800],[7.599850031110255,45.6190316110372,1802],[7.5999152075602865,45.619030879873314,1803],[7.599958935121819,45.61904676209618,1805],[7.600068766050659,45.61920503573984,1807],[7.600127899656523,45.61923838809187,1808],[7.600154304890894,45.61923650654275,1810],[7.60016132141158,45.619217421019776,1812],[7.600119935123465,45.619107465122255,1813],[7.600159784489488,45.619052419124685,1815],[7.600220523927903,45.61902382120483,1817],[7.600494860888369,45.61897308870545,1818],[7.600927071070882,45.618938600613824,1820],[7.601174346381171,45.61893415868575,1822],[7.601637810218613,45.61897358648676,1823],[7.6020648293075705,45.61894924634249,1825],[7.6022665097264985,45.618924037392475,1827],[7.602387784747464,45.6189626943732,1829],[7.60259911649535,45.6190730186516,1830],[7.602800506175247,45.61911373541923,1832],[7.603152361495657,45.619159172312884,1834],[7.603307494240225,45.61925485685927,1835],[7.603453366776007,45.619315415198855,1837],[7.60361348425479,45.61946867482301,1839],[7.603656194312135,45.619608257968395,1840],[7.603691319047001,45.619645230262286,1842],[7.604201266984231,45.61997746899657,1844],[7.604239652966439,45.61997091753298,1845],[7.604264853738276,45.6199322974141,1847],[7.60411735840404,45.61975097574653,1849],[7.604097300248047,45.61965991343185,1850],[7.604138335206893,45.61962414206445,1852],[7.604216311149201,45.619603853310146,1854],[7.604303807027537,45.61961860359336,1855],[7.6045373126933855,45.61972982527419,1857],[7.604699132418317,45.6198637526321,1859],[7.604810193507602,45.619861869064124,1860],[7.604862646859731,45.61983631771154,1862],[7.604931456294919,45.619841703539635,1864],[7.604963392885279,45.61985987001742,1865],[7.604994527150693,45.61993882648908,1867],[7.604958331138165,45.620110477989144,1869],[7.604961608367151,45.62021105595338,1870],[7.604973027154193,45.62022127621616,1872],[7.605018299597396,45.62021633872128,1874],[7.6050788647673295,45.62005250041811,1875],[7.605170293047386,45.6200406109544,1877],[7.605210953798589,45.62009232154183,1879],[7.605240095105832,45.620370619339774,1880],[7.605159572869386,45.6204780846755,1882],[7.605021030055317,45.62064929632498,1884],[7.605029066187711,45.620738961435315,1885],[7.605083650011053,45.62085519358026,1887],[7.6052534336839575,45.62100694878446,1889],[7.605272321287112,45.62104485999433,1890],[7.6052755360236945,45.62108291464508,1892],[7.605260837848075,45.62113250908428,1894],[7.6050562072534,45.62132009157829,1896],[7.604747091122459,45.62152558779065,1897],[7.604700852815106,45.62157421991862,1899],[7.604683015456232,45.6216107249038,1901],[7.604657697575131,45.62175444404406,1902],[7.604655893050766,45.621883163627054,1904],[7.6046867097470745,45.62200580931243,1906],[7.6047508970664515,45.62212697878922,1907],[7.604782352841523,45.622146685758274,1909],[7.604829167231287,45.62216889980764,1911],[7.605011476567955,45.62219083632255,1912],[7.605207116257177,45.622252741861914,1914],[7.605435661215718,45.622331746045475,1916],[7.605509948782847,45.622345134330985,1917],[7.605687693557427,45.62236211225088,1919],[7.605802049971844,45.622381742731335,1921],[7.605924637524974,45.62241338419766,1922],[7.606423568051079,45.62246043768034,1924],[7.606649238545021,45.62246628261627,1926],[7.606865384750731,45.62253085125828,1927],[7.606990327954544,45.622559399766345,1929]]}}]}