{"type":"FeatureCollection","features":[{"type":"Feature","properties":{"slug":"18-s51","sct_code":"18_S51","source":"Catasto Sentieri VdA"},"geometry":{"type":"LineString","coordinates":[[7.619579174473629,45.59673254608243,1200],[7.619507007758023,45.596772088988075,1203],[7.6194246547091575,45.59690743685203,1206],[7.61939700767541,45.59705208844992,1209],[7.618988859144287,45.59730007594785,1212],[7.618991473587877,45.59742292720345,1215],[7.619069550376388,45.597635196968575,1219],[7.61925700864275,45.59787208924904,1222],[7.619254154769893,45.59792126360853,1225],[7.6192243569452645,45.597948614867065,1228],[7.619074061627254,45.59788868542622,1231],[7.619031732971705,45.59792691463984,1234],[7.619057008781553,45.598032089694044,1237],[7.619247008522698,45.598282089880875,1240],[7.619381128942685,45.59849450495453,1243],[7.619477007547114,45.598662090287256,1246],[7.619597270730163,45.59887000374325,1249],[7.619659008627613,45.5991820900114,1252],[7.619687604388661,45.599374734617996,1256],[7.619630399554229,45.599456907692065,1259],[7.619614125676559,45.59955786852932,1262],[7.6196057677622955,45.59971111942431,1265],[7.61953700776037,45.59981209034924,1268],[7.619327873217353,45.59985304144144,1271],[7.619248602864303,45.59989728128749,1274],[7.619196154414577,45.59997305450653,1277],[7.6191470086306925,45.60007209043692,1280],[7.619287190768123,45.60019907001999,1283],[7.6192970086004,45.6003320909158,1286],[7.6193870080955595,45.600472090843795,1290],[7.619627007714161,45.60057209071118,1293],[7.6196070077773985,45.60074209166432,1296],[7.620307008615247,45.6010320917766,1299],[7.6204940179359335,45.60131186587598,1302],[7.620663800847639,45.60139032365172,1305],[7.620907008576291,45.60177209161818,1308],[7.620982101634842,45.601789383238575,1311],[7.621051280974433,45.60178160926704,1314],[7.621194369451514,45.601760737655496,1317],[7.621335008585796,45.601938091922804,1320],[7.621477008292072,45.60201209167764,1323],[7.6216070081341485,45.602142092129554,1327],[7.621885007952595,45.602521092475406,1330],[7.622289008078764,45.60277809225449,1333],[7.622487008421507,45.60307209252832,1336],[7.622387008765683,45.60330209279938,1339],[7.622427007816431,45.603428093176426,1342],[7.6226770081159705,45.60349209264884,1345],[7.622579697296657,45.6037890495515,1348],[7.622825007567092,45.603936093205554,1351],[7.622922240871369,45.604075668937206,1354],[7.6225323745415015,45.60478284199871,1357],[7.622542365705137,45.60481309514382,1360],[7.622726857552482,45.60485486829227,1364],[7.622842296625255,45.60496172272371,1367],[7.622957008087721,45.60497209392148,1370],[7.623077008320626,45.60505209451723,1373],[7.623172672106151,45.605307384290946,1376],[7.623176576579115,45.605523737826616,1379],[7.623227008176132,45.60560209405574,1382],[7.62366365234607,45.606295558684714,1385],[7.623807008396988,45.606452095014845,1388],[7.623654211465304,45.60661882762895,1391],[7.623680008448302,45.60675509540104,1394],[7.623697523518999,45.60685395084663,1398],[7.623737007782784,45.606882094862314,1401],[7.624212596184906,45.607137244596935,1404],[7.624393169325615,45.60727960857332,1407],[7.624426211360047,45.60729186768034,1410],[7.624470148921848,45.60729802319025,1413],[7.62450191651893,45.607315624160485,1416],[7.624528875215346,45.60734177640654,1419],[7.624554111288632,45.607375709732665,1422],[7.624611389905906,45.6074159486895,1425],[7.624658328730772,45.607440188527406,1428],[7.62468346502351,45.607478156549234,1431],[7.624689082093849,45.60751303540083,1435],[7.6247711916210745,45.6075900568181,1438],[7.624915947007401,45.60762704380319,1441],[7.62536310296095,45.60783797055495,1444],[7.625559237312785,45.60790570680735,1447],[7.625748428254298,45.608006720374185,1450],[7.625833748084998,45.6080916867847,1453],[7.62589012975592,45.60816877227939,1456],[7.625945509558118,45.60834969337545,1459],[7.626527008420745,45.60855209681539,1462],[7.626700950091344,45.608682699817464,1465],[7.62697700792311,45.60868209617314,1469],[7.627102886400272,45.60879945225204,1472],[7.6271970088010965,45.608982096703485,1475],[7.627517007984103,45.6090320963219,1478],[7.627547007679246,45.60907209690183,1481],[7.6278970076760935,45.609102096304696,1484],[7.628097008173194,45.609172096903336,1487],[7.628137008429236,45.60930209688642,1490],[7.628327008209263,45.609382096475144,1493],[7.628597151503033,45.60939368136964,1496],[7.628725229612715,45.60942319968111,1499],[7.629297008665592,45.609552097467045,1502],[7.629817007609203,45.60971209698093,1506],[7.629917007820919,45.60990209755551,1509],[7.630267008511851,45.61015209708272,1512],[7.630757008315989,45.61024209753637,1515],[7.631137007961855,45.610472097969684,1518],[7.631757007667411,45.61062209735561,1521],[7.631827007649697,45.61070209813924,1524],[7.632137008360269,45.610772097835486,1527],[7.632449107509056,45.61089482194278,1530],[7.632949865070977,45.61111066565848,1533],[7.6332836533183785,45.611256712316276,1536],[7.63346639945196,45.61130840196173,1539],[7.633685622117418,45.61137344100122,1543],[7.633719032813036,45.611386754902966,1546],[7.633831318009914,45.611435448108374,1549],[7.633879587300498,45.61146831013953,1552],[7.6339404346860595,45.61148840835188,1555],[7.634035212816573,45.61150030403571,1558],[7.634089510092941,45.61153754221298,1561],[7.63422050489395,45.61157354544334,1564],[7.634239797042316,45.61158997832938,1567],[7.634369959453427,45.61160707892117,1570],[7.634649404313392,45.611718034149774,1573],[7.635247008424297,45.612052098680074,1577],[7.635697007552775,45.61257209895716,1580],[7.635863947494405,45.61271510806201,1583],[7.636063048510794,45.61281690055314,1586],[7.636108449290724,45.6128653985307,1589],[7.636216869321097,45.61296787652081,1592],[7.636333740623058,45.613080653121784,1595],[7.6365328043806615,45.61321862452981,1598],[7.636625345014332,45.61332303943481,1601],[7.6366732525391186,45.613370962257044,1604],[7.6367208472968935,45.61343179465594,1607],[7.636718970138132,45.61350925493192,1610],[7.636782354234952,45.613677891043366,1614],[7.636879828147882,45.61383186765975,1617],[7.63689734554796,45.61385904466748,1620],[7.637190370614463,45.61407163968304,1623],[7.637277271772952,45.61419083433791,1626],[7.63727297308561,45.614232432968016,1629],[7.637297574465085,45.61428173088567,1632],[7.637382375536625,45.614364226080525,1635],[7.637461376708359,45.6144087239031,1638],[7.63747357766529,45.6144671211886,1641],[7.637594378702016,45.61454591703882,1644],[7.637653978944738,45.61461431332873,1648],[7.6377209799384875,45.61465971101869,1651],[7.637793084676954,45.61488580220734,1654],[7.637856987475599,45.61500349711702,1657],[7.637908188559992,45.61506709472805,1660],[7.638060588788243,45.615145188618015,1663],[7.638110849654018,45.61519836919824,1666],[7.638138642930819,45.61529376614541,1669],[7.638093679630316,45.615504155481,1672],[7.638058903002897,45.61567377241151,1675],[7.638070277298144,45.61570145652579,1678],[7.638142505463269,45.61587726463451,1681],[7.638121105822677,45.615916464109375,1685],[7.638180807114688,45.61599126082042,1688],[7.638163408095903,45.61603066011375,1691],[7.638177209429223,45.616095257179644,1694],[7.638194411230989,45.61613875570967,1697],[7.638226710998789,45.6161578541946,1700],[7.638261813140776,45.61625775038634,1703],[7.638286513122644,45.61627644952262,1706],[7.638326513453754,45.61628034847243,1709],[7.638409812033944,45.616239648395315,1712],[7.638469811927195,45.61625174683846,1715],[7.638478812580152,45.61627444592132,1718],[7.638436713472077,45.61631454539681,1722],[7.638461013672442,45.61633344404563,1725],[7.638488824464481,45.616406649838645,1728],[7.638614582813243,45.616537549398906,1731],[7.6387091101469995,45.61656019945205,1734],[7.638765198436214,45.616569811925956,1737],[7.638860808053852,45.61656756437779,1740],[7.639065847980292,45.61655036449872,1743],[7.639125493406675,45.616558525961274,1746],[7.639170255629022,45.61658344401265,1749],[7.639180017959359,45.61661878191438,1752],[7.639099926973735,45.616657791732095,1756],[7.6389351642649315,45.61676555887363,1759],[7.638839411094467,45.61682471268095,1762],[7.638470298563068,45.61717667671676,1765],[7.6382276624386165,45.6173174499045,1768],[7.6381124443012824,45.61738925374327,1771],[7.637999145428181,45.61750843219706,1774],[7.637774109607899,45.617682236283976,1777],[7.6376886130680814,45.6177931359252,1780],[7.637574113758834,45.61796180174431,1783],[7.637482431250318,45.61807478040849,1786],[7.637252008783362,45.61822310298664,1789],[7.637208496850892,45.6182921413278,1793],[7.637857299038471,45.61814685595446,1796],[7.63797729907303,45.61805123051761,1799],[7.638094524073369,45.61791186351054,1802],[7.638226718160027,45.61782593836112,1805],[7.638634592240782,45.61772858935005,1808]]}}]}