{"type":"FeatureCollection","features":[{"type":"Feature","properties":{"slug":"19-s8","sct_code":"19_S8","source":"Catasto Sentieri VdA"},"geometry":{"type":"LineString","coordinates":[[7.341830895314599,45.65805090771825,2329],[7.341766008505243,45.65834013040644,2334],[7.341534007991738,45.658484130772216,2338],[7.341514008591489,45.65853413074598,2343],[7.341434007591147,45.65853413100199,2348],[7.341104008284311,45.658634130524334,2352],[7.341104007786077,45.65866413067475,2357],[7.340984008215801,45.658684130589975,2361],[7.3407440079307476,45.65887413081064,2366],[7.340634007969152,45.65889413071909,2371],[7.340634008256563,45.65893413063196,2375],[7.34057400834549,45.65898413071472,2380],[7.34055400844659,45.65896413134536,2385],[7.3405340077349654,45.659024130877135,2389],[7.340464008248908,45.65904413126536,2394],[7.34035400770888,45.659154131362406,2399],[7.340184008833874,45.659194130629984,2403],[7.340035008134347,45.659324131077035,2408],[7.34001500763316,45.65939413116942,2413],[7.3400550079220395,45.659453131425614,2417],[7.3400150082875815,45.65962313178351,2422],[7.339735008431649,45.65999313174491,2426],[7.339675008299825,45.66018313144958,2431],[7.339715007952916,45.660353131733686,2436],[7.339585008044149,45.66039313191237,2440],[7.339435007581078,45.660503131921075,2445],[7.339265007983935,45.660743131994934,2450],[7.33922500805356,45.66115313231274,2454],[7.339265008776981,45.66136313263767,2459],[7.339175008737674,45.66140313252318,2464],[7.33896500874138,45.66162313239025,2468],[7.338855008081618,45.661683133161105,2473],[7.338835007886847,45.66177313252163,2478],[7.338555008277154,45.662003133013414,2482],[7.338432131224828,45.66221107822943,2487],[7.338445008245754,45.66215313292094,2491],[7.338105008510953,45.662393133114804,2496],[7.338085008089002,45.66248313323132,2501],[7.337955008459104,45.66252313334798,2505],[7.337865007669763,45.66260313387049,2510],[7.337935007945359,45.66271313359965,2515],[7.338085008063814,45.66280313321776,2519],[7.33804500876551,45.66297313370394,2524],[7.338065007713018,45.66308313389832,2529],[7.338125008051132,45.663103133389725,2533],[7.338125007722723,45.66314313416774,2538],[7.337975008037068,45.66329313390891,2543],[7.337975007624591,45.66333313378449,2547],[7.338195008466949,45.66355313419089,2552],[7.3381250087162755,45.6635931344204,2556],[7.338145008170199,45.663683134207346,2561],[7.337935008537579,45.6639831345673,2566],[7.337845008433525,45.664023134289714,2570],[7.337785008583162,45.66413313493642,2575],[7.33767500875518,45.66423313443787,2580],[7.33744500815812,45.66464313516286,2584],[7.337035008091334,45.66509313556728,2589],[7.336985008758806,45.66511313519225,2594],[7.336945008567457,45.66533313573151,2598],[7.336925008477515,45.66533313522908,2603],[7.336965008055885,45.66546313556966,2608],[7.337035008180967,45.66552313528722,2612],[7.337015008614622,45.66561313608525,2617],[7.3370550086455815,45.66567313550318,2621],[7.336945008580312,45.66593313553862,2626],[7.3370150082529815,45.66640313633255,2631],[7.337015007554474,45.66660313652993,2635],[7.3369250081969275,45.666813136504494,2640],[7.3371650078352015,45.66694313619366,2645],[7.337185008195878,45.66700313689521,2649],[7.337428007768686,45.66738913702042,2654],[7.337555008818256,45.66765313724159,2659],[7.337435008497671,45.66796313750742,2663],[7.337545007913238,45.668643137611475,2668],[7.337825007766639,45.668693137858455,2673],[7.337965008090543,45.66882313766442,2677],[7.337845007729757,45.668903138069,2682],[7.338195008507715,45.66906313793865,2686],[7.338095008652054,45.66915313862415,2691],[7.338275008379226,45.66923313813842,2696],[7.338175007764738,45.66938313819449,2700],[7.338225008517046,45.66951313861339,2705],[7.338545007592971,45.6697331385117,2710],[7.33850500785082,45.66979313828216,2714],[7.338765008044868,45.66983313895361,2719],[7.33892500755133,45.670023138828384,2724],[7.339055008134072,45.67001313866231,2728],[7.339365007952729,45.670483138984466,2733],[7.339484008769159,45.670467138766824,2737],[7.339531008152792,45.670518139360354,2742],[7.339501008083617,45.6706131390066,2747],[7.339305008652939,45.6707631393941,2751],[7.3392450087158885,45.67104313975073,2756],[7.339075007598765,45.670993139685194,2761],[7.338725007743335,45.670953139383265,2765],[7.3386450082373775,45.67097313988365,2770],[7.338725008290377,45.67104313968783,2775],[7.338725008189355,45.671143139714395,2779],[7.338425007917701,45.67110313939252,2784],[7.3384450082715205,45.67129313995534,2789],[7.338405008113896,45.6713231395731,2793],[7.338365008344562,45.67129313988759,2798],[7.338425008667684,45.67138314001612,2802],[7.338275008221521,45.67140313983577,2807],[7.338345008073124,45.67153313950858,2812],[7.338255008099275,45.67151314022226,2816],[7.338255008827219,45.67157313952561,2821],[7.338385008391395,45.67168313959171,2826],[7.338295007646266,45.671723139617605,2830],[7.338015007949307,45.67170313975564,2835],[7.338085008054387,45.67179313975863,2840],[7.338065007677005,45.671833140180155,2844],[7.3379150078193645,45.67181313970785,2849],[7.337895007772733,45.67194314038879,2854],[7.337785007626755,45.67198314058702,2858],[7.337465007999195,45.67192313974392,2863],[7.33741500804277,45.6721131403646,2867],[7.337265008390818,45.672113140305186,2872],[7.337205008397479,45.67207314003883,2877],[7.337075008104424,45.6720531407081,2881],[7.3370750082087195,45.672133140360636,2886],[7.337035007644671,45.672153140658004,2891],[7.336585008671896,45.672113140365106,2895],[7.336435008144841,45.67207314027656,2900],[7.336265007743901,45.67209314046633,2905],[7.336535008612961,45.672323140057124,2909],[7.336515007982957,45.67235314046983,2914],[7.336385008379234,45.672323140633395,2919],[7.336325007599672,45.67235314071193,2923],[7.336325008394975,45.67239314054756,2928],[7.337055008620688,45.672733140840045,2932],[7.33724500847001,45.672933141177836,2937],[7.3372650077592,45.673013141250316,2942],[7.3372050083576585,45.67305314063807,2946],[7.337185008654924,45.67303314072894,2951],[7.33718500852143,45.673103140635604,2956],[7.337335007968262,45.673233140880534,2960],[7.337055008162953,45.673313141366854,2965],[7.3368350081200076,45.67314314139057,2970],[7.33641500825842,45.673103140747216,2974],[7.336645007835711,45.67325314099453,2979],[7.3366050081798155,45.67340314123406,2984],[7.336535007610259,45.67355314104277,2988],[7.336455008739887,45.673633141086306,2993],[7.336455007626927,45.67400314183119,2997],[7.336285008306881,45.67419314194388,3002],[7.336175008022747,45.67441314197994,3007],[7.336105008762707,45.67447314217294,3011],[7.335985008093667,45.67449314218891,3016],[7.335895007839435,45.674683142527776,3021],[7.335805008449991,45.675033142033655,3025],[7.335745008342686,45.67507314243288,3030],[7.335745007624364,45.675143142309196,3035],[7.335615008378014,45.675333142801776,3039],[7.335255008756885,45.67569314263748,3044],[7.335075008640046,45.67612314335173,3049],[7.335105007943677,45.67617314364983,3053],[7.335015008291241,45.67636314325596,3058],[7.334925007962055,45.67638314295787,3062],[7.33457400760695,45.676627143577555,3067],[7.334467007958238,45.6765871433098,3072],[7.334215008030098,45.67658314329342,3076],[7.334088008456078,45.67654314349426,3081]]}}]}