{"type":"FeatureCollection","features":[{"type":"Feature","properties":{"slug":"19-s9","sct_code":"19_S9","source":"Catasto Sentieri VdA"},"geometry":{"type":"LineString","coordinates":[[7.334088008456078,45.67654314349426,2329],[7.334215008030098,45.67658314329342,2331],[7.334467007958238,45.6765871433098,2333],[7.33457400760695,45.676627143577555,2334],[7.334925007962055,45.67638314295787,2336],[7.335015008291241,45.67636314325596,2338],[7.335105007943677,45.67617314364983,2340],[7.335075008640046,45.67612314335173,2341],[7.335255008756885,45.67569314263748,2343],[7.335615008378014,45.675333142801776,2345],[7.335745007624364,45.675143142309196,2347],[7.335745008342686,45.67507314243288,2348],[7.335805008449991,45.675033142033655,2350],[7.335895007839435,45.674683142527776,2352],[7.335985008093667,45.67449314218891,2354],[7.336105008762707,45.67447314217294,2356],[7.336175008022747,45.67441314197994,2357],[7.336285008306881,45.67419314194388,2359],[7.336455007626927,45.67400314183119,2361],[7.336455008739887,45.673633141086306,2363],[7.336535007610259,45.67355314104277,2364],[7.3366050081798155,45.67340314123406,2366],[7.336645007835711,45.67325314099453,2368],[7.33641500825842,45.673103140747216,2370],[7.3368350081200076,45.67314314139057,2372],[7.337055008162953,45.673313141366854,2373],[7.337335007968262,45.673233140880534,2375],[7.33718500852143,45.673103140635604,2377],[7.337185008654924,45.67303314072894,2379],[7.3372050083576585,45.67305314063807,2380],[7.3372650077592,45.673013141250316,2382],[7.33724500847001,45.672933141177836,2384],[7.337055008620688,45.672733140840045,2386],[7.336325008394975,45.67239314054756,2387],[7.336325007599672,45.67235314071193,2389],[7.336385008379234,45.672323140633395,2391],[7.336515007982957,45.67235314046983,2393],[7.336535008612961,45.672323140057124,2395],[7.336265007743901,45.67209314046633,2396],[7.336435008144841,45.67207314027656,2398],[7.336585008671896,45.672113140365106,2400],[7.337035007644671,45.672153140658004,2402],[7.3370750082087195,45.672133140360636,2403],[7.337075008104424,45.6720531407081,2405],[7.337205008397479,45.67207314003883,2407],[7.337265008390818,45.672113140305186,2409],[7.33741500804277,45.6721131403646,2411],[7.337465007999195,45.67192313974392,2412],[7.337785007626755,45.67198314058702,2414],[7.337895007772733,45.67194314038879,2416],[7.3379150078193645,45.67181313970785,2418],[7.338065007677005,45.671833140180155,2419],[7.338085008054387,45.67179313975863,2421],[7.338015007949307,45.67170313975564,2423],[7.338295007646266,45.671723139617605,2425],[7.338385008391395,45.67168313959171,2426],[7.338255008827219,45.67157313952561,2428],[7.338255008099275,45.67151314022226,2430],[7.338345008073124,45.67153313950858,2432],[7.338275008221521,45.67140313983577,2434],[7.338425008667684,45.67138314001612,2435],[7.338365008344562,45.67129313988759,2437],[7.338405008113896,45.6713231395731,2439],[7.3384450082715205,45.67129313995534,2441],[7.338425007917701,45.67110313939252,2442],[7.338725008189355,45.671143139714395,2444],[7.338725008290377,45.67104313968783,2446],[7.3386450082373775,45.67097313988365,2448],[7.338725007743335,45.670953139383265,2450],[7.339075007598765,45.670993139685194,2451],[7.3392450087158885,45.67104313975073,2453],[7.339305008652939,45.6707631393941,2455],[7.339501008083617,45.6706131390066,2457],[7.339531008152792,45.670518139360354,2458],[7.3396250087161325,45.670353138624776,2460],[7.3396050080084665,45.67009313919743,2462],[7.339755008502358,45.6699031385433,2464],[7.339755008300869,45.66971313818002,2465],[7.339775008298258,45.66969313871447,2467],[7.339735007835433,45.669383137904724,2469],[7.339995008054159,45.66921313863267,2471],[7.3401850084465785,45.668833137822475,2473],[7.340335008165715,45.66887313839657,2474],[7.340445008761403,45.66900313844665,2476],[7.340575007925275,45.66891313774074,2478],[7.340875008100958,45.66876313744472,2480],[7.340955008737725,45.66874313809352,2481],[7.3413250079066446,45.668573137739074,2483],[7.341565008570636,45.66840313784795,2485],[7.341775008320953,45.66840313753816,2487],[7.341945008476918,45.668163137622564,2489],[7.342035008253582,45.66818313761035,2490],[7.342095008383568,45.66801313728417,2492],[7.343145008750238,45.66818313785662,2494],[7.3434450084583505,45.66816313727143,2496],[7.343978007610135,45.66808813708451,2497],[7.344435007639708,45.66824713732246,2499],[7.344755007705227,45.668183137243155,2501],[7.345165008303255,45.668123137818355,2503],[7.345640008661336,45.66790713748342,2504],[7.346235007751176,45.66799213762855,2506],[7.346615007649888,45.667998136989105,2508]]}}]}