{"type":"FeatureCollection","features":[{"type":"Feature","properties":{"slug":"21-s6","sct_code":"21_S6","source":"Catasto Sentieri VdA"},"geometry":{"type":"LineString","coordinates":[[7.3566130086045405,45.61584410087602,1496],[7.356583008424756,45.61586410086294,1498],[7.355943008391485,45.6158841015881,1500],[7.35536300797171,45.6158741010252,1503],[7.354543008800859,45.61617410147679,1505],[7.354393008138746,45.61619410185733,1507],[7.354283007775639,45.61618410113809,1509],[7.352683007813599,45.616404101873655,1512],[7.3523530082312325,45.616564101843494,1514],[7.3519330082829715,45.6166841016834,1516],[7.350963008343735,45.61688410162269,1518],[7.35053300775124,45.617034101677696,1520],[7.349963008497791,45.6171041023662,1523],[7.348983008066335,45.61739410226747,1525],[7.348683008054227,45.617584102606294,1527],[7.348224008709672,45.61768410220749,1529],[7.34810400857994,45.617764102282955,1531],[7.347894008208368,45.61778410294749,1534],[7.3477540086865645,45.61788410280482,1536],[7.347634007931885,45.61790410257097,1538],[7.34718400778456,45.618184102486545,1540],[7.346884008308241,45.618284102435766,1543],[7.346374007937496,45.61854410318896,1545],[7.346134007891592,45.61861410276225,1547],[7.345984008788966,45.61871410324449,1549],[7.345734008058035,45.61878410295243,1551],[7.345054008232829,45.61919410322015,1554],[7.345064007806256,45.61926410371678,1556],[7.344794008282084,45.61948410402044,1558],[7.3446540078126805,45.61954410348023,1560],[7.344454007567838,45.619494103640044,1562],[7.344154007566727,45.61961410412316,1565],[7.344044008785049,45.619674103973935,1567],[7.343774008116718,45.61991410416667,1569],[7.343594008269805,45.61984410431033,1571],[7.343394008407923,45.619834103680155,1574],[7.343164007740207,45.619744103693606,1576],[7.3428640083344145,45.61981410351867,1578],[7.342664008420737,45.61975410343406,1580],[7.342534008744926,45.619824103922596,1582],[7.342534008759397,45.61991410405592,1585],[7.342300008008841,45.61996010386282,1587],[7.342270008670091,45.620054104119355,1589],[7.3421040088134175,45.620084104352344,1591],[7.34199900808473,45.620012104326264,1593],[7.341824008565805,45.61993410421275,1596],[7.34169400818769,45.61996410357447,1598],[7.341244008405605,45.620354104070415,1600],[7.341084008679144,45.62035410411559,1602],[7.340944008445686,45.620424104238154,1605],[7.340504007894808,45.6205641040938,1607],[7.340234007911671,45.620524104715635,1609],[7.339684008706495,45.620704104151564,1611],[7.339424007682425,45.62083410464033,1613],[7.339264007805477,45.62096410510841,1616],[7.339164008034104,45.621004104708256,1618],[7.338914007788772,45.621144104364696,1620],[7.338724008769841,45.621304104622034,1622],[7.338574008396226,45.6213741048794,1624],[7.3383640078229115,45.62150410484719,1627],[7.337864459775874,45.62173400950376,1629],[7.337802188513834,45.621904541041204,1631],[7.337740507875313,45.622180963030466,1633],[7.3377646818134545,45.62241013143676,1636],[7.337828319482951,45.62250206941113,1638],[7.337831739441215,45.62250700928131,1640],[7.337841078340234,45.62253072441008,1642],[7.3378767201376585,45.622624505089426,1644],[7.337880480019054,45.62278341638731,1647],[7.337808341496534,45.622894515592705,1649],[7.3377165291189455,45.622973121992906,1651],[7.337606256653215,45.62300781688236,1653],[7.337467384824972,45.623007996984306,1655],[7.337352786255208,45.622979326524344,1658],[7.337212012055959,45.62296827631298,1660],[7.336920568970912,45.62284702326043,1662],[7.33680756764869,45.62276437113273,1664],[7.33677176338162,45.62267384241854,1667],[7.336659561001737,45.62256419958678,1669],[7.3365540345154745,45.62250133886452,1671],[7.3364538997075375,45.62247875383985,1673],[7.3362926352939795,45.62251492158711,1675],[7.336069530574668,45.62264437269358,1678],[7.3358537385009575,45.62271398145496,1680],[7.335759693849322,45.62281275679604,1682],[7.335644770230057,45.62289565562879,1684],[7.3352850273315156,45.623017586538566,1686],[7.33498765517271,45.623175764281,1689],[7.3348699120655345,45.62320939083669,1691],[7.3348255316395425,45.62318929679554,1693],[7.334813300793782,45.62315650342435,1695],[7.334809344618986,45.62294183504842,1698],[7.334844170137642,45.622812774605364,1700],[7.334962743193178,45.62265249380174,1702],[7.334956810417513,45.62262616027883,1704],[7.334841243997216,45.622591517400934,1706],[7.334777684488446,45.6226103724878,1709],[7.334738667590784,45.62271364051381,1711],[7.334625207019745,45.6230865712651,1713],[7.334589385316071,45.623368346882266,1715],[7.334475487260894,45.623365854269764,1717],[7.334266480704175,45.623400710857204,1720],[7.3340330114926795,45.62338379986094,1722],[7.333931349018176,45.62341881661046,1724],[7.333888254369769,45.623450879485446,1726],[7.333769924480625,45.62354816120133,1729],[7.333742414373542,45.62361076494346,1731],[7.33370774569901,45.623794078315235,1733],[7.333721226273594,45.62400397486485,1735],[7.333585908353789,45.62413052371586,1737],[7.333517798311431,45.624264540819986,1740],[7.333483621279931,45.62455206540159,1742],[7.3335530883524545,45.62480509940061,1744],[7.3334662886029225,45.62513685973967,1746],[7.333137196114473,45.62542008037593,1748],[7.3330968619481185,45.62548249677761,1751],[7.333031149629657,45.62553554202528,1753],[7.3329510142953795,45.62564238106495,1755],[7.33282680917305,45.62593759197833,1757],[7.332694315651947,45.62607966941457,1760],[7.332589601039737,45.62615014646061,1762],[7.332485686647859,45.62619363291821,1764],[7.331907459339263,45.62624568104438,1766],[7.331650446618403,45.626315511433674,1768],[7.331395510397668,45.62643767839489,1771],[7.330539867028311,45.62692126702652,1773],[7.330445445342316,45.62702643463581,1775],[7.330436788274037,45.627066931050344,1777],[7.330497925283038,45.62746969808615,1779],[7.3304396876610465,45.62770286555894,1782],[7.330413240397135,45.62772948110505,1784],[7.330330934642315,45.62777871611891,1786],[7.330268150507665,45.62779328577397,1788],[7.329975929083978,45.62781852918304,1791],[7.329904000514624,45.62783945264317,1793],[7.329433217546194,45.62812918432803,1795]]}}]}