{"type":"FeatureCollection","features":[{"type":"Feature","properties":{"slug":"22-s68","sct_code":"22_S68","source":"Catasto Sentieri VdA"},"geometry":{"type":"LineString","coordinates":[[6.979273475750532,45.799368776669745,1325],[6.9795639913608385,45.799494539496195,1329],[6.979792897887747,45.799564637181604,1333],[6.979956225462416,45.79973146243017,1336],[6.980416918344673,45.800014590863654,1340],[6.9809324707655405,45.80033444721682,1344],[6.981130674042667,45.80054984926536,1348],[6.981287586368298,45.800638303252775,1352],[6.981363543863046,45.800717467875636,1356],[6.981628244892901,45.80097221283285,1359],[6.9816999749280715,45.801035948532146,1363],[6.981781351793735,45.8010694211939,1367],[6.981865531191063,45.80108387661662,1371],[6.9819303733786295,45.80109238477925,1375],[6.982115155680384,45.80109070112597,1379],[6.982273556082822,45.80109765873104,1382],[6.9826787327141675,45.80119101217531,1386],[6.982809864596574,45.80121385753927,1390],[6.982950163566776,45.80122252681965,1394],[6.9830605036405125,45.80120222073223,1398],[6.983234991902016,45.80114405792849,1402],[6.98369700579988,45.80096804296085,1405],[6.983840089213635,45.80092556624778,1409],[6.983981874244185,45.80091906851621,1413],[6.984340982055333,45.80095240825543,1417],[6.984468933669055,45.80097266734165,1421],[6.984761795308113,45.80105883980073,1424],[6.985171696226096,45.801111074171985,1428],[6.98545137530065,45.80120601282353,1432],[6.985614665477683,45.801316899127286,1436],[6.985713378301085,45.801385721855695,1440],[6.985754787694014,45.80143254470906,1444],[6.985766262144182,45.80148745222293,1447],[6.9857092259192894,45.80155151828359,1451],[6.985659396982912,45.8015927448047,1455],[6.985581959519085,45.801616891010305,1459],[6.9853241065540415,45.80163034391678,1463],[6.985243281991585,45.80166626492737,1467],[6.9851770347132,45.801719099397246,1470],[6.985158598544737,45.801764122377726,1474],[6.985156327998777,45.801827085951615,1478],[6.985166861071624,45.80186444120624,1482],[6.985156914640422,45.80191259132374,1486],[6.985192940009266,45.801976251172,1490],[6.985263740632944,45.802010808342615,1493],[6.9853839875232335,45.80204036122735,1497],[6.985413306162079,45.80205673278936,1501],[6.98543277685266,45.80207873507388,1505],[6.985455007955154,45.802193242963995,1509],[6.986135007754335,45.802413243332396,1512],[6.986165008597125,45.802493243285326,1516],[6.986625007918575,45.802553242944384,1520],[6.987005008112731,45.80271124331287,1524],[6.986595008558489,45.80285324316634,1528],[6.986565007655716,45.802883243146,1532],[6.986786007786614,45.80306724371204,1535],[6.986992007821937,45.80307124365989,1539],[6.987245008060209,45.80303324346077,1543],[6.987440957598297,45.803131197379976,1547],[6.987672448052636,45.803135276242365,1551],[6.987780734330894,45.8031401092534,1555],[6.987889300535388,45.803169079276906,1558],[6.988097508544601,45.80326594294836,1562],[6.988056146799869,45.8033253413892,1566],[6.987900719018995,45.80325855295491,1570],[6.987809120538985,45.80325715524142,1574],[6.987704021977947,45.80333395369722,1578],[6.987669322726811,45.80341055146095,1581],[6.98749252613385,45.803560448710094,1585],[6.987307128525665,45.80365214889027,1589],[6.987199330169822,45.80376794623754,1593],[6.987158430592953,45.803786546858284,1597],[6.987164531997458,45.80382604514133,1600],[6.987389829562537,45.80389783791597,1604],[6.987440829576722,45.80393733530781,1608],[6.9872279325512725,45.8040057371793,1612],[6.987114233933591,45.80407503640689,1616],[6.987228833104387,45.804105332946925,1620],[6.987383730970643,45.80412242920651,1623],[6.987443830751365,45.80415492703713,1627],[6.987323932498836,45.80424542594682,1631],[6.9873201331783115,45.80428862446892,1635],[6.9873794329387415,45.80434812057872,1639],[6.987595131182347,45.80447211237766,1643],[6.987597231501696,45.80455370934457,1646],[6.9875144329536365,45.80460190897249,1650],[6.987342534370943,45.804603511595346,1654],[6.987336135601637,45.80463431110287,1658],[6.987518133646341,45.80477390199891,1662],[6.987686833460406,45.804855796322535,1666],[6.98762723414977,45.804894695917255,1669],[6.987631133747201,45.804928593956376,1673],[6.98750503576188,45.80495219550031,1677],[6.987369038020988,45.8050133958113,1681],[6.987158339621034,45.805015799520696,1685],[6.986914742869816,45.80497490565487,1688],[6.986724844420372,45.8049160108533,1692],[6.986568845950288,45.80492161339832,1696],[6.9864317479738025,45.804949614603835,1700],[6.986185949845488,45.80488902144882,1704],[6.98609475105178,45.80490502290259,1708],[6.985990053473709,45.80497372187328,1711],[6.985857754860901,45.805011122551655,1715],[6.985760256771483,45.80502882445421,1719],[6.9856717570515325,45.805010826026276,1723],[6.985555359134092,45.80505522656903,1727],[6.985268562062747,45.805105029556486,1731],[6.985090064865246,45.805202729680104,1734],[6.984981466759143,45.80524432947007,1738],[6.984807469157211,45.80527463168435,1742],[6.984738870540871,45.80530493210434,1746],[6.9848972684523,45.805383726306566,1750],[6.984980367899682,45.80539992356204,1754],[6.98512636713969,45.80548591782303,1757],[6.985287165321299,45.80555121255258,1761],[6.985478063270139,45.80559250706498,1765],[6.98569676270134,45.80572539836696,1769],[6.9857898616948795,45.80580229353364,1773],[6.9857996619186995,45.805845191798255,1776],[6.98569226331489,45.80585939335297,1780],[6.985714962817975,45.805885791666476,1784],[6.985836861653607,45.8059401875954,1788],[6.985886062157492,45.80598128572745,1792],[6.98563986501905,45.80603718790728,1796],[6.985465867487704,45.80603249083216,1799],[6.9853535687966515,45.80608399106753,1803],[6.9852106707028705,45.80610229304821,1807],[6.98508927270342,45.806161292842646,1811],[6.9848357918455415,45.80617889451857,1815],[6.9848272588845255,45.80622803527031,1819],[6.985030175026856,45.80632038736579,1822],[6.985113274828821,45.80645768101604,1826],[6.9851778739144885,45.80652367740137,1830],[6.985199974323067,45.806589274175515,1834],[6.985164074869319,45.80662577339361,1838],[6.985096176346777,45.80664247399984,1842],[6.984841078537731,45.80663387907504,1845],[6.9846903444128,45.8065763595436,1849],[6.984676170904222,45.80659852072483,1853],[6.98471728359688,45.80663395483173,1857],[6.9848231801977185,45.8067269759906,1861],[6.984806580699778,45.80674207578468,1864],[6.984742380964599,45.80673757683314,1868],[6.984710652741189,45.80675575876241,1872],[6.984508557428301,45.8067302313892,1876],[6.984414099837916,45.80674171873852,1880],[6.984419733509765,45.806759356555425,1884],[6.984478544593404,45.80678012532573,1887],[6.984545646905427,45.80683173301997,1891],[6.984603083024602,45.80687167465354,1895],[6.9847250823427895,45.80687847162926,1899],[6.9847497817495885,45.80690387035961,1903],[6.984705183570472,45.80696996893707,1907],[6.984396200872965,45.806932757340796,1910],[6.984267802279441,45.80689166133206,1914],[6.984236087259481,45.806848981903535,1918],[6.984132089220527,45.80682858463682,1922],[6.9840417891790905,45.80677788761959,1926],[6.983988490281619,45.806708691461964,1930],[6.983828791200135,45.80666199587463,1933],[6.983620910732322,45.806550176802645,1937],[6.983410259829947,45.806491383554096,1941],[6.983307397907945,45.80649750760151,1945],[6.983159999179341,45.8065308088045,1949],[6.983026199666177,45.806552414395995,1952],[6.982983200326995,45.8065618148133,1956],[6.983171999255518,45.80667840769143,1960],[6.983405997754955,45.80689009488126,1964],[6.9834017985020544,45.80690089425596,1968],[6.983254699516177,45.80688479796443,1972],[6.983246299462614,45.806928896154105,1975],[6.983287399966041,45.80699099367494,1979],[6.983402999386993,45.8070659884397,1983],[6.983518298788147,45.80722018048751,1987],[6.98332590091446,45.80721308427097,1991],[6.983344701164439,45.80725008250763,1995],[6.983157603412878,45.80723648581621,1998],[6.9829901051787395,45.80724918881995,2002],[6.982986805697853,45.80727038795851,2006],[6.983031106234679,45.80730858542058,2010],[6.98287530720482,45.807270190144884,2014],[6.982292214317397,45.80728520012172,2017],[6.9821960149269975,45.8072776016825,2021],[6.9819500168657065,45.807130511784706,2025],[6.981815218119068,45.80714431375833,2029],[6.981504108429164,45.80707776998274,2033],[6.981300961200982,45.80707868884469,2037],[6.981432023586785,45.80715112014878,2040],[6.981296525114771,45.80717192234175,2044],[6.981074726956937,45.80714712700589,2048],[6.9810822273154205,45.807209624131914,2052],[6.9808358298716,45.807169130428576,2056],[6.980676645018238,45.807165921895105,2060],[6.98041453523006,45.80715273875126,2063],[6.980111838255476,45.8070794464444,2067],[6.98003253936977,45.807078448126035,2071],[6.979904041207491,45.80708645043767,2075],[6.9798855415869365,45.80709665023235,2079],[6.979975240222815,45.807165845854335,2083],[6.979978340586999,45.80719004546116,2086],[6.979948440685178,45.80720274468972,2090],[6.979731977132112,45.80713639482667,2094],[6.979677377823527,45.80714599563507,2098],[6.979705878108312,45.80718299324722,2102],[6.979672478173116,45.80720489291899,2105],[6.979549125001276,45.80718581599605,2109],[6.979378810025814,45.807200089364194,2113],[6.979275048907899,45.807224156191225,2117],[6.979164351026929,45.80727575606113,2121],[6.979086753063499,45.80733285578223,2125],[6.979441748741522,45.80742614541866,2128],[6.979439649906218,45.80745314492439,2132],[6.979293351007699,45.80748504570966,2136],[6.979216151960924,45.80748724765538,2140],[6.979150471630049,45.807496307434874,2144],[6.9790944809947995,45.80752895075736,2148],[6.979058089905674,45.80761398721248,2151],[6.9793217527731555,45.80767173817566,2155],[6.979516650556113,45.807684434180686,2159],[6.979555931719302,45.8077107301258,2163],[6.9795023763600605,45.807765212364785,2167],[6.9793633984037005,45.80789352931524,2171],[6.979270835185592,45.80797231754056,2174],[6.979134357735834,45.80803002804112,2178],[6.979036131831275,45.807975862943216,2182],[6.978970783272055,45.80796268102724,2186],[6.978896288517087,45.807927541587915,2190],[6.978796072720105,45.80792013112537,2193],[6.978700668599779,45.80790568902562,2197],[6.9784434216314075,45.80795364508462,2201],[6.978402284283753,45.807991984573135,2205],[6.978396914798733,45.80802157681731,2209],[6.978492264466872,45.80814859119403,2213],[6.978614972971259,45.80830787679771,2216],[6.978656772525737,45.80843639681346,2220],[6.978732035273382,45.80847216473209,2224],[6.978885471350023,45.80851612305934,2228],[6.979403689938108,45.808614261357796,2232],[6.979437062226209,45.80864367588599,2236],[6.979489863307554,45.80876257065997,2239],[6.979519189801364,45.80879339687479,2243],[6.97953336737547,45.80881741622536,2247],[6.979537460374418,45.80884508959365,2251],[6.979547906657194,45.80892796836995,2255],[6.979574542687145,45.80899382736013,2259],[6.979527030901428,45.80900003337331,2262],[6.979480072704237,45.80899093479355,2266],[6.979444185891551,45.809061982682124,2270],[6.97950476246111,45.80910028043053,2274],[6.9795698072661,45.80915840700607,2278],[6.979641899538393,45.809204053895705,2281],[6.979715506096457,45.80923310088489,2285],[6.979681706547833,45.80931430143798,2289],[6.979754874969574,45.80935646339272,2293],[6.979824661388781,45.80945876088226,2297],[6.979906561373386,45.809504158052945,2301],[6.979966922328732,45.80953317221489,2304],[6.979948304427124,45.80958733290804,2308],[6.980092400835543,45.80967022352239,2312],[6.980294198510622,45.809732873328805,2316],[6.980429896231376,45.80975276984841,2320],[6.98068018007523,45.80972618842386,2324],[6.980698180032974,45.809747987276594,2327],[6.980688820732854,45.80978714952384,2331],[6.980663353887912,45.809818632168025,2335],[6.9806983544835655,45.809847330767546,2339],[6.980820482483647,45.80986857189836,2343],[6.980873882354441,45.809936868536845,2347],[6.980941516731045,45.81002874160119,2350],[6.981072483284341,45.81006262331146,2354],[6.981157451178408,45.81017890960246,2358],[6.981162450804573,45.81022040840973,2362],[6.98123435033366,45.8102466052806,2366],[6.9812123512855475,45.81031500371604,2369],[6.981144552585589,45.810373402181014,2373],[6.9809701561571424,45.81044820259572,2377],[6.98091775723941,45.810502201891815,2381],[6.980801958901265,45.810555901185936,2385],[6.980789385501205,45.810585707290635,2389],[6.98139995356945,45.81084479876223,2392],[6.9827150079490306,45.81150325109064,2396],[6.982155008458996,45.81159325096493,2400],[6.982245008091891,45.811783251242375,2404],[6.982015007548172,45.8120532513062,2408],[6.9823050086523955,45.812303251514436,2412],[6.9827850082820495,45.81246325178934,2415],[6.983695007485159,45.813163252281996,2419],[6.984035008367535,45.813293252156754,2423],[6.984575008435982,45.81394325256806,2427],[6.985755008638166,45.81471325325253,2431],[6.987485007675336,45.81574325420895,2435],[6.988425008112044,45.81615325498887,2438],[6.988925008143827,45.81654325534127,2442],[6.989275008082784,45.81726325592084,2446],[6.991765007534786,45.81781325584511,2450],[6.992635007445045,45.81830325639117,2454],[6.994565007931126,45.81890325707929,2457],[6.995605008150032,45.81959325752555,2461],[6.996275007585258,45.81987325784304,2465],[6.996715008247203,45.8202432584268,2469],[6.9978550082360895,45.8205332587902,2473],[7.001915008030315,45.82188325979423,2477],[7.002155007706196,45.82202326011456,2480],[7.002335008517991,45.82204326010886,2484],[7.0035450085573,45.822453260312166,2488],[7.004385008450384,45.82261326008065,2492],[7.005825007860844,45.82310326080445,2496],[7.007325007554796,45.823463261042875,2500],[7.009695007936799,45.824193261816326,2503],[7.010165007444389,45.824123261873304,2507],[7.011765008118899,45.824563261670434,2511],[7.012570007423801,45.824745262230685,2515],[7.013076007522678,45.82500126215669,2519],[7.01378200843357,45.82505926218694,2523],[7.01480300756024,45.825324262992204,2526],[7.0152100078460125,45.82562326326821,2530],[7.015460008136343,45.82583026303417,2534]]}}]}