{"type":"FeatureCollection","features":[{"type":"Feature","properties":{"slug":"22-s57","sct_code":"22_S57","source":"Catasto Sentieri VdA"},"geometry":{"type":"LineString","coordinates":[[6.870902008073438,45.77770722243135,1679],[6.8708670084540975,45.7776652222217,1681],[6.870707008268018,45.7776352221999,1684],[6.87059700785731,45.7775652223467,1686],[6.870517007372932,45.777545221900716,1689],[6.870447007621561,45.77754522173343,1691],[6.870407008451468,45.77749522205552,1694],[6.870267008173382,45.77746522173125,1696],[6.870207007354646,45.77742522213849,1699],[6.870087007780524,45.77739522195868,1701],[6.870037007854525,45.77736522211248,1704],[6.869957007664692,45.777355221810964,1706],[6.869907008023579,45.777315222280144,1709],[6.869847008311621,45.77730522231566,1711],[6.869567008399041,45.777185221432234,1714],[6.8694970077998505,45.77718522156595,1716],[6.869397007767926,45.77730522192125,1719],[6.86933700729339,45.77732522147266,1721],[6.869257007857709,45.77729522232865,1724],[6.869307008552503,45.777155221571945,1726],[6.869297007852802,45.77706522190419,1728],[6.869237008495706,45.777015221291805,1731],[6.869197007871371,45.7769352213571,1733],[6.869217007795006,45.7769052211853,1736],[6.869217008369858,45.77684522159509,1738],[6.86919700781293,45.77681522125401,1741],[6.869137007801901,45.77679522127561,1743],[6.869057007431417,45.77670522146825,1746],[6.8690270073919555,45.77660522159053,1748],[6.868971026841926,45.7765132721575,1751],[6.869331963393628,45.776145593625536,1753],[6.8694287908835445,45.77596738863089,1756],[6.869600636811719,45.77581933351314,1758],[6.869757275286624,45.77575925137804,1761],[6.869834395266358,45.775760689861634,1763],[6.8700258249243324,45.77580026257217,1766],[6.870429596586888,45.77600580498007,1768],[6.8705540205430164,45.77611613189649,1770],[6.87072506415,45.776353335869764,1773],[6.870787276738725,45.776408499191966,1775],[6.870839393862425,45.77642477181329,1778],[6.871573736128023,45.776360155110495,1780],[6.871689417478878,45.77636231099911,1783],[6.8718808506067655,45.77640188065532,1785],[6.872085822033813,45.77642370110177,1788],[6.872205599875793,45.77641407004281,1790],[6.872241775217656,45.77638160393456,1793],[6.872238614751745,45.77643116429589,1795],[6.872239529503867,45.77643311916155,1798],[6.872291755919622,45.77646799733401,1800],[6.872350834368177,45.7764792101294,1803],[6.872454912246333,45.77649185614513,1805],[6.872584392824896,45.77648475099116,1808],[6.87272192567567,45.77646708860102,1810],[6.872788410394403,45.776462378507816,1813],[6.872875123761696,45.776462209711035,1815],[6.873044746420613,45.77647250635062,1817],[6.873237203791105,45.77650821175907,1820],[6.873509810566678,45.776582288185885,1822],[6.87374145935322,45.77666208452412,1825],[6.874247107568045,45.77686547420806,1827],[6.874863106534594,45.77714193590296,1830],[6.8750309727984185,45.77721435663205,1832],[6.875104188407027,45.77724040566443,1835],[6.875180523024452,45.77723907714616,1837],[6.875577612022815,45.77718503734114,1840],[6.875988398456833,45.777100537362514,1842],[6.876233935893996,45.7770743910219,1845],[6.876673219848711,45.77706500803107,1847],[6.877161798255194,45.7770784785293,1850],[6.8775606560074625,45.777142931086466,1852],[6.877964617485193,45.77723819061945,1855],[6.878094205956872,45.77729324994307,1857],[6.8784915155868624,45.77756388879099,1860],[6.878615670790055,45.777596908604544,1862],[6.878861905231117,45.777717754227076,1864],[6.879035191948762,45.77777801185383,1867],[6.879262213560995,45.777909468785744,1869],[6.879383378236994,45.77802140950461,1872],[6.879798831975595,45.77830993177148,1874],[6.880071382971423,45.778398355453625,1877],[6.880376927311814,45.77844351577526,1879],[6.88086796371108,45.77855793125681,1882],[6.88106154976101,45.778579073372015,1884],[6.881520141536376,45.778556867516166,1887],[6.881810044750964,45.778518368815504,1889],[6.8825625244040705,45.778352430205615,1892],[6.882759098825879,45.7782946475802,1894],[6.882986007210928,45.77826375267347,1897],[6.883699847077403,45.778290146139284,1899],[6.884103036822029,45.77824057750122,1902],[6.884387997646328,45.778166879376336,1904],[6.884675078661778,45.778202910608975,1906],[6.885076074410407,45.77837706726428,1909],[6.88523750206848,45.77841954474116,1911],[6.8855499807835745,45.778447268508366,1914],[6.885860966549321,45.77851445286318,1916],[6.886369157400319,45.778673039070156,1919],[6.8866989447129905,45.77874056819964,1921],[6.887052622107071,45.77883969112802,1924],[6.887752588020935,45.77906763300111,1926],[6.888070012136183,45.77913054262591,1929],[6.888391386576787,45.77925495145554,1931],[6.888726784174395,45.77934012954337,1934],[6.889116097040318,45.77949211710085,1936],[6.88922657282613,45.77955558603269,1939],[6.889399545882577,45.77962459763892,1941],[6.890306468607413,45.77985239886168,1944],[6.8907144224247245,45.78000911396812,1946],[6.890995232967888,45.780211742584896,1949],[6.891185687112808,45.780316175580914,1951],[6.891802571023311,45.78058643432572,1953],[6.892147044164397,45.78076390950829,1956],[6.892465131884108,45.78097599892498,1958],[6.892641735985302,45.781115274274484,1961],[6.89307194592745,45.78134741935192,1963],[6.893640701300061,45.78156412871569,1966],[6.894269536795264,45.78187581523849,1968],[6.894710605968697,45.78212565950766,1971],[6.894843468111851,45.78221586136923,1973],[6.895015856469941,45.78237467111802,1976],[6.895148888967995,45.782528270293426,1978],[6.8952112125681895,45.78249984037796,1981],[6.895229010119105,45.78246583574888,1983],[6.895229161460337,45.782393543351,1986],[6.895146226918814,45.782261457272725,1988],[6.8951619899275425,45.78223556966213,1991],[6.895202599720555,45.78222830219971,1993],[6.895357008534715,45.78228522586788,1995],[6.895547825797628,45.782457238921594,1998],[6.895717008015437,45.78255522665482,2000],[6.896252588204876,45.78273215654619,2003],[6.896314136827693,45.78280964652171,2005],[6.896787392495627,45.78325626343201,2008],[6.897566560012509,45.783815336086924,2010],[6.897685399699805,45.78388357162655,2013],[6.898039666619494,45.78397321344126,2015],[6.898330077812433,45.78401667719976,2018],[6.898690169963206,45.78414004036451,2020],[6.899084667500589,45.784330210988955,2023],[6.899331805217579,45.784497578832934,2025],[6.8996732514814845,45.78478287502015,2028],[6.899869556996173,45.784907992497686,2030],[6.900133626647155,45.78524136744376,2033],[6.900269195772812,45.785495877308186,2035],[6.900366834061248,45.785558959842966,2038],[6.90044636927404,45.78558463891331,2040]]}}]}