{"type":"FeatureCollection","features":[{"type":"Feature","properties":{"slug":"22-s48","sct_code":"22_S48","source":"Catasto Sentieri VdA"},"geometry":{"type":"LineString","coordinates":[[6.909804008347048,45.767985214297326,1676],[6.909626007735522,45.7679852145899,1678],[6.909286008383794,45.76786521457992,1679],[6.908966007873782,45.76781521448299,1681],[6.9088160078228436,45.767715214042056,1682],[6.908546007627846,45.76765521419637,1684],[6.90835600821189,45.767545213634136,1685],[6.908046008359219,45.76745521373488,1687],[6.907916008031218,45.76747521411858,1688],[6.907846007850989,45.76746521383189,1690],[6.907786007544269,45.7673152136061,1692],[6.9073960074744845,45.76706521374774,1693],[6.9072860085754115,45.76709521322065,1695],[6.907226007874893,45.76718521399123,1696],[6.906956008293136,45.7671552138118,1698],[6.906826007826359,45.76734521406201,1699],[6.906779860341822,45.767375013420136,1701],[6.906746007691701,45.76734521397216,1702],[6.906706007868069,45.76743521383505,1704],[6.906476008596579,45.76751521359908,1706],[6.906466008000033,45.767635214083434,1707],[6.906296008184554,45.76781521437696,1709],[6.906306007757396,45.76799521392078,1710],[6.906186008569111,45.76819521460029,1712],[6.9060270079501676,45.768564214920566,1713],[6.905896007305079,45.76849521496708,1715],[6.905936007952368,45.768625214696094,1716],[6.905856008438873,45.76882521488955,1718],[6.9057960078308,45.768795214715844,1720],[6.905726008497593,45.76889521458249,1721],[6.905606007697592,45.768885214972606,1723],[6.905436008201224,45.76897521540871,1724],[6.905366007495691,45.769155214840964,1726],[6.905326008235691,45.76917521493553,1727],[6.905196008568701,45.769125214757956,1729],[6.905136007936806,45.76914521513427,1730],[6.905096008364867,45.76931521512834,1732],[6.905056007877244,45.76932521546656,1734],[6.904526008014282,45.76974521555463,1735],[6.90442600802552,45.76987521569813,1737],[6.904156007341826,45.77004521605913,1738],[6.904106007914441,45.77005521617945,1740],[6.9040960081326475,45.77014521571632,1741],[6.904026007524564,45.770115215609266,1743],[6.903726007326285,45.770425216435584,1744],[6.90359600790883,45.770485215863076,1746],[6.903596008268562,45.7705252162192,1748],[6.903416007966072,45.77062521600075,1749],[6.903146007758672,45.77100521714145,1751],[6.902926008242343,45.77105521710227,1752],[6.902886007960656,45.771095216492306,1754],[6.902656007942186,45.77116521698133,1755],[6.90250600857,45.77117521691022,1757],[6.9019760084715225,45.77132521668932,1758],[6.901586008578622,45.77125521669279,1760],[6.900418007670692,45.771341216690594,1762],[6.900394198461223,45.771326179144154,1763],[6.900320905632081,45.771308312919906,1765],[6.900201094181504,45.77128469594778,1766],[6.900080433465177,45.77128366727346,1768],[6.900046234589692,45.77128898602518,1769],[6.899924545613679,45.77127009374254,1771],[6.899792295099914,45.77126082133162,1772],[6.899676059492698,45.771232510963436,1774],[6.899511273321658,45.77118427312278,1776],[6.899312153332014,45.771144920720666,1777],[6.899073915231095,45.77106083015414,1779],[6.898932598975899,45.77097614337584,1780],[6.898843991404379,45.770936444376765,1782],[6.898772451467126,45.770917580640095,1783],[6.8986552339767675,45.77087021585029,1785],[6.8986302874112795,45.77085548102775,1786],[6.898594026323643,45.7708231624022,1788],[6.8984598247288655,45.77077055528329,1790],[6.898455834051915,45.770770481849105,1791],[6.898404781023087,45.77077192123923,1793],[6.898364412614505,45.77076047129353,1794],[6.898311124143288,45.77073093903159,1796],[6.898262617722616,45.77070982208068,1797],[6.898246821654916,45.77068705694835,1799],[6.897936008503601,45.770565216530095,1800],[6.89778986103115,45.77044342634089,1802],[6.897778849932264,45.77044186816925,1804],[6.897692435737096,45.770434328996316,1805],[6.8975761135821045,45.770408394641606,1807],[6.89749001228198,45.77039253374368,1808],[6.897419513010632,45.770368631791804,1810],[6.897351963737634,45.77035668106889,1811],[6.897314749084007,45.77034010808396,1813],[6.8972860081243885,45.770335216338495,1814],[6.896999405892208,45.77034340489898,1816],[6.8969603961085975,45.77034947119054,1818],[6.896913724148063,45.770370025904555,1819],[6.896850242763505,45.77038551244222,1821],[6.896797402856135,45.77038929795865,1822],[6.896714450570602,45.770382662453024,1824],[6.896553033576191,45.77040994499859,1825],[6.896487118382404,45.77043563096229,1827],[6.896408259524793,45.77045321377169,1828],[6.896268288763523,45.77049108409038,1830],[6.896147008099363,45.77050521660432,1832],[6.895991028432333,45.77050777403428,1833],[6.895985396069284,45.77050966569619,1835],[6.895886107159792,45.770528060733696,1836],[6.895789365779654,45.77052389857913,1838],[6.895740190899312,45.7705206136777,1839],[6.89569722583222,45.77051947190461,1841],[6.8956952177374955,45.770518595150534,1842],[6.895639963517366,45.770496162874146,1844],[6.8955702681202515,45.7704960685116,1846],[6.895477684662998,45.7705169665054,1847],[6.895440247453803,45.770539407200054,1849],[6.895257041332767,45.7705852082914,1850],[6.895133869727656,45.7705959881678,1852],[6.8950753940893525,45.77061394572884,1853],[6.89499921689965,45.77065061050612,1855],[6.8949770076564745,45.77069521662312,1856],[6.8949422153541695,45.7707197508354,1858],[6.89489755468649,45.770732013565485,1860],[6.89482598223086,45.770736642753285,1861],[6.894756216520093,45.770728670194806,1863],[6.894646448342854,45.77071905740374,1864],[6.894531599687634,45.770744301876015,1866],[6.894504016687444,45.77075450044029,1867],[6.8944525254378215,45.770774684480614,1869],[6.894338779434394,45.77079191787511,1870],[6.894319439052831,45.77080314502401,1872],[6.894237984793583,45.77084447149941,1874],[6.894124252866123,45.77088520273967,1875],[6.894075792139501,45.77090810216065,1877],[6.893960550143551,45.770966352912204,1878],[6.893900556333563,45.770979522370695,1880],[6.893831932744242,45.770996101375594,1881],[6.893774395595881,45.77103429986798,1883],[6.89373558936069,45.77107165300763,1884],[6.893709390453521,45.77109020513758,1886],[6.89367308912032,45.77110619028731,1888],[6.893596017151328,45.77112142435746,1889],[6.893535529274234,45.77114767134643,1891],[6.893495202801868,45.77118023776014,1892],[6.8934454430311405,45.7712376139532,1894],[6.893375430878235,45.771291046923324,1895],[6.893318206590672,45.77132092272437,1897],[6.893216015850079,45.77139368928119,1898],[6.893116628334879,45.77150487420688,1900],[6.893064317879316,45.771584806316824,1902],[6.892973782281355,45.771686637214856,1903],[6.892901846048422,45.77174598287253,1905],[6.892859014722777,45.77179991700888,1906],[6.892834379937686,45.77182206652268,1908],[6.892773654341165,45.771877157357935,1909],[6.89273163885587,45.771910797605116,1911],[6.892653239639919,45.77203399542646,1912],[6.892641761153164,45.77203889774725,1914],[6.892561867323426,45.77208382054215,1916],[6.8925020469564995,45.77212125621019,1917],[6.8924370082486766,45.77214521799488,1919],[6.892230908191865,45.77227818530904,1920],[6.892226700880247,45.77229385686141,1922],[6.892169959594256,45.7724010694195,1923],[6.892115186072873,45.77250117991266,1925],[6.892101860860129,45.77253900369064,1926],[6.892066495539366,45.7725752298897,1928],[6.89201512711627,45.77258498883075,1929],[6.891954461320056,45.77257078312082,1931],[6.891907969945923,45.772541372438376,1933],[6.891880075586588,45.77251468567312,1934],[6.891860808851871,45.772484587633286,1936],[6.8918489660177285,45.77243797197061,1937],[6.891838732693943,45.77239376576848,1939],[6.891853159436734,45.77233982522659,1940],[6.891879516516567,45.77225889707372,1942],[6.891907104391045,45.77220349205668,1943],[6.8919096101112025,45.772182124145736,1945],[6.891897007857465,45.77213521725028,1947],[6.8918708837872185,45.7721016291169,1948],[6.891871975592626,45.772098152547976,1950],[6.891856510513706,45.77205741849862,1951],[6.891843857714378,45.77205218601809,1953],[6.8918399921068145,45.77205592370392,1954],[6.891805878493496,45.77208146674861,1956],[6.8917647692641335,45.77211223418463,1957],[6.8917366893865495,45.772127325518774,1959],[6.891607007621181,45.77224521783848,1961],[6.891592374825385,45.77225463681181,1962],[6.891514180278685,45.77229959024417,1964],[6.891451231131482,45.77232341093353,1965],[6.891365147112136,45.772352157978915,1967],[6.891292229719055,45.772369846952024,1968],[6.891173803850845,45.772410934105324,1970],[6.89112389017962,45.77240465888542,1971],[6.891061930470272,45.77237972082549,1973],[6.891047893858109,45.77236875543976,1975],[6.8910062452157455,45.7723464137603,1976],[6.890877008145147,45.772315218068535,1978],[6.890757007823711,45.772215217830315,1979],[6.890695246283339,45.77215325127123,1981],[6.890645985378337,45.77210713425906,1982],[6.890633157147275,45.77210188400307,1984],[6.890605395847707,45.77207902282486,1985],[6.890586220892222,45.77204654741063,1987],[6.89056742580077,45.77200396686491,1989],[6.8905545888435045,45.77196119934782,1990],[6.890551279148339,45.77191435593368,1992],[6.890550082831019,45.77187783921052,1993],[6.890528898649984,45.7718310508636,1995],[6.890505030007025,45.771787782555,1996],[6.890460917882463,45.77170739997229,1998],[6.890434574899972,45.77168387190516,1999],[6.8904239261838205,45.77166196401963,2001],[6.890413914626791,45.77163441644208,2003],[6.89041502442296,45.771604993364015,2004],[6.890421685587917,45.77156362646149,2006],[6.890398519110472,45.771535538866715,2007],[6.890379277176855,45.7715048469914,2009],[6.890376173811039,45.771451923891895,2010],[6.89033759909132,45.771392917303054,2012],[6.89035857788922,45.77131560467443,2013],[6.8903219608566335,45.77129485338211,2015],[6.890309222680686,45.771272014029414,2017],[6.890309025815978,45.77123215674828,2018],[6.8903000670130385,45.77119927506438,2020],[6.890292514530124,45.771174152652364,2021],[6.890296094573004,45.77114685613905,2023],[6.890295510752243,45.771100891119254,2024],[6.890292368091203,45.77104284056077,2026],[6.890271696361309,45.77100498389617,2027],[6.890263967005093,45.77096201367403,2029],[6.890249574689305,45.770937953880036,2031],[6.890236500264398,45.770924031476405,2032],[6.890207007698769,45.77090521637454,2034],[6.890011590427144,45.770793549711584,2035],[6.889974015433403,45.77078460106233,2037],[6.889900367546751,45.77075409377225,2038],[6.889860180404261,45.77073788556118,2040],[6.889829402941079,45.77072006638538,2041],[6.889800616103334,45.77069455158824,2043],[6.88979415746384,45.77068550997926,2045],[6.889787008265873,45.77066521659154,2046],[6.88977724219476,45.770655787147746,2048],[6.889712440914764,45.77060979479779,2049],[6.889664275702952,45.77057975732241,2051],[6.889624022888514,45.770542729482415,2052],[6.8895793680562445,45.77050978304833,2054],[6.889535292364632,45.77048398565556,2055],[6.889500582751876,45.77045776639259,2057],[6.889473450434583,45.77043347106316,2059],[6.889448890642815,45.77038602608413,2060],[6.8892937454708205,45.77020649282536,2062],[6.889245516384443,45.770155635657375,2063],[6.88922415026059,45.770136206343835,2065],[6.88921420629404,45.770112785767274,2066],[6.889215408881638,45.77010883063937,2068],[6.8892088635672915,45.770079563099166,2069],[6.889191141082206,45.77005365770362,2071],[6.889165326760854,45.77003949970695,2073],[6.8891294091417565,45.77002277521101,2074],[6.88908225130265,45.769988592439276,2076],[6.889064147532406,45.76997279212384,2077],[6.889036948288516,45.76995028116576,2079],[6.889026889872149,45.76994652561665,2080],[6.888982161507019,45.76992955450954,2082],[6.888887008052325,45.769855215855,2083],[6.888692610611013,45.769787361668605,2085],[6.888664153622948,45.7697610732282,2087],[6.888630807349707,45.76974380117339,2088],[6.8885794217177,45.76973154914104,2090],[6.888511339900789,45.7697112560014,2091],[6.888468159844654,45.76970901576058,2093],[6.888375134651168,45.76967654530723,2094],[6.888366411118741,45.76966649237606,2096],[6.888321733995771,45.76963413997006,2097],[6.888283335665432,45.76961558452274,2099],[6.888222765152997,45.769598998827725,2101],[6.888191697069314,45.76958890712807,2102],[6.888165748572134,45.76957831515162,2104],[6.8881383927876545,45.76955996474985,2105],[6.888082538748514,45.76953097429537,2107],[6.887999008198203,45.7695034053155,2108],[6.88785864203732,45.76948415475144,2110],[6.887827007598886,45.76948521589404,2111],[6.887770729404017,45.769460073289174,2113],[6.887736825872453,45.76943505826916,2115],[6.887715505452308,45.76941443963921,2116],[6.887705987212276,45.769396419048036,2118],[6.887710573729464,45.769364977555654,2119],[6.887726561835449,45.76932422973097,2121],[6.887733028228514,45.76928806440121,2122],[6.887761638965033,45.769261323615986,2124],[6.887774247503567,45.7692234951696,2125],[6.887763407640219,45.76915880374434,2127],[6.887759056061366,45.76911648984918,2129],[6.887757925131627,45.769056390974356,2130],[6.887753259284631,45.76902239950075,2132],[6.887771440122161,45.76896860538236,2133],[6.887810319533328,45.76890686764345,2135],[6.8878038509934285,45.768895309174084,2136],[6.887824582535744,45.768889285987356,2138],[6.887851327826132,45.76881126228459,2139],[6.887864969141691,45.76876511749074,2141],[6.88790825294939,45.76869929750539,2143],[6.887939591957249,45.768679651882806,2144],[6.8879542489064205,45.76865166832644,2146],[6.887983717291396,45.768591540397,2147],[6.888013230506304,45.76853022341202,2149],[6.888017008218238,45.76848521477469,2150],[6.887947074012556,45.76843650371137,2152],[6.88794216458811,45.76838644710473,2153],[6.887910030087429,45.76833707597854,2155],[6.887892018219355,45.768318898318974,2157],[6.887867749057495,45.76828632821389,2158],[6.887840487189676,45.76824299656592,2160],[6.887821135530214,45.76821527600354,2161],[6.8878136294208145,45.76818896439574,2163],[6.887796695045845,45.76814225411106,2164],[6.88779918651357,45.76807627374083,2166],[6.887825309775546,45.76796968689227,2167],[6.887853393137097,45.767901206038665,2169],[6.887882906102241,45.76783988907656,2171],[6.887917007418674,45.767805214073356,2172],[6.8878770085565595,45.76778521399167,2174],[6.887835888927753,45.76777953559161,2175],[6.88778126224233,45.76778566364016,2177],[6.8877241721027,45.76781197040229,2178],[6.887656755872776,45.767841654873145,2180],[6.8875172764937735,45.76788904077318,2181],[6.887432604631838,45.767925543385815,2183],[6.887339796865327,45.767952379117375,2185],[6.887260085758569,45.76799254300025,2186],[6.887175502082069,45.76802666820001,2188],[6.887072809543554,45.76809019981625,2189],[6.887068867111393,45.76809603845675,2191],[6.886967008201277,45.76813521453174,2192],[6.886927190919154,45.76816365589582,2194],[6.886854118835436,45.76818697804104,2195],[6.886795105609545,45.76821919633709,2197],[6.886722898051272,45.76828567147138,2199],[6.886676800348754,45.76833597414673,2200],[6.886617007415508,45.76838521421811,2202],[6.886610120798674,45.768387111909554,2203],[6.886608808943947,45.768392117156836,2205],[6.886542910769319,45.76842658766646,2206],[6.886439775540038,45.76845680027519,2208],[6.886358767090455,45.7684862324281,2209],[6.886329619584503,45.76849283043542,2211],[6.886236821798618,45.76848999234479,2213],[6.88611580303243,45.76852334428348,2214],[6.886108391199638,45.768521748998985,2216],[6.886079872621714,45.76851170391238,2217],[6.886039462285524,45.76850143869899,2219],[6.886010449516458,45.76850447038923,2220],[6.885967173272566,45.76852508349052,2222],[6.88592197332311,45.768551609447634,2223],[6.885846331119563,45.7685740022139,2225],[6.885741765879708,45.76859704936009,2227],[6.885674259072944,45.76862911073416,2228],[6.885582788870591,45.76866548611074,2230],[6.885570207681672,45.76867370472149,2231],[6.885347007823056,45.76873521510688,2233],[6.885230794126333,45.76878969033175,2234],[6.885149406185255,45.76886535597169,2236],[6.885112744343672,45.76889084984034,2237],[6.885073178904837,45.76890320308476,2239],[6.885045415379841,45.76891815462901,2241],[6.88497799643022,45.76894783746438,2242],[6.8849485922341955,45.768959274476416,2244],[6.8848504151945455,45.768995143430566,2245],[6.884839479854508,45.768995237918624,2247],[6.884796675587475,45.769022699756285,2248],[6.88477414257392,45.76903417938023,2250],[6.884750764736267,45.769023039299334,2251],[6.884742720465,45.76901099424161,2253],[6.884732323905839,45.76899616133836,2255],[6.884718858787065,45.76896772392776,2256],[6.88468945048994,45.7689362478383,2258],[6.884645778238329,45.768922352984895,2259],[6.884592668064607,45.76893326530275,2261],[6.884553542563962,45.76897893765757,2262],[6.884510570602437,45.76903643571281,2264],[6.884485214429666,45.76907760449594,2265],[6.884458554274177,45.76915324923519,2267],[6.88442224201634,45.769214439350385,2269],[6.884410385441713,45.769258237040994,2270],[6.884409436550685,45.76928332477607,2272],[6.884408508137849,45.76930787105558,2273],[6.884389687772777,45.76931109114354,2275],[6.8843751778985585,45.76931082235064,2276],[6.884375259810858,45.769310526848976,2278],[6.884340885791693,45.769297993104615,2279],[6.88430791722739,45.769293218683366,2281],[6.884282257051875,45.7692975019191,2283],[6.884273088683115,45.76931517661459,2284],[6.884271272351862,45.7693407208087,2286],[6.884274328268032,45.76937230374701,2287],[6.8842911700660805,45.76942139258594,2289],[6.884300435016614,45.76946855534233,2290],[6.884305684619797,45.769487092978125,2292],[6.884317547967398,45.7695105108415,2293],[6.8843208274732905,45.76953614943787,2295],[6.884281500427166,45.769632081688854,2297],[6.884249946227894,45.769702282164204,2298],[6.884202725800107,45.769759700490866,2300],[6.884095063969359,45.769875780831164,2301],[6.88401205219947,45.769958113794715,2303],[6.883822044635059,45.77007147826205,2304],[6.883797007427013,45.77009521597884,2306],[6.883327007296599,45.770565216021936,2307],[6.883267583616537,45.77072159683249,2309],[6.883269251505095,45.77073101624737,2311],[6.883234152809483,45.770939747009336,2312],[6.883180129866933,45.77101964286685,2314],[6.883137008113781,45.77106521635043,2315],[6.883075852752694,45.77114675666634,2317],[6.883056107626629,45.77115237154686,2318],[6.882975443938794,45.77121749766504,2320],[6.8829168521666215,45.771328240080464,2321],[6.882910779663216,45.771366855187296,2323],[6.88286932907536,45.77142212076513,2325],[6.882873573215468,45.771438671396396,2326],[6.8828340844932185,45.77149385362231,2328],[6.882757199293645,45.77150402731287,2329],[6.882699417832299,45.771503551024125,2331],[6.882614917387139,45.77153529552361,2332],[6.882569370279096,45.77159333912322,2334],[6.882470895571773,45.77163493566905,2335],[6.882442049714279,45.771678419032405,2337],[6.88232624641791,45.771762373976216,2339],[6.88220185691493,45.7717475754804,2340],[6.882146661820673,45.77176856104178,2342],[6.882133014989205,45.77181470503381,2343],[6.8820364481893215,45.77195180748433,2345],[6.881898347323464,45.772052152546664,2346],[6.88196063401307,45.77211323715959,2348],[6.8819970075826795,45.772205218067576,2349],[6.881797007952887,45.772245217354154,2351],[6.881567007451407,45.77249521833236,2353],[6.88135700825787,45.77256521838635,2354],[6.880857169952764,45.77305966807308,2356],[6.8807790293037225,45.77319265066201,2357],[6.880728289224582,45.77318576062197,2359],[6.880684131958231,45.773139734016375,2360],[6.880664479721258,45.77307512683098,2362],[6.880681796662863,45.773021913674,2363],[6.8806470077224455,45.77297521844846,2365],[6.880567008037427,45.77296521838394,2367],[6.880397007363904,45.773155218362916,2368],[6.880286098028346,45.773212947076786,2370],[6.880104398626223,45.77325240190155,2371],[6.879795095576107,45.77336176035685,2373],[6.879664464579445,45.77335457652066,2374],[6.8795303314536875,45.7733949144415,2376],[6.879302525365024,45.77350697368371,2377],[6.879227008278543,45.773545218886845,2379],[6.878997007303154,45.77378521860626,2381],[6.878807007786127,45.773925219223464,2382],[6.878537007981446,45.77393521879084,2384],[6.878437007432925,45.77401521954892,2385],[6.878375137423004,45.77411224212842,2387],[6.87848700792054,45.77424521925979,2388],[6.878377007687665,45.774315219079504,2390],[6.8783775995319045,45.77440583793478,2391],[6.877887007722797,45.77446521913626,2393],[6.877809948432071,45.7745356720904,2395],[6.877837007555123,45.774725219321105,2396],[6.878107007621791,45.775035219632755,2398],[6.878106591400867,45.77503615515937,2399],[6.8780934374434946,45.77503970630273,2401],[6.878062180377264,45.77505697098013,2402],[6.878014611832074,45.77505608714156,2404],[6.8779787095432985,45.77506136853017,2405],[6.877960682596418,45.7750883953097,2407],[6.877955479730452,45.77513588555541,2409],[6.877955509817874,45.77517990340783,2410],[6.877935961613493,45.77520108934765,2412],[6.8779127719712605,45.77521451573299,2413],[6.877913022388893,45.77522432200802,2415],[6.877893566808912,45.775244184777485,2416],[6.877833925801963,45.77524783513966,2418],[6.87770951501433,45.775211022268465,2419],[6.877651090912683,45.775182574810664,2421],[6.877584036840457,45.775157534767644,2422],[6.8775666390013175,45.775145612403534,2424],[6.877441115984015,45.77509331378691,2426],[6.877289839663817,45.77504767381416,2427],[6.877243316789721,45.775049705473684,2429],[6.877178027840064,45.77503726819816,2430],[6.877079718102729,45.77502949231087,2432],[6.877064775323748,45.77502910293572,2433],[6.876897008478491,45.77494522029094,2435],[6.876687008011864,45.7747152199572,2436],[6.876427008005581,45.774645219755804,2438],[6.87608700828236,45.77461521933749,2440],[6.87604090696817,45.77462773231241,2441],[6.87603248156979,45.77462605632138,2443],[6.875869913474219,45.77465396414618,2444],[6.875812720522174,45.774682641872076,2446],[6.875677335263956,45.77471105501541,2447],[6.875641073516602,45.774736261649494,2449],[6.874886972450231,45.774940945774915,2450],[6.874836122218817,45.774970812103625,2452],[6.874760150788227,45.775001519613916,2454],[6.874658922426833,45.77502580856861,2455],[6.874611126844386,45.77503086666383,2457],[6.8745446439475515,45.77503557785223,2458],[6.874440786495839,45.77503959339855,2460],[6.874340415241169,45.775041293986845,2461],[6.874227565973632,45.77505822880809,2463],[6.873931984630415,45.77509674385551,2464],[6.873652280734455,45.77512008807411,2466],[6.873607628060013,45.77512427900729,2468],[6.873197008347822,45.77532522023187,2469],[6.872997009973568,45.77547067281275,2471],[6.872997576775606,45.77548204659066,2472],[6.872978623859012,45.77557805641875,2474],[6.8729732371240155,45.775630301615344,2475],[6.872946919793174,45.775696432788436,2477],[6.872904833775005,45.775730149021186,2478],[6.872788719990313,45.77574345199024,2480],[6.8726748028242595,45.7757437098278,2482],[6.872519044969548,45.77572653256566,2483],[6.872301196947755,45.77568797314777,2485],[6.872010657962795,45.775638542572096,2486],[6.871822066092307,45.7756042788065,2488],[6.871087504510986,45.7755171091768,2489],[6.871458709073821,45.77566496733132,2491],[6.872207815198725,45.775921942111154,2492],[6.872320073566464,45.77601403929574,2494],[6.872288206808418,45.77617545587436,2496],[6.872300375817877,45.77619368373201,2497],[6.872241775217656,45.77638160393456,2499],[6.872238614751745,45.77643116429589,2500],[6.872239529503867,45.77643311916155,2502],[6.872291755919622,45.77646799733401,2503],[6.872350834368177,45.7764792101294,2505],[6.872454912246333,45.77649185614513,2506],[6.872584392824896,45.77648475099116,2508],[6.87272192567567,45.77646708860102,2510],[6.872788410394403,45.776462378507816,2511],[6.872875123761696,45.776462209711035,2513],[6.873044746420613,45.77647250635062,2514],[6.873237203791105,45.77650821175907,2516],[6.873509810566678,45.776582288185885,2517],[6.87374145935322,45.77666208452412,2519],[6.874247107568045,45.77686547420806,2520],[6.874863106534594,45.77714193590296,2522],[6.8750309727984185,45.77721435663205,2524],[6.875104188407027,45.77724040566443,2525],[6.875180523024452,45.77723907714616,2527],[6.875577612022815,45.77718503734114,2528],[6.875988398456833,45.777100537362514,2530],[6.876233935893996,45.7770743910219,2531],[6.876673219848711,45.77706500803107,2533],[6.877161798255194,45.7770784785293,2534],[6.8775606560074625,45.777142931086466,2536],[6.877964617485193,45.77723819061945,2538],[6.878094205956872,45.77729324994307,2539],[6.8784915155868624,45.77756388879099,2541],[6.878615670790055,45.777596908604544,2542],[6.878861905231117,45.777717754227076,2544],[6.879035191948762,45.77777801185383,2545],[6.879262213560995,45.777909468785744,2547],[6.879383378236994,45.77802140950461,2548],[6.879798831975595,45.77830993177148,2550],[6.880071382971423,45.778398355453625,2552],[6.880376927311814,45.77844351577526,2553],[6.88086796371108,45.77855793125681,2555],[6.88106154976101,45.778579073372015,2556],[6.881520141536376,45.778556867516166,2558],[6.881810044750964,45.778518368815504,2559],[6.8825625244040705,45.778352430205615,2561],[6.882759098825879,45.7782946475802,2562],[6.882986007210928,45.77826375267347,2564],[6.883699847077403,45.778290146139284,2566],[6.884103036822029,45.77824057750122,2567],[6.884387997646328,45.778166879376336,2569],[6.884675078661778,45.778202910608975,2570],[6.885076074410407,45.77837706726428,2572],[6.88523750206848,45.77841954474116,2573],[6.8855499807835745,45.778447268508366,2575],[6.885860966549321,45.77851445286318,2576],[6.886369157400319,45.778673039070156,2578],[6.8866989447129905,45.77874056819964,2580],[6.887052622107071,45.77883969112802,2581],[6.887752588020935,45.77906763300111,2583],[6.888070012136183,45.77913054262591,2584],[6.888391386576787,45.77925495145554,2586],[6.888726784174395,45.77934012954337,2587],[6.889116097040318,45.77949211710085,2589],[6.88922657282613,45.77955558603269,2590],[6.889399545882577,45.77962459763892,2592],[6.890306468607413,45.77985239886168,2594],[6.8907144224247245,45.78000911396812,2595],[6.890995232967888,45.780211742584896,2597],[6.891185687112808,45.780316175580914,2598],[6.891802571023311,45.78058643432572,2600],[6.892147044164397,45.78076390950829,2601],[6.892465131884108,45.78097599892498,2603],[6.892641735985302,45.781115274274484,2604],[6.89307194592745,45.78134741935192,2606],[6.893640701300061,45.78156412871569,2608],[6.894269536795264,45.78187581523849,2609],[6.894710605968697,45.78212565950766,2611],[6.894843468111851,45.78221586136923,2612],[6.895015856469941,45.78237467111802,2614],[6.895148888967995,45.782528270293426,2615],[6.8952112125681895,45.78249984037796,2617],[6.895229010119105,45.78246583574888,2618],[6.895229161460337,45.782393543351,2620],[6.895146226918814,45.782261457272725,2622],[6.8951619899275425,45.78223556966213,2623],[6.895202599720555,45.78222830219971,2625],[6.895357008534715,45.78228522586788,2626],[6.895547825797628,45.782457238921594,2628],[6.895717008015437,45.78255522665482,2629],[6.896252588204876,45.78273215654619,2631],[6.896314136827693,45.78280964652171,2632],[6.896787392495627,45.78325626343201,2634],[6.897566560012509,45.783815336086924,2636],[6.897685399699805,45.78388357162655,2637],[6.898039666619494,45.78397321344126,2639],[6.898330077812433,45.78401667719976,2640],[6.898690169963206,45.78414004036451,2642],[6.899084667500589,45.784330210988955,2643],[6.899331805217579,45.784497578832934,2645],[6.8996732514814845,45.78478287502015,2646],[6.899869556996173,45.784907992497686,2648],[6.900133626647155,45.78524136744376,2650],[6.900269195772812,45.785495877308186,2651],[6.900366834061248,45.785558959842966,2653],[6.90044636927404,45.78558463891331,2654],[6.901342122579475,45.78572261014613,2656],[6.901856196097139,45.78582206196606,2657],[6.9021358414667455,45.78594420627658,2659],[6.902305813841528,45.786064334641374,2660],[6.902641892752361,45.78635402354566,2662]]}}]}