{"type":"FeatureCollection","features":[{"type":"Feature","properties":{"slug":"23-s3","sct_code":"23_S3","source":"Catasto Sentieri VdA"},"geometry":{"type":"LineString","coordinates":[[7.774043008378148,45.57206207337348,319],[7.7739230085307724,45.57222207280301,323],[7.773853008790705,45.57227207311149,327],[7.773573008483703,45.5723220733619,331],[7.773353007572611,45.57248207306361,335],[7.772953007656579,45.572562073268315,339],[7.772745008502531,45.57267907353908,343],[7.772673007905816,45.5727420730357,347],[7.772723008219365,45.572942073656996,352],[7.772793007663595,45.57300207334653,356],[7.77278300760229,45.57306207393889,360],[7.77253300827047,45.57325207331161,364],[7.772453007731986,45.5735120738242,368],[7.77226300798067,45.573632073985,372],[7.771883008714013,45.57376207406614,376],[7.771893008110004,45.57384207420191,380],[7.772063007588971,45.57396207394368,384],[7.771943008420595,45.574102074246795,388],[7.772123008411242,45.574171074158656,392],[7.772273008357338,45.57429107459673,396],[7.772463008775486,45.57428107461917,400],[7.772463008620925,45.57434107463319,404],[7.772293008566715,45.5744310741937,408],[7.772203008298097,45.574531074670595,413],[7.772363007591541,45.57460107430136,417],[7.772523008632307,45.57462107446551,421],[7.772793008427213,45.57471107439266,425],[7.772803007867681,45.57476107488054,429],[7.773093007814934,45.57490107492183,433],[7.77334300848968,45.574981074882515,437],[7.7737330084399305,45.57493107444038,441],[7.773943008233156,45.57498107520601,445],[7.77458300813223,45.5749510744439,449],[7.7747230087628925,45.57491107475295,453],[7.774883008461209,45.57479107457295,457],[7.775323008247647,45.57468107483624,461],[7.775413007759061,45.57462107490457,465],[7.775493007811566,45.57461107496892,469],[7.775740008565671,45.574798074639,474],[7.775419150185499,45.5749381711592,478],[7.775062513823213,45.57517696621143,482],[7.774573941159002,45.57540735920515,486],[7.773997462601003,45.57563644563565,490],[7.773398564373751,45.57598984636954,494],[7.7729442069715935,45.57604032438459,498],[7.771289519712749,45.576008696400315,502],[7.771011574687789,45.576102583084214,506],[7.770813008679218,45.576341075484756,510],[7.77150611949362,45.576442450028296,514],[7.771449874598173,45.577015006504006,518],[7.771547181226094,45.57702106293184,522],[7.771533008551275,45.57706107640615,526],[7.771587552172356,45.57707663940266,530],[7.771697848109192,45.577048107755424,535],[7.771938968309647,45.577078348146095,539],[7.771975909810241,45.57709830128839,543],[7.772043007510601,45.5770610763544,547],[7.77212300761494,45.57707107577867,551],[7.7722830081515895,45.57705107597069,555],[7.7724530080423175,45.57709107628453,559],[7.772523008523654,45.57711107581558,563],[7.772603008657795,45.57721107623424,567],[7.772623008066901,45.577281075862636,571],[7.772633007834314,45.577241075918664,575],[7.772653008571321,45.57726107631766,579],[7.772663008312056,45.57731107589944,583],[7.772803008755711,45.57737107614879,587],[7.7728830081443006,45.57738107593224,591],[7.772853007671078,45.57741107628503,596],[7.772763008470326,45.57739107629832,600],[7.772643008750052,45.57743107607994,604],[7.7725730076281065,45.577521076737355,608],[7.772393008386041,45.577631076651016,612],[7.772243007834194,45.577751076364436,616],[7.772253007578922,45.577761076590996,620],[7.772153008274436,45.577871076449426,624],[7.77216300875063,45.57794107667111,628],[7.772213008581277,45.578031076325765,632],[7.772163007547558,45.57807107646197,636],[7.772163007599993,45.57820107716355,640],[7.772213007652719,45.578291076816555,644],[7.772193007550904,45.578321076480634,648],[7.772143007711545,45.57834107692738,652],[7.772143008709803,45.57837107647562,656],[7.772213007993832,45.57840107692479,661],[7.772223007604831,45.578441076688584,665],[7.7721430080086025,45.5784410771886,669],[7.772043008537518,45.57855107693694,673],[7.77203300867246,45.57865107679221,677],[7.771973008356769,45.57868107750219,681],[7.771870007701812,45.57869807686955,685],[7.771913008575745,45.57876107741235,689],[7.771833007655003,45.578901077312295,693],[7.771733008462532,45.57891107743552,697],[7.771723007907347,45.578941077436525,701],[7.771793007992139,45.579031077217465,705],[7.771763007821694,45.579031077745256,709],[7.771753008042286,45.57909107729065,713],[7.771763008582749,45.579291077311424,717],[7.771673008413914,45.57932107748417,722],[7.77166300756615,45.57936107731892,726],[7.771523007685155,45.579281077810876,730],[7.771363008061057,45.57936107742463,734],[7.771353007770628,45.57942107782643,738],[7.771543007890701,45.57971107739456,742],[7.771573008771686,45.57988107787143,746],[7.771483008358473,45.57999107753507,750],[7.771603008757922,45.580041077582756,754],[7.771673007601209,45.58012107756395,758],[7.771723007959134,45.580241077833826,762],[7.771723007819206,45.580391078171445,766],[7.7717830077901295,45.580421078451884,770],[7.7717630079620745,45.58045107803328,774],[7.7718330086363725,45.5805410786726,778],[7.771803008290926,45.58058107857805,783],[7.771863008200569,45.58063107849891,787],[7.7718230084340565,45.58069107858289,791],[7.771533007966026,45.580721078172516,795],[7.771303008302884,45.5807910783073,799],[7.771413008096068,45.58086107865888,803],[7.772043008620483,45.58098107850974,807],[7.772033007715291,45.58102107836516,811],[7.771423007809453,45.58116107885462,815],[7.771313008708921,45.581241078842034,819],[7.772263007560367,45.58152107850329,823],[7.772433008212075,45.58153107929838,827],[7.773053007958089,45.58147107875735,831],[7.77323300806674,45.58151107908845,835],[7.773053008174935,45.58176107862937,839],[7.773030008295626,45.58188807884947,844],[7.77294300799798,45.581961079145294,848],[7.772923008393299,45.582061079602155,852],[7.77294300844841,45.58211107944476,856],[7.7729130081463795,45.58220107972884,860],[7.772843007718067,45.58223107965383,864],[7.772873008464047,45.58232107920097,868],[7.77299300872754,45.58240107908166,872],[7.773159261878912,45.58236334623343,876],[7.77309852257255,45.582442528706785,880],[7.773075869138712,45.582633812434125,884],[7.772972873238195,45.58273781863465,888],[7.773234493467381,45.5827539076711,892],[7.772933007951494,45.58312107992324,896],[7.7729730081916,45.5834310797713,900],[7.77281300767101,45.58353108012971,905],[7.772753008778359,45.58373108027036,909],[7.77259300829152,45.583831080316344,913],[7.772843008051277,45.58422108065032,917],[7.7728430081135995,45.58435108031735,921],[7.772503007761983,45.58453108093475,925],[7.772723008099391,45.58481108132425,929],[7.772403008319531,45.584791081118325,933],[7.772543007687057,45.585101081060905,937],[7.7729430084068225,45.585291081562666,941],[7.773483007666724,45.58533108164883,945],[7.7737030080650324,45.585431081302765,949],[7.773473008349302,45.58561108122968,953],[7.772983007666487,45.58570108141916,957],[7.773463008540763,45.585741081492294,961],[7.774103007898573,45.58553108101604,966],[7.774363008581302,45.585391081558896,970],[7.774703008715651,45.58538108160642,974],[7.77463300754571,45.58524108092778,978],[7.7748130086305,45.585081081163565,982],[7.774853008153488,45.58462108128033,986],[7.7747530081281475,45.584551080851575,990],[7.77474300753832,45.58445108052841,994],[7.774943008470433,45.58431108053416,998],[7.775373008305148,45.5843010807625,1002],[7.775803008599175,45.584351081090304,1006],[7.776083007885132,45.58463108080537,1010],[7.776423008273659,45.584401081159875,1014],[7.776573008100863,45.58444108064595,1018],[7.776873007770884,45.5842810802766,1022],[7.777003008493957,45.58429108064606,1027],[7.7770130079527116,45.58439108076026,1031],[7.7778930087010325,45.584471081050175,1035],[7.777993007868585,45.58435108094981,1039],[7.778013007550232,45.58445108085553,1043],[7.778353007645127,45.58470108104646,1047],[7.778523008284148,45.58501108130091,1051],[7.778773007790226,45.58513108114136,1055],[7.778850008229086,45.58523808085406,1059],[7.779033007502098,45.58543108172816,1063],[7.77911300771212,45.58545108147094,1067],[7.77912300823825,45.58549108149061,1071],[7.77907300847198,45.585501081516504,1075],[7.779223008498396,45.58559108118093,1079],[7.779223008429067,45.585681081478654,1083],[7.779103007559067,45.58569108128685,1088],[7.778893008345822,45.58576108182089,1092],[7.778803008431559,45.58577108161985,1096],[7.7788930075381675,45.585861081941204,1100],[7.778863008639564,45.58599108217435,1104],[7.778783007914162,45.58602108141584,1108],[7.77864300824622,45.58600108163475,1112],[7.778323007664995,45.58601108131482,1116],[7.778113008242587,45.5859510816855,1120],[7.7776930082998685,45.586041081342216,1124],[7.777663008235219,45.58607108202035,1128],[7.777523007869307,45.5859310819665,1132],[7.777483008054336,45.586011081843665,1136],[7.7775030082623005,45.58609108215164,1140],[7.777563008198673,45.58621108145394,1144],[7.777733008264565,45.58635108205705,1149],[7.777623007898367,45.58637108184806,1153],[7.777683007911195,45.58641108242713,1157],[7.777693008015125,45.58644108182944,1161],[7.7775930075318,45.58646108239466,1165],[7.777643007530287,45.58653108167509,1169],[7.777793007836792,45.58656108241529,1173],[7.777963008540691,45.58676108256242,1177],[7.777883008111501,45.586841082129766,1181],[7.777493008469339,45.586811081829886,1185],[7.777383007578082,45.58682108245169,1189],[7.7774430082588175,45.586881081923224,1193],[7.77734300799702,45.586931082664236,1197],[7.777433008494865,45.586981082109695,1201],[7.777313008450271,45.587041082799765,1205],[7.777503007529789,45.587141082466175,1210],[7.777143007723017,45.587261082692905,1214],[7.776930008060182,45.5872580829182,1218],[7.777013008739932,45.58735108261448,1222],[7.777083008315141,45.587511082324525,1226],[7.776953008492502,45.58774108248411,1230],[7.7770030076881085,45.58776108287252,1234],[7.777203007724137,45.58771108285483,1238],[7.777223008082529,45.58789108328669,1242],[7.7771130083702555,45.5879110825895,1246],[7.777023008718854,45.58808108275604,1250],[7.776993008350071,45.58832108325413,1254],[7.777013008780678,45.588491082976745,1258],[7.776903008196101,45.58857108373727,1262],[7.776913008225244,45.5886910834508,1266],[7.776853007644363,45.58876108328717,1270],[7.776686467435013,45.5887240006095,1275],[7.77656302719606,45.58879060980088,1279],[7.776461641432775,45.58881019849834,1283],[7.776166859224897,45.58882476193399,1287],[7.776052728287193,45.588850120895614,1291],[7.775771685790233,45.589006600378134,1295],[7.775566409829167,45.5891609382625,1299],[7.775370442182404,45.58927402525476,1303],[7.775188890300488,45.58930456765309,1307],[7.774839589236156,45.58950461631857,1311],[7.774695181031886,45.589568044527695,1315],[7.774853007520277,45.589651084446054,1319],[7.774973007553596,45.58961108421752,1323],[7.775163007891747,45.58963108373232,1327],[7.775353007502194,45.589721084409724,1331],[7.775433008525732,45.589681084163345,1336],[7.775753007600527,45.589751083975735,1340],[7.775793008292003,45.58966108403535,1344],[7.775783007729499,45.589511083855925,1348],[7.7758930079024795,45.58943108418117,1352],[7.7762030087801755,45.58938108386832,1356],[7.776373007812661,45.58953108353488,1360],[7.776483007814356,45.58946108401751,1364],[7.776733008095086,45.589481083668495,1368],[7.777233007651982,45.58945108432958,1372],[7.777343008019453,45.58940108364117,1376],[7.777413008772742,45.58942108372955,1380],[7.777293007573339,45.58950108401747,1384],[7.777323007744576,45.58956108369529,1388],[7.7774330077532605,45.58952108364405,1392],[7.777563007645133,45.58959108411367,1397],[7.777643008586555,45.58957108377141,1401],[7.777583008605786,45.589711083673,1405],[7.7777630078272235,45.58980108401876,1409],[7.777873007663081,45.589801083748604,1413],[7.778373007775391,45.58958108362223,1417],[7.778493008402301,45.58956108385506,1421],[7.778663008099834,45.589451083721194,1425],[7.778753008030645,45.589421083482804,1429],[7.7790230078772264,45.589491084071675,1433],[7.77901300769562,45.58934108417839,1437],[7.7791630079339695,45.58933108379301,1441],[7.779273008083205,45.589251083561784,1445],[7.779373008390766,45.58928108426666,1449],[7.779403008718874,45.589391084335595,1453],[7.779463008433708,45.58940108357368,1458],[7.779483008485652,45.58928108424886,1462],[7.779553008476258,45.58931108374443,1466],[7.779633008135277,45.5894510837238,1470],[7.779793008327419,45.58937108345736,1474],[7.779843007874591,45.58930108415755,1478],[7.779713007782195,45.589141083334184,1482],[7.779853008120087,45.58912108338791,1486],[7.780263008500897,45.589301084084575,1490],[7.780323008190771,45.58929108411683,1494],[7.780343007930016,45.58924108342618,1498],[7.78071300866044,45.58933108356739,1502],[7.780903007977819,45.58948108386872,1506],[7.780963008496612,45.58961108384471,1510],[7.780943008030564,45.589671084459205,1514],[7.781373008644543,45.58963108421709,1519],[7.781493007989176,45.589651084189484,1523],[7.781583007746939,45.5897110837565,1527],[7.781683008775036,45.589881084506914,1531],[7.781673007738209,45.590011084474995,1535],[7.7816430082598,45.59016108409096,1539],[7.781495265176984,45.59023813674483,1543],[7.781524753702719,45.5904859726486,1547]]}}]}