{"type":"FeatureCollection","features":[{"type":"Feature","properties":{"slug":"24-s9","sct_code":"24_S9","source":"Catasto Sentieri VdA"},"geometry":{"type":"LineString","coordinates":[[7.2889870539061565,45.84309354717108,2077],[7.2889479902489045,45.84320184819718,2079],[7.288917472615022,45.84336023673311,2081],[7.288838359053226,45.84363895381447,2083],[7.288758274921405,45.84397914533105,2086],[7.288707394427105,45.84456284488631,2088],[7.2887234038969435,45.84510083069397,2090],[7.2885624740849595,45.845133929972306,2092],[7.288456628407928,45.84517846045315,2094],[7.288403522198759,45.84523659135955,2096],[7.288409008309948,45.84528928008074,2098],[7.288625719310326,45.84552206450916,2101],[7.288953429325701,45.8459532314188,2103],[7.2889607902905205,45.84607183571215,2105],[7.28892973496096,45.84618794298795,2107],[7.289003308444416,45.8462992118627,2109],[7.289036967688922,45.846397073474925,2111],[7.288988165716941,45.84655390732824,2114],[7.288989325111189,45.84681493213996,2116],[7.288914650927245,45.84721765308162,2118],[7.288397250605258,45.84777748658028,2120],[7.2883088668467275,45.84802423875463,2122],[7.288303862298039,45.8481438629178,2124],[7.288403518979406,45.84823190050392,2126],[7.288445288495225,45.84857445100614,2129],[7.288418515975577,45.84882420093859,2131],[7.288083904190364,45.84918285196895,2133],[7.28797649972194,45.84932524886326,2135],[7.287716441503042,45.84982537387319,2137],[7.287341896677722,45.85027877981175,2139],[7.287297199245059,45.8504761186175,2141],[7.287270347036811,45.85051171764301,2144],[7.286912259205603,45.85084836359342,2146],[7.286678420330956,45.85103800081043,2148],[7.286540009687023,45.85117179669947,2150],[7.286462884630827,45.85120285677101,2152],[7.286354433499205,45.85120963448765,2154],[7.286242406140571,45.85120235111804,2157],[7.286140783102796,45.851182616868876,2159],[7.286034593268137,45.85118102362944,2161],[7.285845526685385,45.85120199906223,2163],[7.28572492482324,45.8512127961382,2165],[7.285612718164735,45.85122488553369,2167],[7.285250314813665,45.85128244890423,2169],[7.284626837086885,45.851453096278455,2172],[7.284378359604257,45.851575370428854,2174],[7.284246576652182,45.85167239561,2176],[7.284154104247735,45.85163826948004,2178],[7.284002709569413,45.85168346977636,2180],[7.2839103122865305,45.85169547075516,2182],[7.283758016381849,45.85168367292125,2184],[7.283545821653613,45.85164147693426,2187],[7.283347125155127,45.85153458327515,2189],[7.283285026032416,45.85154078377347,2191],[7.282924735158551,45.85146179035181,2193],[7.282803237472719,45.85145709197841,2195],[7.282567443247962,45.85139159737437,2197],[7.282041657331902,45.85136180403603,2200],[7.281926400027334,45.851359536884395,2202],[7.281776325381227,45.85135097665795,2204],[7.281591053560896,45.851358489815226,2206],[7.281403268126142,45.851341862667404,2208],[7.281101581911124,45.85132321714725,2210],[7.280936669688932,45.85131102949582,2212],[7.280836960552107,45.85130622849962,2215],[7.280523669832221,45.85129423271544,2217],[7.280413707711127,45.85126564014928,2219],[7.280329600832614,45.851193630829144,2221],[7.280263002875387,45.85120643125914,2223],[7.280167760784136,45.85123843118765,2225],[7.280101561578765,45.851213732832655,2227],[7.280012664102176,45.85120483400498,2230],[7.279925466047227,45.85116003737418,2232],[7.279845967777254,45.85114693815009,2234],[7.279710471087167,45.85109804159334,2236],[7.27972131436285,45.85105344316426,2238],[7.279770912414828,45.85098354497919,2240],[7.279762112007927,45.850956345529305,2243],[7.279435522147748,45.85100954794045,2245],[7.279208127551122,45.85097315151399,2247],[7.2791551289664085,45.85098475209419,2249],[7.279100230708637,45.85102695151653,2251],[7.279006634565035,45.85103385243757,2253],[7.278959334945866,45.85099845405634,2255],[7.278920134274465,45.850921557095305,2258],[7.278611639636654,45.85078356501594,2260],[7.278432243862964,45.85073656872192,2262],[7.2779464518183214,45.85048208353729,2264],[7.2777294526906005,45.85023139444572,2266],[7.277653853723156,45.850173197432106,2268],[7.277603640198785,45.85017253212665,2270],[7.277492259175034,45.85016669447797,2273],[7.277404602218381,45.850149263734046,2275],[7.277331487270421,45.85011524396012,2277],[7.277256589759822,45.850065964064555,2279],[7.277171799661332,45.85002056170453,2281],[7.2770845105790345,45.84999123052166,2283],[7.276998825365102,45.84995859601238,2286],[7.276863667683149,45.8499215385143,2288],[7.276652225056396,45.849888233441895,2290],[7.276572323019266,45.849879323632784,2292],[7.276415436974848,45.84984001169645,2294],[7.276222912418709,45.84977827546508,2296],[7.276073363612627,45.84975290650617,2298],[7.275984640018647,45.84973756016842,2301],[7.275896498383269,45.849719596225704,2303],[7.2757054611967105,45.849674690733174,2305],[7.275541844069323,45.84965050918354,2307],[7.275420956538716,45.84963817801219,2309],[7.27524546127782,45.84961731877019,2311],[7.275099423010919,45.84960811047172,2313],[7.274925356627966,45.849597777591526,2316],[7.274802487884132,45.849584716513874,2318],[7.27470962757277,45.84957350810043,2320],[7.274503307708264,45.849552883288915,2322],[7.274339713158872,45.84952800012438,2324],[7.2741663618845465,45.84949456473685,2326],[7.274038755308053,45.84947267565797,2329],[7.273958767685518,45.849466564552735,2331],[7.273862296592966,45.84947491188402,2333],[7.273764368998941,45.849497945593555,2335],[7.273658600983996,45.8495152570751,2337],[7.273600347968821,45.849519279229554,2339],[7.273472543611242,45.84951997395747,2341],[7.273352225058538,45.84952165743247,2344],[7.273274722049287,45.849532392569245,2346],[7.2732045561948295,45.84953273238772,2348],[7.273105708680347,45.849520732831266,2350],[7.272995973982909,45.849520474335336,2352],[7.272873023818107,45.84954242784471,2354],[7.272758525236169,45.84958271864339,2356],[7.27271595391933,45.84959818387071,2359],[7.272638922618087,45.8496017469816,2361],[7.2724544498228445,45.84960385984662,2363],[7.27227566110973,45.84961656366227,2365],[7.272165754866135,45.849638013462844,2367],[7.272070836369679,45.84969330820176,2369],[7.272001723370956,45.84975669667746,2372],[7.271969762105435,45.84981784619769,2374],[7.271941428171517,45.84984280593171,2376],[7.2719074924681815,45.849860546290905,2378],[7.271846476866612,45.84988903837406,2380],[7.27178397728483,45.84990069970846,2382],[7.271709586586147,45.84990797880951,2384],[7.271655449003348,45.84990856017739,2387],[7.271560629098409,45.84989591999047,2389],[7.271483099834551,45.84987513587921,2391],[7.271402517561741,45.849823489913085,2393],[7.271298241452774,45.84976027891663,2395],[7.2712353007827,45.8497215066791,2397],[7.271220422617345,45.849699391617676,2399],[7.271079723874706,45.84956769770041,2402],[7.2710234242784955,45.849540599485785,2404],[7.270781430660474,45.84951110261535,2406],[7.270670433341706,45.84952440348992,2408],[7.270666234060032,45.84954270345504,2410],[7.270628534326808,45.849518704652,2412],[7.270489539382203,45.849518806305085,2414],[7.270433841342616,45.84955020607366,2417],[7.270432542020968,45.84963440323954,2419],[7.270375246532602,45.84975129978896,2421],[7.2705147449192875,45.84985819466959,2423],[7.2704977461201405,45.84991429247042,2425],[7.270396241650533,45.850085561685674,2427],[7.270351533789515,45.85014564201255,2430],[7.270304196655279,45.85016120878607,2432],[7.270248034124284,45.850170513523295,2434],[7.270142983352931,45.850154152176515,2436],[7.270005845201823,45.85012103384737,2438],[7.269941264835466,45.85009669252365,2440],[7.269950164052538,45.85003819503471,2442],[7.269892765865682,45.85004199513353,2445],[7.269845743747621,45.85009154663485,2447],[7.269755974126698,45.85012121586285,2449],[7.269716275460677,45.850114616676635,2451],[7.269642077467033,45.85014161634699,2453],[7.269621478165127,45.85012981708905,2455],[7.269350486602168,45.85016621904611,2457],[7.269133892582657,45.85016842222239,2460],[7.268874501002028,45.85028912114221,2462],[7.268656607965661,45.85032042275214,2464],[7.268431816832588,45.85043432144423,2466],[7.268316521722902,45.85054831896429,2468],[7.268237326856216,45.850679315501324,2470],[7.268163525806547,45.85056611995534,2473],[7.267971434270271,45.8507484161678,2475],[7.267942837190261,45.85081251459589,2477],[7.267939238474144,45.850884611806805,2479],[7.267902939111014,45.85087691238127,2481],[7.267786240034308,45.85075521776777,2483],[7.267754140782952,45.8507660184228,2485],[7.267691645337879,45.850904813754426,2488],[7.267689446257756,45.85094991295515,2490],[7.267664246741317,45.850961412244914,2492],[7.267592548353435,45.85091681513541,2494],[7.267536051669325,45.851004312621406,2496],[7.267402554824357,45.85096001568482,2498],[7.267328155873922,45.850918317882154,2500],[7.267298460192543,45.85109571192829,2503],[7.267194060762713,45.85101701642073,2505],[7.26716496216098,45.85103851621097,2507],[7.267134265024746,45.851157412166195,2509],[7.267006366515447,45.851037717765855,2511],[7.266924170949391,45.851183713844605,2513],[7.26681247640107,45.85125741293143,2516],[7.266753877471523,45.851271912720655,2518],[7.266731678569576,45.85125771346469,2520],[7.266621281361706,45.85127261438047,2522],[7.266536985246306,45.851327213358005,2524],[7.266458687061738,45.85133191412801,2526],[7.266184190532695,45.85123563616161,2528],[7.266098396498415,45.85123975399072,2531],[7.266045519630761,45.85126416511619,2533],[7.26601411806822,45.85130711093019,2535],[7.266001008523107,45.851341930721695,2537],[7.265997656172102,45.85138530320409,2539],[7.266003188193161,45.85140079497708,2541],[7.266014512063787,45.851423378785064,2543],[7.266002187187969,45.85143299674347,2546],[7.265959894257658,45.85143935886255,2548],[7.265940991515017,45.85146708658798,2550],[7.265957021730312,45.851531763849785,2552],[7.265978801613747,45.85160493296869,2554],[7.265991694712099,45.851641548833655,2556],[7.265974272820224,45.85168610730431,2559],[7.265949404012478,45.851712344002465,2561],[7.265931284591059,45.85171487077369,2563],[7.2658921065806155,45.85171412302846,2565],[7.265732925407843,45.851693154813844,2567],[7.2656527281444925,45.851719355175135,2569],[7.265555131202231,45.851782053458365,2571],[7.2654106357115245,45.85181045450097,2574],[7.265332039672007,45.851858753350925,2576],[7.265186842412944,45.851846055692334,2578],[7.265135143879484,45.85186385638945,2580],[7.265123445247521,45.851892755436324,2582],[7.264932235797746,45.85183582997126,2584],[7.264881335781843,45.85179483221758,2586],[7.26480223755956,45.85177123411793,2589],[7.264646639726356,45.85168613871079,2591],[7.264643139193824,45.851649740084625,2593],[7.26454974167363,45.851595642706975,2595],[7.26431524721283,45.85154794734408,2597],[7.264208649252671,45.8515018502847,2599],[7.264096851729917,45.85149135173013,2602],[7.2640215531801955,45.85146595314446,2604],[7.26392025513454,45.851396656800745,2606],[7.263846256997809,45.851374258797684,2608],[7.263790856365817,45.85131796075946,2610],[7.26357196011007,45.85118216822976,2612],[7.263503560209567,45.851108871384966,2614],[7.263434659586552,45.850915879444436,2617],[7.263379659834141,45.850900680465045,2619],[7.263196761516945,45.85070608936087,2621],[7.263198061066234,45.85068069016254,2623],[7.263247258762306,45.85064379034983,2625],[7.263216059171168,45.85060279254934,2627],[7.263327154436758,45.85049719490715,2629],[7.263404852144168,45.85047439453228,2632],[7.263480647941612,45.850388897137464,2634],[7.263479746613156,45.85030489970893,2636],[7.263270648861431,45.85011027223975,2638],[7.263184297870532,45.85003461777248,2640],[7.263107512770993,45.849990026899356,2642],[7.263022844864701,45.84994111471881,2645],[7.262955248470311,45.84992327767797,2647],[7.262927287108155,45.84992005155674,2649],[7.262913262839666,45.84991983829466,2651],[7.262897800982812,45.84990139263848,2653],[7.26281439530561,45.849876311883946,2655],[7.262723106839826,45.84984690889235,2657],[7.262639396101796,45.84983162841785,2660],[7.2625748481149595,45.8498446540219,2662],[7.262492883989587,45.84985831562564,2664],[7.262197123374838,45.84993861667971,2666],[7.261691890173572,45.84996479620533,2668],[7.261513795577653,45.850012597134764,2670],[7.261392463053331,45.8499994099972,2672],[7.261373763556004,45.85000287315992,2675],[7.261303640881566,45.85000180585786,2677],[7.261206338112237,45.8500367440525,2679],[7.261050235350946,45.85009319898855,2681],[7.2609489696973855,45.85012667617254,2683],[7.260906109816797,45.85015123742023,2685],[7.260824835258527,45.85018641930621,2688],[7.2607131583372,45.850232343743976,2690],[7.260636238986623,45.850256386296415,2692],[7.260611803625776,45.850268621100355,2694],[7.260594321679641,45.850274833399396,2696],[7.260576431746035,45.85027806214745,2698],[7.2605614222044,45.850277308869686,2700],[7.260547181329583,45.85027796775864,2703],[7.260509813070268,45.85027109484252,2705],[7.2604898992787925,45.85027289319431,2707],[7.260406588004622,45.85029304188288,2709]]}}]}