{"type":"FeatureCollection","features":[{"type":"Feature","properties":{"slug":"24-s8","sct_code":"24_S8","source":"Catasto Sentieri VdA"},"geometry":{"type":"LineString","coordinates":[[7.307337833066014,45.819087175384546,1192],[7.307660251513247,45.819264668475554,1196],[7.307581315766918,45.81936685204923,1199],[7.3074982609565176,45.81950771516743,1203],[7.307300403702466,45.819743665212165,1207],[7.30717945273633,45.819835121091394,1210],[7.306983727570609,45.819976373358145,1214],[7.306816058321651,45.82006655769127,1217],[7.30676567902447,45.82010849824992,1221],[7.306704260738724,45.820159630214256,1225],[7.306570918981929,45.8202832718772,1228],[7.306518945801262,45.82044312876127,1232],[7.306506774324865,45.820553122791814,1236],[7.3064870529562915,45.82065708889437,1239],[7.306485739744493,45.82066401417035,1243],[7.306429438654734,45.82077232428416,1247],[7.306402855315217,45.820788999503506,1250],[7.306288324225894,45.82086084223038,1254],[7.306135745656713,45.820938893493626,1258],[7.3060189314303114,45.821003059814025,1261],[7.305912222421763,45.82112246221414,1265],[7.305853158384405,45.821165432822006,1268],[7.305806808783928,45.82119915320543,1272],[7.3055577298000935,45.82128305737066,1276],[7.30544376636211,45.821321446707366,1279],[7.305238317165732,45.8213945938338,1283],[7.305188008753602,45.82143025962977,1287],[7.305107357787467,45.82150018631753,1290],[7.30506569321142,45.82158708934533,1294],[7.3051022247272925,45.821742080843805,1298],[7.305105086568482,45.82181761004489,1301],[7.305097181728107,45.821859709345894,1305],[7.305027880854518,45.821862478348876,1309],[7.305001831628899,45.82189587769266,1312],[7.30497346282571,45.82198143349394,1316],[7.304249007681568,45.82321026111889,1319],[7.304239037034369,45.825568191120006,1323],[7.304199043581879,45.8255809765595,1327],[7.303736146675165,45.82572723268424,1330],[7.303373033199977,45.825787780865696,1334],[7.303191931556634,45.82580309175141,1338],[7.302729932960352,45.82572035353908,1341],[7.302666225579263,45.8257327923897,1345],[7.3027561596249,45.82580234391259,1349],[7.302898802237268,45.82585800594258,1352],[7.303138104154389,45.82593157809162,1356],[7.302951636749881,45.82593678779908,1360],[7.302831672967095,45.82591029389763,1363],[7.302720050023765,45.82592433757797,1367],[7.302596274648415,45.8259505563747,1370],[7.302525877862532,45.82594075826298,1374],[7.302744070193008,45.82632068682512,1378],[7.302984110835783,45.8265817467144,1381],[7.303087963746584,45.82676430094429,1385],[7.3030824579906755,45.826825405937704,1389],[7.30303787164984,45.8269274196919,1392],[7.302851029530799,45.827059703561225,1396],[7.3024554327675615,45.82750258453421,1400],[7.3008325229634865,45.828614025248726,1403],[7.299699008025042,45.82939026629708,1407],[7.298629008204878,45.829290265941346,1411],[7.2982790084222415,45.829780266291216,1414],[7.297449008308631,45.829870266788625,1418],[7.296849008657573,45.829390266704145,1421],[7.2960090082640265,45.830210267042894,1425],[7.2958393490582445,45.83058523770934,1429],[7.295210544194125,45.83197493462871,1432],[7.295179516273388,45.83190650209543,1436],[7.29513268336806,45.83188121575239,1440],[7.29507277689973,45.831877428906076,1443],[7.295009697165478,45.83190975120177,1447],[7.294973244535083,45.83195114552353,1451],[7.294826533937982,45.832417519891564,1454],[7.294666430746789,45.83250913215286,1458],[7.294567155335288,45.832642147088634,1461],[7.294569615940525,45.832697138658695,1465],[7.29487702361666,45.832865146781245,1469],[7.294902505680078,45.83291180376564,1472],[7.294893319829659,45.83297200733913,1476],[7.294809750800189,45.83298368810337,1480],[7.294626678282346,45.833088960292905,1483],[7.294556816304641,45.83311042016474,1487],[7.294475841547081,45.83311371141318,1491],[7.294326341431232,45.83307348118131,1494],[7.294126142245148,45.83297807343964,1498],[7.294061321617236,45.83292928432635,1502],[7.2940124423399775,45.832877334691595,1505],[7.293905764077049,45.832650676660016,1509],[7.293775031731397,45.832504716222836,1512],[7.2938028650965405,45.83292365201802,1516],[7.29379621307414,45.83320706713402,1520],[7.293752190377491,45.83344942030594,1523],[7.293755400772933,45.833633977978806,1527],[7.293814758818808,45.83385087490255,1531],[7.293880644298361,45.83394636348086,1534],[7.293955949903783,45.83399698966248,1538],[7.294047224813453,45.8340253532111,1542],[7.2944200119980485,45.83408492248115,1545],[7.2949137248998595,45.834321804882336,1549],[7.293889008074929,45.8351202712187,1553],[7.293839008363335,45.83555027139637,1556],[7.293589008115258,45.83538027130647,1560],[7.291679224885986,45.83627546735082,1563],[7.291159007346141,45.83635027514306,1567],[7.291529008037213,45.836580273009325,1571],[7.289849008611665,45.8368002724164,1574],[7.2906190080100854,45.837439273836445,1578],[7.2903690080525365,45.838489274280974,1582],[7.290245146224249,45.83851817579448,1585],[7.290069007830086,45.83855927416659,1589],[7.290369008175109,45.83891927490326,1593],[7.29014900774704,45.839819275260666,1596],[7.290949008285749,45.84011927589835,1600],[7.291420008657905,45.84100827650103,1604],[7.291419008690772,45.841149276519744,1607],[7.2911817286917024,45.841664118084005,1611],[7.290709008695533,45.8421992775919,1614],[7.290268125280534,45.842379666926874,1618],[7.289404880700112,45.84285673142971,1622],[7.289314391867785,45.84293864280468,1625],[7.289263538865088,45.84304292420998,1629],[7.289122733534058,45.8430920565955,1633],[7.2889870539061565,45.84309354717108,1636],[7.2889479902489045,45.84320184819718,1640],[7.288917472615022,45.84336023673311,1644],[7.288838359053226,45.84363895381447,1647],[7.288758274921405,45.84397914533105,1651],[7.288707394427105,45.84456284488631,1655],[7.2887234038969435,45.84510083069397,1658],[7.2885624740849595,45.845133929972306,1662],[7.288456628407928,45.84517846045315,1665],[7.288403522198759,45.84523659135955,1669],[7.288409008309948,45.84528928008074,1673],[7.288625719310326,45.84552206450916,1676],[7.288953429325701,45.8459532314188,1680],[7.2889607902905205,45.84607183571215,1684],[7.28892973496096,45.84618794298795,1687],[7.289003308444416,45.8462992118627,1691],[7.289036967688922,45.846397073474925,1695],[7.288988165716941,45.84655390732824,1698],[7.288989325111189,45.84681493213996,1702],[7.288914650927245,45.84721765308162,1705],[7.288397250605258,45.84777748658028,1709],[7.2883088668467275,45.84802423875463,1713],[7.288303862298039,45.8481438629178,1716],[7.288403518979406,45.84823190050392,1720],[7.288445288495225,45.84857445100614,1724],[7.288418515975577,45.84882420093859,1727],[7.288083904190364,45.84918285196895,1731],[7.28797649972194,45.84932524886326,1735],[7.287716441503042,45.84982537387319,1738],[7.287341896677722,45.85027877981175,1742],[7.287297199245059,45.8504761186175,1746],[7.287270347036811,45.85051171764301,1749],[7.286912259205603,45.85084836359342,1753],[7.286678420330956,45.85103800081043,1756],[7.286540009687023,45.85117179669947,1760],[7.286462884630827,45.85120285677101,1764],[7.286354433499205,45.85120963448765,1767],[7.286242406140571,45.85120235111804,1771],[7.286140783102796,45.851182616868876,1775],[7.286034593268137,45.85118102362944,1778],[7.285845526685385,45.85120199906223,1782],[7.28572492482324,45.8512127961382,1786],[7.285612718164735,45.85122488553369,1789],[7.285250314813665,45.85128244890423,1793],[7.284626837086885,45.851453096278455,1797],[7.284378359604257,45.851575370428854,1800],[7.284246576652182,45.85167239561,1804],[7.284154104247735,45.85163826948004,1807],[7.284002709569413,45.85168346977636,1811],[7.2839103122865305,45.85169547075516,1815],[7.283758016381849,45.85168367292125,1818],[7.283545821653613,45.85164147693426,1822],[7.283347125155127,45.85153458327515,1826],[7.283285026032416,45.85154078377347,1829],[7.282924735158551,45.85146179035181,1833],[7.282803237472719,45.85145709197841,1837],[7.282567443247962,45.85139159737437,1840],[7.282041657331902,45.85136180403603,1844],[7.281926400027334,45.851359536884395,1848],[7.281776325381227,45.85135097665795,1851],[7.281591053560896,45.851358489815226,1855],[7.281403268126142,45.851341862667404,1858],[7.281101581911124,45.85132321714725,1862],[7.280936669688932,45.85131102949582,1866],[7.280836960552107,45.85130622849962,1869],[7.280523669832221,45.85129423271544,1873],[7.280413707711127,45.85126564014928,1877],[7.280329600832614,45.851193630829144,1880],[7.280263002875387,45.85120643125914,1884],[7.280167760784136,45.85123843118765,1888],[7.280101561578765,45.851213732832655,1891],[7.280012664102176,45.85120483400498,1895],[7.279925466047227,45.85116003737418,1899],[7.279845967777254,45.85114693815009,1902],[7.279710471087167,45.85109804159334,1906],[7.27972131436285,45.85105344316426,1909],[7.279770912414828,45.85098354497919,1913],[7.279762112007927,45.850956345529305,1917],[7.279435522147748,45.85100954794045,1920],[7.279208127551122,45.85097315151399,1924],[7.2791551289664085,45.85098475209419,1928],[7.279100230708637,45.85102695151653,1931],[7.279006634565035,45.85103385243757,1935],[7.278959334945866,45.85099845405634,1939],[7.278920134274465,45.850921557095305,1942],[7.278611639636654,45.85078356501594,1946],[7.278432243862964,45.85073656872192,1950],[7.2779464518183214,45.85048208353729,1953],[7.2777294526906005,45.85023139444572,1957],[7.277653853723156,45.850173197432106,1960],[7.277603640198785,45.85017253212665,1964],[7.277492259175034,45.85016669447797,1968],[7.277404602218381,45.850149263734046,1971],[7.277331487270421,45.85011524396012,1975],[7.277256589759822,45.850065964064555,1979],[7.277171799661332,45.85002056170453,1982],[7.2770845105790345,45.84999123052166,1986],[7.276998825365102,45.84995859601238,1990],[7.276863667683149,45.8499215385143,1993],[7.276652225056396,45.849888233441895,1997],[7.276572323019266,45.849879323632784,2000],[7.276415436974848,45.84984001169645,2004],[7.276222912418709,45.84977827546508,2008],[7.276073363612627,45.84975290650617,2011],[7.275984640018647,45.84973756016842,2015],[7.275896498383269,45.849719596225704,2019],[7.2757054611967105,45.849674690733174,2022],[7.275541844069323,45.84965050918354,2026],[7.275420956538716,45.84963817801219,2030],[7.27524546127782,45.84961731877019,2033],[7.275099423010919,45.84960811047172,2037],[7.274925356627966,45.849597777591526,2041],[7.274802487884132,45.849584716513874,2044],[7.27470962757277,45.84957350810043,2048],[7.274503307708264,45.849552883288915,2051],[7.274339713158872,45.84952800012438,2055],[7.2741663618845465,45.84949456473685,2059],[7.274038755308053,45.84947267565797,2062],[7.273958767685518,45.849466564552735,2066],[7.273862296592966,45.84947491188402,2070],[7.273764368998941,45.849497945593555,2073],[7.273658600983996,45.8495152570751,2077],[7.273600347968821,45.849519279229554,2081],[7.273472543611242,45.84951997395747,2084],[7.273352225058538,45.84952165743247,2088],[7.273274722049287,45.849532392569245,2092],[7.2732045561948295,45.84953273238772,2095],[7.273105708680347,45.849520732831266,2099],[7.272995973982909,45.849520474335336,2102],[7.272873023818107,45.84954242784471,2106],[7.272758525236169,45.84958271864339,2110],[7.27271595391933,45.84959818387071,2113],[7.272638922618087,45.8496017469816,2117],[7.2724544498228445,45.84960385984662,2121],[7.27227566110973,45.84961656366227,2124],[7.272165754866135,45.849638013462844,2128],[7.272070836369679,45.84969330820176,2132],[7.272001723370956,45.84975669667746,2135],[7.271969762105435,45.84981784619769,2139],[7.271941428171517,45.84984280593171,2143],[7.2719074924681815,45.849860546290905,2146],[7.271846476866612,45.84988903837406,2150],[7.27178397728483,45.84990069970846,2153],[7.271709586586147,45.84990797880951,2157],[7.271655449003348,45.84990856017739,2161],[7.271560629098409,45.84989591999047,2164],[7.271483099834551,45.84987513587921,2168],[7.271402517561741,45.849823489913085,2172],[7.271298241452774,45.84976027891663,2175],[7.2712353007827,45.8497215066791,2179],[7.271220422617345,45.849699391617676,2183],[7.271079723874706,45.84956769770041,2186],[7.2710234242784955,45.849540599485785,2190],[7.270781430660474,45.84951110261535,2194],[7.270670433341706,45.84952440348992,2197],[7.270666234060032,45.84954270345504,2201],[7.270628534326808,45.849518704652,2204],[7.270489539382203,45.849518806305085,2208],[7.270433841342616,45.84955020607366,2212],[7.270432542020968,45.84963440323954,2215],[7.270375246532602,45.84975129978896,2219],[7.2705147449192875,45.84985819466959,2223],[7.2704977461201405,45.84991429247042,2226],[7.270396241650533,45.850085561685674,2230],[7.270351533789515,45.85014564201255,2234],[7.270304196655279,45.85016120878607,2237],[7.270248034124284,45.850170513523295,2241],[7.270142983352931,45.850154152176515,2244],[7.270005845201823,45.85012103384737,2248],[7.269941264835466,45.85009669252365,2252],[7.269950164052538,45.85003819503471,2255],[7.269892765865682,45.85004199513353,2259],[7.269845743747621,45.85009154663485,2263],[7.269755974126698,45.85012121586285,2266],[7.269716275460677,45.850114616676635,2270],[7.269642077467033,45.85014161634699,2274],[7.269621478165127,45.85012981708905,2277],[7.269350486602168,45.85016621904611,2281],[7.269133892582657,45.85016842222239,2285],[7.268874501002028,45.85028912114221,2288],[7.268656607965661,45.85032042275214,2292],[7.268431816832588,45.85043432144423,2295],[7.268316521722902,45.85054831896429,2299],[7.268237326856216,45.850679315501324,2303],[7.268163525806547,45.85056611995534,2306],[7.267971434270271,45.8507484161678,2310],[7.267942837190261,45.85081251459589,2314],[7.267939238474144,45.850884611806805,2317],[7.267902939111014,45.85087691238127,2321],[7.267786240034308,45.85075521776777,2325],[7.267754140782952,45.8507660184228,2328],[7.267691645337879,45.850904813754426,2332],[7.267689446257756,45.85094991295515,2336],[7.267664246741317,45.850961412244914,2339],[7.267592548353435,45.85091681513541,2343],[7.267536051669325,45.851004312621406,2346],[7.267402554824357,45.85096001568482,2350],[7.267328155873922,45.850918317882154,2354],[7.267298460192543,45.85109571192829,2357],[7.267194060762713,45.85101701642073,2361],[7.26716496216098,45.85103851621097,2365],[7.267134265024746,45.851157412166195,2368],[7.267006366515447,45.851037717765855,2372],[7.266924170949391,45.851183713844605,2376],[7.26681247640107,45.85125741293143,2379],[7.266753877471523,45.851271912720655,2383],[7.266731678569576,45.85125771346469,2387],[7.266621281361706,45.85127261438047,2390],[7.266536985246306,45.851327213358005,2394],[7.266458687061738,45.85133191412801,2397],[7.266184190532695,45.85123563616161,2401],[7.266098396498415,45.85123975399072,2405],[7.266045519630761,45.85126416511619,2408],[7.26601411806822,45.85130711093019,2412],[7.266001008523107,45.851341930721695,2416],[7.265997656172102,45.85138530320409,2419],[7.266003188193161,45.85140079497708,2423],[7.266014512063787,45.851423378785064,2427],[7.266002187187969,45.85143299674347,2430],[7.265959894257658,45.85143935886255,2434],[7.265940991515017,45.85146708658798,2438],[7.265957021730312,45.851531763849785,2441],[7.265978801613747,45.85160493296869,2445],[7.265991694712099,45.851641548833655,2448],[7.265974272820224,45.85168610730431,2452],[7.265949404012478,45.851712344002465,2456],[7.265931284591059,45.85171487077369,2459],[7.2658921065806155,45.85171412302846,2463],[7.265732925407843,45.851693154813844,2467],[7.2656527281444925,45.851719355175135,2470],[7.265555131202231,45.851782053458365,2474],[7.2654106357115245,45.85181045450097,2478],[7.265332039672007,45.851858753350925,2481],[7.265186842412944,45.851846055692334,2485],[7.265135143879484,45.85186385638945,2488],[7.265123445247521,45.851892755436324,2492],[7.264932235797746,45.85183582997126,2496],[7.264881335781843,45.85179483221758,2499],[7.26480223755956,45.85177123411793,2503],[7.264646639726356,45.85168613871079,2507],[7.264643139193824,45.851649740084625,2510],[7.26454974167363,45.851595642706975,2514],[7.26431524721283,45.85154794734408,2518],[7.264208649252671,45.8515018502847,2521],[7.264096851729917,45.85149135173013,2525],[7.2640215531801955,45.85146595314446,2529],[7.26392025513454,45.851396656800745,2532],[7.263846256997809,45.851374258797684,2536],[7.263790856365817,45.85131796075946,2539],[7.26357196011007,45.85118216822976,2543],[7.263503560209567,45.851108871384966,2547],[7.263434659586552,45.850915879444436,2550],[7.263379659834141,45.850900680465045,2554],[7.263196761516945,45.85070608936087,2558],[7.263198061066234,45.85068069016254,2561],[7.263247258762306,45.85064379034983,2565],[7.263216059171168,45.85060279254934,2569],[7.263327154436758,45.85049719490715,2572],[7.263404852144168,45.85047439453228,2576],[7.263480647941612,45.850388897137464,2580],[7.263479746613156,45.85030489970893,2583],[7.263270648861431,45.85011027223975,2587],[7.263184297870532,45.85003461777248,2590],[7.263107512770993,45.849990026899356,2594],[7.263022844864701,45.84994111471881,2598],[7.262955248470311,45.84992327767797,2601],[7.262927287108155,45.84992005155674,2605],[7.262913262839666,45.84991983829466,2609],[7.262897800982812,45.84990139263848,2612],[7.26281439530561,45.849876311883946,2616],[7.262723106839826,45.84984690889235,2620],[7.262639396101796,45.84983162841785,2623],[7.2625748481149595,45.8498446540219,2627],[7.262492883989587,45.84985831562564,2631],[7.262197123374838,45.84993861667971,2634],[7.261691890173572,45.84996479620533,2638],[7.261513795577653,45.850012597134764,2641],[7.261392463053331,45.8499994099972,2645],[7.261373763556004,45.85000287315992,2649],[7.261303640881566,45.85000180585786,2652],[7.261206338112237,45.8500367440525,2656],[7.261050235350946,45.85009319898855,2660],[7.2609489696973855,45.85012667617254,2663],[7.260906109816797,45.85015123742023,2667],[7.260824835258527,45.85018641930621,2671],[7.2607131583372,45.850232343743976,2674],[7.260636238986623,45.850256386296415,2678],[7.260611803625776,45.850268621100355,2682],[7.260594321679641,45.850274833399396,2685],[7.260576431746035,45.85027806214745,2689],[7.2605614222044,45.850277308869686,2692],[7.260547181329583,45.85027796775864,2696],[7.260509813070268,45.85027109484252,2700],[7.2604898992787925,45.85027289319431,2703],[7.260406588004622,45.85029304188288,2707]]}}]}