{"type":"FeatureCollection","features":[{"type":"Feature","properties":{"slug":"26-s5","sct_code":"26_S5","source":"Catasto Sentieri VdA"},"geometry":{"type":"LineString","coordinates":[[7.235665648837152,45.82225700004969,1339],[7.235547998361608,45.82231368662634,1344],[7.235472167563075,45.82237101640117,1349],[7.235442409029309,45.82244706145877,1354],[7.235454750810644,45.82251475551539,1359],[7.235687396604339,45.82298187247452,1364],[7.235616155748914,45.8230212732282,1369],[7.235470809712957,45.8230505305638,1374],[7.235272266125574,45.823069965408514,1379],[7.2351725706481345,45.82305492265955,1384],[7.234080008348379,45.82291026041309,1389],[7.2312300075362135,45.823730261140426,1394],[7.230690007578586,45.82446026191645,1399],[7.229682294825386,45.82435051105462,1404],[7.229698541617002,45.82441400272527,1409],[7.229828262721263,45.82486016286289,1414],[7.229190007600039,45.82504026238507,1419],[7.2278831484775585,45.826104878945706,1424],[7.227995240571477,45.8263540249401,1429],[7.227780008453704,45.82710026391757,1434],[7.225950008058822,45.82762826473842,1438],[7.2254100079132115,45.82830026559477,1443],[7.226020007663393,45.82828026511884,1448],[7.2258400079754495,45.82860026515082,1453],[7.225180007934924,45.828670265610874,1458],[7.224805989544949,45.829532318928905,1463],[7.224584069467243,45.829848237169706,1468],[7.222575865935532,45.83005155166017,1473],[7.222574241992056,45.83005192871082,1478],[7.222516220865928,45.83006540497353,1483],[7.222515967312101,45.83006568544207,1488],[7.222409461996251,45.83013826733861,1493],[7.222324588806045,45.83016075899863,1498],[7.222212790927248,45.830147813524185,1503],[7.22208249015638,45.83010528980208,1508],[7.222064056901267,45.83009927410897,1513],[7.2218930246777475,45.8300587911145,1518],[7.221699427857295,45.83003476670895,1523],[7.221521228078847,45.83003059097169,1528],[7.22142469622371,45.830041694887434,1533],[7.221367120547724,45.8300510417978,1538],[7.221338086810742,45.83005575506532,1543],[7.221208037468206,45.830112561368615,1548],[7.221130951465745,45.83014217665255,1553],[7.221054714364273,45.830145191689766,1558],[7.2209028525043095,45.83011621221796,1563],[7.220673211920865,45.83002859096626,1568],[7.220527749412214,45.82998745387136,1573],[7.2205273868718685,45.82998735641902,1578],[7.220317155229665,45.829930944334954,1583],[7.220170157997576,45.82989083412402,1588],[7.220086221775324,45.829883923465225,1593],[7.219992048133059,45.829883856461514,1598],[7.219851742723202,45.8299166889228,1603],[7.21973740787038,45.829920509817434,1608],[7.219571448530815,45.82990951855944,1613],[7.219541694440078,45.82991259466185,1618],[7.219502083054399,45.829916688965966,1623],[7.21948902350112,45.82991803887846,1628],[7.219401700596129,45.82995449847511,1632],[7.219346242806625,45.82999705662206,1637],[7.219323095439205,45.83003171471471,1642],[7.219309183474997,45.83005550742921,1647],[7.2192849478271715,45.83009695558523,1652],[7.219253611082083,45.830137088773945,1657],[7.219217467545506,45.83018660198437,1662],[7.219029588791021,45.830360167057584,1667],[7.218948853975064,45.83037851842403,1672],[7.218856190466143,45.830393882791675,1677],[7.218838930517679,45.830393915171186,1682],[7.218608715121354,45.830409984830844,1687],[7.218473227723121,45.83051152722552,1692],[7.218397642152071,45.8306196065392,1697],[7.218369409605583,45.83075083639399,1702],[7.21846926355815,45.83088686583305,1707],[7.2186489602971085,45.83103254495513,1712],[7.218846558479931,45.83111967062967,1717],[7.219146960371422,45.83125042183072,1722],[7.219221815724656,45.831290810065084,1727],[7.219301941412564,45.83135439264814,1732],[7.219311747522215,45.83142388223053,1737],[7.219174232340319,45.8315955648849,1742],[7.2188659296223685,45.83177526705441,1747],[7.218871359391551,45.831806853269605,1752],[7.218987179556565,45.83180865917451,1757],[7.219259435575483,45.83174990071527,1762],[7.219335501048889,45.831787088277956,1767],[7.219332057317149,45.83189503990579,1772],[7.219226809915617,45.831965402717856,1777],[7.2191095543348665,45.832008576889436,1782],[7.218977133312403,45.83212351802195,1787],[7.218676840501862,45.832253842126626,1792],[7.218584173522746,45.83233340097043,1797],[7.218355637311441,45.83263585166586,1802],[7.218304423487029,45.83272363160118,1807],[7.218283825804462,45.832868743053545,1812],[7.218294754416761,45.83302654364364,1817],[7.2182457458739,45.83318438047532,1821],[7.2181229283542265,45.833317904199724,1826],[7.218006105660103,45.83341854369727,1831],[7.217869072311743,45.833565171423395,1836],[7.217734675773726,45.833642989456216,1841],[7.217545577659645,45.83371257789697,1846],[7.21742172675613,45.83379056011807,1851],[7.217187014889769,45.83395287509751,1856],[7.216965415186515,45.834062526583224,1861],[7.216841327116248,45.83414788213002,1866],[7.216375223155551,45.834423381740365,1871],[7.215809807871055,45.83469854063924,1876],[7.215302717650234,45.834852626871175,1881],[7.215184877668049,45.83491378874641,1886],[7.214937478181917,45.834999927233014,1891],[7.214531613377822,45.83520959449551,1896],[7.214218424026648,45.835339705247605,1901],[7.213901914624698,45.835419212264526,1906],[7.21372967113344,45.83552471765244,1911],[7.2135189001164015,45.835755368047124,1916],[7.213338599911478,45.835873167440454,1921],[7.212920717131059,45.836055639668366,1926],[7.212790866398716,45.836089609845416,1931],[7.212538570500569,45.836095970342036,1936],[7.212405122586808,45.836117252576905,1941],[7.212068475753984,45.836377093442984,1946],[7.211964449359802,45.83640878925768,1951],[7.21191941705925,45.83638824468339,1956],[7.2119065439259575,45.83635068685673,1961],[7.211928157384807,45.83602123115816,1966],[7.21169546052274,45.83631435800866,1971],[7.211551833344863,45.83644950462164,1976],[7.211420416212922,45.836660828425714,1981],[7.211335817719268,45.83700543373051,1986],[7.2111406172421075,45.837289740194855,1991],[7.210954792729648,45.837646068839845,1996],[7.210731968696712,45.83782478805045,2001],[7.210675902276145,45.837952138111014,2006],[7.210596595530444,45.838328517125795,2011],[7.210580160471351,45.83854566605932,2015],[7.210527642152173,45.83871003009793,2020],[7.210290803149627,45.838924698008846,2025],[7.2102269996133295,45.8389476889819,2030],[7.210211033217954,45.83903747195055,2035],[7.21013901881417,45.83913755794099,2040],[7.210109818102154,45.83924285007787,2045],[7.209921158552946,45.83944555723031,2050],[7.209659223470579,45.83981585932563,2055],[7.209423826002243,45.84004498289412,2060],[7.209223658902625,45.840159259249575,2065],[7.208996568837318,45.840624909401775,2070],[7.208298152141137,45.84105326592059,2075],[7.2082346681725875,45.841202235318434,2080],[7.208111007693071,45.841290276439615,2085],[7.207772482553916,45.84174951013584,2090],[7.2078811616284675,45.84194081290183,2095],[7.2079310082436345,45.8424802778301,2100],[7.207544426616688,45.84302445980709,2105],[7.2065510076011146,45.84371027925118,2110],[7.206171007987504,45.84379027910168,2115],[7.205871007499458,45.84407027895381,2120],[7.205761008417731,45.84461027968158,2125],[7.205441008558252,45.84463027943796,2130],[7.205141008503895,45.844950279741276,2135],[7.204391007614087,45.84510028066568,2140],[7.20421100847878,45.845320280876315,2145],[7.203911008346913,45.84542028052665,2150],[7.204021008761871,45.845720280569594,2155],[7.203591007560652,45.84577028107344,2160],[7.203231007949818,45.84600028071864,2165],[7.202711007835148,45.84663028153262,2170],[7.202651007765996,45.84731028249743,2175],[7.202651007827674,45.847500282322265,2180],[7.202611008532796,45.847680282419404,2185],[7.202781008469714,45.84768028231373,2190],[7.202691008651952,45.84802028287783,2195],[7.202711008664939,45.84808028295899,2200],[7.202521008151772,45.84845028338201,2205],[7.202351007892295,45.84862028305236,2209],[7.202241008379804,45.84888028324893,2214],[7.202091008065136,45.84903028333481,2219],[7.202181008518795,45.849030284096706,2224],[7.202201007626318,45.849070283509306,2229],[7.202111008409293,45.84911028425112,2234],[7.201881008501642,45.84933028391432,2239],[7.201921007924398,45.84948028452223,2244],[7.201701007773431,45.84987028453321,2249],[7.201681007968331,45.84995028491777,2254],[7.201731007925405,45.85004028511551,2259],[7.201621007754223,45.85017028440116,2264],[7.201621007536336,45.85040028469914,2269],[7.201511007634737,45.85053028477654,2274],[7.201511007664344,45.850590285166184,2279],[7.201731008728182,45.85066028526801,2284],[7.2017510085635354,45.85072028548954,2289],[7.201681008122505,45.8507702851626,2294],[7.201811008011531,45.8507702849916,2299],[7.201811007621861,45.8508502852008,2304],[7.201921007615982,45.850900285101694,2309],[7.2019010084142465,45.85096028569302,2314],[7.202611008105906,45.8510002853306,2319],[7.202691008716018,45.851090285522915,2324],[7.2027110086771815,45.8512002855916,2329],[7.2026110085997574,45.85126028579684,2334],[7.202241007997128,45.851430285516855,2339],[7.202131008045106,45.8515402863438,2344],[7.201851007786716,45.85160028602625,2349],[7.201921008578547,45.851820286161725,2354],[7.202001007748576,45.8518402860642,2359],[7.201901007788595,45.852200286618235,2364],[7.201941007950698,45.85231028661276,2369],[7.20188100867411,45.85263028708279,2374],[7.2019010080577575,45.852760287081075,2379],[7.202031008149378,45.8528902868542,2384],[7.202071007706388,45.853000287681056,2389],[7.20218100858839,45.853040286963605,2394],[7.202301007937091,45.853230287794354,2398],[7.202351007841145,45.85323028712563,2403],[7.202371008336521,45.85341028794687,2408],[7.202201007753835,45.85353028816888,2413],[7.201961007934988,45.853620287800545,2418],[7.201851008448052,45.85362028797246,2423],[7.2013210080586045,45.8537502881858,2428],[7.200971008069557,45.85392028815757,2433],[7.200801008592385,45.854030288647124,2438],[7.200051008205521,45.8543102881389,2443],[7.199821008622387,45.85450028872526,2448],[7.199711008182508,45.854540289157256,2453],[7.199371007523013,45.854930289481615,2458],[7.199111008206975,45.855100289332086,2463],[7.199061008490849,45.855210288923914,2468],[7.198742008434071,45.85551028940184,2473],[7.198492007597954,45.85559028927101,2478],[7.19825200846782,45.85574028954334,2483],[7.198082007974478,45.85572028940313,2488],[7.198062008328578,45.855740289645595,2493],[7.1980620081408295,45.855850289970995,2498],[7.197952007704231,45.855960290301596,2503],[7.197842008193352,45.85622029048828,2508],[7.1977320077635385,45.85624029009399,2513],[7.197542007996357,45.85641028999638,2518],[7.19726200838293,45.85656029061843,2523],[7.197072008251188,45.856620290311746,2528],[7.196982008308403,45.85658029041688,2533],[7.1965320084050415,45.85673029063551,2538],[7.196122008681416,45.85695029051602,2543],[7.1961220075845755,45.857030290642975,2548],[7.196002008669737,45.85716029120442,2553],[7.195872008585217,45.85720029159167,2558],[7.195722008551555,45.8572002913236,2563],[7.195612008036281,45.85733029099137,2568],[7.195612007985441,45.857610291926655,2573],[7.195502008661047,45.85770029188185,2578],[7.1955720076638245,45.85783029159698,2583],[7.195502008030202,45.85798029189205,2588],[7.195162007701976,45.85841029263251,2592],[7.195052008395506,45.858430292371416,2597],[7.19492200785411,45.8585602921447,2602],[7.1947920076749385,45.85853029242252,2607],[7.1947520083547705,45.85849029251023,2612],[7.194622007654577,45.858510292552765,2617],[7.194672008161505,45.858580292325705,2622],[7.194412008773656,45.8586202921122,2627],[7.1943720082716816,45.858750292652296,2632],[7.194242007619867,45.85886029273926,2637],[7.194242008270875,45.85890029236093,2642],[7.194172007516141,45.858920292616745,2647],[7.1938720080884435,45.858810292552285,2652],[7.193682007652215,45.858790292763366,2657],[7.193592007822171,45.8588602922962,2662],[7.193572008115761,45.858920293155315,2667],[7.193422007839277,45.85883029298862,2672],[7.193252008748369,45.858790292188516,2677],[7.193342008151258,45.859130292985604,2682],[7.193312007918671,45.85935029337363,2687]]}}]}