{"type":"FeatureCollection","features":[{"type":"Feature","properties":{"slug":"26-s8","sct_code":"26_S8","source":"Catasto Sentieri VdA"},"geometry":{"type":"LineString","coordinates":[[7.239510353411964,45.82768958857127,1565],[7.239663783409709,45.827799710982845,1568],[7.239734509559407,45.82787665485941,1571],[7.239943970579158,45.82813793425656,1574],[7.239996543860212,45.82820468966989,1577],[7.240133755359951,45.82828239305585,1580],[7.240282472463632,45.828352399934666,1583],[7.240460942334306,45.8284692793198,1586],[7.240548758215957,45.828551674683105,1589],[7.240618385743961,45.82866534359274,1592],[7.240696821585802,45.82885690295695,1595],[7.2409405827139235,45.829292678323725,1598],[7.2410481788601935,45.829555348055194,1601],[7.241104301573727,45.829817225092015,1604],[7.241089278527019,45.830294017202384,1607],[7.241121648708891,45.830492525359176,1610],[7.241229531296318,45.83074619883633,1613],[7.241263886240511,45.83088173441045,1616],[7.241269903797822,45.83108418757295,1619],[7.241303254704963,45.83129761458153,1622],[7.2413690478909425,45.831498935034354,1625],[7.241482905548796,45.83176472840706,1628],[7.241542075116177,45.83198555693249,1631],[7.241604684002546,45.83209718023194,1634],[7.241697834936802,45.83232063245967,1637],[7.241798341575213,45.83250147543998,1640],[7.241845630836146,45.83265418470983,1643],[7.241909910072758,45.83284007275244,1646],[7.241973067892401,45.83299792873098,1649],[7.242026785664312,45.833137428803234,1652],[7.242039010622404,45.83327419048412,1655],[7.242033039526594,45.83340016591623,1658],[7.242023835776056,45.83346971105656,1661],[7.242013530242743,45.83354239119196,1664],[7.241998603605833,45.83363461125814,1667],[7.24194675406206,45.83372205985547,1670],[7.241851563153385,45.83388133086561,1673],[7.241775219370205,45.834157542047265,1676],[7.241581100100789,45.834369261174054,1679],[7.241505233010375,45.83451253585807,1682],[7.241470977471241,45.83461594283736,1685],[7.241464239708026,45.83478353072505,1688],[7.241318371403119,45.8352299224981,1691],[7.241264286635663,45.8353485039567,1694],[7.241287074015669,45.83557927762517,1697],[7.241278851113927,45.8356963933779,1700],[7.2412438545896105,45.83587239086224,1703],[7.241209836619944,45.83596535459629,1706],[7.2411320634905945,45.83604684137593,1709],[7.241107567141122,45.83610373124358,1712],[7.241269059649087,45.83626221419683,1715],[7.241357252867595,45.836325205200325,1718],[7.241775547487157,45.83670319667155,1721],[7.243133239020815,45.837660056516356,1724],[7.243165428066952,45.83782551508379,1727],[7.243194508578526,45.83784912404419,1730],[7.243223363415498,45.83788738852784,1733],[7.243220523379501,45.83791395912335,1736],[7.24320086498634,45.83796548396679,1739],[7.243195384021416,45.83797949344593,1742],[7.243181251907981,45.838015609036376,1745],[7.243205578317899,45.83803189952953,1748],[7.24322835492784,45.838047150033944,1751],[7.2432229379930355,45.83809189066867,1754],[7.243219627678821,45.838104111844864,1757],[7.243250008349386,45.838260273921556,1760],[7.242970008387904,45.83914027492354,1763],[7.242240008354178,45.83954027541715,1766],[7.241120008591779,45.84055027582879,1768],[7.24097000803593,45.84049027601698,1771],[7.240260008540099,45.841690276752075,1774],[7.240370008221475,45.84240027773429,1777],[7.24005760139098,45.84290480700821,1780],[7.240306516390662,45.84352777101113,1783],[7.240348114131279,45.8438610890381,1786],[7.240483784187542,45.844134924135425,1789],[7.2404358186819255,45.84422593380175,1792],[7.240296274542792,45.84437681569418,1795],[7.240171617434963,45.8445163702224,1798],[7.240031243147338,45.84464587829558,1801],[7.239917942173351,45.84480661899147,1804],[7.239870910321797,45.8448997443963,1807],[7.239866240233026,45.84493833464541,1810],[7.239861056861389,45.844993562363726,1813],[7.239908824785693,45.84515123693542,1816],[7.240004675457797,45.845257769401684,1819],[7.240238535043464,45.84546766468084,1822],[7.240298923779564,45.845594600860515,1825],[7.240214880375668,45.84580931622992,1828],[7.239979609598026,45.846168301301304,1831],[7.239913544953626,45.846221285895986,1834],[7.23981244496238,45.84625072192175,1837],[7.239565031110873,45.846336913414,1840],[7.239212485173483,45.846553197803125,1843],[7.238973682141495,45.8467745270218,1846],[7.238913130705251,45.846816285201974,1849],[7.238808446725697,45.8468686737526,1852],[7.238704118220762,45.846905064044,1855],[7.238250170950801,45.847006068829245,1858],[7.238118108183548,45.847051932201715,1861],[7.237830352428956,45.84714979856156,1864],[7.237636094349525,45.84718579689093,1867],[7.237171104257198,45.847367547071855,1870],[7.236843394264842,45.847526025994014,1873],[7.23646888545875,45.84777503041757,1876],[7.236269822254356,45.847960965793995,1879],[7.236079056995339,45.848310645733115,1882],[7.235969531738072,45.84851596399702,1885],[7.235899477858654,45.848694890478676,1888],[7.235852324580052,45.84896417474596,1891],[7.235855240537989,45.8492792343271,1894],[7.235840376045412,45.849342007670494,1897],[7.235786038767066,45.84943117263271,1900],[7.235733692885527,45.849457365418665,1903],[7.235396431407922,45.84953315972125,1906],[7.235267415738049,45.84954016706137,1909],[7.235219980337089,45.84952829711387,1912],[7.23512751918957,45.84948400323913,1915],[7.2350903229724475,45.8494384264711,1918],[7.2350905420668195,45.84902441073858,1921],[7.234995527631591,45.848770931033535,1924],[7.234938848013495,45.84852704400267,1927],[7.234913639326501,45.84830614426945,1930],[7.2348060705511665,45.84824597935513,1933],[7.234707358039106,45.84810944765584,1936],[7.234725639332647,45.847938722239896,1939],[7.2346738009082685,45.84754190275209,1942],[7.234689235486518,45.847461137515666,1945],[7.234839658029542,45.8471844490749,1948],[7.234854807625491,45.84711267982673,1951],[7.23483162422035,45.847031317813354,1954],[7.234835609047404,45.84690537352557,1957],[7.23473228095238,45.846507758331995,1960],[7.23470362634749,45.84619230081876,1963],[7.234433938112961,45.84657515082036,1966],[7.234169145956171,45.8472100875775,1969],[7.2340192895744195,45.84746878305282,1972],[7.234000436776328,45.84765750037067,1975],[7.233904632362426,45.84783602755061,1978],[7.233729027464417,45.848094324524915,1981],[7.233636639430318,45.84816489928726,1984],[7.2334012260343705,45.84827826422658,1987],[7.233309122171754,45.84833984270013,1990],[7.233188423338991,45.84849098299071,1993],[7.233157549141161,45.848652512954416,1996],[7.233203912317733,45.8488152375602,1999],[7.233212796500082,45.84894138080037,2002],[7.233145012644185,45.849048337369204,2005],[7.232984837882851,45.849225868077,2008],[7.232524591337667,45.849524761784906,2011],[7.2324053129873445,45.849630921125225,2014],[7.232364413214102,45.84970229155961,2017],[7.232342988292997,45.84997197247518,2020],[7.232384789151839,45.850278633414234,2023],[7.2324320064305185,45.85041437026595,2026],[7.232553328499565,45.850650258269674,2029],[7.232559646061273,45.85085736553564,2032],[7.232438369455539,45.85102649686633,2035],[7.232273910322113,45.85133896642888,2038],[7.2321941034041,45.85141873509949,2041],[7.231924065634852,45.8516080646123,2044],[7.2319034721188,45.851648247718025,2047],[7.231914064509062,45.85172041497013,2050],[7.23198759927007,45.851838558494535,2053],[7.231997621524547,45.85192871773662,2056],[7.231913250920676,45.85215242216151,2059],[7.231735911598818,45.852464691535474,2062],[7.231660134898029,45.852823534952634,2065],[7.231498803357963,45.85303704721763,2068],[7.23136293318982,45.85325995388057,2071],[7.2312299146734835,45.853392900429135,2074],[7.231106631254398,45.85362500208075,2077],[7.231017974611318,45.85398364556051,2080],[7.230985378693743,45.854199150595875,2083],[7.230817762709349,45.85461057352461,2086],[7.230851249176643,45.85477309950126,2089],[7.230845256795013,45.854962015264974,2092],[7.230750855961164,45.855095559309596,2095],[7.230618402281721,45.855210513045,2098],[7.230598393002286,45.85543521329726,2101],[7.230528883453849,45.85559614392615,2104],[7.230475102205567,45.85566731408346,2107],[7.230167281779456,45.85588755547164,2110],[7.230130373848322,45.85597698770176,2113],[7.230229659313249,45.85609553124947,2116],[7.230289464984631,45.85624046429836,2119],[7.230206793348915,45.85641019120559,2122],[7.230060033201679,45.85656992464978,2125],[7.230032570810101,45.85662350156858,2128],[7.230029715798268,45.85671346138794,2131],[7.230129002310988,45.856832005024636,2134],[7.230165342730545,45.856904571311624,2137],[7.230162773388019,45.856985535150926,2140],[7.230119866656581,45.85711987644555,2143],[7.230143332400666,45.857192243257245,2146],[7.230124747726208,45.85737196340724,2149],[7.229998024256429,45.857712015278196,2152],[7.230046954509588,45.85779377707389,2155],[7.230093600876857,45.85794750669186,2158],[7.230113069878614,45.85814581722507,2161],[7.230122002693847,45.85908199752777,2164],[7.2301297387951236,45.85924412462662,2167],[7.230164938669491,45.85935267482064,2170],[7.23014121391389,45.859694322500744,2173],[7.230054253450296,45.85999898877481,2175],[7.229971004096654,45.86018670726538,2178],[7.229780751487221,45.86049877314206,2181],[7.229689503709233,45.86093837865832,2184],[7.229621983495466,45.86103633663632,2187],[7.229476066028484,45.86116908108654,2190],[7.229175087001988,45.861722440429844,2193],[7.22914704969084,45.8617940089793,2196],[7.229151069046512,45.86207308363468,2199],[7.22909699385715,45.86215324891774,2202],[7.228923891464187,45.86233057318798,2205],[7.228880120028436,45.86249190169481,2208],[7.22901547071752,45.86269200891455,2211],[7.229087870196206,45.86284613808087,2214],[7.2291355424078825,45.862886478869,2217],[7.229227507869682,45.862911305545204,2220],[7.229381736053605,45.86292269661378,2223],[7.229626383065338,45.862926488429004,2226],[7.2300796187412955,45.86285250823023,2229],[7.2302215418861815,45.862845706714765,2232],[7.230364321528082,45.862811917100935,2235],[7.231011553470438,45.86271393715876,2238],[7.2311414562097545,45.86267994716152,2241],[7.231415849345531,45.86255819019397,2244],[7.232122441956967,45.86229688463524,2247],[7.232161682603283,45.86246986573176,2250],[7.231950962177505,45.862565440518374,2253],[7.23179758273288,45.8627501217023,2256],[7.231806885861158,45.86281615400935,2259],[7.23187394056574,45.862841214885144,2262],[7.231915934404495,45.86296920248308,2265],[7.231877968805855,45.863153181471404,2268],[7.231825921671183,45.86327019014134,2271],[7.231908901526759,45.86335719160878,2274],[7.231944944569357,45.86343413493819,2277],[7.231938913081104,45.86356413510286,2280],[7.231979900088659,45.86359514671861,2283],[7.2319539178034775,45.86365415438702,2286],[7.232004963904434,45.863714167050986,2289],[7.232003957737747,45.86373813843187,2292],[7.232066904768217,45.863729169922514,2295],[7.232064978435949,45.86377216739889,2298],[7.232117951709691,45.86383913744137,2301],[7.232093980153243,45.86387316686003,2304],[7.2321799781510565,45.86395111633172,2307],[7.232226915749518,45.86393711806663,2310],[7.232301931417061,45.86388414515304,2313],[7.2323499568322305,45.86377317091285,2316],[7.232439892283615,45.86378515602014,2319],[7.2324669674383335,45.86388615527655,2322],[7.232424894061693,45.86401716113775,2325],[7.232457918393224,45.86408614263893,2328],[7.232425903447726,45.86423215208333,2331],[7.232465969259792,45.86428009520915,2334],[7.232551965500853,45.86427917211136,2337],[7.232529922648234,45.864321164408395,2340],[7.23254090369653,45.864371119094486,2343],[7.2325789568994585,45.86440213099901,2346],[7.232553980249414,45.86445116481805,2349],[7.232563956170445,45.86449608982954,2352],[7.232602931548431,45.86452609624893,2355],[7.232645932341107,45.8646830848895,2358],[7.232622968046335,45.86474410417878,2361],[7.232662948998939,45.86472516129224,2364],[7.232686921122494,45.86474309734108,2367],[7.232715923915063,45.864858094055975,2370],[7.232784904183953,45.864842084779205,2373],[7.2327299234588525,45.86498909985943,2376],[7.232886912967174,45.86495112934406,2379],[7.233145907075974,45.864917097186094,2382],[7.233200974104905,45.864887090155996,2385],[7.233471954602807,45.86484014977537,2388],[7.23348293509756,45.864912149020874,2391],[7.233437927117689,45.86499412251085,2394],[7.233490902640616,45.865149099579604,2397],[7.233436927365655,45.86525211051867,2400],[7.233467940937957,45.8653610727629,2403],[7.233460901970971,45.86543307145578,2406],[7.233513957800965,45.865424102194055,2409],[7.233485966129764,45.86555309767397,2412],[7.233777899170098,45.865470115395865,2415],[7.233864903075298,45.865563067480814,2418],[7.233850904924994,45.865499115677046,2421],[7.233928938595627,45.865472125699576,2424],[7.233960957292862,45.865502048397786,2427],[7.234023906391051,45.86568309242568,2430],[7.2340239080323645,45.865753079500564,2433],[7.233973955440877,45.86584209335951,2436],[7.233851918048639,45.86588911563608,2439],[7.233781931630891,45.86595206324356,2442],[7.233667941563008,45.865983076544865,2445],[7.233664925853922,45.866043089528596,2448],[7.2335369378110155,45.86609606321778,2451],[7.233510955202883,45.866164039201884,2454],[7.233463933726433,45.866156076638724,2457],[7.233374921597059,45.866226065091396,2460],[7.233639953665499,45.86630803493382,2463],[7.233605923954348,45.86633108525805,2466],[7.233522944946276,45.86633008022441,2469],[7.233528980006258,45.866365032065225,2472],[7.2334909282947875,45.866411047660606,2475],[7.233492940490645,45.86646309833857,2478],[7.233364953530867,45.866530069257394,2481],[7.2331609420350835,45.86654507407713,2484],[7.233130935252341,45.86653308855675,2487],[7.232924997246611,45.866566030637806,2490],[7.232819974419027,45.866565109811965,2493],[7.23279893764556,45.86660911399711,2496],[7.232832967324976,45.8666270507944,2499],[7.2327970110012965,45.86667708934601,2502],[7.232844954916953,45.86671103528083,2505],[7.232841016481508,45.866777083124944,2508],[7.232661983765395,45.866781107774486,2511],[7.232529972650798,45.86680407468808,2514],[7.232206559018257,45.866895673190676,2517],[7.232051008574286,45.866879299975714,2520],[7.230111008039811,45.86728930030352,2523],[7.2294510079741885,45.86732930011125,2526],[7.228931007852572,45.86728930039251,2529],[7.225221007691884,45.86812930106578,2532],[7.2233110079871805,45.86807930089842,2535],[7.223081008584942,45.86794930123666,2538],[7.221341007622104,45.86814930069468,2541],[7.220781008638877,45.86790930129448,2544],[7.220781008217193,45.86803930113287,2547],[7.21973100798608,45.868059300961136,2550],[7.219731007680454,45.86818930080041,2553],[7.218761008214183,45.86850930102904,2556],[7.21831100817057,45.86837930099603,2559],[7.2176310082920425,45.868579301199794,2562],[7.217383447291663,45.86830733459339,2565],[7.217306183393977,45.86830612884845,2568],[7.2172944567645585,45.86826994427999,2571],[7.2173486224034,45.86778476844837,2574],[7.217337183504945,45.86773958797977,2577],[7.217273372919024,45.86772059137493,2579],[7.217234166027197,45.867737980281845,2582],[7.217127120852415,45.86786231511122,2585],[7.216927920423202,45.86804821414486,2588],[7.2162659242243095,45.86860490362698,2591],[7.216225565008785,45.868658275754434,2594],[7.216152542260172,45.86892714716561,2597],[7.215953622615199,45.86910404846887,2600],[7.215769306795471,45.86922717518626,2603],[7.215762972369238,45.86942508481807,2606],[7.215721460310708,45.86951444031215,2609],[7.215640739400381,45.86962118411543,2612],[7.2156523850244385,45.87006238508032,2615],[7.215600298260845,45.87007957223291,2618],[7.215561953090041,45.87006997285602,2621],[7.2152600884905835,45.869840247272144,2624],[7.2150958474332025,45.86973867680919,2627],[7.2149052756220655,45.86965469542166,2630],[7.214777363797905,45.869625695318526,2633],[7.214699521976041,45.86964247955807,2636],[7.214720667578229,45.86978681626145,2639],[7.21462159243349,45.87006427987898,2642],[7.214721444910968,45.87016484474099,2645],[7.214857050151452,45.87035597212174,2648],[7.215020716428106,45.87047553471183,2651],[7.215256465957277,45.87075823028052,2654],[7.215304521218434,45.870866985726366,2657],[7.215290203221159,45.870911763967385,2660],[7.215250417400702,45.870947143916624,2663],[7.215199193792524,45.87093734320833,2666],[7.2150999152006765,45.870818786970446,2669],[7.21489761420988,45.87069862076586,2672],[7.214693585409208,45.87063242952389,2675],[7.214398547893989,45.87059181653122,2678],[7.214256603661035,45.870598598056986,2681],[7.214061707020182,45.870649553486935,2684],[7.213728036456549,45.870608334755566,2687],[7.213352849679218,45.87065646960402,2690],[7.213080396633737,45.87071521070248,2693],[7.2129776622898385,45.870704603210044,2696],[7.212903279295292,45.87061343567545,2699],[7.2129099125338,45.870406530516725,2702],[7.212714540168677,45.870070459491885,2705],[7.212693111257203,45.869935118375366,2708],[7.212530316992358,45.86978856490903,2711],[7.212300250722392,45.86973096233502,2714],[7.212174899978019,45.86963250828704,2717],[7.212002007803199,45.87028930307644,2720],[7.211192008612401,45.87123930427146,2723],[7.211102008247798,45.87221930516847,2726],[7.2119620078893645,45.87241930535396,2729],[7.212092008018155,45.87260930507492,2732],[7.2113820087012215,45.8730193057564,2735],[7.211422008609311,45.87342930645196,2738],[7.210522008726976,45.87477930764163,2741],[7.2101820087367825,45.875789307755454,2744],[7.209752007565816,45.87623930835519,2747],[7.209582008593354,45.8762593087792,2750],[7.209392007819827,45.87655930867017,2753],[7.209602007970571,45.87674930862441,2756],[7.208982007760311,45.877069309459735,2759],[7.208912007727205,45.877349309981184,2762],[7.208702008763935,45.87745930943517,2765],[7.208312008711924,45.877949310223336,2768],[7.208212007873181,45.87863931095529,2771],[7.2085520083921875,45.87940931189057,2774],[7.208212007716208,45.87987931172853,2777],[7.208190008011171,45.880278312408834,2780]]}}]}