{"type":"FeatureCollection","features":[{"type":"Feature","properties":{"slug":"26-s7","sct_code":"26_S7","source":"Catasto Sentieri VdA"},"geometry":{"type":"LineString","coordinates":[[7.235665648837152,45.82225700004969,1339],[7.235547998361608,45.82231368662634,1344],[7.235472167563075,45.82237101640117,1348],[7.235442409029309,45.82244706145877,1353],[7.235454750810644,45.82251475551539,1358],[7.235687396604339,45.82298187247452,1362],[7.235616155748914,45.8230212732282,1367],[7.235470809712957,45.8230505305638,1372],[7.235272266125574,45.823069965408514,1376],[7.2351725706481345,45.82305492265955,1381],[7.234080008348379,45.82291026041309,1386],[7.2312300075362135,45.823730261140426,1390],[7.230690007578586,45.82446026191645,1395],[7.229682294825386,45.82435051105462,1400],[7.229698541617002,45.82441400272527,1404],[7.229828262721263,45.82486016286289,1409],[7.230180007671827,45.8250402625509,1414],[7.230936233918682,45.82515039415214,1418],[7.231210008678609,45.82519026302626,1423],[7.231360731492014,45.82511490225826,1428],[7.232110008412987,45.824740262211,1432],[7.2322225268071465,45.82474811310637,1437],[7.23297000855628,45.82480026261339,1442],[7.233160008705519,45.82485026230866,1446],[7.232920008045454,45.82504026287832,1451],[7.233780008669386,45.82525026228158,1456],[7.23513485075138,45.826272001012434,1460],[7.2353502670422225,45.82626632954013,1465],[7.2357841070526145,45.826223528455735,1470],[7.2360373606243975,45.82623400814431,1474],[7.236420749745995,45.82629071483479,1479],[7.236960693825627,45.826311647783385,1484],[7.237361348194755,45.82632098112015,1489],[7.237688500480743,45.82630398142379,1493],[7.237956469995957,45.82630654118677,1498],[7.238124072964169,45.826385650971105,1503],[7.238240876675772,45.82643061057014,1507],[7.238375632156426,45.82651457673032,1512],[7.238533414045101,45.82665401565532,1517],[7.2386583983573365,45.82672641373209,1521],[7.2386447741352375,45.82676557340802,1526],[7.238697824493255,45.82683331874155,1531],[7.238795133995957,45.82692615657479,1535],[7.238551508513758,45.82729424356335,1540],[7.238854989941103,45.82745442010842,1545],[7.239510353411964,45.82768958857127,1549],[7.239504030613998,45.82771482557833,1554],[7.239464096158137,45.82773113903383,1559],[7.239396491487861,45.82774988003638,1563],[7.23929337439541,45.82775183411171,1568],[7.239210706876075,45.827748198127765,1573],[7.23912333696289,45.82775078810632,1577],[7.238980859752916,45.827780432538674,1582],[7.238792112158967,45.82782520777249,1587],[7.238485810633388,45.82782363394157,1591],[7.238104399841407,45.82777523253494,1596],[7.238005627107379,45.82775999320116,1601],[7.238114153518308,45.827911074599996,1605],[7.238890008701718,45.828640265572126,1610],[7.238330007769996,45.828690265571126,1615],[7.238351756802656,45.828704178162376,1619],[7.238826289169678,45.82900773794541,1624]]}}]}