{"type":"FeatureCollection","features":[{"type":"Feature","properties":{"slug":"27-s32","sct_code":"27_S32","source":"Catasto Sentieri VdA"},"geometry":{"type":"LineString","coordinates":[[7.459343071024262,45.73341414704295,533],[7.45969788943541,45.73354586530885,533],[7.459795482239903,45.733560681224446,534],[7.459870585339176,45.73357260526288,534],[7.4599576995170676,45.733578723823875,535],[7.460075766846658,45.733579416457324,535],[7.460233215848564,45.733571651890934,536],[7.460476745332855,45.73354336229416,536],[7.460512524910371,45.73345575608297,536],[7.460547562739163,45.733441949824616,537],[7.460823007537139,45.733460186868854,537],[7.46092782578737,45.733482363528104,538],[7.461199029844422,45.733550510911854,538],[7.461208924447222,45.733540756197584,539],[7.461573666047438,45.73363813918046,539],[7.461770680114243,45.73371183386291,540],[7.4617843320797785,45.733731497611494,540],[7.461800656851528,45.733754271041306,540],[7.461813411309056,45.73375681894414,541],[7.461847904996454,45.733762028534386,541],[7.4618809673039,45.73376670850817,542],[7.461894881549284,45.73377148615592,542],[7.461954684749457,45.73376228010769,543],[7.4620460035104585,45.73374583709346,543],[7.4621482720529,45.733749455157096,543],[7.462260490943093,45.73374432623676,544],[7.4624722613995695,45.73367903556992,544],[7.462563237038125,45.73363752727597,545],[7.462619934060049,45.73360980272992,545],[7.462678987635053,45.73359839637762,546],[7.462743592213335,45.73355092926958,546],[7.462746495037273,45.73354893691074,546],[7.462832705866675,45.73348976818905,547],[7.462819043223376,45.73341399765546,547],[7.462816627548344,45.7333910722321,548],[7.462770747205651,45.73333347856652,548],[7.46275265714878,45.73330092941403,549],[7.462743863513898,45.7332630834365,549],[7.462771263387739,45.7332398266249,550],[7.462795965904653,45.73321749116565,550],[7.4629031028250035,45.73320468865213,550],[7.463028781641199,45.73319569705331,551],[7.4630999361435535,45.73318660534129,551],[7.463171664573605,45.73317744030179,552],[7.463260195562586,45.73316319994634,552],[7.4633668778623266,45.73316700950863,553],[7.46348688682246,45.73317930665122,553],[7.463569358773569,45.73320059525296,553],[7.463664048602806,45.73320899102041,554],[7.463764474474651,45.73319372308746,554],[7.463852109850924,45.73318125143795,555],[7.463922653091825,45.73314302879266,555],[7.464026336589817,45.73313255313087,556],[7.464079740752403,45.73310122205934,556],[7.464158041147331,45.73308921778875,556],[7.464266611915197,45.73308592976206,557],[7.464481995043681,45.73308170320754,557],[7.4646224996578745,45.733088339709774,558],[7.464766716308271,45.733052293989076,558],[7.464842147537125,45.73302125861232,559],[7.46494064924923,45.73301427309817,559],[7.4650215868978576,45.73296788014891,560],[7.46509701787499,45.73293684460014,560],[7.4652090425892075,45.73293122774313,560],[7.4652864309961044,45.73295244679969,561],[7.465448899460038,45.73299261374185,561],[7.46557482016606,45.733024495016906,562],[7.465573138258618,45.733027245494625,562],[7.465580767037515,45.73302627780853,563],[7.465690779449051,45.73307301848478,563],[7.46583594911219,45.73315687252397,563],[7.46593468330556,45.733203304875005,564],[7.466114197385498,45.73327100117942,564],[7.466243399089496,45.733319029568875,565],[7.466530626544377,45.73344574084248,565],[7.46670502573205,45.73351455472007,566],[7.466811811005406,45.73357652583438,566],[7.466992009300203,45.73361930289897,567],[7.467041280889505,45.73363199790227,567],[7.467063007760547,45.73363018695632,567],[7.467243008643316,45.733670187003696,568],[7.467653008050568,45.733620186923034,568],[7.468143007545805,45.73377018673834,569],[7.468213008389869,45.73385018636326,569],[7.468413008759632,45.73394018712542,570],[7.468853008167318,45.733970186793826,570],[7.4690460082039944,45.73400618648616,570],[7.469063008724585,45.73410018661899,571],[7.469123007693406,45.73412018713997,571],[7.469833008298105,45.73423018724438,572],[7.4702230081106125,45.73457018753843,572],[7.471313008545995,45.734570187716585,573],[7.4714830080736965,45.73442018684287,573],[7.471761007840131,45.734366186935674,573],[7.471853007580246,45.7344001869945,574],[7.471943008655897,45.7343901871367,574],[7.4720730081462925,45.73441018736369,575],[7.473753730332713,45.734317767696346,575],[7.474210426352223,45.73418435954277,576],[7.474916243894085,45.734076779172355,576],[7.475079723285613,45.7341059616175,577],[7.4751951654977145,45.73408500314021,577],[7.475746629844432,45.733907852002176,577],[7.476114007342235,45.73380924652196,578],[7.476228402162842,45.73379727178026,578],[7.476356637856271,45.73380798383248,579],[7.476553355307004,45.733855608632034,579],[7.477412159189543,45.73394131490982,580],[7.477443007637599,45.73399018688702,580],[7.477413008135101,45.73436018678391,580],[7.47748300847046,45.734550187260545,581],[7.477373007915829,45.73472018783588,581],[7.477273008346561,45.7347601871348,582],[7.476933008561804,45.73476018770931,582],[7.476853007584277,45.73482018790866,583],[7.47687550820116,45.73487354349926,583],[7.476888008782155,45.73490318789525,583],[7.476753008667588,45.73512018751568,584],[7.476773007843192,45.73526018778187,584],[7.476703008381426,45.73542018776636,585],[7.4766730079223835,45.735590187922845,585],[7.476593007782074,45.735620188206134,586],[7.4765930087325065,45.73579018793146,586],[7.47670300775191,45.735870188324746,587],[7.47661300871299,45.73600018820577,587],[7.476604256174118,45.73611028142007,587],[7.476734609500135,45.736159210618915,588],[7.476148189704768,45.73630285462974,588],[7.475991127663592,45.73627375845035,589],[7.475898072854419,45.73623694939108,589],[7.475821781025075,45.73645530992697,590],[7.47575180397125,45.73676211486855,590]]}}]}