{"type":"FeatureCollection","features":[{"type":"Feature","properties":{"slug":"29-s11","sct_code":"29_S11","source":"Catasto Sentieri VdA"},"geometry":{"type":"LineString","coordinates":[[7.8875867857870325,45.71273930698322,1130],[7.887572978316581,45.71300704238989,1131],[7.887533007548791,45.71304717092143,1132],[7.887583008629631,45.713167170734515,1134],[7.887643007455365,45.71327717105949,1135],[7.8877330083739245,45.71337717044519,1136],[7.887923007862292,45.71350717095153,1137],[7.887963008194139,45.713597170708525,1138],[7.888013007860833,45.71361717061297,1140],[7.888033007572503,45.713607171269935,1141],[7.888033008514808,45.713667170736265,1142],[7.888073008471939,45.71371717111111,1143],[7.888173007661452,45.713767171308724,1144],[7.888193008509642,45.71381717140455,1145],[7.8883230078249875,45.713877171435485,1147],[7.888413007706596,45.71374717115437,1148],[7.888463008170436,45.7138171716152,1149],[7.888513007820035,45.71384717090881,1150],[7.888633008110406,45.7138671711675,1151],[7.888713008727946,45.713847170776994,1153],[7.888713007796224,45.713767171194434,1154],[7.888783008678081,45.71381717154715,1155],[7.888813008695442,45.713787171120046,1156],[7.8888830083430195,45.71387717163564,1157],[7.888953007612742,45.71390717084941,1159],[7.888963007588112,45.7139371715289,1160],[7.889003007917098,45.713967171461135,1161],[7.8890430087013454,45.7140671713451,1162],[7.889103007974556,45.71411717143748,1163],[7.8891030077728495,45.71416717127846,1165],[7.8891930083836765,45.71423717156876,1166],[7.889103008309519,45.714407171784096,1167],[7.889103008270195,45.71453717208822,1168],[7.889193007500395,45.714677171414564,1169],[7.889223008327679,45.71485717165052,1171],[7.889213008645276,45.71489717185309,1172],[7.889303008292407,45.71490717169464,1173],[7.889393007498368,45.714987172311446,1174],[7.889423008204684,45.71504717180062,1175],[7.889533008266587,45.71509717171469,1176],[7.889633007492442,45.71507717247271,1178],[7.889883008486431,45.715147171996115,1179],[7.8898830078330295,45.715187172216964,1180],[7.889943007903104,45.715227172258814,1181],[7.88999300856815,45.715237172593085,1182],[7.8900230077389715,45.71527717269376,1184],[7.890053008345019,45.715407171958226,1185],[7.8901030084054575,45.71537717201249,1186],[7.8901730074739875,45.71541717277433,1187],[7.890173008148126,45.715357172442445,1188],[7.890293007575101,45.71532717200955,1190],[7.890323008198574,45.71537717255124,1191],[7.890343008157505,45.715367171908895,1192],[7.890383008487561,45.71545717258777,1193],[7.890453008126595,45.71545717205786,1194],[7.890483007627806,45.71551717215157,1196],[7.8905730083298,45.71556717212547,1197],[7.890623008307851,45.715517172739936,1198],[7.89064300805256,45.715577172885986,1199],[7.890673007915604,45.715597172708044,1200],[7.890753007726521,45.7155671721798,1201],[7.890763007662963,45.71559717269235,1203],[7.890703007790393,45.71562717212823,1204],[7.890683007729525,45.71567717215578,1205],[7.890623007668617,45.715717172953354,1206],[7.890723007572438,45.71573717298856,1207],[7.890803007556306,45.71572717253922,1209],[7.890873007820191,45.71597717269695,1210],[7.890843007728795,45.71602717286392,1211]]}}]}