{"type":"FeatureCollection","features":[{"type":"Feature","properties":{"slug":"29-s13","sct_code":"29_S13","source":"Catasto Sentieri VdA"},"geometry":{"type":"LineString","coordinates":[[7.898369886299051,45.71009445365955,1101],[7.898340007685294,45.710088168452785,1109],[7.898223008638446,45.71011716853467,1116],[7.898143007955906,45.7101771686529,1124],[7.89795300760781,45.710177168363,1131],[7.897893008455831,45.71003716825634,1139],[7.897803008562637,45.71008716835902,1147],[7.897733008147476,45.71001716797926,1154],[7.897753007554273,45.70994716833678,1162],[7.89762300871402,45.70983716832844,1169],[7.897563008272778,45.7098971684328,1177],[7.897353007776132,45.709827168535625,1184],[7.897123008298181,45.7098771685697,1192],[7.897053008023448,45.70995716829902,1200],[7.89702300852344,45.70987716794607,1207],[7.8966730077296985,45.709947168664876,1215],[7.896203008390428,45.709837167890065,1222],[7.896183008420726,45.709947168418516,1230],[7.8961030077178,45.70994716851978,1238],[7.896043008583485,45.70983716807988,1245],[7.8963730077356,45.70938716797061,1253],[7.896363008683233,45.70934716741104,1260],[7.895933008007265,45.70948716791414,1268],[7.895743008568151,45.70945716780771,1275],[7.895693008715666,45.70936716765832,1283],[7.8954130075606095,45.70944716755641,1291],[7.895253007478845,45.70936716790755,1298],[7.895303008597003,45.70924716732189,1306],[7.895143008567061,45.70920716778236,1313],[7.895213007724185,45.70910716726863,1321],[7.895093008106557,45.70912716787673,1329],[7.895003008736095,45.70904716717004,1336],[7.895113007498757,45.70885716734686,1344],[7.8945630082056555,45.70894716769829,1351],[7.89433300775369,45.70882716772221,1359],[7.894210007598108,45.70883816750789,1366],[7.894193007925403,45.70912716738983,1374],[7.894003008349219,45.70903716758411,1382],[7.8939330078128815,45.70881716700288,1389],[7.893613007930283,45.70889716763064,1397],[7.893353007473313,45.70886716779352,1404],[7.892933008440247,45.70891716734553,1412],[7.892813008392058,45.70903716712487,1420],[7.892953007502688,45.70920716733427,1427],[7.892833008650595,45.70930716790772,1435],[7.892903008622556,45.70960716786923,1442],[7.8927830082727946,45.70972716850084,1450],[7.8926930077467645,45.71019716821906,1458],[7.892613007861603,45.71030716884769,1465],[7.892553007627218,45.710707168509934,1473],[7.892363008006948,45.71083716921121,1480],[7.8923330084028525,45.71093716878481,1488],[7.891903008718188,45.711087169010966,1495],[7.8918130075223205,45.71103716913979,1503],[7.891823007863767,45.71109716932715,1511],[7.891553008607381,45.71110716947107,1518],[7.891283008020401,45.71137716970994,1526],[7.891153008026531,45.711227169295434,1533],[7.890993008249879,45.711257169352926,1541],[7.89081300758363,45.71143716899554,1549],[7.890923008636707,45.71158716914216,1556],[7.890803008604005,45.711617169346304,1564],[7.890943008665355,45.71164716927877,1571],[7.89071300751796,45.71167716975379,1579],[7.8905930082502325,45.71179716985702,1586],[7.8903130076243615,45.7117771692091,1594],[7.8901530086407,45.7119071696194,1602],[7.890083007589323,45.71185717008808,1609],[7.89008300746822,45.71175716946225,1617],[7.889883007670731,45.711837169800496,1624],[7.88983300825715,45.711697169959905,1632],[7.889763007934566,45.711787169314384,1640],[7.889383008575712,45.712077169812474,1647],[7.889233008353174,45.712117169724586,1655],[7.889253008404934,45.71201717006013,1662],[7.8891330076913935,45.71218717026986,1670],[7.888851351839572,45.712073771929354,1677],[7.888623007663085,45.712367170126846,1685],[7.888373008651804,45.712397170242504,1693],[7.888203008710312,45.71250717037363,1700],[7.888033008570841,45.71268717022645,1708],[7.8878330086547175,45.71279717029699,1715],[7.8875867857870325,45.71273930698322,1723]]}}]}