{"type":"FeatureCollection","features":[{"type":"Feature","properties":{"slug":"29-s7","sct_code":"29_S7","source":"Catasto Sentieri VdA"},"geometry":{"type":"LineString","coordinates":[[7.902678296556768,45.719072288223735,1551],[7.903266626627025,45.718969237607695,1554],[7.903338306037201,45.718950462079306,1557],[7.903409621656292,45.71890680012233,1560],[7.903648115489813,45.718837801369666,1563],[7.903873624014635,45.718771461389174,1566],[7.903979774433164,45.71875855334152,1568],[7.9040837462676095,45.718752970535725,1571],[7.904149461226747,45.718783319827374,1574],[7.904273009363564,45.71878717629396,1577],[7.904512067386842,45.71878659695009,1580],[7.9046426866508215,45.71874737673937,1583],[7.904851080051327,45.71872357377973,1586],[7.90497054896546,45.718727471390466,1589],[7.9051015845203025,45.71869112311714,1592],[7.905342776933033,45.71870531887641,1595],[7.905399340411286,45.71868215525248,1598],[7.905499555771239,45.718679157921045,1601],[7.905597561036989,45.71857547279166,1603],[7.9057271039803085,45.718498978793285,1606],[7.905959694727815,45.71849446693765,1609],[7.906039389955566,45.71847446770214,1612],[7.906216158867491,45.71848160657719,1615],[7.9063142936351465,45.71845476598066,1618],[7.906452855480428,45.71848502920336,1621],[7.90657357723557,45.718497532646175,1624],[7.906693274253943,45.71851362997022,1627],[7.907018769472947,45.71868532117815,1630],[7.907260764312621,45.71877161308525,1633],[7.907415762598241,45.71885910838026,1635],[7.907578959020787,45.718908505173665,1638],[7.907801256342725,45.71905619645516,1641],[7.907871258297288,45.71920409292444,1644],[7.908070660467487,45.71941798336186,1647],[7.908130260684348,45.71952538042201,1650],[7.908431158779125,45.71974236979167,1653],[7.908781251193178,45.71990805899417,1656],[7.908906750252816,45.719997255977546,1659],[7.908906395157134,45.72002592649809,1662],[7.909041436583932,45.720140084756075,1665],[7.909186580814955,45.72034839673221,1668],[7.909300901847845,45.72045399532357,1670],[7.909580873405599,45.720634331451734,1673],[7.909840190886825,45.7206937059934,1676],[7.9098774908483005,45.720752504221444,1679],[7.9099064939861075,45.72086210149599,1682],[7.9099869947329475,45.720988297505016,1685],[7.910168671567804,45.72117029719056,1688],[7.910298692662362,45.721246985417,1691],[7.910197698531491,45.721277387061214,1694],[7.910175399218799,45.72132548560116,1697],[7.91013060359545,45.72135898665916,1700],[7.910034205462102,45.72139368745906,1702],[7.910037007012238,45.72143318513642,1705],[7.910082608702181,45.72148418342983,1708],[7.9103375011339025,45.72154997699718,1711],[7.91045890548328,45.7218211690038,1714],[7.9107170114344365,45.72221335533849,1717],[7.910807709827005,45.722270851495196,1720],[7.910938005955342,45.72231464824971,1723],[7.910967007176328,45.72235584655096,1726],[7.911190803646782,45.722480441060995,1729],[7.911216005610745,45.72254973875398,1732],[7.911250006104045,45.72258073662182,1734],[7.911299505014383,45.72259103514759,1737],[7.911406403022092,45.722677132293754,1740],[7.911481606392325,45.72284732713624,1743],[7.911595704484566,45.72292902304282,1746],[7.911666307568258,45.72305121908894,1749],[7.911796907429488,45.723204712639436,1752],[7.911959705815517,45.72326870720178,1755],[7.911992405482453,45.72332690646393,1758],[7.9120560048065505,45.723353604714596,1761],[7.912141302870603,45.723363502158804,1764],[7.912293200329504,45.72345819765664,1767],[7.912461994660369,45.72344279549439,1769],[7.912555290546032,45.72341059407535,1772],[7.912555990830726,45.72343119305857,1775],[7.912643007478179,45.7234861784509,1778],[7.912743008307861,45.72345617832518,1781],[7.91278300836421,45.72338617845974,1784],[7.9128730077625065,45.723386178112996,1787],[7.913023008203209,45.723306178562204,1790],[7.912823008572563,45.72310617816201,1793],[7.912893007461889,45.72310617826799,1796],[7.912983008342342,45.72302617841602,1799],[7.913713008585679,45.72324617844257,1801],[7.913863008058847,45.723246178108646,1804],[7.914433008481837,45.723136178662095,1807],[7.914603007713173,45.72306617855568,1810],[7.91465300768182,45.72292617779569,1813],[7.915193007885445,45.72258617792218,1816],[7.915303008432744,45.722456177380096,1819],[7.915363008362331,45.72218617753418,1822],[7.915753008471746,45.72212617758198,1825],[7.915893007991248,45.72204617743298,1828],[7.916313007592607,45.7220661770856,1831],[7.916523007646197,45.72191617699482,1834],[7.916703008663972,45.72190617706634,1836],[7.916803007834224,45.72183617769105,1839],[7.917003008581012,45.72197617721286,1842],[7.917143007941485,45.721936177502066,1845],[7.917223007919906,45.72184617710994,1848],[7.9174630078448915,45.72185617770901,1851],[7.917583008143689,45.721786177272435,1854],[7.917633008160939,45.72182617776482,1857],[7.917693007465179,45.721776177624825,1860],[7.9182730082609805,45.72171617700437,1863],[7.918393008586137,45.7218061773112,1866],[7.918463007813463,45.72177617702747,1868],[7.9185230082484965,45.721816177302436,1871],[7.918573007777343,45.721726177264905,1874],[7.91866300763481,45.721696177181016,1877],[7.9187230083169995,45.721726176860315,1880],[7.918733008317257,45.72178617726628,1883],[7.9190730082870475,45.721836176964445,1886],[7.919093008156408,45.72192617713062,1889],[7.919203008591059,45.721936177025626,1892],[7.91922300767922,45.72199617748132,1895],[7.919643008015797,45.72205617766704,1898],[7.919753007497765,45.722016177258915,1901],[7.9197830083472525,45.722096177773054,1903],[7.91997300775271,45.722046177058125,1906],[7.9199530082430645,45.72208617715873,1909],[7.920003007647817,45.72212617750491,1912],[7.920023008608499,45.722366177698994,1915],[7.9202430081778745,45.72229617744663,1918],[7.920303008066623,45.72235617776157,1921],[7.920363008350099,45.72232617811818,1924],[7.9204430079569335,45.722366177375314,1927],[7.920533008688056,45.722306177952625,1930],[7.920573007830075,45.72236617814144,1933],[7.920823008299823,45.72239617805127,1935],[7.920973008236685,45.72234617762452,1938],[7.920963008377094,45.72240617792925,1941],[7.921013007643685,45.72239617806904,1944],[7.92110300783889,45.722336177292625,1947],[7.921143008640523,45.72238617770482,1950],[7.921263008325236,45.72232617749619,1953],[7.921363007935099,45.72239617743067,1956],[7.921523008225468,45.72237617767609,1959],[7.921573007786215,45.722496177669676,1962],[7.921413007622701,45.722746178003945,1965],[7.9216430080229925,45.72259617824435,1967],[7.92188300850733,45.72251617773222,1970],[7.922263008269289,45.72226617783436,1973],[7.922293008549284,45.72219617749541,1976],[7.922383007979476,45.722156177586804,1979],[7.922863008564238,45.72217617729959,1982],[7.922923008552998,45.722236178039196,1985],[7.922953007860147,45.72218617760243,1988],[7.923033007920749,45.72220617766551,1991],[7.923143008239516,45.72204617709316,1994],[7.923313008011732,45.72194617784347,1997],[7.923433007995363,45.72174617745405,2000],[7.923753007699456,45.72169617681781,2002],[7.924063008382677,45.72174617694655,2005],[7.924293007856856,45.7220061776289,2008],[7.9245430078419465,45.72199617732356,2011],[7.925093007840066,45.7221361773025,2014],[7.9252330078734605,45.722236177275796,2017],[7.925353007778191,45.72236617762049,2020],[7.925673008046514,45.7224861781745,2023],[7.925573008498555,45.72255617810001,2026],[7.925603008617284,45.72259617780195,2029],[7.925813007902382,45.722626177593945,2032],[7.925783007466322,45.72265617778396,2034],[7.925873008583047,45.72270617776663,2037],[7.9259730081959985,45.722626177989625,2040],[7.926033008622682,45.72265617831962,2043],[7.926393008371656,45.722606178211116,2046],[7.926493008613972,45.722656178071375,2049],[7.926743007491874,45.72257617760118,2052],[7.92688300776717,45.72258617832382,2055],[7.9274330077661785,45.722576177648136,2058],[7.927503008701666,45.722846178478825,2061],[7.927853008135305,45.72309617830896,2064],[7.928023007736606,45.723056178610435,2067],[7.928213008479659,45.72307617844418,2069],[7.928923008563257,45.723296178897506,2072],[7.928963007658404,45.72358617839583,2075],[7.929433007784137,45.723996179306944,2078],[7.929603007907226,45.724096178708564,2081],[7.929783007714746,45.72404617870275,2084],[7.930193008167417,45.724096179096406,2087],[7.930543008136946,45.724026179300274,2090],[7.93073300791299,45.724046179427866,2093],[7.930933008418662,45.72412617945431,2096],[7.931483007676413,45.72405617883534,2099],[7.931843008668386,45.723796179207895,2101],[7.932013007598284,45.72385617845817,2104],[7.932333008575128,45.72354617889616,2107],[7.93248300774641,45.72349617865943,2110],[7.93247300787434,45.72344617817186,2113],[7.93261300802886,45.72343617898829,2116],[7.932913008422717,45.72335617857899,2119],[7.933013007824218,45.72335617836602,2122],[7.93340300799686,45.723446178607325,2125],[7.9334330076054576,45.72359617892055,2128],[7.933713008332315,45.72373617865636,2131],[7.933783008269505,45.72369617841376,2134],[7.933883007978567,45.72375617857485,2136],[7.934033007692395,45.723666178854145,2139],[7.9341530078908855,45.723516178723656,2142],[7.934553008466015,45.723416178938756,2145],[7.934853008140421,45.72340617865394,2148],[7.935123008693074,45.72346617858773,2151],[7.9351530082484585,45.72342617815311,2154],[7.935553008043557,45.72354617842123,2157],[7.935753007656443,45.723686178336905,2160],[7.935723008332868,45.72381617882715,2163],[7.935893007558191,45.723916178756994,2166],[7.935853008391681,45.72413617872731,2168],[7.935883008272398,45.72419617938856,2171],[7.9357730086058025,45.72433617948881,2174],[7.9357530077858955,45.724506179661184,2177],[7.935563007816336,45.724716179291974,2180],[7.935433007930603,45.725016179593425,2183],[7.935323008331226,45.72510617951081,2186],[7.935223008197269,45.72509617945431,2189],[7.935103008512343,45.72523618018761,2192],[7.935123007863036,45.72545618019565,2195],[7.935233008381976,45.725636180099414,2198],[7.935243007969872,45.72572618046445,2200],[7.935173008678135,45.72581618042099,2203],[7.934573008347943,45.725896180288515,2206],[7.934383008280631,45.725766180317535,2209],[7.934383008521617,45.72583618011689,2212],[7.933513007783189,45.726046180181406,2215],[7.933073008470883,45.726026180330734,2218],[7.9328430074769,45.72618618099162,2221],[7.932603007996768,45.72622618095417,2224],[7.9323130084875055,45.72643618128033,2227],[7.931733007793744,45.726426180472764,2230],[7.931283008078962,45.726726181213905,2233],[7.930603008133841,45.72683618097969,2235],[7.930323007957466,45.72698618143379,2238],[7.929973008063134,45.72697618116088,2241],[7.929823008477967,45.72691618085257,2244],[7.929493008495583,45.72700618139098,2247],[7.929393008505712,45.72717618133908,2250],[7.929203008302372,45.7273061817427,2253],[7.928873007922009,45.727406181864566,2256],[7.928773008316345,45.72746618135198,2259],[7.92872300869434,45.727696181718414,2262],[7.928573007965873,45.72789618240851,2265],[7.928563007610833,45.72805618183458,2267],[7.928443008377793,45.72831618219412,2270],[7.928553008684676,45.72860618294098,2273],[7.928513008128209,45.7288861830505,2276],[7.928353007581006,45.72903618262463,2279],[7.928303008694399,45.72915618287433,2282],[7.928123007813905,45.72927618296194,2285],[7.927513008010951,45.729366182878394,2288],[7.927173008247222,45.729616183182756,2291],[7.927103007784687,45.729816183401866,2294],[7.926823008361834,45.72979618327529,2297],[7.926573007594287,45.72992618351388,2300],[7.926530007551903,45.730148184133164,2302],[7.9265630082890235,45.730136184215496,2305],[7.926623007776731,45.73019618382031,2308],[7.9266130080148764,45.730476184258634,2311],[7.926743008561129,45.73071618406688,2314],[7.927073007845418,45.731016184029535,2317]]}}]}