{"type":"FeatureCollection","features":[{"type":"Feature","properties":{"slug":"31-s1","sct_code":"31_S1","source":"Catasto Sentieri VdA"},"geometry":{"type":"LineString","coordinates":[[7.286877399721709,45.6904675450925,700],[7.287126008134941,45.69111115423262,705],[7.287172008543238,45.691398154324546,710],[7.28692300798561,45.691546154374244,715],[7.286986008159855,45.691703155006536,720],[7.287076007850065,45.692143155260936,725],[7.28700600792637,45.69247315504409,730],[7.2870460076499,45.6925831549662,735],[7.287176007660476,45.692593155675254,740],[7.2873360077748615,45.69288315588209,745],[7.287266008391724,45.69329315611946,750],[7.287306007997156,45.69348315625719,755],[7.287466007549278,45.693673156505085,760],[7.287436008432009,45.69380315645444,765],[7.2872560078978905,45.69398315664605,770],[7.287276008674373,45.69408315657407,775],[7.287176007525202,45.69410315674444,780],[7.287116008651583,45.69432315674788,785],[7.287176007972829,45.694533156518595,790],[7.287246007907464,45.69454315648903,796],[7.287666008271584,45.69490315724547,801],[7.287616007636476,45.69521315707039,806],[7.287436008287388,45.69532315692649,811],[7.287206007878633,45.69530315762784,816],[7.287126008403496,45.695393157681146,821],[7.287040313910729,45.695625758347035,826],[7.286986008223432,45.69577315813306,831],[7.286968889277534,45.69590534563679,836],[7.286979007761712,45.69594815767987,841],[7.287456008540397,45.69597315825636,846],[7.2880360081454825,45.69612315787017,851],[7.288193008732629,45.69625215800381,856],[7.28820152992284,45.69627516441432,861],[7.2882430085131285,45.696387158049085,866],[7.288266007548284,45.69653915792522,871],[7.288486008086447,45.696813158661726,876],[7.288626008816832,45.69685315814924,881],[7.289006008750661,45.697203158700226,886],[7.289146008237596,45.69726315872126,891],[7.289301844309171,45.6972723595161,896],[7.289438589999841,45.69718440133869,901],[7.289656620518525,45.69700786819828,906],[7.289788453746637,45.69682061581783,911],[7.290033674298875,45.696531766118134,916],[7.29024198890334,45.696413376249154,921],[7.290766008647746,45.69631315795475,926],[7.29118600781467,45.6963231580004,931],[7.291336007888667,45.696173158300276,936],[7.291426008670226,45.696193157594685,941],[7.2915390087958025,45.69616915835838,946],[7.291546008132513,45.69640315788043,951],[7.291678416965902,45.696560794377426,956],[7.291585048526377,45.69682050061651,961],[7.291593009685105,45.69708613820105,966],[7.291567559370185,45.6971442615898,971],[7.291453939243732,45.69725056951009,976],[7.291285078983406,45.69736505242987,981],[7.291299220367526,45.69741476653886,987],[7.291353499472898,45.697438081033965,992],[7.291471443086098,45.69745334545001,997],[7.291687816258722,45.697465902114196,1002],[7.2919059862977855,45.69740584118459,1007],[7.291806008228398,45.697523158721154,1012],[7.291446008046983,45.69772315926586,1017],[7.2914360078209794,45.69868315948527,1022],[7.291146008583061,45.698983159958246,1027],[7.291396008398192,45.69914315996844,1032],[7.291386008790941,45.69924316032084,1037],[7.291126007629636,45.699343160187304,1042],[7.291156007942006,45.69943316075296,1047],[7.29135600846773,45.69954316044068,1052],[7.290916008229221,45.699893161201935,1057],[7.290826008244026,45.70005316049078,1062],[7.290290637751471,45.700376230138346,1067],[7.290246008538561,45.70040316157107,1072],[7.290155008439176,45.70056916136415,1077],[7.290233008260957,45.700684161697886,1082],[7.290406008060593,45.70123316196783,1087],[7.290510008304431,45.70141216226532,1092],[7.290526008760318,45.701413162300916,1097],[7.290586008660427,45.70155316220941,1102],[7.2907160077206585,45.70154316216481,1107],[7.2907260085825865,45.70179316185688,1112],[7.291039008404435,45.70212816206282,1117],[7.2910414220773,45.70215808743599,1122],[7.291059007669585,45.70237616285595,1127],[7.291383008616787,45.70245716270536,1132],[7.290916008312942,45.70308316300139,1137],[7.290916008262145,45.703193163157756,1142],[7.290945278545448,45.70320521554518,1147],[7.2910620807012165,45.70325331013776,1152],[7.2910860087471026,45.70326316291013,1157],[7.291073220350715,45.70327519080522,1162],[7.29091800845725,45.703421163443764,1167],[7.290920099241191,45.703453041616065,1173],[7.29092600782219,45.70354316321042,1178],[7.291213007804186,45.70355916362418,1183],[7.291276008151198,45.70376316369675,1188],[7.291366007611604,45.70380316325799,1193],[7.291096008220881,45.703963163650215,1198],[7.291196008127868,45.70411116376521,1203],[7.291358007664319,45.70417116431832,1208],[7.291203764826838,45.70420430749078,1213],[7.2911538202808925,45.704215039635095,1218],[7.291116008549667,45.70422316399817,1223],[7.290926008157447,45.70450316453243,1228],[7.290946008058056,45.704613164213775,1233],[7.291356007977175,45.70486316479002,1238],[7.29120600872944,45.70500316465212,1243],[7.291276008745351,45.705083164413836,1248],[7.291603771437316,45.70528778031485,1253],[7.291836007837716,45.70541616523699,1258],[7.292076007837402,45.70559116475273,1263],[7.29163600835972,45.70560316521563,1268],[7.290977007803079,45.705853164914394,1273],[7.290717007586376,45.705843165470405,1278],[7.290667008715453,45.70574316472642,1283],[7.290487007638594,45.705743165490325,1288],[7.290377008212304,45.705863165029555,1293],[7.29030700823545,45.70584316552376,1298],[7.290187008331782,45.70594316522535,1303],[7.2900927466565175,45.70605530672985,1308],[7.289487007908431,45.706403165903545,1313],[7.289187007718391,45.70647316531796,1318],[7.2889270080287485,45.706403165515866,1323],[7.288847008380733,45.70643316583016,1328],[7.2888070076403375,45.70656316544416,1333],[7.288567008570499,45.70654316586335,1338],[7.2884670084618515,45.70661316556411,1343],[7.288320008471733,45.706583166055765,1348],[7.288229831178505,45.706631766188366,1353],[7.288177008100798,45.706713166307004,1359],[7.2878870076604105,45.70687316619983,1364],[7.2878200084729,45.7069371660755,1369],[7.287626008513341,45.70704816585131,1374],[7.287837008657465,45.707153166516285,1379],[7.287967007812963,45.70736316618069,1384],[7.287784623804582,45.707499955179294,1389],[7.287767008301533,45.70751316681857,1394],[7.2877870085284355,45.70756316622719,1399],[7.2882570082301354,45.70759316623561,1404],[7.288477008537303,45.70773316626195,1409],[7.288463471391621,45.707802785653506,1414],[7.288407007595071,45.708093166912235,1419],[7.2884350085533,45.708165166584415,1424],[7.2884039850742,45.70819793373768,1429],[7.288257008784897,45.70835316709374,1434],[7.288127008798537,45.70839316696136,1439],[7.288072008109607,45.7084651674356,1444],[7.2883470078709935,45.7087331670706,1449],[7.2888370086255785,45.70878316765237,1454],[7.2890370084824285,45.70906316753297,1459],[7.2891370075509565,45.70904316753131,1464],[7.289327008077983,45.70917316775633,1469],[7.289657008702623,45.70921316816825,1474],[7.290007007833919,45.70941316755269,1479],[7.2899270085759085,45.70948316822588,1484],[7.290081008114425,45.70948516783293,1489],[7.290104172270688,45.709497822053834,1494],[7.290297008406017,45.7096031681323,1499],[7.290697007590478,45.71003316833129,1504],[7.291027007996182,45.710103168297564,1509],[7.2911570084178505,45.71025316888295,1514],[7.291174737310881,45.71042771020473,1519],[7.291157008804803,45.71046316837274,1524],[7.291247008161873,45.71074316917601,1529],[7.291387008569994,45.710933169277425,1534],[7.291307008441549,45.71113316935349,1539],[7.291237008663927,45.71113316889094,1544],[7.291267008709395,45.71129316966707,1550],[7.291312703772627,45.7113704250416,1555],[7.291488646695324,45.71149906552925,1560],[7.291618895847243,45.711559517742444,1565],[7.2914770085387035,45.71164316935433,1570],[7.29150800799144,45.71171716981319,1575],[7.291327008637746,45.71167317012074,1580],[7.29133700820901,45.71194316957746,1585],[7.291181989670563,45.712115517955084,1590],[7.291372855767374,45.712149877318375,1595],[7.291773607995485,45.71218737293531,1600],[7.2918386004301325,45.71221534586642,1605],[7.291896328394667,45.71229721555086,1610],[7.2916570082015095,45.712493170669184,1615],[7.291485008777868,45.712478169887,1620],[7.291507007695151,45.71264317042235,1625],[7.291387007837395,45.712863170943756,1630],[7.29148700798407,45.7133831709408,1635],[7.291658286958179,45.713652746604986,1640]]}}]}