{"type":"FeatureCollection","features":[{"type":"Feature","properties":{"slug":"31-s11","sct_code":"31_S11","source":"Catasto Sentieri VdA"},"geometry":{"type":"LineString","coordinates":[[7.3271050078711255,45.67562214292139,2314],[7.3270650087064055,45.67543314274453,2326],[7.327445007611883,45.67529314234619,2338],[7.327665008514984,45.67506314249077,2350],[7.3278750082763295,45.67452314191819,2362],[7.328215008561275,45.67423314154979,2374],[7.328265007690442,45.673853141131616,2386],[7.328385008221724,45.67379314130736,2398],[7.328355008289717,45.67372314155093,2409],[7.328695008691447,45.67353314152303,2421],[7.328695008715796,45.67331314115912,2433],[7.329255008454935,45.67304314115821,2445],[7.32971500825001,45.672773140425036,2457],[7.3299050083077395,45.672263140571665,2469],[7.329855007870311,45.672133140160085,2481],[7.329965008138793,45.67196314028218,2493],[7.330645008069781,45.67135314015803,2505],[7.331055007685743,45.67132313930096,2517],[7.331225008418362,45.671073139501985,2529],[7.331205007762686,45.670943139651264,2541],[7.3320450083462125,45.670723138976236,2553],[7.332105007670253,45.67042313928875,2565],[7.332355007928009,45.670153139155225,2576],[7.332785008603831,45.67009313869622,2588],[7.3328150081200265,45.669923138277156,2600],[7.333245008667196,45.66972313888571,2612],[7.333365008583164,45.66939313821685,2624],[7.333625008444224,45.66943313799589,2636],[7.333705008490044,45.66922313792839,2648],[7.333805008824803,45.669253137928905,2660],[7.333935008474076,45.66900313820282,2672],[7.334045008680757,45.669063138164745,2684],[7.334095008422292,45.66892313760258,2696],[7.334185008503129,45.66898313822902,2708],[7.33422500809829,45.668863137938594,2720],[7.334415007993239,45.66898313803332,2732],[7.3345550081117326,45.66867313739703,2743],[7.334415007681783,45.668493137412106,2755],[7.334615008622725,45.66847313729422,2767],[7.334985008155292,45.668473137713995,2779],[7.33603500849181,45.66810313775319,2791],[7.336805008753518,45.66749313731071,2803],[7.337428007768686,45.66738913702042,2815]]}}]}