{"type":"FeatureCollection","features":[{"type":"Feature","properties":{"slug":"32-s8","sct_code":"32_S8","source":"Catasto Sentieri VdA"},"geometry":{"type":"LineString","coordinates":[[7.814756608654575,45.856846564270924,1832],[7.81498330373037,45.856956919828704,1835],[7.8150737917902635,45.85702276246792,1837],[7.815164656546742,45.8570523852845,1840],[7.815600173286455,45.85701278399582,1842],[7.815780182746056,45.85701492535268,1845],[7.8158573682159105,45.85703793368854,1847],[7.815966663310016,45.857089659104346,1850],[7.81611843919922,45.85719253971,1852],[7.816427630196296,45.8570646847462,1855],[7.816541960137732,45.85706515264807,1857],[7.816596118573667,45.857009655029316,1860],[7.8166794888706095,45.85698231238332,1863],[7.816826028791827,45.85698199755864,1865],[7.817639479814389,45.85741478093573,1868],[7.817912691091079,45.85750145333729,1870],[7.818228008530849,45.857554290941216,1873],[7.8183888766299425,45.8576082638358,1875],[7.818546474753279,45.85769792322185,1878],[7.818355062103349,45.857839390150204,1880],[7.818322264866284,45.857878260002494,1883],[7.818325944577223,45.85790619010062,1885],[7.818248008350253,45.85794429155032,1888],[7.817975132898995,45.85801366674979,1891],[7.817978007591228,45.85803429195813,1893],[7.8181128839128,45.85806168834825,1896],[7.818188784362747,45.858103023593344,1898],[7.818268007693276,45.85811429153607,1901],[7.818238584211014,45.8581437810076,1903],[7.8182101509511615,45.85814580539097,1906],[7.8181931286834585,45.85817819252814,1908],[7.818208519827274,45.85819926221001,1911],[7.8181685144504645,45.858256404639384,1913],[7.818224178007634,45.85830245100808,1916],[7.818285182180994,45.858312932862546,1919],[7.818212152658035,45.858386805564706,1921],[7.818188052852598,45.858462864718284,1924],[7.818116656264499,45.8585021515623,1926],[7.818056526686385,45.85857646361781,1929],[7.818067249931546,45.85859113799148,1931],[7.818135776625471,45.85856249318821,1934],[7.818238268358285,45.85859594736111,1936],[7.8182536266856495,45.858630914112275,1939],[7.818244168659197,45.858654466462774,1941],[7.818197048069873,45.85867789115219,1944],[7.81819206695889,45.85872147504901,1947],[7.818387844793615,45.85869863656411,1949],[7.818749905704308,45.85859966417601,1952],[7.818872177193363,45.85858859421937,1954],[7.819097243979113,45.8586294574578,1957],[7.819751113644784,45.85864057102931,1959],[7.820214870780961,45.85858712775296,1962],[7.820443354100339,45.85857539146348,1964],[7.821119670597732,45.85859369250259,1967],[7.82154894335599,45.85858167023736,1969],[7.822115643404795,45.85863748752086,1972],[7.822341163135194,45.85863926598483,1975],[7.8225851638366874,45.85859399620637,1977],[7.823169641449434,45.858425869644435,1980],[7.8232651149319565,45.858410998023516,1982],[7.823351427726879,45.85842644680931,1985],[7.823382057154043,45.85846979554746,1987],[7.823320081682394,45.858532901244985,1990],[7.823014125005969,45.85863396195335,1992],[7.822934366394515,45.858670258554774,1995],[7.822756947999415,45.85879946644537,1997],[7.822581571456647,45.85889213754535,2000],[7.821991569796514,45.85911236016432,2003],[7.821826959432577,45.85918639521363,2005],[7.82176548588653,45.85923433877594,2008],[7.821833160323938,45.85926275858198,2010],[7.822068008713896,45.85944429302697,2013],[7.8221080081230845,45.85937429310795,2015],[7.822328007467624,45.859264292649364,2018],[7.822508007809141,45.85926429292534,2020],[7.82251800834925,45.85930429266778,2023],[7.822408008053989,45.85934429317151,2025],[7.822398007547861,45.859404293419125,2028],[7.822458008069762,45.85945429305886,2031],[7.822668008197629,45.85948429347014,2033],[7.822958008438571,45.85945429344908,2036],[7.82317800814575,45.85960429296975,2038],[7.822868008214851,45.85974429296485,2041],[7.8228380084254825,45.859824293839196,2043],[7.82291800776689,45.86007429405235,2046],[7.8226980081053705,45.86050429431315,2048],[7.822498007661819,45.86062429393799,2051],[7.8223180081376364,45.8608742940466,2053],[7.822028008403831,45.861004294217906,2056],[7.821608007921878,45.86149429455219,2059],[7.821088008566824,45.86154429474468,2061],[7.820718007502247,45.86137429509366,2064],[7.820408008089532,45.8613042944854,2066],[7.820698008065352,45.86158429496704,2069],[7.820798008459924,45.86177429533933,2071],[7.820728008246332,45.862054295810644,2074],[7.820398008321673,45.862184295663376,2076],[7.8210280082680095,45.86219429591652,2079],[7.821178008623433,45.86222429551523,2081],[7.821608008074012,45.862414295591094,2084],[7.82175800802707,45.862404296063175,2087],[7.822098007616843,45.86244429548018,2089],[7.82254800745978,45.86242429553977,2092],[7.822958007727598,45.86229429555488,2094],[7.823148008132666,45.862194295284716,2097],[7.823488008560979,45.86235429555283,2099],[7.823468007786833,45.86240429612443,2102],[7.8236580079468725,45.862464295640564,2104],[7.823938008616062,45.8624042955918,2107],[7.824038008278475,45.862334296109246,2109],[7.824248007753776,45.86243429543997,2112],[7.824348008269275,45.86233429580135,2115],[7.824458007477249,45.862444295605194,2117],[7.824748007449628,45.8625242957523,2120],[7.825018007795862,45.86239429544133,2122],[7.825668008067693,45.86240429577679,2125],[7.825908008134411,45.86234429556543,2127],[7.825968007578291,45.862314295706014,2130],[7.825968007758824,45.86221429576133,2132],[7.826098008244537,45.862124295311716,2135],[7.826378007513664,45.86208429519635,2137],[7.826868008588393,45.861924295706466,2140],[7.827118007938517,45.861914295243125,2143],[7.827718007605708,45.86167429500135,2145],[7.827888008712372,45.86168429516684,2148],[7.8280380083247305,45.8618242949687,2150],[7.8284680081262,45.86193429500594,2153],[7.828798008194903,45.861854295671975,2155],[7.8290380087343925,45.86167429470393,2158],[7.829318007759289,45.8616742947401,2160],[7.829588008721235,45.861544295323064,2163],[7.8303680076207005,45.86147429519168,2165],[7.830658007895603,45.86149429495595,2168],[7.830798007827614,45.861424294820274,2171],[7.8310380080333175,45.86152429527554,2173],[7.83118800826042,45.861304294891205,2176],[7.831498007844404,45.86136429477176,2178],[7.831828007670088,45.86130429440968,2181],[7.832198008444032,45.861274295042804,2183],[7.832698008256528,45.861444295096305,2186],[7.833348008011734,45.86155429488252,2188],[7.833847008190152,45.86155429498478,2191],[7.834127007490756,45.86138429492833,2193],[7.834327007942206,45.86149429457172,2196],[7.834227007810989,45.86162429474829,2199],[7.834927007922397,45.86162429507909,2201],[7.835017007688548,45.861674295193104,2204],[7.834997008508294,45.8617242950993,2206],[7.835117007464525,45.86175429538318,2209],[7.835367008067009,45.86167429482718,2211],[7.83547700825205,45.8616842948846,2214],[7.835857007980535,45.861524294835526,2216],[7.835887008595836,45.86163429471568,2219],[7.8360170084724,45.861514294777606,2221],[7.836107007750438,45.86156429492829,2224],[7.836137007512721,45.86152429526209,2227],[7.836247007517294,45.86152429521169,2229],[7.8362770083719315,45.861454294724815,2232],[7.836337007955123,45.86148429460929,2234],[7.836407007577297,45.86144429454876,2237],[7.837227008700027,45.86166429543941,2239],[7.837847007901985,45.86167429465539,2242],[7.838107007495258,45.86178429493054,2244],[7.838507008386711,45.86185429484296,2247],[7.838327008029596,45.861934294895356,2249],[7.838087007552836,45.86195429493597,2252],[7.838037007713161,45.8619842957529,2254],[7.838177008279998,45.86204429542053,2257],[7.837987007604519,45.86208429569157,2260],[7.838067008508032,45.862154295733134,2262],[7.838397007717509,45.8622642952762,2265],[7.838697008063071,45.86226429566383,2267],[7.8386370084327925,45.86239429583601,2270],[7.838687008653284,45.86248429611941,2272],[7.839017007645949,45.86250429599565,2275],[7.839347007542956,45.86242429589823,2277],[7.839587008262193,45.86242429553939,2280],[7.8400570086977375,45.862454296067476,2282],[7.840327008644863,45.86252429544338,2285],[7.840527007585742,45.862654296410554,2288],[7.840557008660527,45.86274429631764,2290],[7.8414570083283035,45.8630942962486,2293],[7.8416870075796785,45.86326429620824,2295],[7.842097008043483,45.863424296346345,2298],[7.8424070082071164,45.86377429665174,2300],[7.842487008229579,45.86391429718606,2303],[7.842597008000915,45.86399429759644,2305],[7.842697007684529,45.86427329726851,2308],[7.843127007710997,45.8643232971962,2310],[7.843097007453675,45.86438329739105,2313],[7.843347008425692,45.8645132974534,2316],[7.843787007648091,45.864863297678276,2318],[7.8440270081450585,45.86472329786275,2321],[7.844497007794343,45.86472329821424,2323],[7.844677008299968,45.86480329801573,2326],[7.845087008105093,45.864843297763215,2328],[7.845377007675567,45.86496329780945,2331],[7.845669492141318,45.8649225503657,2333],[7.8457770076772535,45.86484329789477,2336],[7.846259464570072,45.86480220976368,2338],[7.846465974612483,45.86477881142252,2341],[7.846869952584968,45.864886043881896,2344],[7.847177007539651,45.86503329795874,2346],[7.8474670087170875,45.8650832981046,2349],[7.847647008431163,45.86518329822514,2351],[7.8478070076111095,45.86521329797087,2354],[7.848027008222744,45.865293298044634,2356],[7.848897008335584,45.86543329849577,2359],[7.84927700858941,45.86542329827229,2361],[7.849627007796308,45.86543329854451,2364],[7.849927007858158,45.865483298609966,2366],[7.850167007618291,45.865473298247885,2369],[7.850247008467916,45.865453298196506,2372],[7.8505270083282515,45.86553329869547,2374],[7.850387008730641,45.86556329853201,2377],[7.850427007778699,45.8656032988055,2379],[7.850797008255078,45.86569329897894,2382],[7.851197008533559,45.86593329922936,2384],[7.851377007757069,45.865973299112994,2387],[7.851307008125945,45.866023298669525,2389],[7.85137700793042,45.866073298972076,2392],[7.851257007816017,45.86615329880201,2394],[7.851147008368823,45.866093299184186,2397],[7.851087008187473,45.86627329896941,2400],[7.851087008096212,45.86654329955664,2402],[7.851157007588779,45.86664329945999,2405],[7.851277007819949,45.86730330055396,2407],[7.851517007862875,45.86747330011881,2410],[7.851617008212066,45.8677033003675,2412],[7.851707008559784,45.86777330037763,2415],[7.8521270085747314,45.86782330087565,2417],[7.852227007682899,45.86790330037713,2420],[7.85232700845199,45.867903300487335,2422],[7.8524070081688775,45.86796330093792,2425],[7.8523570086379415,45.868053300508016,2428],[7.852417007457805,45.86809330114848,2430],[7.852287007985598,45.86804330092521,2433],[7.8520470078620725,45.868103300700575,2435],[7.8521270084641115,45.86824330067,2438],[7.85193700852747,45.86824330150915,2440],[7.851987008027221,45.868273301548776,2443],[7.852017007757759,45.86838330153858,2445],[7.85188700805582,45.86839330147084,2448],[7.851887007547932,45.86848330103025,2450],[7.851817008381384,45.86856330163873,2453],[7.851597008625448,45.868543301436546,2456],[7.851577008414388,45.86864330182713,2458],[7.851407008543107,45.86860330110181,2461],[7.851257007664019,45.86862330110219,2463],[7.851297007572522,45.868823301476034,2466],[7.851087008366698,45.8687733019807,2468],[7.850637007538307,45.86879330184327,2471],[7.850497007657228,45.86875330184172,2473],[7.850377008467445,45.868763301666206,2476],[7.850597008472382,45.8691733023022,2478],[7.850567008359436,45.86926330245946,2481],[7.850467007821792,45.86923330186101,2484],[7.850447007454144,45.86946330259368,2486],[7.850357008578568,45.86939330252619,2489],[7.850327007852971,45.8695033022112,2491],[7.85028700839363,45.869513302276445,2494],[7.850287007776589,45.86961330206904,2496],[7.850177008243817,45.86965330225274,2499],[7.850137007835426,45.869753302702634,2501],[7.849720008309475,45.86995830223023,2504],[7.849607008532862,45.870053303179176,2506],[7.849337008225841,45.87037330315946,2509],[7.849387008674093,45.87038330293849,2512],[7.849247008353154,45.87044330299887,2514],[7.848837007484836,45.8707833033701,2517],[7.8488470084536965,45.871013303629475,2519],[7.848677008014693,45.87120330364647,2522],[7.848427007455616,45.87123330408243,2524],[7.848207008005784,45.871433303705395,2527],[7.8481670079282795,45.8715033045011,2529],[7.848297008319809,45.87163330416414,2532],[7.848227008039397,45.87179330449538,2534],[7.848227008607736,45.872073304191865,2537],[7.848057008028194,45.87223330431707,2540],[7.848077008348351,45.872323304766844,2542],[7.847947007709985,45.87254330535549,2545],[7.847847008684226,45.8725733048684,2547],[7.847897008502062,45.87278330568604,2550],[7.847797008715485,45.872893305303286,2552],[7.847787007736256,45.87306330580558,2555],[7.847517007828136,45.87329330544571,2557],[7.847420008581949,45.87359830598885,2560],[7.847387260538965,45.87370050444711,2562],[7.847498921632857,45.87390863794363,2565],[7.847580354501934,45.87433247382662,2568],[7.847611002852698,45.874719796182546,2570],[7.847649650152502,45.87472018597838,2573],[7.848132064178588,45.87444604096334,2575],[7.848533648163261,45.87434208516923,2578],[7.848703720463383,45.87421779473335,2580],[7.848989175281679,45.87412166739859,2583],[7.849285282488407,45.87413365033322,2585],[7.8493500654823665,45.8741163021604,2588],[7.84964431589784,45.87421826854439,2590],[7.849834208998113,45.8743821858369,2593],[7.850140416067516,45.8745292728374,2596],[7.850308444025557,45.874503962825926,2598],[7.850384810556429,45.874549732778114,2601],[7.85052169280448,45.87478511797256,2603],[7.850663585410683,45.874777545111364,2606],[7.850948668872057,45.87469940976755,2608],[7.851181105548128,45.87469030413942,2611],[7.851338039170464,45.87454844588753,2613],[7.851408724337169,45.874439872068784,2616],[7.8514511364573725,45.874279786941436,2618],[7.8514443143563675,45.874227416673854,2621]]}}]}