{"type":"FeatureCollection","features":[{"type":"Feature","properties":{"slug":"32-s10","sct_code":"32_S10","source":"Catasto Sentieri VdA"},"geometry":{"type":"LineString","coordinates":[[7.813637842576247,45.8599434794852,1840],[7.813679046125991,45.85993142206368,1843],[7.813648857916493,45.85971842533374,1846],[7.813662512714776,45.859641439663996,1848],[7.813718261759144,45.859486095846876,1851],[7.813821746561078,45.85944337286567,1854],[7.813888158737603,45.859409338160695,1857],[7.813919872646635,45.85939676451823,1860],[7.813987643372664,45.85941532830811,1862],[7.8141652311115966,45.85931834529155,1865],[7.8143380427250815,45.85928560991772,1868],[7.814525597354068,45.85934692233855,1871],[7.814621724677527,45.85919879318415,1874],[7.81496085924912,45.858762637728475,1876],[7.815074644446142,45.85865199681639,1879],[7.815251164794906,45.85852628366301,1882],[7.815400290554199,45.85805322877247,1885],[7.815673926702613,45.8575350460544,1888],[7.815904986090373,45.85721630536585,1890],[7.815943766800636,45.857173541665,1893],[7.815930373867638,45.85713175560643,1896],[7.8158573682159105,45.85703793368854,1899],[7.815966663310016,45.857089659104346,1902],[7.81611843919922,45.85719253971,1905],[7.816427630196296,45.8570646847462,1907],[7.816541960137732,45.85706515264807,1910],[7.816596118573667,45.857009655029316,1913],[7.8166794888706095,45.85698231238332,1916],[7.816826028791827,45.85698199755864,1919],[7.817639479814389,45.85741478093573,1921],[7.817912691091079,45.85750145333729,1924],[7.818228008530849,45.857554290941216,1927],[7.8183888766299425,45.8576082638358,1930],[7.818546474753279,45.85769792322185,1933],[7.818355062103349,45.857839390150204,1935],[7.818322264866284,45.857878260002494,1938],[7.818325944577223,45.85790619010062,1941],[7.818248008350253,45.85794429155032,1944],[7.817975132898995,45.85801366674979,1947],[7.817978007591228,45.85803429195813,1949],[7.8181128839128,45.85806168834825,1952],[7.818188784362747,45.858103023593344,1955],[7.818268007693276,45.85811429153607,1958],[7.818238584211014,45.8581437810076,1961],[7.8182101509511615,45.85814580539097,1963],[7.8181931286834585,45.85817819252814,1966],[7.818208519827274,45.85819926221001,1969],[7.8181685144504645,45.858256404639384,1972],[7.818224178007634,45.85830245100808,1975],[7.818285182180994,45.858312932862546,1977],[7.818212152658035,45.858386805564706,1980],[7.818188052852598,45.858462864718284,1983],[7.818116656264499,45.8585021515623,1986],[7.818056526686385,45.85857646361781,1989],[7.818067249931546,45.85859113799148,1991],[7.818135776625471,45.85856249318821,1994],[7.818238268358285,45.85859594736111,1997],[7.8182536266856495,45.858630914112275,2000],[7.818244168659197,45.858654466462774,2003],[7.818197048069873,45.85867789115219,2006],[7.81819206695889,45.85872147504901,2008],[7.818387844793615,45.85869863656411,2011],[7.818749905704308,45.85859966417601,2014],[7.818872177193363,45.85858859421937,2017],[7.819097243979113,45.8586294574578,2020],[7.819751113644784,45.85864057102931,2022],[7.820214870780961,45.85858712775296,2025],[7.820443354100339,45.85857539146348,2028],[7.821119670597732,45.85859369250259,2031],[7.82154894335599,45.85858167023736,2034],[7.822115643404795,45.85863748752086,2036],[7.822341163135194,45.85863926598483,2039],[7.8225851638366874,45.85859399620637,2042],[7.823169641449434,45.858425869644435,2045],[7.8232651149319565,45.858410998023516,2048],[7.823351427726879,45.85842644680931,2050],[7.823382057154043,45.85846979554746,2053],[7.823320081682394,45.858532901244985,2056],[7.823014125005969,45.85863396195335,2059],[7.822934366394515,45.858670258554774,2062],[7.822756947999415,45.85879946644537,2064],[7.822581571456647,45.85889213754535,2067],[7.821991569796514,45.85911236016432,2070],[7.821826959432577,45.85918639521363,2073],[7.82176548588653,45.85923433877594,2076],[7.821833160323938,45.85926275858198,2078],[7.822068008713896,45.85944429302697,2081],[7.8221080081230845,45.85937429310795,2084],[7.822328007467624,45.859264292649364,2087],[7.822508007809141,45.85926429292534,2090],[7.82251800834925,45.85930429266778,2092],[7.822408008053989,45.85934429317151,2095],[7.822398007547861,45.859404293419125,2098],[7.822458008069762,45.85945429305886,2101],[7.822668008197629,45.85948429347014,2104],[7.822958008438571,45.85945429344908,2106],[7.82317800814575,45.85960429296975,2109],[7.822868008214851,45.85974429296485,2112],[7.8228380084254825,45.859824293839196,2115],[7.82291800776689,45.86007429405235,2118],[7.8226980081053705,45.86050429431315,2121],[7.822498007661819,45.86062429393799,2123],[7.8223180081376364,45.8608742940466,2126],[7.822028008403831,45.861004294217906,2129],[7.821608007921878,45.86149429455219,2132],[7.821088008566824,45.86154429474468,2135],[7.820718007502247,45.86137429509366,2137],[7.820408008089532,45.8613042944854,2140],[7.820698008065352,45.86158429496704,2143],[7.820798008459924,45.86177429533933,2146],[7.820728008246332,45.862054295810644,2149],[7.820398008321673,45.862184295663376,2151],[7.8210280082680095,45.86219429591652,2154],[7.821178008623433,45.86222429551523,2157],[7.821608008074012,45.862414295591094,2160],[7.82175800802707,45.862404296063175,2163],[7.822098007616843,45.86244429548018,2165],[7.82254800745978,45.86242429553977,2168],[7.822958007727598,45.86229429555488,2171],[7.823148008132666,45.862194295284716,2174],[7.823488008560979,45.86235429555283,2177],[7.823468007786833,45.86240429612443,2179],[7.8236580079468725,45.862464295640564,2182],[7.823938008616062,45.8624042955918,2185],[7.824038008278475,45.862334296109246,2188],[7.824248007753776,45.86243429543997,2191],[7.824348008269275,45.86233429580135,2193],[7.824458007477249,45.862444295605194,2196],[7.824748007449628,45.8625242957523,2199],[7.825018007795862,45.86239429544133,2202],[7.825668008067693,45.86240429577679,2205],[7.825908008134411,45.86234429556543,2207],[7.825968007578291,45.862314295706014,2210],[7.825968007758824,45.86221429576133,2213],[7.826098008244537,45.862124295311716,2216],[7.826378007513664,45.86208429519635,2219],[7.826868008588393,45.861924295706466,2221],[7.827118007938517,45.861914295243125,2224],[7.827718007605708,45.86167429500135,2227],[7.827888008712372,45.86168429516684,2230],[7.8280380083247305,45.8618242949687,2233],[7.8284680081262,45.86193429500594,2236],[7.828798008194903,45.861854295671975,2238],[7.8290380087343925,45.86167429470393,2241],[7.829318007759289,45.8616742947401,2244],[7.829588008721235,45.861544295323064,2247],[7.8303680076207005,45.86147429519168,2250],[7.830658007895603,45.86149429495595,2252],[7.830798007827614,45.861424294820274,2255],[7.8310380080333175,45.86152429527554,2258],[7.83118800826042,45.861304294891205,2261],[7.831498007844404,45.86136429477176,2264],[7.831828007670088,45.86130429440968,2266],[7.832198008444032,45.861274295042804,2269],[7.832698008256528,45.861444295096305,2272],[7.833348008011734,45.86155429488252,2275],[7.833847008190152,45.86155429498478,2278],[7.834127007490756,45.86138429492833,2280],[7.834327007942206,45.86149429457172,2283],[7.834227007810989,45.86162429474829,2286],[7.834927007922397,45.86162429507909,2289],[7.835017007688548,45.861674295193104,2292],[7.834997008508294,45.8617242950993,2294],[7.835117007464525,45.86175429538318,2297],[7.835367008067009,45.86167429482718,2300],[7.83547700825205,45.8616842948846,2303],[7.835857007980535,45.861524294835526,2306],[7.835887008595836,45.86163429471568,2308],[7.8360170084724,45.861514294777606,2311],[7.836107007750438,45.86156429492829,2314],[7.836137007512721,45.86152429526209,2317],[7.836247007517294,45.86152429521169,2320],[7.8362770083719315,45.861454294724815,2322],[7.836337007955123,45.86148429460929,2325],[7.836407007577297,45.86144429454876,2328],[7.837227008700027,45.86166429543941,2331],[7.837847007901985,45.86167429465539,2334],[7.838107007495258,45.86178429493054,2337],[7.838507008386711,45.86185429484296,2339],[7.838327008029596,45.861934294895356,2342],[7.838087007552836,45.86195429493597,2345],[7.838037007713161,45.8619842957529,2348],[7.838177008279998,45.86204429542053,2351],[7.837987007604519,45.86208429569157,2353],[7.838067008508032,45.862154295733134,2356],[7.838397007717509,45.8622642952762,2359],[7.838697008063071,45.86226429566383,2362],[7.8386370084327925,45.86239429583601,2365],[7.838687008653284,45.86248429611941,2367],[7.839017007645949,45.86250429599565,2370],[7.839347007542956,45.86242429589823,2373],[7.839587008262193,45.86242429553939,2376],[7.8400570086977375,45.862454296067476,2379],[7.840327008644863,45.86252429544338,2381],[7.840527007585742,45.862654296410554,2384],[7.840557008660527,45.86274429631764,2387],[7.8414570083283035,45.8630942962486,2390],[7.8416870075796785,45.86326429620824,2393],[7.842097008043483,45.863424296346345,2395],[7.8424070082071164,45.86377429665174,2398],[7.842487008229579,45.86391429718606,2401],[7.842597008000915,45.86399429759644,2404],[7.842697007684529,45.86427329726851,2407],[7.843127007710997,45.8643232971962,2409],[7.843097007453675,45.86438329739105,2412],[7.843347008425692,45.8645132974534,2415],[7.843787007648091,45.864863297678276,2418],[7.8440270081450585,45.86472329786275,2421],[7.844497007794343,45.86472329821424,2423],[7.844677008299968,45.86480329801573,2426],[7.845087008105093,45.864843297763215,2429],[7.845377007675567,45.86496329780945,2432],[7.845669492141318,45.8649225503657,2435],[7.8457770076772535,45.86484329789477,2437],[7.846259464570072,45.86480220976368,2440],[7.846465974612483,45.86477881142252,2443],[7.846869952584968,45.864886043881896,2446],[7.847177007539651,45.86503329795874,2449],[7.8474670087170875,45.8650832981046,2452],[7.847647008431163,45.86518329822514,2454],[7.8478070076111095,45.86521329797087,2457],[7.848027008222744,45.865293298044634,2460],[7.848897008335584,45.86543329849577,2463],[7.84927700858941,45.86542329827229,2466],[7.849627007796308,45.86543329854451,2468],[7.849927007858158,45.865483298609966,2471],[7.850167007618291,45.865473298247885,2474],[7.850247008467916,45.865453298196506,2477],[7.8505270083282515,45.86553329869547,2480],[7.850387008730641,45.86556329853201,2482],[7.850427007778699,45.8656032988055,2485],[7.850797008255078,45.86569329897894,2488],[7.851197008533559,45.86593329922936,2491],[7.851377007757069,45.865973299112994,2494],[7.851307008125945,45.866023298669525,2496],[7.85137700793042,45.866073298972076,2499],[7.851257007816017,45.86615329880201,2502],[7.851147008368823,45.866093299184186,2505],[7.851087008187473,45.86627329896941,2508],[7.851087008096212,45.86654329955664,2510],[7.851157007588779,45.86664329945999,2513],[7.851277007819949,45.86730330055396,2516],[7.851517007862875,45.86747330011881,2519],[7.851617008212066,45.8677033003675,2522],[7.851707008559784,45.86777330037763,2524],[7.8521270085747314,45.86782330087565,2527],[7.852227007682899,45.86790330037713,2530],[7.85232700845199,45.867903300487335,2533],[7.8524070081688775,45.86796330093792,2536],[7.8523570086379415,45.868053300508016,2538],[7.852417007457805,45.86809330114848,2541],[7.852287007985598,45.86804330092521,2544],[7.8520470078620725,45.868103300700575,2547],[7.8521270084641115,45.86824330067,2550],[7.85193700852747,45.86824330150915,2552],[7.851987008027221,45.868273301548776,2555],[7.852017007757759,45.86838330153858,2558],[7.85188700805582,45.86839330147084,2561],[7.851887007547932,45.86848330103025,2564],[7.851817008381384,45.86856330163873,2567],[7.851597008625448,45.868543301436546,2569],[7.851577008414388,45.86864330182713,2572],[7.851407008543107,45.86860330110181,2575],[7.851257007664019,45.86862330110219,2578],[7.851297007572522,45.868823301476034,2581],[7.851087008366698,45.8687733019807,2583],[7.850637007538307,45.86879330184327,2586],[7.850497007657228,45.86875330184172,2589],[7.850377008467445,45.868763301666206,2592],[7.850597008472382,45.8691733023022,2595],[7.850567008359436,45.86926330245946,2597],[7.850467007821792,45.86923330186101,2600],[7.850447007454144,45.86946330259368,2603],[7.850357008578568,45.86939330252619,2606],[7.850327007852971,45.8695033022112,2609],[7.85028700839363,45.869513302276445,2611],[7.850287007776589,45.86961330206904,2614],[7.850177008243817,45.86965330225274,2617],[7.850137007835426,45.869753302702634,2620],[7.849720008309475,45.86995830223023,2623],[7.8493670083983185,45.869663302285545,2625],[7.848907007485671,45.86958330192905,2628],[7.848437007524465,45.86966330194267,2631],[7.8480770084781435,45.86951330262958,2634],[7.847847007478744,45.86956330233016,2637],[7.8476270084364135,45.8694833019925,2639],[7.84717700828984,45.86948330213223,2642],[7.8463170078487625,45.86974330249158,2645],[7.84598700832622,45.86980330234942,2648],[7.8455570077735555,45.87000330240004,2651],[7.8451370085663354,45.87007330237342,2653],[7.84432700846743,45.870273302907584,2656],[7.844107007872886,45.87042330331601,2659],[7.844097008672725,45.87055330349486,2662],[7.843757007947961,45.87066330317127,2665],[7.843767007722464,45.87073330350482,2668],[7.843637007628477,45.870793303386705,2670],[7.84352700862983,45.87074330303151,2673],[7.843517007875109,45.870703303412995,2676],[7.843167007505419,45.870473303259175,2679],[7.842847007725739,45.86980330236486,2682],[7.842647008387132,45.869713302131615,2684],[7.8429770084588,45.869343302352945,2687],[7.842857007909885,45.86923330205113,2690],[7.8429070085273755,45.86913330190759,2693],[7.843237007989715,45.86891330151572,2696],[7.84321700744546,45.8688533018149,2698],[7.842897008425263,45.868703301411685,2701],[7.842907007807668,45.8685333011885,2704],[7.84295700759357,45.86844330125579,2707],[7.8428370078183764,45.86844330100181,2710],[7.842637008177419,45.86853330167047,2712],[7.842557008669574,45.868503301437315,2715],[7.842497008519985,45.868553301475444,2718],[7.84196700783872,45.86861330101611,2721],[7.841217008424396,45.86845330166275,2724],[7.841077007649867,45.86855330173718,2726],[7.84089700827892,45.86855330104959,2729],[7.840457007449771,45.86825330106565,2732],[7.839907008718468,45.86826330103355,2735],[7.839907008082045,45.868273301280205,2738],[7.839507008030712,45.86828330120729,2740],[7.839238007978907,45.86847330141396,2743],[7.839158008290174,45.86840330138534,2746],[7.838388007814389,45.868483301410194,2749],[7.83772800757265,45.86842330112099,2752],[7.837068007553586,45.86863330115085,2754],[7.836708008497648,45.86866330111285,2757],[7.83632800810746,45.86852330163615,2760],[7.836188007681207,45.86837330109805,2763],[7.835618008352237,45.86832330106982,2766],[7.835028008148767,45.86839330161074,2768],[7.834658008258574,45.86868330142639,2771],[7.8340180082359065,45.86880330194135,2774],[7.832968008598313,45.869253301578354,2777],[7.832668008605489,45.869283302225995,2780],[7.832578007646239,45.86933330194049,2783],[7.832708007934084,45.86942330220764,2785],[7.832518008147131,45.86953330232042,2788],[7.832478008366972,45.86963330201288,2791],[7.832598008054763,45.86969330205612,2794],[7.8325880084957795,45.869873302511174,2797],[7.832058007841309,45.870373303108856,2799],[7.8309780075635524,45.87100330348271,2802],[7.830828008733734,45.87116330356724,2805],[7.830458007785967,45.871273304075665,2808],[7.83032800818544,45.87136330396615,2811],[7.829208007712705,45.87202330447179,2813],[7.828738007758292,45.872093305079545,2816],[7.827938008050392,45.87204330459948,2819],[7.826998007650041,45.87160330422197,2822],[7.826508008023535,45.87145330445739,2825],[7.825118007883677,45.870674303129896,2827],[7.824958007497907,45.87061430326857,2830],[7.824800008052796,45.87058830355581,2833]]}}]}