{"type":"FeatureCollection","features":[{"type":"Feature","properties":{"slug":"33-s46","sct_code":"33_S46","source":"Catasto Sentieri VdA"},"geometry":{"type":"LineString","coordinates":[[7.81730700829271,45.79927523990705,1634],[7.817297007936876,45.79942524005368,1635],[7.81723700762142,45.79954524077101,1636],[7.817227008192936,45.79956524059373,1636],[7.817267008093961,45.79962524021305,1637],[7.817567008201917,45.799815240322886,1638],[7.81769700780254,45.79997524071465,1639],[7.817777007732857,45.800205240970534,1639],[7.817777008190604,45.80069524107546,1640],[7.817817008176785,45.8006752411394,1641],[7.817817008656049,45.800745241027,1642],[7.817927008482436,45.80102524200571,1643],[7.818007008609977,45.80107524173363,1643],[7.81789700873631,45.80130524162107,1644],[7.8179670086129,45.80131524173318,1645],[7.817987007801077,45.80135524221571,1646],[7.8179870083264476,45.801485241601775,1646],[7.818037008191734,45.80150524211869,1647],[7.818157007536817,45.8019152421587,1648],[7.818217008282228,45.801955242381325,1649],[7.818217008433494,45.80207524228351,1650],[7.818237007512303,45.80203524248285,1650],[7.818367007958206,45.80205524232603,1651],[7.818277008296547,45.80220524306256,1652],[7.818357008083459,45.80244524318753,1653],[7.818307007666348,45.8025752428971,1653],[7.818287007881022,45.802755243317385,1654],[7.818357007671806,45.80281524321314,1655],[7.818307008585312,45.802935243463416,1656],[7.818447008125523,45.80300524315754,1657],[7.818407008352622,45.803115242993734,1657],[7.818477008174884,45.80315524298282,1658],[7.818487008420123,45.803395243550476,1659],[7.8185570075609165,45.80346524367422,1660],[7.818627007483149,45.80366524399443,1660],[7.818617008475568,45.80388524400359,1661],[7.818687007852643,45.80389524366309,1662],[7.818657007712542,45.80394524398324,1663],[7.818547007700643,45.803985243784794,1664],[7.818487008459257,45.804115244542245,1664],[7.81836700820157,45.804205244267116,1665],[7.818427008182028,45.804265244180606,1666],[7.818427007518327,45.80441524421562,1667],[7.818467007816259,45.80448524462992,1667],[7.818457008175986,45.804565244916496,1668],[7.818297007601465,45.804655244881936,1669],[7.818227007925188,45.8050252452372,1670],[7.818277008074417,45.80508524528466,1671],[7.818297008421,45.80516524534452,1671],[7.81859700747474,45.80547524507493,1672],[7.818527008617261,45.80560524592018,1673],[7.818377007557794,45.8055552453402,1674],[7.818247007636309,45.80569524590066,1674],[7.818187008451143,45.80570524574003,1675],[7.818097007839861,45.80584524587603,1676],[7.818057007701438,45.80584524607259,1677],[7.818047008229616,45.80587524540614,1678],[7.818090008116019,45.80592824548437,1678],[7.81799700783355,45.80597524562714,1679],[7.817837007763858,45.805855245472,1680],[7.817577007862781,45.806025245740834,1681],[7.817117007637679,45.806185246335346,1681],[7.816977007596711,45.80620524558542,1682],[7.816927008440178,45.806175246069856,1683],[7.816937007968753,45.80613524557614,1684],[7.816877007494852,45.80611524633392,1685],[7.81646700824475,45.8061552456685,1685],[7.816287007875005,45.80625524567568,1686],[7.816137007528542,45.806455246658395,1687],[7.816057008011007,45.80665524655895,1688],[7.815967008461216,45.80671524663716,1688],[7.815877007455133,45.80683524698223,1689],[7.8158070083438975,45.80684524632764,1690],[7.815627007783191,45.80709524706137,1691],[7.815507007814545,45.80721524662012,1692],[7.815137008460605,45.807345246894705,1692],[7.814927007465048,45.80752524697103,1693],[7.814897008635262,45.80753524755864,1694],[7.814937008467309,45.80757524719577,1695],[7.815057007720523,45.80758524748568,1695],[7.815227008146943,45.80755524724116,1696],[7.81529700829709,45.80758524699327,1697],[7.815287007606816,45.807555247519,1698],[7.815617008270054,45.80756524752884,1699],[7.815647008298997,45.80765524764042,1699],[7.816117008217771,45.80785524708273,1700],[7.816217008714663,45.80799524786096,1701],[7.816497007875822,45.808215247723325,1702],[7.816477007918582,45.80830524805232,1702],[7.816507007538311,45.80835524829685,1703],[7.816667007525447,45.80844524829336,1704],[7.816717007496175,45.80863524821264,1705],[7.816797007691861,45.80867524836388,1706],[7.816697007753598,45.808815248175534,1706],[7.8167670085071155,45.808925248067844,1707],[7.816737008036206,45.809025248716,1708],[7.8167570082966105,45.80907524882716,1709],[7.8169770086935335,45.80917524821496,1709],[7.817107007902277,45.80940524879293,1710],[7.817097008508967,45.809535248869565,1711],[7.817267007472144,45.80954524879759,1712],[7.817317007813701,45.80956524870376,1713],[7.817347007797341,45.80952524913314,1713],[7.817507008594844,45.809615248841084,1714],[7.817807007594757,45.80994524931044,1715],[7.81812700759641,45.810365249350006,1716],[7.818197008473672,45.81040524946808,1716],[7.818437007705989,45.810545249992096,1717],[7.818827007859379,45.81065525002512,1718],[7.819007007950937,45.81092525010412,1719],[7.819157007508835,45.81105524989995,1720],[7.819147007762419,45.81112525070636,1720],[7.8193270079877415,45.81130525070116,1721],[7.819757008535782,45.811515250406885,1722],[7.819967007945544,45.811985250826794,1723],[7.819897007471048,45.81204525080785,1723],[7.820137007770149,45.81240525180967,1724],[7.820107008661131,45.81251525184517,1725],[7.820477007953034,45.81310525166032,1726],[7.820467007700252,45.81349525197137,1727],[7.820407007618501,45.81359525248293,1727],[7.820515800094011,45.81408976335294,1728],[7.820347008471973,45.81420525264006,1729],[7.820267007959599,45.814325253350276,1730],[7.820117007784335,45.814385252655505,1730],[7.8200670081647,45.814595252950106,1731],[7.819967008145365,45.81464525327865,1732],[7.81985700847412,45.81483525316131,1733],[7.8197370083402244,45.81495525341043,1734],[7.819280007620557,45.81514825386561,1734],[7.819130007962151,45.81550825409958,1735],[7.819047008100427,45.8156652541727,1736],[7.8191470082960794,45.81565525423354,1737],[7.819167008019075,45.816045254732195,1737],[7.819427008723468,45.81599525433447,1738],[7.8204270076388065,45.816285254718494,1739],[7.82060700850725,45.81657525539857,1740],[7.820567008354812,45.81710525568141,1741],[7.820687007629878,45.817395255973054,1741],[7.8214689076688435,45.817784129456655,1742],[7.821531906860165,45.817792128142806,1743],[7.821633905527166,45.817849125788435,1744],[7.821701905901354,45.81794412248682,1744],[7.8216749080323815,45.81802412126557,1745],[7.8217059071548665,45.81805111995517,1746],[7.821676908834104,45.818108119191564,1747],[7.821714909211051,45.81815811769524,1748],[7.821771908396495,45.81816511652566,1748],[7.821835908494081,45.81827611328811,1749],[7.821978907504222,45.81835611001879,1750],[7.822012907220059,45.818360109352426,1751],[7.822119907120762,45.81848210587431,1751],[7.822335903804488,45.81856210140317,1752],[7.822312904504565,45.818608101149294,1753],[7.8223479061304895,45.81868009879124,1754],[7.822432905135075,45.81878309520315,1755],[7.82250990392205,45.818802093919764,1755],[7.822513905210483,45.81888309190525,1756],[7.822580905005618,45.81889409147247,1757],[7.8226729045422605,45.819008087226834,1758],[7.822689908106127,45.8191990824991,1758],[7.822767908028079,45.81929507982341,1759],[7.8228929057593986,45.81933607750536,1760],[7.822940904901904,45.81932907741272,1761],[7.8229599026525145,45.81926007901564,1762],[7.823061898574446,45.81916908006977,1762],[7.823194895776059,45.81914607882738,1763],[7.823220896709493,45.81923007731081,1764],[7.8233398951320705,45.81929507436081,1765],[7.8233728964085385,45.81940907121352,1765],[7.823408896631488,45.819417070707594,1766],[7.823415895999474,45.81944307022457,1767],[7.823430895281999,45.81939007107299,1768],[7.823447894496961,45.81940107091109,1769],[7.823550891374768,45.81932107131956,1769],[7.823685888168102,45.81933606995672,1770],[7.823673889627332,45.81936706887613,1771],[7.8237738885822905,45.819439066559355,1772],[7.823775890186321,45.819542064264894,1772],[7.823819890345107,45.81956206341244,1773],[7.823866890045554,45.81961506096173,1774],[7.823949889279009,45.81965305910322,1775],[7.823922891156293,45.81977505691899,1776],[7.823935891223229,45.819783056186495,1776],[7.824023889310068,45.8197560562935,1777],[7.8240408880387475,45.81971805699946,1778],[7.8242528820736785,45.81962605697877,1779],[7.824320879174245,45.819558058537616,1779],[7.824362877159779,45.81955405802505,1780],[7.824458876397899,45.81961505596882,1781],[7.824577548974446,45.819557346015046,1782],[7.8247257095159295,45.81998357538909,1783],[7.824760511781898,45.819981301685274,1783],[7.82499753952501,45.81987335439535,1784],[7.825285669591633,45.81979510594288,1785],[7.825315134536923,45.81973329269562,1786],[7.825304679104867,45.819499146178,1786],[7.825321838058597,45.81944277223713,1787],[7.825400674827206,45.81937391166167,1788]]}}]}