{"type":"FeatureCollection","features":[{"type":"Feature","properties":{"slug":"33-s41","sct_code":"33_S41","source":"Catasto Sentieri VdA"},"geometry":{"type":"LineString","coordinates":[[7.844810528007842,45.749662425992454,1310],[7.845875431136514,45.75000170753154,1312],[7.846056184194456,45.749929343295804,1313],[7.846154348586547,45.74984482920861,1315],[7.846397332741873,45.749595271047966,1317],[7.846429589863116,45.74949208926332,1319],[7.8463987054412385,45.74928697557242,1320],[7.8464166930129835,45.74923953017914,1322],[7.846502038384967,45.749224516887544,1324],[7.846581146997851,45.74923722149866,1325],[7.8466489187939334,45.749249813399395,1327],[7.846670854211865,45.74928575603161,1329],[7.846688648029955,45.7493324025414,1330],[7.846653224978248,45.749418858316176,1332],[7.846765009450924,45.749466199883656,1334],[7.846894260361808,45.74952697627815,1336],[7.847096641938003,45.74958269606728,1337],[7.847366506689607,45.74972628061458,1339],[7.847537706822588,45.74974494227643,1341],[7.8475986867044885,45.74993015672327,1342],[7.848026491216972,45.749803494437586,1344],[7.848453561917933,45.74968216224543,1346],[7.848570196206071,45.74966406601513,1347],[7.848612294735118,45.74963546732234,1349],[7.848652191976413,45.749636265452686,1351],[7.848784191429208,45.7497128614781,1353],[7.848931491245214,45.74986695458425,1354],[7.849035088528013,45.74988755286016,1356],[7.849108985159143,45.749810453855766,1358],[7.849199681652544,45.749819451780965,1359],[7.849240981590965,45.74980305128608,1361],[7.849379772147778,45.749713151838776,1363],[7.849472465634855,45.7496169520539,1364],[7.849579660858646,45.7495944520914,1366],[7.8497156548337985,45.749482051629826,1368],[7.849821051088844,45.74946674992491,1370],[7.850240632838414,45.749329647779355,1371],[7.850537119353053,45.749186045690315,1373],[7.850655314421067,45.7492059433334,1375],[7.850803906782427,45.74911434426345,1376],[7.851041197544264,45.74906564064131,1378],[7.851169691169514,45.748974341176385,1380],[7.851309784592811,45.748927339847775,1382],[7.851437578180631,45.74885533910864,1383],[7.851563974193837,45.748808838787646,1385],[7.851666767572655,45.748742337780754,1387],[7.8519010592141,45.748744233624485,1388],[7.851930859124021,45.74872093380364,1390],[7.851996057781172,45.74873283243607,1392],[7.8520772518308,45.748667734091704,1393],[7.85212344706997,45.7485756353496,1395],[7.852144547787128,45.74857293480739,1397],[7.85221734137676,45.74850143540519,1399],[7.85233323548725,45.74843183604205,1400],[7.852440032590945,45.7483982335779,1402],[7.852487727941996,45.74833853534774,1404],[7.852574224300022,45.74832053371329,1405],[7.852861209866373,45.74812983313852,1407],[7.853032103237875,45.748108531176044,1409],[7.853044803758834,45.74813683025118,1410],[7.853066904232033,45.748131630236905,1412],[7.853106701447372,45.74810023102314,1414],[7.8531907972124895,45.748087430510346,1416],[7.85324629354011,45.74803923010531,1417],[7.853408385901112,45.747946830695824,1419],[7.853539181586518,45.74793742739694,1421],[7.853581377831778,45.74787372770006,1422],[7.853590875046711,45.74774353177929,1424],[7.8536925676002545,45.7476817323539,1426],[7.8539207594954465,45.74760142969165,1428],[7.854029753389033,45.747577829330396,1429],[7.854047552048754,45.74754863024307,1431],[7.854150048089654,45.747497028834445,1433],[7.8542237442406115,45.747501728225906,1434],[7.854324442687197,45.74747262608145,1436],[7.854462932935652,45.74735172689547,1438],[7.854473931162449,45.74731382806924,1439],[7.854504930170327,45.74729252870644,1441],[7.8546738228473725,45.74726442504796,1443],[7.854754820500324,45.74726662495675,1445],[7.854823319541518,45.74724482479111,1446],[7.854851311016135,45.747101027179625,1448],[7.854946406968463,45.74699152805853,1450],[7.854969903580372,45.7469703279789,1451],[7.8551119978164605,45.74694402697907,1453],[7.8551177981070675,45.7469010285145,1455],[7.855165295426406,45.74689872696088,1456],[7.855167692998161,45.74685112753929,1458],[7.8551977924520635,45.7468368285621,1460],[7.855196092956893,45.74681632819182,1462],[7.855256788844781,45.74679812897267,1463],[7.855342684598537,45.74672142875471,1465],[7.855409581029305,45.74669232807256,1467],[7.855574773755005,45.74664002686458,1468],[7.855597773348638,45.746652625756965,1470],[7.8557045695128584,45.74663692401963,1472],[7.855852962224165,45.74657612326324,1473],[7.85591215957031,45.74654372299709,1475],[7.8559535559987275,45.746470724083274,1477],[7.856099649236544,45.74641232381179,1479],[7.856094349390224,45.74640122352779,1480],[7.8561310475399875,45.74638432352977,1482],[7.856125047145704,45.74636302406493,1484],[7.856182544679293,45.74634742407408,1485],[7.856192243016256,45.74631582411301,1487],[7.856328838061889,45.746275923482536,1489],[7.85642433279646,45.74621492271221,1491],[7.856654624024819,45.74616831996485,1492],[7.856742321217196,45.74616361912849,1494],[7.856912313829884,45.74610401780857,1496],[7.8570734087659355,45.746105514426944,1497],[7.857227007580738,45.74622260937694,1499],[7.857293383533608,45.74624552168114,1501],[7.857318258576465,45.74623634247333,1502],[7.857493196975702,45.74615780590256,1504],[7.857559990845959,45.74601700850836,1506],[7.8575131881376095,45.74590421238731,1508],[7.857530286663517,45.74588281278354,1509],[7.857574086062824,45.745888311783375,1511],[7.857569384459588,45.74586161247935,1513],[7.857647277865954,45.74572071541472,1514],[7.857700975680754,45.745699814968546,1516],[7.857782569879025,45.745630814823635,1518],[7.857823969931085,45.745644714208105,1519],[7.857864370148993,45.74571961168522,1521],[7.8579089691283075,45.745718110759924,1523],[7.857958667108855,45.745688910443704,1525],[7.858021461687136,45.74559751164768,1526],[7.8580591602756,45.74559441159883,1528],[7.858179363064115,45.745769304785625,1530],[7.858236961420581,45.745803302933616,1531],[7.858383557647242,45.745836999699456,1533],[7.858411758393232,45.74586399860313,1535],[7.85836565984027,45.745882298576454,1537],[7.8583901631143664,45.745975395321615,1538],[7.85849655985137,45.74600239346157,1540],[7.858549861010124,45.74607909009316,1542],[7.858523163536186,45.74612508951204,1543],[7.858592762030931,45.746146587780395,1545],[7.858600962945309,45.746201186655824,1547],[7.858638062883427,45.74623258475652,1548],[7.858717561681836,45.746258683012805,1550],[7.858792261871711,45.746339079203146,1552],[7.858810660722622,45.746325579538365,1554],[7.8588517603755585,45.74634977842103,1555],[7.858873260006701,45.74636737765001,1557],[7.858867460958546,45.74638667710094,1559],[7.85900596063987,45.746506971510804,1560],[7.859037559626255,45.74651877084993,1562],[7.85902116036929,45.7465046715853,1564],[7.85908275713677,45.746487670996665,1565],[7.859103955370199,45.74645817115074,1567],[7.859244652497852,45.74650956768063,1569],[7.859343349714849,45.74652396574643,1571],[7.859316353441567,45.74659986382702,1572],[7.859444952238458,45.74668725921394,1574],[7.859552152431252,45.74678725484634,1576],[7.859593551315203,45.74680045423546,1577],[7.859635452367301,45.74686645195682,1579],[7.85971985147189,45.74692324873141,1581],[7.859775354310214,45.747062343819195,1582],[7.859900351569079,45.74711614077466,1584],[7.859932849941999,45.74709964046833,1586],[7.859954050712068,45.74710643950916,1588],[7.859990849482451,45.74712863834881,1589],[7.8600066499000265,45.74716503743529,1591],[7.86009544846751,45.74718883519692,1593],[7.860121948578071,45.747232634135685,1594],[7.860217347671354,45.747270631146726,1596],[7.860248247372197,45.74730222967142,1598],[7.860275147928906,45.74735882767898,1600],[7.860345548483591,45.74743122529922,1601],[7.860382450117332,45.74753802162984,1603],[7.860382052010805,45.74759781967477,1605],[7.860447755946945,45.74774991479679,1606],[7.860494354480314,45.747769313964774,1608],[7.860488755634361,45.74780621236542,1610],[7.860575654064625,45.74782091109389,1611],[7.860584953939168,45.74784030992061,1613],[7.860507258991628,45.74792390924196,1615],[7.860512259936856,45.747962508259775,1617],[7.86047376447693,45.74804360668906,1618],[7.8605618639089245,45.74810790385263,1620],[7.860549665141601,45.74814750317838,1622],[7.860577165720645,45.74817610204114,1623],[7.860513569369402,45.74822540157526,1625],[7.860487373839304,45.74833469884504,1627],[7.860590670437779,45.74834019700985,1628],[7.860625869372811,45.74836329593384,1630],[7.860615971563337,45.74841219502691,1632],[7.860646772015819,45.748441194003725,1634],[7.860624879645096,45.74864948838819,1635],[7.860586782074932,45.748684988894716,1637],[7.8606332812741115,45.74873268637561,1639],[7.8605813854101525,45.74879818562629,1640],[7.860656483727896,45.74879998408914,1642],[7.860621686524666,45.748843683673115,1644],[7.860540789293982,45.74887818395543,1645],[7.860552589858952,45.7489047838203,1647],[7.860629888414299,45.74893278129185,1649],[7.8606384886493,45.748948980656266,1651],[7.860581193179779,45.749009480278524,1652],[7.860661689672601,45.749014078630516,1654],[7.860648192019428,45.749059377622025,1656],[7.860623093358805,45.74907527779184,1657],[7.860497899180678,45.74911037939077,1659],[7.860452801031789,45.749143478892364,1661],[7.86047110252856,45.74918557766348,1663],[7.86052710010137,45.74919537613247,1664],[7.860547101298365,45.74922477504292,1666],[7.860480304886553,45.74930497463838,1668],[7.860533707099366,45.749410471094755,1669],[7.860468612019606,45.74947377031807,1671],[7.860464914112484,45.749544668141944,1673],[7.860524413331529,45.74957446644074,1674],[7.860624914791506,45.74973266070748,1676],[7.860684913159471,45.74974185996493,1678],[7.860790207431654,45.749679759844554,1680],[7.860826906226991,45.749681758494454,1681],[7.860840707200356,45.74970685808974,1683],[7.8607636139203185,45.74982345577692,1685],[7.860772814061136,45.74984025604399,1686],[7.86082291248474,45.74985195404611,1688],[7.86083991476369,45.749929751963386,1690],[7.860878015103662,45.74999234960752,1691],[7.860936414808434,45.75002124837654,1693],[7.860951013589371,45.74998994890736,1695],[7.861006210452185,45.74998454811989,1697],[7.8610193133556425,45.750069945851074,1698],[7.861092411345869,45.75005804422973,1700],[7.861226007341602,45.75008604180397,1702],[7.861210812839436,45.75016003731853,1703],[7.861229712649599,45.750173837167736,1705],[7.861391009132366,45.75022783318622,1707],[7.861429807143335,45.75019553277704,1709],[7.861610102714305,45.75025972909,1710],[7.8617733003101655,45.75034482402076,1712],[7.861951896265938,45.750411719207214,1714],[7.861977396726207,45.75047011823465,1715],[7.862008796202189,45.75048921685618,1717],[7.862045894823569,45.75047321630745,1719],[7.862204291974986,45.75053021275966,1720],[7.862297088580332,45.750538010631324,1722],[7.862343687561649,45.7505219101885,1724],[7.8623943855431,45.75053280972606,1726],[7.862694080422424,45.75067840115492,1727],[7.862933676246995,45.75077499526429,1729],[7.862973673655367,45.75077059430283,1731],[7.863094371791651,45.75083659100629,1732],[7.863206671265324,45.750921887470184,1734],[7.8632396726675955,45.75102308439492,1736],[7.863328572506832,45.75110508142305,1737],[7.863372972908431,45.75117847849423,1739],[7.8633552760517595,45.75124077754226,1741],[7.863532975328117,45.75141187083177,1743],[7.863609776412684,45.751518967555825,1744],[7.863703073862307,45.75155076547901,1746],[7.863731574212764,45.751576064027375,1748],[7.863729073827003,45.75159936393458,1749],[7.8638445712608185,45.75162286088285,1751],[7.863917670621487,45.75166785858396,1753],[7.864089624285693,45.7517150857808,1754],[7.864203320395311,45.751719784026974,1756],[7.864772898803012,45.75163537666447,1758],[7.86489269484771,45.75164967446303,1760],[7.865190084472743,45.75164846897313,1761],[7.865545972428366,45.75163926347129,1763],[7.865733065448109,45.751612660785426,1765],[7.865899560219716,45.75161545862826,1766],[7.866006156566496,45.75163165653069,1768],[7.866025157391127,45.75165705551951,1770],[7.8660184607946295,45.751767353084716,1772],[7.86614855806304,45.75182445015367,1773],[7.866248254810409,45.7518371474615,1775],[7.8663523522846805,45.751878744830485,1777],[7.866426449511667,45.75188454378153,1778],[7.866590443268356,45.75182624296024,1780],[7.866808534630188,45.75179173940552,1782],[7.867073620987506,45.75163893910204,1783],[7.867154217966928,45.75162143766158,1785],[7.86728332070345,45.75187103060429,1787],[7.867396116557394,45.75187392834757,1789],[7.867571311902771,45.75191482449045,1790],[7.867789404288511,45.751908421309594,1792],[7.868021000405894,45.7520209148093,1794],[7.868151798841577,45.75213281063343,1795],[7.868231596028107,45.75215730850423,1797],[7.868373191959519,45.752174705976216,1799],[7.868430490541283,45.75219070488863,1800],[7.868483689512185,45.752227103282735,1802],[7.868595787540308,45.75225350041228,1804],[7.868646387027191,45.752335197659384,1806],[7.868850381116423,45.75232629470253,1807],[7.869219970783632,45.75244368652023,1809],[7.869355868766944,45.75249658281196,1811],[7.869520565650701,45.75262497743105,1812],[7.8696139642274945,45.75267577515399,1814],[7.8698036570430085,45.75265217249097,1816],[7.869908054189482,45.75265397030657,1817],[7.87015034497981,45.752617167021675,1819],[7.870285438623162,45.75253846707589,1821],[7.870392233831109,45.752509465982556,1823],[7.870519425838291,45.752365466468795,1824],[7.870686416576886,45.75223786672001,1826],[7.870695814785781,45.752204667708206,1828],[7.870874106836617,45.752125466135816,1829],[7.871081798338097,45.752088463802224,1831],[7.871164094014077,45.752039863421246,1833],[7.871210892171395,45.751999663417294,1835],[7.871197390792841,45.75195466436044,1836],[7.8712302878039315,45.75189566537041,1838],[7.871456078353193,45.75183396292605,1840],[7.871554572694768,45.75173606368017,1841],[7.871613067240642,45.751607265694524,1843],[7.871678364656977,45.7515710653276,1845],[7.8717378597224315,45.751505965540275,1846],[7.871808855969822,45.7514560650288,1848],[7.8719225509727275,45.75141526439122,1850],[7.87222223730312,45.75125746280144,1852],[7.872419729715443,45.75124335990416,1853],[7.872709121374187,45.75128385418157,1855],[7.872800417689915,45.75128335275955,1857],[7.873087905610992,45.751159950824146,1858],[7.8732246001245985,45.751146848868395,1860],[7.873458592728396,45.751174044720855,1862],[7.873574189366225,45.75120574215761,1863],[7.873615988078995,45.75119364180875,1865],[7.873632486713309,45.75116854189865,1867],[7.8737902803154265,45.75112194044939,1869],[7.873874077983174,45.75112733877208,1870],[7.8739880755974525,45.75116733648281,1872],[7.874347963202037,45.7511699300227,1874],[7.874448358475598,45.751128729406645,1875],[7.8746469457135015,45.7509333302187,1877],[7.874703943939551,45.75090512970785,1879],[7.87481633741899,45.750804630197386,1881],[7.874919432886867,45.75078402908748,1882],[7.875057725954631,45.75068342888544,1884],[7.875148421330841,45.75065122803245,1886],[7.875215219607243,45.75064452693352,1887],[7.875433913255431,45.75069962264721,1889],[7.875615604658805,45.75063162123369,1891],[7.875710400584023,45.75056582094929,1892],[7.875989087953053,45.750482018166494,1894],[7.876156879443118,45.75035691770309,1896],[7.876179577619773,45.75030041898477,1898],[7.8762283749938256,45.750268418931505,1899],[7.876412766987609,45.75021121730285,1901],[7.876468063897599,45.75017981660121,1903],[7.876620754451097,45.750032117001595,1904],[7.876607951254221,45.74998192135111,1906],[7.876634750254156,45.74996142163975,1908],[7.876753546051624,45.74996261944778,1909],[7.876935134783326,45.74982101967664,1911],[7.877178723888916,45.74970721860499,1913],[7.8772522201019735,45.74968641806739,1915],[7.877352117664226,45.749693716365016,1916],[7.877416815364659,45.749681615539814,1918],[7.877744200007067,45.749567112868384,1920],[7.878003089971076,45.749529809742775,1921],[7.87804418951067,45.74956570774303,1923],[7.878002092436914,45.74959190785953,1925],[7.878009592561672,45.74962290722104,1926],[7.8779863939074515,45.749620507556564,1928],[7.877968895206712,45.7496418072703,1930],[7.878018895487009,45.74971060490225,1932],[7.878100692946681,45.749736502508746,1933],[7.878224186843123,45.74965000270439,1935],[7.8783779759099,45.74949330473686,1937],[7.878528668025428,45.74939920430064,1938],[7.878595964317402,45.74932010523091,1940],[7.8787469573920275,45.74927070391761,1942],[7.8790530462119825,45.74924389990688,1944],[7.879125242783123,45.74921589941519,1945],[7.879214640454142,45.74921919764893,1947],[7.879293136484202,45.74918849750185,1949],[7.87941303256091,45.74919399477456,1950],[7.879517730423101,45.749227292093195,1952],[7.879609626706853,45.74922619078116,1954],[7.879796218075062,45.749166089092824,1955],[7.880039810173232,45.74914798600642,1957],[7.880096363379782,45.74900631099065,1959],[7.8802466372271525,45.748943264891714,1961],[7.880744811469908,45.74894929077186,1962],[7.8811740979992795,45.74900972286739,1964],[7.881365790858117,45.748978320753,1966],[7.881472487020528,45.748978618430804,1967],[7.881614183963408,45.74901071539693,1969],[7.881925072651368,45.74898071140079,1971],[7.881950972307432,45.74902071016762,1972],[7.882022469401695,45.74898181039924,1974],[7.882157665188938,45.74898950752971,1976],[7.882216562155869,45.748976607383604,1978],[7.8822383608852835,45.74894840700857,1979],[7.8824880526283945,45.74893430419883,1981],[7.882600749296067,45.748946101850194,1983],[7.8827191432300685,45.74890890061089,1984],[7.883114029380091,45.74884889625895,1986],[7.883296123402416,45.74884399352338,1988],[7.883337520256956,45.74882129300236,1990],[7.883393418643255,45.74881929224047,1991],[7.88347851830777,45.748891889444046,1993],[7.8835142192956384,45.74895638669218,1995],[7.8837719108204265,45.7489664823862,1996],[7.883884606163378,45.74895308097121,1998],[7.883965404647525,45.74898847904351,2000],[7.884074101967158,45.749007576973945,2001],[7.884370492019047,45.74899677215846,2003],[7.8847801724432385,45.748805771106525,2005],[7.884822270236684,45.748761271389895,2007],[7.885068158680805,45.748645169999676,2008],[7.885247251607933,45.74863456725195,2010],[7.885480642132005,45.74856886549892,2012],[7.885608938468998,45.74856986326873,2013],[7.885824928191393,45.74849806154157,2015],[7.8859834227796,45.74849655965525,2017],[7.886466106201912,45.74844995283175,2018],[7.886523202376546,45.7484146531785,2020],[7.886622199567788,45.748404851653035,2022],[7.886747894223752,45.74835835057222,2024],[7.886949686544027,45.74833664823204,2025],[7.88707428170807,45.74830514710639,2027],[7.8872010774487915,45.748296945263135,2029],[7.887278475795074,45.7483196432767,2030],[7.887336971222373,45.74823854432052,2032],[7.887388268341003,45.74821904392651,2034],[7.887542663518781,45.74822984143157,2035],[7.8875964616592125,45.7482214404092,2037],[7.8876132606269875,45.74820474065769,2039],[7.887770255135547,45.74821023847209,2041],[7.8878648524889865,45.7481903367786,2042],[7.888023147047666,45.74820533432438,2044],[7.888130442389602,45.74817823320525,2046],[7.888298938876639,45.74822362983133,2047],[7.88841133338461,45.74819662847265,2049],[7.888473929230383,45.74812712906883,2051],[7.888562526565534,45.74812042794933,2053],[7.888620325553409,45.74813992640456,2054],[7.888697700691692,45.74813135910782,2056],[7.888952474970048,45.74802081078897,2058],[7.889108353526462,45.74803873369683,2059],[7.88913330338241,45.74809366692687,2061],[7.889196206315789,45.74814971713317,2063],[7.889434202111361,45.74827501020073,2064],[7.889621896450547,45.748300506895006,2066],[7.889914871589953,45.748205175846365,2068],[7.8900240689939345,45.74808227125074,2070],[7.8901055332522185,45.748044780034476,2071],[7.8901791686327964,45.747978205904715,2073],[7.890366759956361,45.747902605001684,2075],[7.890522555825258,45.74791400161684,2076],[7.890652250623592,45.747894500573004,2078],[7.890818743150108,45.747842398648274,2080],[7.8911116368963325,45.747952391157405,2081],[7.891345828634669,45.74793208819638,2083],[7.89153492096168,45.74785798682354,2085],[7.891558318330428,45.7478309873438,2087],[7.891686512936125,45.74776728713258,2088],[7.891700110946276,45.747734987565956,2090],[7.891545612666724,45.747608892917754,2092],[7.891543612311152,45.74758499339068,2093],[7.891574709412152,45.747550694508824,2095],[7.891671204778577,45.74749589425005,2097],[7.891938490308939,45.74728069485732,2098],[7.892168280731999,45.74721719283465,2100],[7.892183908077259,45.7472566405495,2102],[7.8922376677552295,45.74724132818571,2104],[7.892380467238463,45.747090130967585,2105],[7.892413094262491,45.74699976188832,2107],[7.892516871258151,45.746950387704246,2109],[7.892777779144617,45.74675283298234,2110],[7.893093581857619,45.74655719024282,2112],[7.893164878592959,45.746536589460256,2114],[7.893350172627065,45.74654848582996,2116],[7.893477369441542,45.74657588327444,2117],[7.8935702668804195,45.74657378137304,2119],[7.893752360103309,45.74653517939665,2121],[7.893838554482187,45.74644158080613,2122],[7.893904651002689,45.74642038017829,2124],[7.894009447942385,45.74641407829402,2126],[7.894222339294223,45.74636657522074,2127],[7.894318535818729,45.74636287375384,2129],[7.8943747352176175,45.74638357248831,2131],[7.894398034613635,45.74637237274773,2133],[7.894285929848495,45.74612728063601,2134],[7.894240030498422,45.74608308224677,2136],[7.894243729209636,45.746052083427635,2138],[7.894269927613321,45.74603488323875,2139],[7.894393722529587,45.74601538114065,2141],[7.8943374210226285,45.745905985108365,2143],[7.8943711180445035,45.74584658572645,2144],[7.894465813545639,45.74579078551969,2146],[7.894440412070522,45.74572178758447,2148],[7.894465909555159,45.745655688953754,2150],[7.894576701491187,45.74551259016859,2151],[7.894618799184065,45.74548939010282,2153],[7.8948263925477065,45.74547908680284,2155],[7.894888490006911,45.74545968661735,2156],[7.895051280854056,45.74533798683502,2158],[7.895112578875977,45.745330685367406,2160],[7.895336372279431,45.745377380477635,2162],[7.895439469643943,45.74537377899762,2163],[7.895653061032939,45.74532747618648,2165],[7.895948352219592,45.74531627158626,2167],[7.896136947973864,45.745386467283424,2168],[7.896344541775364,45.745415962338136,2170],[7.896482337612853,45.745407760155494,2172],[7.896700931555154,45.745448956163095,2173],[7.896855526726183,45.74544395344162,2175],[7.8969387254726255,45.74547265116082,2177],[7.897193117594428,45.745503045657365,2179],[7.897518007350728,45.7454986408852,2180],[7.89783969414108,45.745407137055395,2182],[7.897959191589058,45.74542133520367,2184],[7.898062087986937,45.74541533348469,2185],[7.898195880863469,45.74533053327327,2187],[7.898294176599813,45.74529373226578,2189],[7.898606060585217,45.74510723136771,2190],[7.898713355192733,45.74502613169102,2192],[7.898813951024387,45.745003130373526,2194],[7.89890454671693,45.744946130397786,2196],[7.899005541813459,45.74491542923153,2197],[7.899073140395601,45.744947627452206,2199],[7.899330732696179,45.74493522365119,2201],[7.899419931525441,45.744977721137914,2202],[7.899612826513175,45.74501691699244,2204],[7.899714724667471,45.745056113680704,2206],[7.899738422528072,45.74502821445886,2207],[7.899836919112841,45.74501291265128,2209],[7.899954813368817,45.74496591237447,2211],[7.900115808386087,45.74495490952946,2213],[7.900316999598235,45.74487140824742,2214],[7.9003818972794555,45.74487830718978,2216],[7.900505692619956,45.74486070477529,2218],[7.900679689174392,45.744915700928054,2219],[7.901074577761177,45.74494309324243,2221],[7.901134174421657,45.74492449275023,2223],[7.901170174834709,45.74493389173379,2225],[7.901233170551404,45.74490139201008,2226],[7.901304269541547,45.74490699009724,2228],[7.901393964789498,45.7448532898711,2230],[7.901480161129093,45.74484648903718,2231],[7.901548157941687,45.744796389048624,2233],[7.901599656255772,45.7447833879602,2235],[7.901660054128221,45.74479778713045,2236],[7.901713554375637,45.74484998506013,2238],[7.901794051297289,45.74482958344292,2240],[7.901852647666821,45.744772884642884,2242],[7.901983042087532,45.74473168264648,2243],[7.90216493235501,45.74460958295901,2245],[7.902202531349495,45.74460668249519,2247],[7.902257027325872,45.74453268292266,2248],[7.902334323253708,45.74448608300965,2250],[7.902456914583476,45.74432348504465,2252],[7.90253741033091,45.74426458504828,2253],[7.902547604481749,45.74410858818961,2255],[7.902618600843219,45.74406538825646,2257],[7.902658898184394,45.74401148882062,2259],[7.902636696241163,45.7439189916142,2260],[7.902588695860782,45.743883693180585,2262],[7.902596895834872,45.743859693809355,2264],[7.902787688034849,45.74380549110691,2265],[7.902761485233539,45.74371799397619,2267],[7.902831678673674,45.74356259673989,2269],[7.902934672545558,45.74345639707797,2270],[7.903094862653952,45.74333869755022,2272],[7.903178057895126,45.7432366989061,2274],[7.903309350574441,45.743168298192074,2276],[7.903420845059732,45.74308329846987,2277],[7.903465742808974,45.74307739757866,2279],[7.9036653327384805,45.74293469760101,2281],[7.90474298360712,45.74246019002309,2282],[7.904821578522644,45.742395290242015,2284],[7.904926873854011,45.74235548954376,2286],[7.905206361468411,45.742205888782564,2288],[7.905277955803809,45.74210588983427,2289],[7.905422147333051,45.74198319053747,2291],[7.905557242939439,45.74196748831555,2293],[7.905755134944081,45.7419183862429,2294],[7.905838429910715,45.74184158620708,2296],[7.9059538249236825,45.74181808489952,2298],[7.9060284230863,45.74181948332399,2299],[7.906113019535701,45.741789682683766,2301],[7.906237815116521,45.74178578059639,2303],[7.906298213776554,45.741807078916445,2305],[7.906389609351604,45.741756579000615,2306],[7.906494406792909,45.74178587616105,2308],[7.906585503367543,45.74176707570326,2310],[7.906786197851123,45.74176457177684,2311],[7.90695269143371,45.74174106970878,2313],[7.907187985134727,45.74177116472633,2315],[7.907872462251979,45.74175295358162,2316],[7.908153255329147,45.741790348059325,2318],[7.908561244993537,45.7418764384073,2320],[7.908749840038522,45.74193323406005,2322],[7.908992033030133,45.74192863041659,2323],[7.909326123220591,45.741969623566746,2325],[7.909916904863583,45.7419509133192,2327],[7.910170194395986,45.74187421101804,2328],[7.910386287723934,45.741889007128286,2330],[7.910506182877872,45.741875005474185,2332],[7.910639777804849,45.741837303698205,2334],[7.910684174944911,45.74180120390434,2335],[7.910942364420489,45.74169130234982,2337],[7.910972061898261,45.74166480265467,2339],[7.911039960052608,45.74167930077327,2340],[7.911265852585912,45.74164419802736,2342],[7.911532140877115,45.7415481952959,2344],[7.911671935315944,45.7415317934702,2345],[7.9116960349931205,45.741513392914385,2347],[7.911917627186733,45.74150108939189,2349],[7.911954524815006,45.741481289590496,2351],[7.912042122804726,45.741474988261864,2352],[7.912896488454209,45.741254279271146,2354],[7.913004585630982,45.741246877100124,2356],[7.913202476720035,45.741193974700735,2357],[7.913486367325449,45.741158671359436,2359],[7.9140446449948145,45.74099766475278,2361],[7.914114440500546,45.74095686467722,2362],[7.914343631111833,45.74088366285126,2364],[7.914662920116833,45.74082825823487,2366],[7.915044508298239,45.740833351773695,2368],[7.915410393727589,45.74076144684257,2369],[7.915660685712247,45.74074024331555,2371],[7.915968673527682,45.74066093944332,2373],[7.916364560250049,45.74062873384994,2374],[7.916491554308355,45.740596731934666,2376],[7.916674045894456,45.74049583167101,2378],[7.916767542640024,45.740465630509675,2379],[7.916875138770079,45.74045132913716,2381],[7.917236822575072,45.74029962683382,2383],[7.9176149090422285,45.740247620790264,2385],[7.917868193995339,45.74004852147778,2386],[7.917906191151913,45.739985422429186,2388],[7.917974482966333,45.73979182574837,2390],[7.918056676772651,45.73968242721919,2391],[7.918058673689795,45.73957152928507,2393],[7.91809366849758,45.7394456312979,2395],[7.918160262475117,45.739303134091145,2397],[7.918181857858382,45.739181036100376,2398],[7.9182211542101495,45.73911823725741,2400],[7.918325148904193,45.73904093736179,2402],[7.91843314374163,45.73899803648098,2403],[7.9187506283796285,45.73881193486846,2405],[7.918838725505323,45.73879463442975,2407],[7.918906923610392,45.7388106329028,2408],[7.919243210197239,45.73870542890352,2410],[7.919015297909745,45.73843351918361,2412],[7.919402996936251,45.73876678572606,2414],[7.919432996924627,45.738956785800546,2415],[7.919572996075543,45.7392267858899,2417],[7.919802996377036,45.73943678621264,2419],[7.920042996192953,45.73981678675722,2420],[7.92022299674471,45.73994678685815,2422],[7.920382996224355,45.740136786738155,2424],[7.920482996991241,45.74043678705075,2425],[7.920542996935892,45.74049678704706,2427],[7.920692996471937,45.74085678712615,2429],[7.920662996246864,45.74113678750176,2431],[7.920732996521476,45.74119678736811,2432],[7.9210629968165644,45.74124678815918,2434],[7.921072996001885,45.74130678815156,2436],[7.920992997133845,45.74132678774378,2437],[7.920972997155645,45.74141678749043,2439],[7.920902997111101,45.74149678791437,2441],[7.920982996710472,45.74182678827539,2443],[7.920932997180036,45.74186678857232,2444],[7.920982997182035,45.74193678793013,2446],[7.920952996629661,45.74197678811702,2448],[7.92088299700602,45.74195678843624,2449],[7.92086299715539,45.742086788190676,2451],[7.920812996656796,45.742076788830516,2453],[7.920862996690512,45.74214678823865,2454],[7.920832996462039,45.74222678843008,2456],[7.9208629970424465,45.74226678834495,2458],[7.920792996433412,45.742296788193215,2460],[7.920832996746533,45.74234678853416,2461],[7.920732996965752,45.742356788453264,2463],[7.9207729962209115,45.74242678882115,2465],[7.920622996086644,45.742486788395475,2466],[7.920392996593377,45.74242678862263,2468],[7.920272996176608,45.74247678906752,2470],[7.920302996670337,45.742566788717376,2471],[7.920172996172992,45.742576789016965,2473],[7.920372996123436,45.74270678884418,2475],[7.920472996719152,45.742716789263774,2477],[7.920512996910699,45.74274678879666,2478],[7.9205129962017145,45.74282678885096,2480],[7.920592996292123,45.74282678872563,2482],[7.920752995984587,45.74289678880462,2483],[7.9206829969840635,45.742916789040464,2485],[7.9206729969015015,45.743006788682216,2487],[7.920622996165287,45.74305678928184,2488],[7.920802996584198,45.74306678920654,2490],[7.920782996786071,45.74314678933857,2492],[7.920672996106245,45.74318678970235,2494],[7.92072299692943,45.74325678916571,2495],[7.920682996979269,45.74329678930911,2497]]}}]}