{"type":"FeatureCollection","features":[{"type":"Feature","properties":{"slug":"33-s17","sct_code":"33_S17","source":"Catasto Sentieri VdA"},"geometry":{"type":"LineString","coordinates":[[7.823347170616893,45.797370137777705,1402],[7.823287847701272,45.797429286899806,1405],[7.823032453765059,45.797544789355385,1407],[7.822548259691117,45.79763089696492,1410],[7.82251468522349,45.797680177476195,1412],[7.822517934567563,45.797739411269795,1415],[7.822553636310918,45.79783940764911,1417],[7.822383438106445,45.797815712149244,1420],[7.822099471802036,45.79787030011919,1422],[7.8221523726302555,45.79791839838603,1425],[7.8221731735293805,45.79796849680046,1427],[7.822138478220923,45.79808779435546,1430],[7.8221246779695,45.79810409405091,1432],[7.822085275905755,45.798012597193356,1435],[7.822040375503754,45.79799199848541,1437],[7.822017175867137,45.797998699501946,1440],[7.822035877645153,45.79804899770693,1442],[7.822026478574883,45.79808749641871,1445],[7.822048279493032,45.79809569648383,1447],[7.82203768008383,45.798116296273896,1450],[7.8218065860956285,45.79825479690602,1452],[7.821816087415118,45.79829789622484,1455],[7.821671791445499,45.79840159689824,1457],[7.821718391446345,45.79841409579529,1460],[7.821770591206782,45.79839559465799,1462],[7.821801090042149,45.798405593654216,1465],[7.821776092252995,45.79843349367942,1467],[7.821822891995664,45.798476992057886,1470],[7.82175989422284,45.79852019242732,1472],[7.821797696310653,45.79858039011187,1475],[7.821766397016746,45.79859138985154,1477],[7.8217570975955555,45.79864278897443,1480],[7.821704500273246,45.79871718854301,1482],[7.821689700466049,45.798697388871894,1485],[7.821711198095816,45.79863929054312,1487],[7.821687697749168,45.798609091148876,1490],[7.821599798429466,45.798596993393566,1492],[7.821561396864466,45.79854729565606,1495],[7.821408599902428,45.79858439786417,1497],[7.82126910394924,45.79869819741796,1500],[7.821294399811425,45.79854830071991,1502],[7.821224600023298,45.798529802903936,1505],[7.821136401239725,45.79854820414242,1507],[7.821180999770386,45.79850850354125,1510],[7.821137599810884,45.798496805182054,1512],[7.821034501761659,45.79853350616986,1515],[7.820982903113069,45.79856820673886,1517],[7.820949401358186,45.7985006089139,1520],[7.820876001757182,45.798500210489635,1522],[7.821031897826075,45.798395309270546,1525],[7.821013196100152,45.79834291110496,1527],[7.820806598436234,45.79836991502725,1530],[7.820799198088964,45.798329915455824,1532],[7.820842296546978,45.798293315449314,1535],[7.820878193325025,45.7982038166997,1537],[7.82087699012349,45.79810701910387,1540],[7.820771791496048,45.79810602149417,1542],[7.820709492815016,45.79813912192513,1545],[7.820665893807823,45.79814102277444,1547],[7.820728289856551,45.79805982329674,1550],[7.820665190430693,45.79803122561947,1552],[7.8205244938767695,45.79811282635824,1555],[7.820508993371657,45.7981030268711,1557],[7.820530292150962,45.79807232670171,1560],[7.820461692131061,45.79802792947804,1562],[7.820390493152148,45.79806662971122,1565],[7.820350193461957,45.798062430716364,1567],[7.820270091654948,45.79797083428452,1570],[7.820306089541638,45.79789913599628,1572],[7.8202560868588264,45.79780463900247,1575],[7.820099485773627,45.797736243984886,1577],[7.82007828329279,45.7976303464983,1580],[7.820052282591154,45.79761094755093,1582],[7.8198776842727895,45.79760925121437,1585],[7.819837084562206,45.79759685225027,1587],[7.819767883516838,45.7975318554207,1590],[7.81975908146801,45.79748405592592,1592],[7.819738982764342,45.7974893565478,1595],[7.819765681285562,45.79747295637817,1597],[7.8197034823208265,45.79746995748219,1600],[7.819657281608082,45.79744585943551,1602],[7.819622282280345,45.79745805972037,1605],[7.819591184774441,45.79752135883069,1607],[7.819559483724249,45.79749436031489,1610],[7.819508084941549,45.7974881616494,1612],[7.819418785328135,45.79749056273103,1615],[7.819352086797625,45.797511864200224,1618],[7.819324186025181,45.79749946488319,1620],[7.8193175860354485,45.79746786547878,1623],[7.81926908458173,45.7974403674372,1625],[7.819203986964215,45.797462267693376,1628],[7.8191846869945,45.79748006816569,1630],[7.81920738788656,45.79749326701292,1633],[7.819200687464457,45.797514666477056,1635],[7.819156589510437,45.79752686708185,1638],[7.819116987899696,45.7974816689221,1640],[7.819064888210573,45.79746967013745,1643],[7.8190483895559195,45.797500070439966,1645],[7.819074289198901,45.79751716896278,1648],[7.8190812905237745,45.79754876802938,1650],[7.819056991462737,45.79756766795961,1653],[7.819045293861252,45.797644767101076,1655],[7.819005394037123,45.797650467733696,1658],[7.818907493768799,45.797622169955254,1660],[7.818881094118653,45.79763257062938,1663],[7.818894996026847,45.797685669264446,1665],[7.818758496977465,45.79769247178261,1668],[7.818791999414893,45.7977748687693,1670],[7.818715299014635,45.79771547213372,1673],[7.818584898846464,45.79767747488067,1675],[7.818562496471766,45.79758787797527,1678],[7.818532796367104,45.79758177815701,1680],[7.818465098303429,45.79763457836512,1683],[7.81850949928255,45.79768067692464,1685],[7.81843869885375,45.79765007858085,1688],[7.818391399685394,45.79766097942157,1690],[7.818389100301437,45.79767637877041,1693],[7.8184960012275635,45.79771337628562,1695],[7.818522701746713,45.79774907449656,1698],[7.8185103026071525,45.797766674407534,1700],[7.818423603264959,45.79776857597787,1703],[7.818372902590631,45.797753877718996,1705],[7.818283803928068,45.79777127920261,1708],[7.818170907353171,45.797816780377644,1710],[7.818207606546841,45.797836978956326,1713],[7.818315806750314,45.797848376666195,1715],[7.818344309068796,45.79793457424579,1718],[7.818308209553118,45.79793737440311,1720],[7.81827570915833,45.79791807612965,1723],[7.818262510072678,45.79795007562106,1725],[7.818220511180689,45.7979596757523,1728],[7.818227412732903,45.79801587470181,1730],[7.818135916593437,45.79813757340716,1733],[7.817934717391346,45.798108178211706,1735],[7.817926418305636,45.79812397809381,1738],[7.817962618589658,45.79816217603999,1740],[7.8179379198869405,45.79818217594781,1743],[7.817899519229207,45.7981481782262,1745],[7.817702721821231,45.79817768105339,1748],[7.817689822761136,45.79818258149992,1750],[7.817719722742557,45.79821118016964,1753],[7.817783122646542,45.79823627781766,1755],[7.8177795238864904,45.79825317757823,1758],[7.817581225810847,45.79828608122819,1760],[7.817599828162941,45.798370578947576,1763],[7.817580930039899,45.79840127821537,1765],[7.8175950311322415,45.79843797668847,1768],[7.8176385310658825,45.79845987581113,1770],[7.817634431248607,45.798482575655314,1773],[7.8175150324895055,45.798469177602264,1775],[7.817477232336277,45.79844237909588,1778],[7.817397532823355,45.79842988145754,1780],[7.817407034378336,45.798482480195155,1783],[7.817020134815945,45.798396689491035,1785],[7.81697063575446,45.798415490037534,1788],[7.816983136017306,45.79843338902108,1790],[7.816961936715068,45.79844238953231,1793],[7.8168189390004486,45.798476292021036,1795],[7.816811940401084,45.79851349120105,1798],[7.816893645673404,45.79870758459992,1800],[7.816905648639591,45.79881828182412,1803],[7.816928249563799,45.79884368106225,1805],[7.817094550618777,45.798937375740856,1808],[7.817147151142645,45.79895457385145,1810],[7.8173012500599715,45.79896747018194,1813],[7.817301750490657,45.799014969703805,1815],[7.817376052993823,45.79911296597503,1818],[7.817354055157673,45.79916176446932,1820],[7.817294616817719,45.79920408477686,1823],[7.81730700829271,45.79927523990705,1825],[7.817286159548956,45.799331268623,1828],[7.817107863352704,45.79936706514213,1830],[7.817133665394845,45.79944746217152,1833],[7.817136469301698,45.79957915930467,1836],[7.817173270480571,45.79964765733932,1838],[7.817193373871601,45.79975175466836,1841],[7.817227574967466,45.79979725218293,1843],[7.817219777219493,45.79987915090923,1846],[7.817134678274463,45.79988395270697,1848],[7.816937682044056,45.79993755528594,1851],[7.816844482614697,45.799934457014444,1853],[7.816716185437968,45.7999943581271,1856],[7.816555582310977,45.799847065015584,1858],[7.816521782484315,45.79983976565405,1861],[7.8165185851561185,45.799905564329485,1863],[7.816585287791353,45.800002460823464,1866],[7.816566088396388,45.800039860309965,1868],[7.816569690330055,45.80011125837663,1871],[7.816543392153904,45.80013945789467,1873],[7.816559294452347,45.800218455530626,1876],[7.816532595209226,45.80024055580471,1878],[7.816544411439515,45.80032279806772,1881],[7.816485105441937,45.80031010513361,1883],[7.816434213146993,45.80027514318443,1886],[7.816372414167894,45.80030294336805,1888],[7.816366115325791,45.800326943439096,1891],[7.816323715655543,45.8003343444148,1893],[7.8163160927902124,45.80038142764963,1896],[7.816315766839383,45.80043758780991,1898],[7.816254175051065,45.80060408208575,1901],[7.816263373622405,45.80065898186839,1903],[7.816250546259321,45.80074807374304,1906],[7.816258150401587,45.80088597059627,1908],[7.816211654072256,45.800993568580616,1911],[7.816137157806322,45.801104567469324,1913],[7.816095157711668,45.80109246858649,1916],[7.8159672625229275,45.80121996797949,1918],[7.815926863327361,45.80121666913814,1921],[7.815889402211553,45.80122459365909,1923],[7.815905860311842,45.80126281082321,1926],[7.815886178993138,45.80129521805952,1928],[7.815837076501997,45.80128987768724,1931],[7.815774331922988,45.80126494687367,1933],[7.81574583291258,45.80126554789875,1936],[7.81574313365702,45.80128404728573,1938],[7.815699633473463,45.80127514855847,1941],[7.8156781351354185,45.80132394739119,1943],[7.81563833636547,45.801337247849006,1946],[7.815651538433219,45.80140984620466,1948],[7.815595541145647,45.80151914461869,1951],[7.8155580426901405,45.801537744943,1953],[7.815528445446045,45.80162774290943,1956],[7.815440247425667,45.80166764445668,1958],[7.815381450578221,45.80173754319339,1961],[7.815359453254933,45.80182364173197,1963],[7.815418856264656,45.8019390382508,1966],[7.815479856669555,45.80197543570873,1968],[7.815519359045723,45.80206163278083,1971],[7.815590059808651,45.80210143120569,1973],[7.815648861039015,45.80217372824922,1976],[7.815627661906153,45.80220152768707,1978],[7.815467063197339,45.802191931475,1981],[7.815523865976485,45.80231862709976,1983],[7.8154979676860075,45.80233322727894,1986],[7.815498143894467,45.80242904037419,1988],[7.8153586466609895,45.80248614169125,1991],[7.815214658078432,45.802482662137585,1993],[7.815204760619809,45.802555760806655,1996],[7.815184461038871,45.80257486068378,1998],[7.815169160931275,45.8026465820567,2001],[7.81491015879189,45.8026348367237,2003],[7.814957021936594,45.80279869394981,2006],[7.814947426379936,45.80292599084755,2008],[7.814964080078754,45.80310523772775,2011],[7.814991932835606,45.803176184422355,2013],[7.815032284684984,45.803227783847625,2016],[7.81502633677111,45.803263956939176,2018],[7.815053736051197,45.80328808053685,2021],[7.815120740865554,45.803363991989045,2023],[7.81526374461675,45.803551584800424,2026],[7.815245208247426,45.803617702252566,2028],[7.815263011413522,45.803726998941336,2031],[7.815252863172119,45.80389568573339,2033],[7.815213573433261,45.80422127879376,2036],[7.814840439029072,45.80452998852542,2038],[7.8146997418521815,45.804589990007464,2041],[7.8143936434999235,45.80455039720749,2043],[7.814249843602686,45.80450630041954,2046],[7.814188143572142,45.80448210232453,2049],[7.814086741820023,45.804396106537475,2051],[7.813926940576503,45.804317911666864,2054],[7.813739042183724,45.804291415736415,2056],[7.813676942453634,45.804292917504824,2059],[7.813436945824272,45.804349520948875,2061],[7.813383392641043,45.80432864088228,2064],[7.813336946785829,45.80431922374253,2066],[7.813250047014077,45.804328924468784,2069],[7.813172349966239,45.804380425063684,2071],[7.8130528512956126,45.804395727257166,2074],[7.813000353727419,45.804450627087974,2076],[7.8128062280676565,45.80443982015185,2079],[7.812677139190931,45.80449861401212,2081],[7.812657741782365,45.8045791128532,2084],[7.812673644584166,45.804665210507316,2086],[7.8126645484627515,45.80478690780761,2089],[7.812712352990715,45.804946202570356,2091],[7.812709954421786,45.80499180165231,2094],[7.812581996264662,45.80506811566054,2096],[7.812522197246704,45.80504681745936,2099],[7.812155192728503,45.804798230442955,2101],[7.811943287983779,45.80457523957171,2104],[7.811922587323993,45.804513241837604,2106],[7.81188468759436,45.804504742820434,2109],[7.811854786174726,45.80445864402809,2111],[7.81186048483167,45.80443284509625,2114],[7.811808085944799,45.80442294600388,2116],[7.8117200843711085,45.804359649725214,2119],[7.811657281711371,45.80426215289611,2121],[7.811624982443033,45.80426855373484,2124],[7.811561585210003,45.80435085290208,2126],[7.811419264110256,45.804389164049304,2129],[7.811334268043454,45.80443936069937,2131],[7.811306469524737,45.80446376050791,2134],[7.811257670068099,45.804460761432345,2136],[7.811223770517031,45.80450076116333,2139],[7.81123409501077,45.80456435303522,2141],[7.811346494965517,45.80458395000596,2144],[7.8114628966004345,45.80466674622136,2146],[7.811522495783259,45.80467864466506,2149],[7.811530297192112,45.80469884355348,2151],[7.811479597523981,45.804719044080024,2154],[7.811303398583519,45.80469034824955,2156],[7.811231399383548,45.80469584987554,2159],[7.811138202118038,45.8047439503467,2161],[7.811044303578667,45.80476125211837,2164],[7.810917706367971,45.804825053449896,2166],[7.810855508128766,45.80483895433297,2169],[7.810798409575216,45.80490215314448,2171],[7.810549715204053,45.8049927562582,2174],[7.810399920551935,45.805113256625205,2176],[7.81012722434705,45.80515826119307,2179],[7.81001382679242,45.80522246180715,2181],[7.810033128231421,45.8052442602499,2184],[7.8099481282912055,45.80524436220766,2186],[7.809764632557887,45.80529876444098,2189],[7.809528233104957,45.805266770048206,2191],[7.809417934911455,45.80528977146149,2194],[7.809249039454161,45.80536617352937,2196],[7.8092001776141124,45.805399949524165,2199],[7.809201829650516,45.80548451394838,2201],[7.809171295310906,45.80562067887831,2204],[7.809016951513394,45.80570557026254,2206],[7.808803455244233,45.80574397316994,2209],[7.808595456409174,45.805738977203696,2211],[7.808457060899265,45.8058103787167,2214],[7.808074166154729,45.80588528401543,2216],[7.808014969127186,45.80595248361848,2219],[7.807956170352123,45.80595998489313,2221],[7.807932970286957,45.805980285365195,2224],[7.807985571923649,45.80604798271206,2226],[7.807879973660256,45.8060793840616,2229],[7.807875875037142,45.80610368291502,2231],[7.807826575939078,45.806101484498505,2234],[7.807725078489118,45.80618598414234,2236],[7.80762678044477,45.80618518595633,2239],[7.807575481524076,45.80621928683261,2241],[7.807557282465877,45.80626888537251,2244],[7.807511082799612,45.80625658650389,2246],[7.807407481701666,45.80618859058248,2249],[7.80736268251103,45.80618219164425,2251],[7.8073578837863975,45.806220891033966,2254],[7.807404985662358,45.80630258807896,2256],[7.807392887599903,45.80638668586557,2259],[7.807359388013683,45.8063847871849,2262],[7.8072720868144945,45.806309090439,2264],[7.807204586801389,45.80628119275796,2267],[7.807184185623083,45.806236794017785,2269],[7.807147686670345,45.80624259441496,2272],[7.807153288752579,45.80631439251187,2274],[7.807128190375303,45.80635499233461,2277],[7.807150692033857,45.80642229026872,2279],[7.80710969141502,45.80641289145323,2282],[7.807069290168277,45.80635739335859,2284],[7.80701219120363,45.80635089465078,2287],[7.8069440901783995,45.806308896790775,2289],[7.806865690847042,45.80630729860396,2292],[7.806883493657374,45.806410695882555,2294],[7.806938795001796,45.80644949366986,2297],[7.806868095203464,45.806451994576136,2299],[7.8067409007704365,45.806610493685675,2302],[7.8066944011189365,45.806602595256834,2304],[7.806587699644737,45.80651039919916,2307],[7.8065440996897815,45.80650840016962,2309],[7.806458603804619,45.806605799628755,2312],[7.8063655068529165,45.80666819979995,2314],[7.80615401124137,45.80674040260853,2317],[7.8060956134863755,45.80679070228371,2319],[7.805879117893511,45.80690310398069,2322],[7.805568125096979,45.807005907537324,2324],[7.805463729080309,45.80710270722337,2327],[7.805413029225169,45.80712180789882,2329],[7.805343730787903,45.80712360968213,2332],[7.805274932215375,45.807151810363194,2334],[7.805165531981346,45.807123412994706,2337],[7.805124132660074,45.80714661329557,2339],[7.805084336225374,45.80721961253284,2342],[7.80507853881366,45.807323409464715,2344],[7.804991139236227,45.80729421239263,2347],[7.804905838265232,45.80724271528167,2349],[7.804736839241743,45.807223219171874,2352],[7.8046237439994215,45.8073256189346,2354],[7.804589945888594,45.807409117639004,2357],[7.804515049520533,45.807494316674884,2359],[7.804412653075691,45.80756351765088,2362],[7.804363053279572,45.807567018155304,2364],[7.804283456498557,45.80763831800957,2367],[7.804234456663825,45.80763981944555,2369],[7.80420865744016,45.80765981923931,2372],[7.804207160688909,45.80774671695808,2374],[7.804250762167383,45.80781321475127,2377],[7.804207762203289,45.80783551502407,2379],[7.8041796651476805,45.80791621384182,2382],[7.804132965946949,45.807921814702176,2384],[7.804104767034851,45.8079473147058,2387],[7.803897668065747,45.80792041890645,2389],[7.803876569373898,45.80793851924797,2392],[7.803707172287259,45.80797402167027,2394],[7.80363687212577,45.80794832376955,2397],[7.803509972942333,45.807962925548885,2399],[7.803455874528908,45.807996125807854,2402],[7.803373975378719,45.80798242801787,2404],[7.803328073858209,45.80792043030661,2407],[7.803262472855317,45.807873932841474,2409],[7.8032557718742215,45.80782873367852,2412],[7.803359366830884,45.80770083480315,2414],[7.803332866835991,45.80766063679845,2417],[7.80326776733317,45.807658037800664,2419],[7.803069771094891,45.807715740726415,2422],[7.802877976649327,45.80785254091813,2424],[7.802873477431219,45.80788774028819,2427],[7.802853377833862,45.80790004024379,2429],[7.8027370805151515,45.80792924202287,2432],[7.802486881825156,45.80791464736435,2434],[7.802399784322386,45.80793904803488,2437],[7.802303287115301,45.80802094823574,2439],[7.802226587209712,45.80801165042883,2442],[7.802211888770712,45.80804994968709,2444],[7.802167189505924,45.80807774952788,2447],[7.802130495271301,45.80825844588269,2449],[7.802091296663056,45.80827644611664,2452],[7.802042295524166,45.80820984858094,2454],[7.802008797782439,45.80827054801737,2457],[7.801970397819347,45.80827884874016,2459],[7.80192299652328,45.80821015103307,2462],[7.801871596316902,45.808207252082646,2464],[7.801830298973983,45.808284351223634,2467],[7.801835303535211,45.80840554835459,2469],[7.801824805285836,45.80848994671787,2472],[7.801801906568903,45.80851794625025,2474],[7.801776107761532,45.80853684654637,2477],[7.801723507267596,45.80851254816251,2480],[7.8016929083995965,45.808528548563174,2482],[7.801596811566652,45.80863104800136,2485],[7.8014899126578126,45.80861774994748,2487],[7.801419214542418,45.808643851078386,2490],[7.801324818000561,45.80874055025855,2492],[7.801260421683869,45.80885934874289,2495],[7.801224723004632,45.808871349726,2497],[7.801192724271154,45.808913049477624,2500],[7.801082627540205,45.8089663502311,2502],[7.801035829043616,45.80900974960902,2505],[7.800737033129827,45.809068954792146,2507],[7.8005416228266995,45.8091981662338,2510],[7.800526211803353,45.809330558880006,2512],[7.800500512778811,45.809362458326405,2515],[7.800626118544652,45.80960165068428,2517],[7.800628120976925,45.80966754840788,2520],[7.800669521495295,45.80970124674907,2522],[7.800715523658371,45.80978804449683,2525],[7.8006969244492295,45.80982794337585,2527],[7.800586817528245,45.8098833505334,2530],[7.800539119496757,45.809952649737035,2532],[7.800483320899547,45.809971350869695,2535],[7.800445122428591,45.81000395069929,2537],[7.800407225838233,45.810106948588135,2540],[7.800336027518404,45.81013974999608,2542],[7.800176433810128,45.81029774938151,2545],[7.800078135717375,45.81033874980284,2547],[7.799897041236188,45.810468150978366,2550],[7.799813343406865,45.8104866514116,2552],[7.799744343717133,45.81048105370117,2555],[7.799469650136403,45.810612955765635,2557],[7.799406352811991,45.81069655512093,2560],[7.799356554417085,45.81071885501758,2562],[7.7991280657025435,45.81100765272631,2565],[7.799098967149153,45.811052552306535,2567],[7.79909776973833,45.81115155050808,2570],[7.7991951745041055,45.811360243458914,2572],[7.799319080704073,45.81159503521246,2575],[7.799386680316741,45.811583734600546,2577],[7.799488079854018,45.811603731630655,2580],[7.799548080252165,45.81166432912499,2582],[7.799543183042731,45.811723027823675,2585],[7.799572683266136,45.81177252592456,2587],[7.799572487390457,45.81190102267503,2590],[7.799647991413181,45.81204701776697,2592],[7.799595194712893,45.81215591607248,2595],[7.799411001103,45.81232061587274,2597],[7.7993334036573865,45.81237031606301,2600],[7.799203906601548,45.812416818291304,2602],[7.7990059098581,45.81245452063041,2605],[7.798963910338343,45.81247462163222,2607],[7.798916712788979,45.8125479206721,2610],[7.798872114421102,45.812571021154085,2612],[7.798849211156211,45.812467624004036,2615],[7.7987488137004,45.812492125053616,2617],[7.798659212385675,45.81241282895472,2620],[7.798527715516481,45.81247353002883,2622],[7.798494314105179,45.812451231264056,2625],[7.798474112602965,45.81239663295122,2627],[7.798424513362833,45.81238313451535,2630],[7.798361215290011,45.81243153447278,2632],[7.798153419384467,45.81250453716262,2635],[7.7980369231938065,45.81259063711395,2637],[7.797935625011515,45.812629038099246,2640],[7.79786812835727,45.81269463748239,2642],[7.797771428718738,45.81267453997004,2645],[7.797523613881957,45.81267180678139,2647],[7.797428415527017,45.81269300784129,2650],[7.7973314149378,45.812655210190556,2652],[7.797306614366999,45.812630211494586,2655],[7.797151617343646,45.812651814235885,2657],[7.797112315708961,45.81262201591036,2660],[7.797052516701464,45.81260611708184,2662],[7.79699791827393,45.812675416823836,2665],[7.796814420848604,45.812675520338644,2667],[7.796768422652441,45.8127063204046,2670],[7.796591222308071,45.812668625174325,2672],[7.7963877256695495,45.812684228447175,2675],[7.796235027687918,45.81272873049731,2677],[7.796031931399401,45.81276193404795,2680],[7.795461542946576,45.812986139380264,2682],[7.795058257488174,45.81335753835865,2685],[7.7950285600432885,45.81341823798115,2687],[7.795003362634949,45.81349383662736,2690],[7.795029465009604,45.813585433644285,2693],[7.79499276866396,45.813696232190814,2695],[7.794994371043377,45.813798629591794,2698],[7.794975571621009,45.813801729950775,2700],[7.794923974351043,45.81387862878467,2703],[7.79496767706327,45.81397092538257,2705],[7.794946777471718,45.81400252586496,2708],[7.795046779693236,45.81411542055875,2710],[7.794986982290501,45.81418252059384,2713],[7.794916783697608,45.81421262092897,2715],[7.794938785538303,45.81427491889033,2718],[7.794930688086304,45.814352017338436,2720],[7.794848892585376,45.81446121685576,2723],[7.794788994414646,45.81450891625151,2725],[7.794690801975566,45.81472351290224,2728],[7.794689502949527,45.814767611971895,2730],[7.794643604795675,45.814801812580576,2733],[7.794719609873904,45.815013705397725,2735],[7.794668809668539,45.81498940748516,2738],[7.794636810861928,45.81500840724606,2740],[7.794599514418999,45.81512110559456,2743],[7.794542514861556,45.81511060733669,2745],[7.794523915812748,45.8151607062359,2748],[7.794481515749616,45.81515410706278,2750],[7.79444671444989,45.81510130888992,2753],[7.794401214662912,45.81507081061051,2755],[7.794372714886983,45.81507421082234,2758],[7.794335416033359,45.815108810767235,2760],[7.794225116508143,45.815102413856856,2763],[7.794151521414602,45.81522801174028,2765],[7.794107121906952,45.81521881270906,2768],[7.794055522793206,45.81525871316115,2770],[7.79385652778738,45.81533641541346,2773],[7.7938691299249765,45.81541881303406,2775],[7.793853331899639,45.815465412335705,2778],[7.793786333369305,45.81551471211113,2780],[7.793555237015881,45.81555581588384,2783],[7.793460740243216,45.815637915956536,2785],[7.793258746198335,45.81576961670127,2788],[7.793017049549833,45.81582742016554,2790],[7.792792252071593,45.8158461239378,2793],[7.792729553723568,45.81587982403239,2795],[7.792617456330121,45.81589532614974,2798],[7.792371462847621,45.816046027280045,2800],[7.792307663455057,45.816074728381345,2803],[7.792189066363275,45.816099829600134,2805],[7.792159767129919,45.81614052927004,2808],[7.792074568679368,45.81616053012336,2810],[7.791933675853856,45.816344029205084,2813],[7.7918251792468505,45.81645222864469,2815],[7.791736887946417,45.816690224036755,2818],[7.791678089028858,45.816742924133585,2820],[7.791595791711826,45.81679822428009,2823],[7.791234100294693,45.81697352756353,2825],[7.79103990882927,45.81717762692542,2828],[7.791037810880593,45.817255824496485,2830],[7.790927412865863,45.81730202619793,2833],[7.790826814960482,45.81732142752342,2835],[7.790753017811961,45.81740312699068,2838],[7.7906609192372,45.8174386280419,2840],[7.790641220337634,45.81747422760679,2843],[7.790581184629804,45.81749829637193,2845],[7.790566641356637,45.81755265873112,2848],[7.790580442088709,45.817574858506134,2850],[7.79064174229922,45.81760445630558,2853],[7.790590443559004,45.81765945562759,2855],[7.790551946898475,45.81775465392955,2858],[7.790564647165276,45.81778095343788,2860],[7.790524949271997,45.81782955294925,2863],[7.790575852051912,45.817913649726506,2865],[7.790581054097071,45.81799334842173,2868],[7.790546755133971,45.81802854769716,2870],[7.7904898561720755,45.818044748169655,2873],[7.790495356851961,45.818068148037675,2875],[7.790455358476168,45.81809684806128,2878],[7.790399259034596,45.81812444875721,2880],[7.790338659402445,45.81813124955836,2883],[7.790387761501616,45.81818704719837,2885],[7.790307062152766,45.81820174812759,2888],[7.790308862636319,45.81821804801207,2890],[7.790347462523994,45.8182247470991,2893],[7.79029386414359,45.818251447183385,2895],[7.790239964140526,45.818242148756845,2898],[7.790218164531339,45.8182561484455,2900],[7.790214264994092,45.81828814856882,2903],[7.790163267902295,45.81834414813158,2905],[7.790100468769631,45.81835424846089,2908],[7.790064669141737,45.818383648941584,2911],[7.7899754713912355,45.8183955505126,2913],[7.789978571713876,45.81842694973568,2916],[7.7900097714895855,45.818448148502945,2918],[7.789938473247307,45.81846594947186,2921],[7.789980775028027,45.81853534686024,2923],[7.78987447595356,45.818553148792965,2926],[7.789835577079056,45.818577648957785,2928],[7.789796878375348,45.81862314825699,2931],[7.789807379579458,45.81864494775342,2933],[7.789778579569801,45.818651948296825,2936],[7.789670584325919,45.81876434784889,2938],[7.7894236891295545,45.81886654967723,2941],[7.789396090415791,45.81888695004396,2943],[7.7894108915397915,45.818923148973184,2946],[7.789311193382087,45.81897154967325,2948],[7.789238396687666,45.819045549003796,2951],[7.789120599101737,45.81909665044735,2953],[7.789133198867788,45.81912174929102,2956],[7.789016101491631,45.81916435087268,2958],[7.788990202426956,45.81920204991809,2961],[7.788892604587376,45.8192448508667,2963],[7.788882306100954,45.819266250840805,2966],[7.788908706188325,45.81928025000931,2968],[7.788716310300317,45.819355852225605,2971],[7.788718010173419,45.81938965143637,2973],[7.788760611514458,45.81942554936712,2976],[7.788731812986614,45.81945524956128,2978],[7.788687713133396,45.81948084984047,2981],[7.788593014356844,45.81948135150567,2983],[7.788476316927157,45.819546051845506,2986],[7.78844171735655,45.81954545271749,2988],[7.78841916943911,45.81957088002792,2991],[7.788434685191926,45.81960099519032,2993],[7.788120007922588,45.820321257940186,2996],[7.788464008304495,45.820801258646526,2998],[7.788408007600903,45.82083825851272,3001],[7.788516007666919,45.82091625908177,3003],[7.78851400767528,45.820992258802015,3006],[7.788622008363173,45.82103125876821,3008],[7.7885670079389495,45.82106925846055,3011],[7.788648008203345,45.82110825920573,3013],[7.7885350080369244,45.82125925946493,3016],[7.788589007695235,45.82129725930156,3018],[7.788369008655548,45.82139025939048,3021],[7.788096007722529,45.821407259133785,3023],[7.788038007795358,45.82159625965029,3026],[7.7881720081677495,45.821674259139535,3028],[7.788196008148641,45.821846259206225,3031],[7.788439008525553,45.82192525967917,3033],[7.788571008333383,45.82213625967886,3036],[7.788485008036835,45.82230625977377,3038],[7.788675008601529,45.82236526044561,3041],[7.7886460076778805,45.822422260247116,3043],[7.7889460082502024,45.822444259684744,3046],[7.788861007964092,45.82257726014393,3048],[7.789021007528997,45.82273125993343,3051],[7.789213007973418,45.82269526017188,3053],[7.7892060078482555,45.82298126071712,3056],[7.78948000848802,45.82292626026246,3058],[7.7898950083602205,45.8226452606239,3061],[7.790002008361842,45.82272226002526,3063],[7.78991900835894,45.82277926064598,3066],[7.790136008007258,45.822819260610565,3068],[7.7904080083269225,45.822841260292805,3071],[7.7906550077541,45.822767260224964,3073],[7.7909270086068725,45.82280826030269,3076],[7.790872007972861,45.822846260191504,3078],[7.790980008705784,45.822885260613496,3081],[7.7909500082214755,45.82298026086647,3083],[7.791059008232103,45.823019260987415,3086],[7.79070400746053,45.82301626079061,3088],[7.790784008258526,45.82311226060099,3091],[7.791012008688931,45.823895261220684,3093],[7.7909480082359455,45.82433326199549,3096],[7.791002008608756,45.82437126157666,3098],[7.791150008185257,45.82507826278899,3101],[7.791390008001947,45.825328262241875,3103],[7.791819007688015,45.82565726285564,3106],[7.7921110083315375,45.824726262347596,3108],[7.792090007624519,45.824478261424154,3111],[7.792292007976309,45.823947261632256,3113],[7.792272007911856,45.823623261197376,3116],[7.792039008326141,45.82303026066039,3118],[7.792040007998842,45.822972260112245,3121]]}}]}