{"type":"FeatureCollection","features":[{"type":"Feature","properties":{"slug":"33-s14","sct_code":"33_S14","source":"Catasto Sentieri VdA"},"geometry":{"type":"LineString","coordinates":[[7.81316431873956,45.77827617535937,1346],[7.813273315188277,45.778223176210055,1349],[7.813327313494866,45.77821917569478,1352],[7.813397311015911,45.77818817525807,1355],[7.813468309869869,45.77821917402253,1358],[7.813604307617846,45.778211172862534,1360],[7.813721302822951,45.77815017304215,1363],[7.813762302085288,45.778162172457186,1366],[7.813831300890108,45.77815417195127,1369],[7.81396229650741,45.778104171799896,1372],[7.8139922967681015,45.77811617124753,1375],[7.814023295178413,45.77809717177637,1378],[7.813998294951453,45.77806617297847,1381],[7.814149286732143,45.77776917905249,1384],[7.81424428332485,45.77776517794637,1386],[7.81427328337088,45.77777617688907,1389],[7.814243286106108,45.77785317586469,1392],[7.814269285301408,45.777864175162705,1395],[7.814410281326755,45.777815174736716,1398],[7.814468280559403,45.77782617396283,1401],[7.814483279875069,45.777849173676124,1404],[7.814584277235865,45.7778301731942,1407],[7.814640276771697,45.777834172628864,1410],[7.814642278236928,45.77791417055577,1412],[7.8146942772628005,45.77791017025092,1415],[7.814734275286343,45.777887170553264,1418],[7.814844272813443,45.77790616864294,1421],[7.814931270510437,45.77787616896803,1424],[7.815006269296347,45.77786816788897,1427],[7.815095266905875,45.7778831668167,1430],[7.815121267239032,45.77793316491169,1433],[7.815148267211387,45.77792516542446,1436],[7.815187267695381,45.77798216388249,1438],[7.815170267728278,45.778017163156875,1441],[7.815185268653249,45.77808516057629,1444],[7.815132272665207,45.77820015879406,1447],[7.815109273508569,45.778207158420244,1450],[7.815112274033841,45.778261157177155,1453],[7.815165274200162,45.77829115636452,1456],[7.815223274144053,45.778379153215546,1459],[7.815255273366928,45.778398152915216,1462],[7.815340275328179,45.77858514762701,1464],[7.815310277085479,45.778631146592275,1467],[7.815297280919105,45.77880614268477,1470],[7.815360279532905,45.77883714100903,1473],[7.815465277555892,45.77883313999253,1476],[7.815472277545581,45.77881814041049,1479],[7.815511277160061,45.77883713971745,1482],[7.815556275452742,45.77882913953579,1485],[7.815620273288657,45.778787139982455,1488],[7.81566327244588,45.77881413890482,1490],[7.815673273302112,45.77887513696355,1493],[7.815706273377351,45.77887513704914,1496],[7.815723272617981,45.77890213552873,1499],[7.815751272566515,45.778909135624396,1502],[7.8157722721980765,45.77888613573434,1505],[7.815809271392894,45.77888613584294,1508],[7.815825271273209,45.7789021352924,1511],[7.815837270197963,45.77887113519284,1514],[7.815879269465131,45.77887513470627,1516],[7.81600826779114,45.778936132127825,1519],[7.8160322672512,45.77896313110703,1522],[7.816066268691289,45.77908512823368,1525],[7.816019274403985,45.77931812289903,1528],[7.816034276257562,45.77941312066434,1531],[7.816072275940495,45.779447119472316,1534],[7.816089275653477,45.779443119434625,1537],[7.816085275675487,45.77946211844313,1540],[7.816162274287097,45.779436118421074,1542],[7.8162762699158295,45.77935911900646,1545],[7.816292269321869,45.779363118978246,1548],[7.816305269311402,45.77934011980802,1551],[7.816512261269215,45.77921812016345,1554],[7.816684257229145,45.779165120562844,1557],[7.816740255139291,45.779161119345176,1560],[7.816831255859487,45.779272115811175,1563],[7.816844258000127,45.77940911228111,1566],[7.816813260191815,45.77947011133989,1568],[7.816836259790536,45.779501110394385,1571],[7.81686525937163,45.77950410996647,1574],[7.816934260663393,45.7796111073157,1577],[7.817084257357824,45.779649104295345,1580],[7.817086257291061,45.779611105285774,1583],[7.81716325288889,45.77952410668068,1586],[7.817351248314146,45.7794781057776,1589],[7.817394247196139,45.77948510593238,1592],[7.81741624823237,45.77953110459029,1594],[7.817544245193249,45.779562102189956,1597],[7.817629245419478,45.77964909919608,1600],[7.817586247337112,45.77970709861646,1603],[7.81755024830104,45.77971409828832,1606],[7.817664247718545,45.779817094907905,1609],[7.817682248979229,45.779867093320064,1612],[7.8177762481999125,45.77997408964761,1615],[7.817795250262078,45.78009608672306,1618],[7.817837249634695,45.78011108587014,1620],[7.817869249210216,45.78014908479124,1623],[7.81789024951673,45.780138084828025,1626],[7.817961247647004,45.78014908357236,1629],[7.818006247901745,45.7802180822236,1632],[7.818086247593252,45.780260079779296,1635],[7.818144245818259,45.78026007946848,1638],[7.818169245585964,45.78027907883715,1641],[7.818288241614516,45.780237078814025,1644],[7.818329239563478,45.78015708023967,1646],[7.818387237355365,45.7801340800431,1649],[7.818427237506335,45.78013807954213,1652],[7.818495233973709,45.780084080737936,1655],[7.81849623430975,45.78005408087232,1658],[7.818425233901269,45.779981083714006,1661],[7.818403232757992,45.77990508584184,1664],[7.818361233007538,45.77988608619687,1667],[7.818442230456983,45.7798290870368,1670],[7.818455228120052,45.77972608976733,1672],[7.8185202269150444,45.77972908861667,1675],[7.818535225033639,45.77966809014196,1678],[7.818608331103638,45.77963553998798,1681],[7.818594221988091,45.779585091445405,1684],[7.818664219426449,45.7794780933537,1687],[7.818663216851559,45.77938609564438,1690],[7.818747214220947,45.7793290966834,1693],[7.818785211240607,45.77925609805934,1696],[7.818991205309489,45.779142098510285,1698],[7.819043202071214,45.779081099923246,1701],[7.819068201851566,45.77907309953519,1704],[7.819098201730018,45.77909609889063,1707],[7.819320194081196,45.778986099210876,1710],[7.819414192424336,45.77897809898631,1713],[7.819501188896198,45.77891709915692,1716],[7.819722183886647,45.77889409758563,1719],[7.8197751817810754,45.778860097770796,1722],[7.819872177508928,45.77874909992613,1724],[7.8198411766523215,45.778684101508624,1727],[7.819872173456639,45.778558104823134,1730],[7.819664178788712,45.77856210603625,1733],[7.819416185213405,45.77860810817077,1736],[7.819397184462583,45.77855110903918,1739],[7.819368184833998,45.77853910965332,1742],[7.819357181892359,45.77836811419227,1745],[7.819391180657969,45.77836411383137,1748],[7.819422180095331,45.77837911302878,1750],[7.819483176329099,45.778268115197896,1753],[7.819540174601472,45.77823811522719,1756],[7.819588176470546,45.77834111291303,1759],[7.819630175028759,45.77835611139722,1762],[7.819724172842166,45.77833711145484,1765],[7.81974117131773,45.77830711214375,1768],[7.819708172271821,45.77827611296444,1771],[7.8197691683223,45.77816911477999,1774],[7.819755168105112,45.778120116567216,1776],[7.8197731670263515,45.778078117377405,1779],[7.81975716582418,45.77804311850258,1782],[7.819765164037197,45.77791412108878,1785],[7.8198131612720925,45.77786012187734,1788],[7.819860161101022,45.77786412208416,1791],[7.819856160457273,45.77788712102502,1794],[7.819886161090409,45.77789812077756,1797],[7.81993815871056,45.77789112001882,1800],[7.819889159798066,45.77784512196481,1802],[7.819887157734365,45.777784123190436,1805],[7.819916155753707,45.77768912500095,1808],[7.819940155355925,45.777666125628315,1811],[7.8199341536704035,45.77761612729916,1814],[7.819967151528697,45.7775591280378,1817],[7.8199601524269,45.777540128680904,1820],[7.820013149653904,45.77746712976146,1823],[7.820155146757541,45.77752112751322,1826],[7.820133145718846,45.77745212960014,1828],[7.8202101431734325,45.77739912995964,1831],[7.820203142205204,45.77730313258632,1834],[7.82023713925863,45.77723813315604,1837],[7.820269138645268,45.777231133634594,1840],[7.820394137630171,45.77731512958962,1843],[7.8204561362793115,45.777296129845624,1846],[7.820530132759092,45.77720413152289,1849],[7.8205221314281985,45.777147132721105,1852],[7.8205541312326545,45.77713913317323,1854],[7.820625127286457,45.77704813436218,1857],[7.820656126720849,45.77705213376889,1860],[7.8205861259491956,45.77696013656918,1863],[7.820657122232976,45.776804140030855,1866],[7.820696120716853,45.77678514032836,1869],[7.820768121012863,45.776891136714205,1872],[7.820822120345253,45.77690713618362,1875],[7.82083712011292,45.77690313549606,1878],[7.820845117781978,45.776834137730795,1880],[7.820868117889729,45.77683813731811,1883],[7.820931115401808,45.77681113721721,1886],[7.821004115814748,45.77685713502299,1889],[7.820987116100161,45.77688413466339,1892],[7.821035115489735,45.77690713386948,1895],[7.821070115978562,45.77695613264119,1898],[7.821106113706618,45.77690313320471,1901],[7.82114611321239,45.776891133434354,1904],[7.821179112044303,45.77689913243335,1906],[7.821490008088072,45.77685822160565,1909],[7.821880226166203,45.77658124851613,1912],[7.821815656932266,45.776170725142684,1915],[7.8221353698248945,45.77605447963838,1918],[7.8224460085328875,45.775736220700225,1921],[7.822516008629837,45.7765062213337,1924],[7.822446008565728,45.77683622165378,1927],[7.822656007957154,45.77711622117475,1930],[7.823100007885877,45.777238221431595,1932],[7.8227460076551925,45.777916221805334,1935],[7.823006007884097,45.778466223012785,1938],[7.82299600850509,45.77913622365196,1941],[7.823256007705235,45.779596223227884,1944]]}}]}