{"type":"FeatureCollection","features":[{"type":"Feature","properties":{"slug":"33-s21","sct_code":"33_S21","source":"Catasto Sentieri VdA"},"geometry":{"type":"LineString","coordinates":[[7.813383392641043,45.80432864088228,1634],[7.813180389136069,45.804562149589565,1637],[7.813307007839124,45.8051952454991,1641],[7.8129370075271325,45.80565524520249,1644],[7.812437008565309,45.80588524589424,1647],[7.811737008589666,45.806465246149635,1651],[7.8114870074731995,45.806705246358966,1654],[7.811487007687346,45.80684524689238,1657],[7.811767008139224,45.8071552472482,1661],[7.811977008475402,45.8077652470664,1664],[7.812367008089871,45.808105247736904,1667],[7.812267008081414,45.80849524810353,1671],[7.813397007964737,45.80867524858131,1674],[7.8137570081640275,45.80895524843517,1677],[7.814677008532598,45.80932524848712,1681],[7.815047008645806,45.80968524911891,1684],[7.814917008726861,45.80998524966227,1687],[7.815167007768964,45.810015248908606,1691],[7.815147008528431,45.81009524953303,1694],[7.815327008076222,45.81059525005557,1697],[7.815697007501143,45.811015250602274,1701],[7.815507007508779,45.81140525034472,1704],[7.815657008753331,45.81145525013942,1707],[7.81560700771408,45.811795250436404,1711],[7.816107007804583,45.81197525135798,1714],[7.815967008738124,45.812155251369255,1717],[7.816097007542215,45.8124052509748,1721],[7.816757008152412,45.812665251885456,1724],[7.817067008462482,45.813005251849624,1727],[7.817047007938544,45.813205252429846,1731],[7.817317008581445,45.81354525241875,1734],[7.817497008280127,45.81413525323508,1738],[7.817737008576565,45.814325253275975,1741],[7.818007008288348,45.814255252676254,1744],[7.81804700846237,45.81445525311421,1748],[7.818577007548368,45.81484525381925,1751],[7.81851700833274,45.815025253385954,1754],[7.818947008128984,45.81547525434954,1758],[7.819130007962151,45.81550825409958,1761],[7.819047008100427,45.8156652541727,1764],[7.8191470082960794,45.81565525423354,1768],[7.819167008019075,45.816045254732195,1771],[7.819427008723468,45.81599525433447,1774],[7.8204270076388065,45.816285254718494,1778],[7.82060700850725,45.81657525539857,1781],[7.820567008354812,45.81710525568141,1784],[7.820687007629878,45.817395255973054,1788],[7.8214689076688435,45.817784129456655,1791],[7.821531906860165,45.817792128142806,1794],[7.821633905527166,45.817849125788435,1798],[7.821701905901354,45.81794412248682,1801],[7.8216749080323815,45.81802412126557,1804],[7.8217059071548665,45.81805111995517,1808],[7.821676908834104,45.818108119191564,1811],[7.821714909211051,45.81815811769524,1814],[7.821771908396495,45.81816511652566,1818],[7.821835908494081,45.81827611328811,1821],[7.821978907504222,45.81835611001879,1824],[7.822012907220059,45.818360109352426,1828],[7.822119907120762,45.81848210587431,1831],[7.822335903804488,45.81856210140317,1834],[7.822312904504565,45.818608101149294,1838],[7.8223479061304895,45.81868009879124,1841],[7.822432905135075,45.81878309520315,1844],[7.82250990392205,45.818802093919764,1848],[7.822513905210483,45.81888309190525,1851],[7.822580905005618,45.81889409147247,1854],[7.8226729045422605,45.819008087226834,1858],[7.822689908106127,45.8191990824991,1861],[7.822767908028079,45.81929507982341,1864],[7.8228929057593986,45.81933607750536,1868],[7.822940904901904,45.81932907741272,1871],[7.8229599026525145,45.81926007901564,1874],[7.823061898574446,45.81916908006977,1878],[7.823194895776059,45.81914607882738,1881],[7.823220896709493,45.81923007731081,1884],[7.8233398951320705,45.81929507436081,1888],[7.8233728964085385,45.81940907121352,1891],[7.823408896631488,45.819417070707594,1894],[7.823415895999474,45.81944307022457,1898],[7.823430895281999,45.81939007107299,1901],[7.823447894496961,45.81940107091109,1904],[7.823550891374768,45.81932107131956,1908],[7.823685888168102,45.81933606995672,1911],[7.823673889627332,45.81936706887613,1914],[7.8237738885822905,45.819439066559355,1918],[7.823775890186321,45.819542064264894,1921],[7.823819890345107,45.81956206341244,1925],[7.823866890045554,45.81961506096173,1928],[7.823949889279009,45.81965305910322,1931],[7.823922891156293,45.81977505691899,1935],[7.823935891223229,45.819783056186495,1938],[7.824023889310068,45.8197560562935,1941],[7.8240408880387475,45.81971805699946,1945],[7.8242528820736785,45.81962605697877,1948],[7.824320879174245,45.819558058537616,1951],[7.824362877159779,45.81955405802505,1955],[7.824458876397899,45.81961505596882,1958],[7.824577548974446,45.819557346015046,1961],[7.8247257095159295,45.81998357538909,1965],[7.824760511781898,45.819981301685274,1968],[7.82499753952501,45.81987335439535,1971],[7.825285669591633,45.81979510594288,1975],[7.825315134536923,45.81973329269562,1978],[7.825304679104867,45.819499146178,1981],[7.825321838058597,45.81944277223713,1985],[7.825400674827206,45.81937391166167,1988],[7.8254779474446705,45.81956765562008,1991],[7.825528072202231,45.819764357880516,1995],[7.825547393016668,45.82020833433899,1998],[7.825588637610477,45.820309971330225,2001],[7.825647371249639,45.820357540016936,2005],[7.825689265487513,45.82037717117888,2008],[7.825851085553662,45.82041206381171,2011],[7.825969455984743,45.8204485951143,2015],[7.826057872262373,45.82048823865321,2018]]}}]}