{"type":"FeatureCollection","features":[{"type":"Feature","properties":{"slug":"35-s13","sct_code":"35_S13","source":"Catasto Sentieri VdA"},"geometry":{"type":"LineString","coordinates":[[7.143768175900565,45.684439590211525,1171],[7.143889008688202,45.68400514887843,1176],[7.14386900779702,45.683785149150275,1180],[7.144089008212097,45.683365148776026,1185],[7.14495900762039,45.68324514827443,1189],[7.145869008336834,45.6834251490183,1194],[7.1457290082753016,45.683315148914765,1199],[7.145899008006007,45.68327514857048,1203],[7.146529007560033,45.68331514882132,1208],[7.14739900791627,45.68355514904846,1212],[7.147599008151299,45.68351514858624,1217],[7.148570008378796,45.683648149025764,1222],[7.148799007682431,45.68391514851487,1226],[7.149009007628201,45.68397514931174,1231],[7.149279007556783,45.6839351490127,1236],[7.149509007933696,45.68372514891657,1240],[7.150199008726012,45.68385514913071,1245],[7.150808736661811,45.683660073648404,1249],[7.151013585512076,45.68366564855789,1254],[7.1513204125214305,45.683718444226834,1259],[7.151587861063101,45.68378577776171,1263],[7.151741874433908,45.68378827032642,1268],[7.152243899295779,45.683751390385794,1272],[7.152345686138649,45.683780039135364,1277],[7.15263554710762,45.68394674007751,1282],[7.153421856781208,45.683477920083206,1286],[7.15365373091647,45.68329715717737,1291],[7.153851720718463,45.68313384558819,1295],[7.153914617430339,45.6829053453977,1300],[7.154060103146971,45.68281318913287,1305],[7.154208564617842,45.682752583095315,1309],[7.154601990614041,45.68270192709374,1314],[7.15485900863294,45.682585147787215,1318],[7.155409007828874,45.68211514751976,1323],[7.15579900863053,45.68200514739791,1328],[7.155839008330901,45.681865147128335,1332],[7.156029007643485,45.681835147451544,1337],[7.156419008576949,45.681395146655184,1341],[7.156749008472157,45.68158514701923,1346],[7.157639007732459,45.68153514760161,1351],[7.1579835350622,45.6819792208586,1355],[7.158106307939021,45.68211089422394,1360],[7.158272888225305,45.682174886871024,1365],[7.1583374848817485,45.68211024261136,1369],[7.15832120318801,45.68165455727932,1374],[7.158411349978262,45.68157280879399,1378],[7.158573265245086,45.68158855603201,1383],[7.1587382660054235,45.681700693191104,1388],[7.158942167336524,45.681769666277546,1392],[7.15910537561174,45.68174602329738,1397],[7.159201121139616,45.6814935804375,1401],[7.1593580132668615,45.68128153419542,1406],[7.159525240786919,45.681135341139424,1411],[7.160239501093344,45.681072404889676,1415],[7.160996607634776,45.681036428843704,1420],[7.161141080659752,45.68101248126866,1424],[7.161269977735949,45.680891942325786,1429],[7.161808891736483,45.68065101021318,1434],[7.161942883252631,45.680565585790006,1438],[7.161989960218773,45.68046343523566,1443],[7.161976819094465,45.68029243972172,1447],[7.16165872927144,45.680085883314,1452],[7.161575902447061,45.67994441958906,1457],[7.161573673769432,45.67982176943955,1461],[7.1614888400089605,45.67974158047739,1466],[7.161259250226143,45.679694093353646,1470],[7.161223363998036,45.67964534581048,1475],[7.161320033631313,45.67955494237872,1480],[7.161372637329824,45.67947477606207,1484],[7.1613330889162725,45.67934714625422,1489],[7.161110462751588,45.67927787591459,1494],[7.160944173195077,45.679205133508496,1498],[7.1609911790514005,45.679105171160955,1503],[7.161113396928604,45.67899766218417,1507],[7.160842685677193,45.67887068964937,1512],[7.160737039344236,45.67866317183016,1517],[7.160725623653853,45.67843965530715,1521],[7.160755690802302,45.67828468268459,1526],[7.160841736748378,45.67813717932106,1530],[7.1609443608243835,45.67805562972691,1535],[7.1609906485135495,45.677977551724766,1540],[7.16095124534032,45.67784554526634,1544],[7.160831105703597,45.677699101274726,1549],[7.1611190094293224,45.67764514561543,1553],[7.161579007936381,45.677755144506136,1558],[7.162129009062791,45.67829514597382,1563],[7.162069009508014,45.67852514476085,1567],[7.16247900862493,45.67860514618594,1572],[7.162909009730462,45.67863514514988,1576],[7.163229008592401,45.67876514574676,1581],[7.1635490090131135,45.67882514547802,1586],[7.16478900875335,45.678355144633784,1590],[7.16503900959115,45.67838514479329,1595],[7.165689008045008,45.67825514543229,1599],[7.165829009996976,45.67800514483426,1604],[7.16578900816125,45.677935145045474,1609],[7.165939008656526,45.67783514441151,1613],[7.165909008583455,45.6777351440413,1618],[7.165024376291894,45.677162096834635,1623],[7.165147032232036,45.67695638424473,1627],[7.165114471805501,45.67690168429054,1632],[7.164961355376475,45.6768570848309,1636],[7.164771645824597,45.67688112669726,1641],[7.16473085950529,45.67694668740917,1646],[7.164738326068869,45.67710628486156,1650],[7.1645963118092135,45.67712211020366,1655],[7.164399431186881,45.67701378936513,1659],[7.164240433689598,45.67689769390007,1664],[7.164201331767637,45.676840695972814,1669],[7.164094133581204,45.67676759926811,1673],[7.164057631620609,45.67671740078862,1678],[7.16396322932131,45.67637900967936,1682],[7.164008728378481,45.67640410774871,1687],[7.1640573251098445,45.676347309890055,1692],[7.163968827523284,45.67633701074151,1696],[7.1638500289355855,45.67629381295041,1701],[7.163630330117053,45.6760386217829,1705],[7.16358912798503,45.67593762338757,1710],[7.163544128895688,45.67588062580775,1715],[7.16341492943715,45.67579982831885,1719],[7.16271874240924,45.67566853827615,1724],[7.1624494485204995,45.67568594055639,1728],[7.162169054629807,45.67563304474375,1733],[7.1620300568106146,45.675587746867784,1738],[7.161931953424225,45.675433752426635,1742],[7.161770156941422,45.67536655589403,1747],[7.161904552050449,45.67526445700327,1752],[7.1618429507543935,45.675182859121264,1756],[7.1616890564058515,45.67522745920186,1761],[7.161501460548862,45.67521046138925,1765],[7.16145265894398,45.67517626347219,1770],[7.161305162826924,45.67512666598808,1775],[7.160786672167148,45.675101071954685,1779],[7.160365781647457,45.674977377894095,1784],[7.160131584196977,45.67492478195501,1788],[7.159786589045427,45.674746189205095,1793],[7.159297396419969,45.67464989575186,1798],[7.159161800639733,45.67465399809839,1802],[7.158766608082052,45.674620402252714,1807],[7.158616712952613,45.674635904087516,1811],[7.158587310954223,45.67460100424882,1816],[7.158430016147789,45.674597306900495,1821],[7.158208422067384,45.67467070725662,1825],[7.157893429354918,45.67474200848941,1830],[7.157772634066501,45.67473500886251,1834],[7.157706133985671,45.67470311064244,1839],[7.157667732013149,45.67460391398178,1844],[7.15762013337374,45.674578214261516,1848],[7.157590932603855,45.674490816479356,1853],[7.157515433411038,45.67446491863034,1857],[7.157503933255794,45.6744748174536,1862],[7.157276335668203,45.67435172443433,1867],[7.1571437399006825,45.67435042378007,1871],[7.156990143276399,45.67431842659621,1876],[7.1566873457489155,45.67421513180447,1881],[7.156560747349531,45.67415273528411,1885],[7.156103151552595,45.673838147922545,1890],[7.155884252239466,45.67365915434143,1894],[7.155702155728827,45.673591756397414,1899],[7.155612856527267,45.67354085916939,1904],[7.155322658192444,45.67333036634518,1908],[7.155202962838865,45.673342268779656,1913],[7.155169663869782,45.67336226863126,1917],[7.1550941647699915,45.67336386804109,1922],[7.154934367925792,45.67330657143035,1927],[7.1547065702082175,45.673144578100604,1931],[7.154533869958897,45.6730471814393,1936],[7.154434071031231,45.67292348535613,1940],[7.15440536905619,45.67285568746594,1945],[7.154430267028834,45.67274289010668,1950],[7.154365865559422,45.67259419505158,1954],[7.154358363495412,45.67243259806177,1959],[7.154335460775543,45.672383199446124,1963],[7.154255064006613,45.672376200908346,1968],[7.154118964884387,45.67232830301296,1973],[7.154055165961436,45.672300303998576,1977],[7.154036166219769,45.672234205544335,1982],[7.153877167571502,45.67218680848646,1986],[7.1539227652052055,45.67207251149287,1991],[7.153898763382512,45.671994714081784,1996],[7.153798365467277,45.67192531603003,2000],[7.153749863964319,45.671806419664016,2005],[7.153709764641966,45.6717814209761,2010],[7.153948857073873,45.671652120937885,2014],[7.154026450372387,45.67147902480178,2019],[7.153978151357127,45.671358027438636,2023],[7.153839851317365,45.671303431322485,2028],[7.15371655327921,45.67128033332438,2033],[7.15359935617029,45.67129993404331,2037],[7.1535910553096596,45.67126713457548,2042],[7.153406856862877,45.67110394072566,2046],[7.153328858109432,45.67109724132587,2051],[7.1533675582678145,45.67109153961134,2056],[7.153406455572516,45.67104074046648,2060],[7.153348555549583,45.67102814298507,2065],[7.153104158733348,45.670876448386714,2069],[7.1528585601321275,45.67061625762618,2074],[7.152769859186931,45.67049676103501,2079],[7.152640556832294,45.67024336874603,2083],[7.152675854801059,45.67018647036439,2088],[7.1526888526261,45.67008877120225,2092],[7.152760651618655,45.67007807145373,2097],[7.152819008739477,45.66998513824384,2102],[7.152619008465357,45.669755138264186,2106],[7.15262900950773,45.66951513845266,2111],[7.1522690079185605,45.66931513924083,2115],[7.151949008104905,45.669045138036715,2120],[7.1512790087140035,45.66887513879131,2125],[7.150619008354437,45.66887513861345,2129],[7.150459008757588,45.66879513807838,2134],[7.150159009010758,45.6684651385415,2139],[7.150189008564001,45.668165138428364,2143],[7.150109007587519,45.66806513750289,2148],[7.149419008198776,45.6676451369486,2152],[7.148719008708144,45.6670151371012,2157],[7.147969008920857,45.66664513675112,2162],[7.147849009564038,45.66610513683675,2166],[7.147749010012924,45.66602513703741,2171],[7.147799009526486,45.665775136595364,2175],[7.146969007942196,45.665245135532935,2180],[7.146549009898812,45.6650951353234,2185],[7.145389008744562,45.664475134907455,2189],[7.144869008059149,45.664085135588486,2194],[7.144429008263437,45.66399513425985,2198],[7.144008051178264,45.663985345237485,2203]]}}]}