{"type":"FeatureCollection","features":[{"type":"Feature","properties":{"slug":"35-s12","sct_code":"35_S12","source":"Catasto Sentieri VdA"},"geometry":{"type":"LineString","coordinates":[[7.1643786838519405,45.66717617968898,882],[7.164570058200513,45.66703291065631,884],[7.164549008713451,45.66690513617746,885],[7.164577560846868,45.666876419330194,887],[7.164673072623791,45.66690453239872,888],[7.165034283323153,45.66724336191409,890],[7.165322335182633,45.66746400613551,891],[7.1653713065860085,45.66753679829958,893],[7.16544153022234,45.66774494207552,894],[7.165478259055588,45.66779953616416,896],[7.165883851334264,45.66795906219328,897],[7.16594683041709,45.66799607633294,899],[7.166020877229378,45.66808727226362,901],[7.166066911286263,45.66825002377284,902],[7.166153201907954,45.668359417589414,904],[7.1665800553118615,45.66865429274476,905],[7.1666684040549775,45.66870071443476,907],[7.167100549731894,45.668833660321596,908],[7.167340523579969,45.66895452027654,910],[7.167480491821984,45.66899276897805,911],[7.167530935587185,45.669020580416216,913],[7.167580204824348,45.66908437570978,914],[7.1677428997888,45.669212995538736,916],[7.168045565102721,45.669379863171656,918],[7.168778627776745,45.66973364554264,919],[7.169530613310626,45.66992571514605,921],[7.169762282335347,45.669995603737725,922],[7.170382179525656,45.670175797695435,924],[7.170504022621054,45.67022263867672,925],[7.170750842267701,45.67045979444828,927],[7.171112309360033,45.67072506226297,928],[7.17147638591374,45.67096045874677,930],[7.171893574410717,45.671097648180925,932],[7.172505029866216,45.671213212785666,933],[7.1731433557311215,45.67138693517634,935],[7.173618476529248,45.67155654553331,936],[7.174102676295535,45.67169148534196,938],[7.174525345369147,45.6719273029548,939],[7.175135406679821,45.67231507998968,941],[7.175312607116849,45.672380917794285,942],[7.175716114647897,45.672495372041396,944],[7.1758782431445685,45.67250477159852,945],[7.1760671388793105,45.672625716243786,947],[7.176534950743154,45.67290261713427,949],[7.176857724186817,45.67297302327363,950],[7.177568008503525,45.67304514124068,952],[7.177614449364144,45.673100257172315,953],[7.177964036652113,45.673420270788604,955],[7.178213816871581,45.6737119844787,956],[7.178518008527141,45.673885141800554,958],[7.179698007802393,45.67430514150324,959],[7.18029800813749,45.67472514181345,961],[7.180558007930116,45.67504514202843,962],[7.181058007628418,45.67529514258523,964],[7.181211338580747,45.675382079225514,966],[7.1817227433504005,45.67627619247033,967],[7.181854505264847,45.67663215054053,969],[7.181643070390895,45.67671067245275,970],[7.1818880075550835,45.67704514399669,972],[7.181968007912308,45.677185143914734,973],[7.182018008689272,45.67745514441078,975],[7.182008008142021,45.678155144382444,976],[7.181838008730491,45.678755145238426,978],[7.181868008510154,45.679065145798205,979],[7.182448008561573,45.68062414612949,981],[7.182712611266265,45.681157434645506,983],[7.182778690070854,45.68152854287855,984],[7.18288800825524,45.681744146951814,986],[7.183168008582892,45.682724148028086,987],[7.183588007649444,45.68347414895164,989],[7.183986906101074,45.68377138745788,990],[7.184275025597434,45.68384603856818,992],[7.184522726399474,45.68384231227321,993],[7.1847025016573385,45.68391031303202,995],[7.1857180077288305,45.68450414956035,996],[7.1859963542603635,45.684788680381224,998],[7.186328008169519,45.685184149481934,1000],[7.186369171753818,45.685311914925464,1001],[7.186547170079289,45.68545926041998,1003],[7.186667892886048,45.68554219574126,1004],[7.186660168590487,45.685612006389825,1006],[7.186722443731885,45.68568295273288,1007],[7.1872052612234265,45.68611927442157,1009],[7.187424926078762,45.68630524643404,1010],[7.187476303254301,45.68638710820335,1012],[7.187923376058666,45.68690932608898,1014],[7.187864043854523,45.68744047807592,1015],[7.187795958965051,45.687858307911036,1017],[7.187752210259522,45.687920616484625,1018],[7.187531289170594,45.688088124014506,1020],[7.18747050261894,45.68818638971223,1021],[7.187413315368875,45.688312484009145,1023],[7.187365122639115,45.688436511369524,1024],[7.187388657030188,45.688640545312914,1026],[7.187422012280836,45.68877493956519,1027],[7.187429445689477,45.68905407679749,1029],[7.187405805785613,45.68917345796349,1031],[7.1873984398654915,45.68930472264557,1032],[7.18761800861342,45.68968415351468,1034],[7.187728008395665,45.68977415310963,1035],[7.187948007728612,45.68972415299091,1037],[7.188018008394821,45.68977415333099,1038],[7.188018294415237,45.689823148401175,1040],[7.187815848386033,45.69032034178244,1041],[7.187792045169331,45.69044303535171,1043],[7.187772892906684,45.69055887041424,1044],[7.1877697986422096,45.69061183513167,1046]]}}]}