{"type":"FeatureCollection","features":[{"type":"Feature","properties":{"slug":"37-s1","sct_code":"37_S1","source":"Catasto Sentieri VdA"},"geometry":{"type":"LineString","coordinates":[[7.6973870086356495,45.6401311172919,861],[7.697437008697184,45.640204117711015,861],[7.697586007952196,45.640351118233575,861],[7.697586007617897,45.640422118240494,861],[7.6975260079896115,45.640461118050986,861],[7.697517060516683,45.640702696692756,861],[7.697566007672436,45.64075111770572,861],[7.697626007625684,45.640661118267495,861],[7.697656007680049,45.640741118080676,861],[7.697626008776738,45.64088111812225,861],[7.6974560081281975,45.6409611181568,861],[7.697266008146229,45.64113111798094,862],[7.697196007570977,45.64128111864652,862],[7.697346007757345,45.64139111830901,862],[7.697376008106362,45.64145111869701,862],[7.697346008094636,45.641481118729274,862],[7.697436007889576,45.64160111867498,862],[7.697516008496848,45.641671118305936,862],[7.697576008701824,45.64169111881517,862],[7.697646007603801,45.64174111912607,862],[7.697656007824477,45.64180111911265,862],[7.697616008599352,45.64184111925867,862],[7.697616008604756,45.64189111888632,862],[7.69750600753458,45.64193111915946,862],[7.697526008634646,45.64199111888784,862],[7.697476007953119,45.64221111915769,862],[7.697096007958911,45.6423211189587,862],[7.6969460079488226,45.64233111952666,862],[7.69683600811349,45.64237111916613,862],[7.696546008742462,45.642551119650186,862],[7.696466007906318,45.64268011966149,862],[7.696476008292444,45.642740119744445,862],[7.696426008001028,45.64279011938674,863],[7.696256008727682,45.64282011980863,863],[7.696196008052523,45.642810119248644,863],[7.696116007844151,45.64286011923983,863],[7.696006008708892,45.64289011924111,863],[7.6958360080688,45.64301011941645,863],[7.695646007522524,45.643090119694115,863],[7.695576008059661,45.643170119329234,863],[7.695546008536333,45.64328011953377,863],[7.695506007757969,45.64330011942772,863],[7.6953160076282,45.6433101200551,863],[7.695146007606742,45.643360120100915,863],[7.695076008316636,45.643430119685306,863],[7.695266007582693,45.64342012034745,863],[7.695306007834053,45.64346011989053,863],[7.695436008160887,45.64341012000248,863],[7.695446007683676,45.64348011990195,863],[7.695456007533991,45.64347012005973,863],[7.695466007877478,45.64350012009432,863],[7.695366008710547,45.64356012040581,863],[7.695306008057938,45.64362012027999,863],[7.695066008555123,45.643720120396175,864],[7.695006008740251,45.64379011986347,864],[7.694946008496533,45.64377011981108,864],[7.694886008379426,45.64380012024147,864],[7.694836008210604,45.64380012046881,864],[7.694676007810335,45.6437401198951,864],[7.694526008577734,45.6437801201206,864],[7.694406007555724,45.64388012036928,864],[7.694446007636867,45.643900119823954,864],[7.694476008787615,45.64395012031644,864],[7.694576008020125,45.643970120527015,864],[7.694606008112804,45.644000120588146,864],[7.6946960087429686,45.643990120605814,864],[7.694686008620396,45.64402012076202,864],[7.694526008482925,45.64408012048996,864],[7.6943960081391225,45.64416012036338,864],[7.6942860080027,45.644200120233414,864],[7.694066008145457,45.6442101205668,864],[7.693936008115495,45.64429012081886,864],[7.693916008690094,45.6443201208788,864],[7.693756007976572,45.644390120160686,864],[7.693496007767663,45.64441012072319,865],[7.6933960081678245,45.64444012097254,865],[7.693166007777137,45.64447012076632,865],[7.693026007562702,45.64445012065952,865],[7.692666008654968,45.644280120361984,865],[7.692466008396123,45.64426012047343,865],[7.692296007743022,45.64414112062331,865],[7.692236008039276,45.643981120061305,865],[7.692186008626818,45.64396112055211,865],[7.692146008270008,45.64399111991486,865],[7.692106008680516,45.644111120553234,865],[7.691956008183611,45.64417112047161,865],[7.691736007833082,45.64416112042623,865],[7.691686008259559,45.64419112030781,865],[7.691676008133083,45.644261120068414,865],[7.691546007789811,45.64424112017705,865],[7.6914160077826645,45.644281120393885,865],[7.691416008021669,45.64434112064851,865],[7.691206007907929,45.64442112021761,865],[7.690946008517535,45.644451121025675,865],[7.690846008662969,45.64450112032292,866],[7.6906660076442535,45.644511120708756,866],[7.690606008624484,45.644571120825496,866],[7.690616007641313,45.64462112074832,866],[7.690566008418875,45.644701120648904,866],[7.690186008609373,45.644781120702504,866],[7.690086007817284,45.64478112061502,866],[7.689906008703152,45.64483112058977,866],[7.6898660087036435,45.64482112108964,866],[7.689806008206247,45.644841120901795,866],[7.6897460075292505,45.6448911208038,866],[7.689596007528411,45.64495112122225,866],[7.68884600818816,45.64509112090746,866],[7.6887860085281465,45.64512112083354,866],[7.6886760085162855,45.64514112121578,866],[7.688586008453759,45.64513112147781,866],[7.688496007782145,45.645161121525206,866],[7.688476007557423,45.64518112087956,866],[7.688366008059798,45.64516112110585,866],[7.688246007661921,45.64519112118693,866],[7.688057007746922,45.64527112120769,866],[7.68792700826736,45.64536112155691,867],[7.687837008073142,45.64537112160862,867],[7.687767008541006,45.645401121330174,867],[7.68753700762885,45.64541112109792,867],[7.687307007579819,45.645481121554944,867],[7.687177008317486,45.645491121328035,867],[7.687167008287939,45.645451121738766,867],[7.686817008247911,45.64546112146996,867],[7.686657008785817,45.645421121767185,867],[7.68643700793072,45.64543112089207,867],[7.686157008095792,45.6453711216392,867],[7.685967007571746,45.6453611216259,867],[7.6857070076510965,45.64546112128228,867],[7.685597008444083,45.64548112140751,867],[7.685527007734347,45.645541121663896,867],[7.685267008182311,45.645501121254895,867],[7.6851070086699975,45.64557112102505,867],[7.684747007666446,45.64562112155395,867],[7.684597008517639,45.64560112108905,867],[7.684557008028967,45.645631121386266,867],[7.684487008254678,45.64565112115378,867],[7.684377007770845,45.6455991210582,868],[7.6842370081442795,45.64565112181745,868],[7.684127008224677,45.64575112114031,868],[7.684027008258205,45.64579112191789,868],[7.683837007972833,45.645781121964525,868],[7.683747007668306,45.64579112149136,868],[7.683567007572541,45.64573112151651,868],[7.683387007941958,45.645721121764325,868],[7.683407008162985,45.645591121657276,868],[7.683377007787615,45.64553112123437,868],[7.68330700870154,45.64547112146167,868],[7.6832870082985085,45.645601121551806,868],[7.683067008657948,45.64542112092555,868],[7.683047007923224,45.64550112136787,868],[7.682987007928834,45.64560112182704,868],[7.682997008499627,45.6456611212699,868],[7.6829670079347485,45.64570112174235,868],[7.682927008111747,45.64568112187433,868],[7.68284700816862,45.645691121694824,868],[7.6828309965209085,45.64579811699073,868],[7.683177008519866,45.645971121946495,868],[7.683137008710927,45.64630112204128,869],[7.6828670083093105,45.64647112230782,869],[7.683027008157914,45.646541122035266,869],[7.682947008467708,45.64664112227796,869],[7.683537008084283,45.646801122304325,869],[7.684167007635597,45.64724112270677,869],[7.6835770077923975,45.64742112243109,869],[7.683647008431187,45.64759012277171,869],[7.683567007920478,45.64766012331089,869],[7.683797008380668,45.64782012256083,869],[7.682907007699318,45.647980122752244,869],[7.682517007598214,45.648210122898845,869],[7.683567008158847,45.64836012376783,869],[7.68398700796012,45.64863012395295,869],[7.68412700854275,45.64894012384737,869],[7.684497008322264,45.64920012421323,869],[7.684227007709163,45.649440123954484,869],[7.684237008205213,45.64974012405875,869],[7.683937007989802,45.64981012407678,869],[7.6835070087402455,45.649680124497465,869],[7.683477008009509,45.649800124744736,869],[7.6830670081279235,45.64978012427027,870],[7.682987008106676,45.649920124319024,870],[7.682867007895473,45.64990012456539,870],[7.682797008282126,45.65007012468624,870],[7.682677007978875,45.65022012469397,870],[7.681997008135757,45.65034012476637,870],[7.681687008781868,45.65049012465935,870],[7.681597008534677,45.650650124774224,870],[7.681327008478295,45.65059012475226,870],[7.681239881171024,45.65067573850189,870],[7.681060266869194,45.65072334376426,870]]}}]}