{"type":"FeatureCollection","features":[{"type":"Feature","properties":{"slug":"37-s6","sct_code":"37_S6","source":"Catasto Sentieri VdA"},"geometry":{"type":"LineString","coordinates":[[7.636668008699659,45.638055116360725,1441],[7.636428007687195,45.638161116501344,1446],[7.636138008181113,45.63837111604835,1451],[7.63534800791422,45.63843111687425,1456],[7.634718008500663,45.63864111664726,1461],[7.633048007966594,45.638641116234915,1466],[7.632838008210284,45.638471116359995,1471],[7.629368008590575,45.63845111662215,1476],[7.6290214349957575,45.638631305596135,1481],[7.628852438479337,45.6390801364182,1486],[7.628731145297145,45.63919301504225,1491],[7.628106014449256,45.63930763946282,1496],[7.628079710036307,45.639322914496795,1501],[7.628101486898914,45.63934136553531,1506],[7.628200334402417,45.63938932658407,1511],[7.628491209553597,45.639613694546846,1516],[7.628752079263314,45.63985329251566,1521],[7.628914293129167,45.640037137251745,1526],[7.629046056589659,45.640254396715164,1531],[7.629261097887841,45.64055061122672,1536],[7.629459461860745,45.64077126793084,1541],[7.629571859521393,45.64087136028142,1546],[7.629751172528134,45.640961861308746,1551],[7.630450450240349,45.64114954696951,1556],[7.631109344102997,45.641474465517504,1561],[7.631542237309337,45.64164855675882,1566],[7.632189238124513,45.641853794875395,1572],[7.632305790073474,45.64193574479547,1577],[7.632408981359542,45.641957768337676,1582],[7.632486816398709,45.6419561017539,1587],[7.632688826168962,45.64187536740481,1592],[7.632819142149405,45.6418483438693,1597],[7.632944997595018,45.641852448741034,1602],[7.633051576481349,45.64188750472312,1607],[7.6331772169605,45.642052716163484,1612],[7.633340146554753,45.642207978754136,1617],[7.633350056593401,45.64225746873314,1622],[7.63334917215567,45.64229383798062,1627],[7.633231268344966,45.64241975525259,1632],[7.633161951278634,45.64252806346679,1637],[7.633095389608439,45.64267538293401,1642],[7.633399117405034,45.64282973180559,1647],[7.633797898414263,45.642883874649094,1652],[7.6340686985605934,45.64286892392427,1657],[7.634316203205097,45.64289786843611,1662],[7.634547594719611,45.64288061914146,1667],[7.634523415044464,45.64303743775219,1672],[7.634351513742132,45.643196059924804,1677],[7.634088668231954,45.643325030675165,1682],[7.6338870004033454,45.64345116016971,1687],[7.633856947344397,45.64364004348201,1692],[7.633997640437412,45.64392737512208,1697],[7.633985205142901,45.64399588263598,1702],[7.633960335696289,45.644132899471266,1707],[7.6338168799411426,45.64440134788475,1712],[7.6338081796919655,45.64449725219084,1717],[7.633840864219552,45.64459365239217,1722],[7.634032180380732,45.64471427683427,1727],[7.634479518006428,45.64491387635951,1732],[7.634811401831903,45.6450160850005,1737],[7.635051107991845,45.64515147203778,1742],[7.635357834057437,45.64537171386328,1747],[7.6354458902872375,45.64541742179746,1752],[7.635588120173009,45.6454615437337,1757],[7.635734182126825,45.64547891806739,1762],[7.635920927901841,45.64552580254738,1767],[7.636049935711149,45.645589860898916,1772],[7.636309436075384,45.64575513255313,1777],[7.636618446295549,45.64595482180585,1782],[7.636705464723994,45.64604105719137,1787],[7.636821981062038,45.646246919626186,1792],[7.636823621797763,45.646346335396665,1797],[7.636886135147191,45.6464407991124,1802],[7.6370017070039,45.64651885408403,1807],[7.637239558532258,45.646578643842574,1812],[7.637773904828696,45.646590082493226,1817],[7.637872938538885,45.64657775624334,1822],[7.638071008422368,45.64655310261521,1827],[7.638445241197628,45.64646385464385,1833],[7.63852438177285,45.6464774610388,1838],[7.638617414443567,45.64651402715043,1843],[7.638734317226777,45.64660913089438,1848],[7.638839833007611,45.64672689211254,1853],[7.639113364629602,45.646917570537795,1858],[7.63924367101041,45.647055888143484,1863],[7.639424536410769,45.6471948087543,1868],[7.639539661562657,45.64736333863266,1873],[7.639849378654864,45.64756715790349,1878],[7.640077631538299,45.647672413111884,1883],[7.6404246005849235,45.647782285236595,1888],[7.640903837568476,45.647997869717294,1893],[7.641158928705817,45.64803294887698,1898],[7.64161436284577,45.648196877689855,1903],[7.641762400799124,45.648227216157245,1908],[7.642069494933756,45.64825372827032,1913],[7.642286564158884,45.64829488645918,1918],[7.642614215300223,45.64838906094446,1923],[7.64269402494111,45.6484130015579,1928],[7.64281627670637,45.648424178540736,1933],[7.643077236625554,45.6485310098426,1938],[7.64453787292076,45.649222881183924,1943],[7.644834127215716,45.649238958657605,1948],[7.644990125433714,45.649232562958886,1953],[7.644959549685603,45.649683332403534,1958]]}}]}