{"type":"FeatureCollection","features":[{"type":"Feature","properties":{"slug":"39-s2","sct_code":"39_S2","source":"Catasto Sentieri VdA"},"geometry":{"type":"LineString","coordinates":[[7.621399007420594,45.81344999032601,1723],[7.621125871038133,45.81364092029336,1727],[7.621023483517749,45.8137328270903,1732],[7.620461007743973,45.814137252756595,1736],[7.620565526955376,45.81466920393432,1740],[7.6208414039720305,45.81457353016423,1745],[7.621158432844142,45.81450535368403,1749],[7.621507293648243,45.81458156715029,1753],[7.622147892603094,45.814571294384834,1758],[7.623670019725976,45.81443663551309,1762],[7.624261418619731,45.814333503831975,1766],[7.624465354080971,45.81428420713164,1771],[7.624605063094902,45.814229636620176,1775],[7.624908936219611,45.81404203577191,1780],[7.625165501953987,45.813946119103875,1784],[7.625343257794843,45.813914506610395,1788],[7.625542977741541,45.81390565915004,1793],[7.625625840398164,45.81393815753659,1797],[7.625641094390523,45.813972092625924,1801],[7.625614418903744,45.814010023490994,1806],[7.625273108701629,45.81414992351201,1810],[7.6248702388267215,45.814437588448165,1814],[7.624026878248604,45.81484145294234,1819],[7.623787612659908,45.815018579222766,1823],[7.623592716977806,45.815223240846784,1827],[7.62309820454722,45.81557279823927,1832],[7.62276309068717,45.81585227189159,1836],[7.622615888052678,45.81594950177294,1840],[7.622343501467681,45.816033971380676,1845],[7.622320483534503,45.816053944737895,1849],[7.622310000481367,45.8160875698827,1853],[7.622331520461456,45.816128331281014,1858],[7.62238593120723,45.816140237950265,1862],[7.622954555076272,45.816178594982105,1866],[7.623666612567968,45.8162726798196,1871],[7.6243711306500455,45.81641167151244,1875],[7.624554442460533,45.816416128823704,1880],[7.624541008455507,45.816877255519486,1884],[7.624131007692978,45.817187255512124,1888],[7.62428100808469,45.817287255594806,1893],[7.624601007768104,45.81733725561004,1897],[7.6248010078943835,45.817507255568266,1901],[7.624201008015478,45.81775725600374,1906],[7.6235960282866495,45.81819354956004,1910],[7.623040315540559,45.81868548294839,1914],[7.622771915460833,45.81890740370745,1919],[7.622639012405775,45.819025608616954,1923],[7.622614138187032,45.819075917136566,1927],[7.622621317543055,45.8191441701243,1932],[7.622690619827518,45.81920904090505,1936],[7.622783957550457,45.81925767574434,1940],[7.623305590251261,45.81942921511123,1945],[7.623498276151,45.81952242493468,1949],[7.6238331341985255,45.81960082239665,1953],[7.6239676690845455,45.81965615020953,1958],[7.624054541060665,45.81972742856514,1962],[7.624118092951387,45.819786031528956,1967],[7.624104548549916,45.81985610041614,1971],[7.624025419617857,45.8199501674198,1975],[7.623916043111451,45.820072789247085,1980],[7.623681704473184,45.82023108625132,1984],[7.623422414017636,45.82044278936207,1988],[7.623253151520916,45.820597739325244,1993],[7.623163530120642,45.82087758725027,1997],[7.622524048423682,45.821171462340445,2001],[7.622075724081218,45.82138088290804,2006],[7.621830885920271,45.82148534310275,2010],[7.621657696643875,45.82155968334409,2014],[7.6213563921875735,45.8218271633687,2019],[7.621575310132923,45.82181534587168,2023],[7.621775284138736,45.82185287456598,2027],[7.621930390885428,45.821907623999394,2032],[7.622306613230504,45.82211129212552,2036],[7.622568357763423,45.82227969943863,2040],[7.622879021083819,45.82237446858405,2045],[7.6231184336553035,45.822453857802714,2049],[7.62324546256409,45.822522891796005,2053],[7.623682908977576,45.82266316887164,2058],[7.623981289051193,45.82270051473481,2062],[7.624177435351408,45.82270737732416,2067],[7.62478639726001,45.82267870788399,2071],[7.625303385043853,45.82259492603894,2075],[7.625705322755299,45.822478256459725,2080],[7.626157850412109,45.822398195491274,2084],[7.626449677225779,45.82230945039076,2088],[7.62676369238545,45.8222344718727,2093],[7.626966659257607,45.82222566094546,2097],[7.627151041112096,45.82218737499537,2101],[7.627417348046421,45.822089320334676,2106],[7.6276526419434525,45.82194364036258,2110],[7.62778876307844,45.82190477362933,2114],[7.6282827764708845,45.82183870314982,2119],[7.628761199419696,45.821752192483316,2123],[7.628864373352258,45.8217444304264,2127],[7.6292724712418725,45.82176957865143,2132],[7.629456518862273,45.82174478558021,2136],[7.629734419411717,45.821698616948275,2140],[7.6302951467327835,45.82153658355329,2145],[7.630548263152072,45.821582369973356,2149],[7.630696368088623,45.82157964506122,2153],[7.631011035386542,45.821477661452434,2158],[7.631201350469682,45.821459690980326,2162],[7.631471601020491,45.82146292870779,2167],[7.631833037323268,45.8214222558409,2171],[7.631965606503816,45.82139684220248,2175],[7.63228082142506,45.82127236062998,2180],[7.632632383888013,45.821240567429804,2184],[7.632710424155631,45.82120774994376,2188],[7.632763717563392,45.82113413439748,2193],[7.632775847446813,45.8210330249664,2197],[7.632742330147838,45.82095612035378,2201],[7.632622333075136,45.82086242995189,2206],[7.632303804642016,45.82072811103612,2210],[7.63221576065218,45.82064380315042,2214],[7.632207320997659,45.8205941998507,2219],[7.632270211016735,45.82052294952808,2223],[7.632342091480064,45.820478808030835,2227],[7.6326254036629635,45.820342693045895,2232],[7.632744825765844,45.82032837165216,2236],[7.632828197771022,45.820340619942804,2240],[7.6329907886767465,45.82040331838775,2245],[7.633363128960781,45.82057428078273,2249],[7.633537709447385,45.82067312351121,2253],[7.633751447633802,45.82074993325401,2258],[7.634409879097415,45.821066069762786,2262],[7.634858149696519,45.82115918129617,2267],[7.63508036026859,45.821152836005794,2271],[7.6352514794998205,45.82113012923274,2275],[7.635316374266417,45.82110840343778,2280],[7.635394907488465,45.82105533908675,2284],[7.635497500165863,45.820939559189064,2288],[7.6356256104974465,45.8208330843643,2293],[7.63574901948159,45.820787306013216,2297],[7.636003510744832,45.82077684420881,2301],[7.636308598861276,45.82080298745598,2306],[7.6364463359349095,45.820829382656036,2310],[7.636531938279653,45.82088215670145,2314],[7.6367063381989615,45.8211204987547,2319],[7.636778632929418,45.82119111462248,2323],[7.636902294265035,45.82126684355167,2327],[7.636964992525965,45.82133509469456,2332],[7.637146543871295,45.82154427005505,2336],[7.637189423600332,45.82176529157151,2340],[7.637227207753526,45.82179949382822,2345],[7.637316688271598,45.82182531231563,2349],[7.637662201240033,45.82177768076169,2353],[7.638283358724235,45.82177608601075,2358],[7.638802093477955,45.821883522539764,2362],[7.639031217614356,45.82198975702439,2367],[7.639363296732176,45.82209721730452,2371],[7.639719925704819,45.82212171517392,2375],[7.640004897499302,45.82218136053173,2380],[7.6401707193357,45.8222440871894,2384],[7.640385171014164,45.8224243976513,2388],[7.640462058506251,45.82243881328926,2393],[7.640500885594442,45.822430274939954,2397],[7.6405432038032925,45.82241052761355,2401],[7.6405673678980355,45.82234331211308,2406],[7.640534071576079,45.82212465603868,2410],[7.6404782955237405,45.82203623832974,2414],[7.6403689754710715,45.82189993122178,2419],[7.640233041236671,45.821799308860584,2423],[7.640099503149477,45.82173246638589,2427],[7.639859575616916,45.82167335755648,2432],[7.639729639105662,45.82159080681406,2436],[7.6395278036405925,45.821289139830775,2440],[7.639478848123924,45.82118505212953,2445],[7.639478535244294,45.82106579299491,2449],[7.639505478862346,45.82101661162223,2454],[7.639564266167031,45.820981310068,2458],[7.640158445779412,45.820765624154596,2462],[7.6403749318562175,45.820729949094755,2467],[7.640848084952484,45.820726578856224,2471],[7.640982552131306,45.82075517978378,2475],[7.6410652698960355,45.82079441550129,2480],[7.641968400283836,45.82137218062437,2484],[7.642114973015329,45.821432425542845,2488],[7.642358666143286,45.82146907336709,2493],[7.642396562671351,45.82149877504506,2497],[7.642405120877383,45.82154387878365,2501],[7.642374306034348,45.82162001605142,2506],[7.6420462767823665,45.822007635043754,2510],[7.642090115866933,45.82205765837247,2514],[7.64242181869507,45.822180855992016,2519],[7.642595436317832,45.82232017521952,2523],[7.642624711858819,45.822439778443176,2527],[7.642601143054539,45.82261500631826,2532],[7.6426124815181895,45.82267814387835,2536],[7.642652885571544,45.82273712657619,2540],[7.642767453014484,45.822790240066205,2545],[7.643184288915046,45.82285369409628,2549],[7.643551991041764,45.822952564845664,2554],[7.643612028352655,45.82299827970662,2558],[7.643727246920832,45.82315715471777,2562],[7.643803316891257,45.82320530991519,2567],[7.644052252067536,45.82329151856371,2571],[7.644311386303378,45.82335534668787,2575],[7.644609890446935,45.82352089586945,2580],[7.64480855071632,45.82355700415838,2584],[7.645072268969735,45.82356463240495,2588],[7.6455050368191495,45.82363501720793,2593],[7.645999863378691,45.823800640146025,2597],[7.646535101295496,45.82389248638088,2601],[7.646877458471255,45.82397529541922,2606],[7.6470392040887525,45.82407396540876,2610],[7.647327798047098,45.824383396535055,2614],[7.647368044847539,45.824449125983946,2619],[7.64739122363829,45.82455515514703,2623],[7.648941008133832,45.82494626256997,2627],[7.64999100795053,45.825596262817285,2632],[7.651151007712744,45.82610626296487,2636],[7.65239100809416,45.82636626387057,2640],[7.653101008114252,45.826366263776045,2645],[7.653851007606767,45.82685626407477,2649],[7.655161008738911,45.827416264379124,2654],[7.656921007898923,45.82730626444425,2658],[7.657111008619318,45.82760626443424,2662],[7.657991007963019,45.827756264312235,2667],[7.6590210079203676,45.82816626476089,2671],[7.659650007995125,45.82872826585541,2675],[7.660161008259232,45.82870626516339,2680],[7.660201008021412,45.82883626615214,2684],[7.661271008697834,45.828686265266526,2688],[7.661771007680771,45.82848626535288,2693],[7.663291007663944,45.82855626530747,2697]]}}]}