{"type":"FeatureCollection","features":[{"type":"Feature","properties":{"slug":"39-s4","sct_code":"39_S4","source":"Catasto Sentieri VdA"},"geometry":{"type":"LineString","coordinates":[[7.621399007420594,45.81344999032601,1715],[7.6215521910171535,45.813434839684675,1724],[7.621890587668804,45.81342513731724,1733],[7.621991008708806,45.81344725215991,1741],[7.623231008427256,45.81312725212532,1750],[7.623871007536117,45.8131072519182,1759],[7.625421008522685,45.81235725138508,1768],[7.625461007995265,45.81248725144846,1776],[7.625871008224487,45.81265725159533,1785],[7.626381008053464,45.81267725191101,1794],[7.626731008137211,45.8124372513106,1803],[7.62711100809496,45.81252725153452,1812],[7.627161008553928,45.81237725104101,1820],[7.629089685130547,45.81190968010879,1829],[7.629140811814454,45.812317562757244,1838],[7.629198562855443,45.812455512183924,1847],[7.6292859272938625,45.81256681563357,1856],[7.629341234859944,45.81267323418758,1864],[7.629498927290782,45.81280338209045,1873],[7.629695403746711,45.81305775078428,1882],[7.6299414028114105,45.813260960633414,1891],[7.629882032303754,45.81305773912641,1899],[7.630094453265732,45.812662017910405,1908],[7.63023974127949,45.81251075286173,1917],[7.630342879937773,45.812372482925205,1926],[7.630677456403154,45.811849969051224,1935],[7.630958834576409,45.811659832311065,1943],[7.631078714761774,45.8114947610501,1952],[7.631170435672518,45.8114283569159,1961],[7.6312371393364815,45.8113324015901,1970],[7.63130687379941,45.8111127267076,1979],[7.6313218693677465,45.81089464608187,1987],[7.631521460160691,45.81049651825955,1996],[7.6315613821618165,45.81044299392864,2005],[7.6316102928288565,45.8104165785268,2014],[7.631648616951734,45.81042828810613,2022],[7.631714810270511,45.8106158397568,2031],[7.631776884485829,45.81070883757308,2040],[7.631809381516036,45.81069572614058,2049],[7.631754016000265,45.81059155816092,2058],[7.631747946963167,45.810445228569414,2066],[7.63178086308639,45.81028361515117,2075],[7.631908933712737,45.810046637675484,2084],[7.632154530413646,45.809871820175296,2093],[7.632274733542247,45.80969325084241,2102],[7.6323362114423965,45.80954772994069,2110],[7.63238597902948,45.80935481657523,2119],[7.6323990425961545,45.80921546635251,2128],[7.632478396150501,45.8088653996424,2137],[7.632755442925457,45.80845694617599,2145],[7.632906375082492,45.80833724668879,2154],[7.633017693385285,45.80812706870923,2163],[7.6330671516534645,45.80807815815688,2172],[7.633315622347156,45.80791687314181,2181],[7.633388971072117,45.80781199557638,2189],[7.633587296294391,45.807596107505915,2198],[7.633674280048282,45.80745989133728,2207],[7.633716067948711,45.80732988489645,2216],[7.633705292330577,45.807244251942194,2225],[7.6337533478675335,45.807121070765675,2233],[7.633893553383857,45.80691348747387,2242],[7.634050445889122,45.80641808975485,2251],[7.633961734579429,45.80623027006877,2260],[7.634013224981305,45.80609812940494,2268],[7.633988978661523,45.80603708657299,2277],[7.634036262620772,45.80594539753761,2286],[7.634023260175806,45.80581923602571,2295],[7.633980320658744,45.805733218483134,2304],[7.633933533228967,45.80554139983518,2312],[7.633995551912791,45.80537338333183,2321],[7.63394538339292,45.805188274572465,2330],[7.633861347104852,45.805072514133684,2339],[7.633870502847535,45.804829611935496,2347],[7.633798701012466,45.804608242657,2356],[7.633809643300952,45.80442386462945,2365],[7.633773881213961,45.804175925012956,2374],[7.633671594153307,45.804017194082434,2383],[7.633583217771907,45.80381587737842,2391],[7.633591824360209,45.80359546967026,2400],[7.633570740761084,45.803536714661114,2409],[7.633371803470379,45.80338357768274,2418],[7.633351600373651,45.80328883142273,2427],[7.633121712864499,45.80308582134159,2435],[7.633052037146932,45.802646216387174,2444],[7.633069108485879,45.80260591869243,2453],[7.6331312063622665,45.80256615974629,2462],[7.633511008407169,45.802247243052165,2470],[7.634521008361697,45.801837242580966,2479],[7.635120008462538,45.801788242532616,2488],[7.635761007783251,45.80175724225485,2497],[7.638121007705794,45.80203724217119,2506],[7.638434306289112,45.80214625837943,2514],[7.639521007986645,45.80282724359435,2523],[7.6408910075210885,45.805427245766175,2532],[7.640521008531246,45.80625724622999,2541],[7.640201007502781,45.806427245899464,2550],[7.640291008371204,45.80664724630396,2558],[7.640591008596784,45.80694724663097,2567],[7.640951008587403,45.806987246328916,2576],[7.642720008517941,45.807958247469024,2585],[7.643511007937616,45.80831724795489,2593],[7.643571007628921,45.808467247755885,2602],[7.644541008402007,45.809027248711665,2611],[7.645178400872622,45.81004568061659,2620],[7.645501007693022,45.81052724947871,2629],[7.645851007815459,45.8106372500231,2637],[7.645611007566724,45.8107272496908,2646],[7.645911008328336,45.810977250167056,2655],[7.645891008462248,45.81157725036568,2664],[7.646341008636994,45.81271725205688,2673],[7.646621008145371,45.81464725308172,2681],[7.646941008554177,45.81544725373136,2690],[7.646811008082541,45.81563725449285,2699],[7.646921007918418,45.81589725453244,2708],[7.647561008701148,45.8161272548087,2716],[7.647671007556434,45.81640725481128,2725],[7.648361008587244,45.81694725506952,2734]]}}]}