{"type":"FeatureCollection","features":[{"type":"Feature","properties":{"slug":"40-s12","sct_code":"40_S12","source":"Catasto Sentieri VdA"},"geometry":{"type":"LineString","coordinates":[[7.015468348948285,45.71865990404199,1620],[7.015132333829461,45.71846529892003,1625],[7.015132332527861,45.71842238479421,1629],[7.015089418577414,45.718422385097924,1634],[7.015025047572128,45.71846530007515,1638],[7.014831930692632,45.71835801580302,1643],[7.0146817289747485,45.71833656019759,1647],[7.014660272506445,45.718358017327624,1652],[7.014574442523625,45.71831510432338,1656],[7.014467156157812,45.71829364834963,1661],[7.0142525827476305,45.71818636447944,1665],[7.014059466419561,45.718143452312326,1670],[7.013909262991529,45.717971796735995,1674],[7.013844886633195,45.71769285379826,1679],[7.013866338835625,45.71745682529599,1683],[7.013716135209369,45.7172851694418,1688],[7.013630306455049,45.7172851707518,1692],[7.013544474890716,45.71717788531772,1697],[7.013523015576227,45.717070599849585,1701],[7.013480101345604,45.71704914293571,1706],[7.013351355015733,45.71689894470492,1710],[7.013244063434115,45.71664145939772,1715],[7.013244061123621,45.716534173615806,1719],[7.013158227934555,45.716319603003576,1724],[7.013093851551692,45.71608357548634,1728],[7.013093850580349,45.716019203838904,1733],[7.013008018434788,45.71584754723554,1737],[7.012814898770748,45.71561152067894,1742],[7.012814897215396,45.71550423489239,1746],[7.012686150175105,45.715311121733215,1751],[7.01270760643347,45.715268207448105,1755],[7.012664691551237,45.71522529359593,1760],[7.012643231980229,45.71511800792353,1764],[7.012686145170158,45.71507509350158,1769],[7.0126432268880246,45.714903436297284,1773],[7.012643225615585,45.71479615050369,1778],[7.012686138804772,45.71473177856508,1782],[7.01270759647533,45.71477469255954,1787],[7.012750510399598,45.71475323563878,1791],[7.012729047464299,45.71447429249431,1796],[7.012750504632017,45.71443137821168,1800],[7.012578842701304,45.71425972270268,1805],[7.0126217565442435,45.71421680831109,1809],[7.012880008270743,45.714098171607766,1814],[7.01311526788122,45.71402368836187,1818],[7.013244011172567,45.714023687862664,1823],[7.01330838217452,45.71398077296356,1827],[7.013501496213836,45.71393785633394,1832],[7.013565866922683,45.71389494128419,1836],[7.013737524284677,45.713894939602504,1841],[7.0137804363716345,45.713787653991176,1845],[7.013844807979766,45.713744738799036,1850],[7.013866264001821,45.71370182428277,1854],[7.013930635949371,45.713701823183214,1859],[7.013973549869357,45.713680365799924,1863],[7.014231036196855,45.71368036361657,1868],[7.0142310369307115,45.71372327776454,1872],[7.014188123406506,45.71376619276879,1877],[7.014231037663455,45.71376619191219,1881],[7.014316866944455,45.713809105198564,1886],[7.014402700175419,45.714045133439306,1890],[7.014595818580367,45.71421678839619,1895],[7.014681648280201,45.71423824479608,1899],[7.014746020657418,45.71428115827477,1904],[7.014724563970442,45.714281158809726,1908],[7.014810395422228,45.714409900919215,1913],[7.014874766809219,45.7144528143067,1917],[7.01498205308324,45.71445281329941,1922],[7.0150035097831696,45.71440989948636,1926],[7.015153709317984,45.71436698300676,1931],[7.0152180792651055,45.71432406791532,1935],[7.0153682799384045,45.71432406710344,1940],[7.015432652950925,45.71436698020477,1944],[7.015582852419554,45.71430260744419,1949],[7.015647223742185,45.71430260716503,1953],[7.0158403396995075,45.71434551937422,1958],[7.015904710360825,45.714302604808225,1962],[7.015904708360155,45.71425969064315,1967],[7.016248025814824,45.714366973006165,1971],[7.016312398508078,45.71436697237553,1976],[7.016376769709855,45.714409885811975,1980],[7.016333856143383,45.714431343202364,1985],[7.01637677194695,45.71447425749429,1989],[7.016591345728467,45.71458154104687,1994],[7.016677174173081,45.714581540207995,1998],[7.016720087720277,45.714538625174626,2003],[7.016805915985762,45.71449571010768,2007],[7.017041945613082,45.71451716451539,2012],[7.017127775420094,45.71453862087534,2016],[7.017578374285725,45.71447424580864,2021],[7.017599831969789,45.71445278814029,2025],[7.017771489738299,45.71445278669671,2030],[7.017835861712551,45.714474242708114,2034],[7.017964604775361,45.71447424137871,2039],[7.01802897525357,45.71443132651343,2043],[7.018179175072379,45.71438841055891,2048],[7.0182220884768896,45.71438841088645,2052],[7.018329375924316,45.71443132358079,2057],[7.018586858287396,45.714216749856334,2061],[7.018715599673561,45.71415237690731,2066],[7.018822885366703,45.714152375879706,2070],[7.019080370111683,45.71406654526706,2075],[7.019101825860207,45.71395925902163,2079],[7.019252025144829,45.71389488592905,2084],[7.019359310330147,45.7138948852888,2088],[7.019423679713209,45.71378759886857,2093],[7.01963825213938,45.71380905381599,2097],[7.019659709789082,45.71383051078957,2102],[7.019702621100898,45.71365885309826,2106],[7.019766993047405,45.7136373956907,2111],[7.019809906103655,45.71357302376695,2115],[7.0197455332426,45.71353010953392,2120],[7.019724071505049,45.71329408093551,2124],[7.01987427077982,45.71325116543667,2129],[7.020024469782243,45.71316533560025,2133],[7.020067382108726,45.71307950694508,2138],[7.020217580270339,45.71297221932012,2142],[7.020303406875408,45.71286493263258,2147],[7.02051797760606,45.712779101909526,2151],[7.020775463933369,45.71280055688261,2156],[7.021075866562702,45.71288638223491,2160],[7.021526467994488,45.71286492105867,2165],[7.021590839578887,45.71288637765093,2169],[7.021891240953195,45.71288637436158,2174],[7.022041441134511,45.71290783037949,2178],[7.022041440350405,45.71288637284801,2183],[7.022084355189786,45.71288637264899,2187],[7.022427672256543,45.712993655335254,2192],[7.022406214793539,45.71299365550058,2196],[7.022813904394548,45.71310093651625,2201],[7.022964105510577,45.71312239223456,2205],[7.023028476742686,45.71312239229157,2210],[7.023200131911089,45.71303656157326,2214],[7.023328874205208,45.71299364634776,2219],[7.0234790751246035,45.71297218725111,2223],[7.02356490373823,45.7129936441543,2228],[7.02375801818815,45.71297218479602,2232],[7.024058417860645,45.71290781042107,2237],[7.024272987770092,45.71280052231146,2241],[7.0243588144381555,45.7127146927966,2246],[7.024423186066106,45.7126932354564,2250],[7.0245090117617535,45.71252157753786,2255],[7.024573378223062,45.71228554843565,2259],[7.024551915041748,45.711963691510675,2264],[7.024594826658581,45.71185640541072,2268],[7.024616278812672,45.711598918991044,2273],[7.0246806492473395,45.71153454733941,2277],[7.024766477582179,45.71151308919716,2282],[7.024809390311615,45.71142725965078,2286],[7.024895218462452,45.71136288726439,2291],[7.0250239600129,45.711298515284675,2295],[7.025109787024016,45.71121268519374,2300],[7.02523852950995,45.71119122713232,2304],[7.025238528763595,45.71116976959682,2309],[7.025367271901867,45.711169768924016,2313],[7.025410187564701,45.71119122501213,2318],[7.025753498860328,45.710998107609775,2322],[7.025882239404669,45.71086936387238,2327],[7.025903695564473,45.71080499226108,2331],[7.02588223795147,45.71078353465306,2336],[7.02590369379793,45.710740620559385,2340],[7.025903690501266,45.710590420533904,2345],[7.025839316449164,45.710440221175446,2349],[7.025538910295919,45.710161280633635,2354],[7.025453079641885,45.71009691011543,2358],[7.025431623268921,45.71009691086762,2363],[7.025431622563271,45.71006830142057,2367],[7.025474536817698,45.71005399612085,2372],[7.025410164014954,45.70998962483448,2376],[7.025388702310205,45.70981796797225,2381],[7.02543161737835,45.70981796742036,2385],[7.025517445711033,45.70977505298291,2390],[7.0256891029468225,45.709796507959574,2394],[7.0258393025805255,45.70973213517718,2399],[7.025968045214727,45.7097106771934,2403],[7.026096788722037,45.70973213233374,2408],[7.026268446139391,45.70973213071526,2412],[7.026311361044539,45.70975358735677,2417],[7.026354274851339,45.70973212980921,2421],[7.026676132132355,45.70971066987807,2426],[7.026761960725334,45.709689212036395,2430],[7.026804875874188,45.709732126023546,2435],[7.026912161818603,45.70968921044872,2439],[7.027040907811369,45.7098179522004,2444],[7.027083821802659,45.7098394085351,2448],[7.027126736876933,45.709839408245905,2453],[7.027255476924994,45.709732121359195,2457],[7.0273198491385775,45.70971066328893,2462],[7.027362761884944,45.70964629209019,2466],[7.027191100229325,45.70947463596243,2471],[7.026933611680186,45.70932443853655,2475],[7.026869237983817,45.70926006805118,2480],[7.027019439215623,45.709260066325584,2484],[7.027040894472387,45.70917423784178,2489],[7.02723401058352,45.709217149715016,2493],[7.027427124644996,45.70919569134054,2498],[7.027470038888245,45.70917423337972,2502],[7.02753440792487,45.70908840434624,2507],[7.027834811433081,45.70917422997963,2511],[7.027899182010916,45.70917422908163,2516],[7.027963552778691,45.7091313139937,2520],[7.028156668801303,45.709152769475665,2525],[7.028221039351578,45.70910985423878,2529],[7.028221039982363,45.70913131177818,2534],[7.028392699808136,45.709260053076726,2538],[7.0284999839336,45.70915276609181,2543],[7.028521441216695,45.70915276567878,2547],[7.028435607387486,45.70893819553884,2552],[7.028542892341907,45.708873822681674,2556],[7.0285428930989475,45.70889528022394,2561],[7.0286287206890385,45.70883090770137,2565],[7.028736007293675,45.708852363907916,2570],[7.028821832357654,45.708702162878105,2574],[7.029057861131443,45.708659245966274,2579],[7.029122233374786,45.70868070283742,2583],[7.029315350865355,45.70883090066241,2588],[7.029358266905015,45.70891672966725,2592],[7.029358269555921,45.70904547218461,2597],[7.029529929316519,45.70915275604335,2601],[7.030109273171774,45.70915275079914,2606],[7.030431130598331,45.70910983355468,2610],[7.030624243804766,45.7090454601005,2615],[7.030838816143318,45.709045458086585,2619],[7.0309031882568425,45.7090669139487,2624],[7.030881730991637,45.70906691480987,2628],[7.030989018476437,45.70913128486706,2633],[7.031654196691366,45.70938876404603,2637],[7.032169172694599,45.70956041611496,2642],[7.032533948071946,45.70973206964543,2646],[7.032684149013551,45.70975352608362,2651],[7.033799935692794,45.710332857516974,2655],[7.034400746333784,45.710826366631935,2660],[7.034508034813921,45.71095510863639,2664],[7.03504447340452,45.71136278883159,2669],[7.035216131540557,45.711427158919534,2673],[7.035409246027631,45.71136278551177,2678],[7.035516531503833,45.7113627840915,2682],[7.035623818719858,45.71140569763778,2687],[7.035774019257121,45.711405696073726,2691],[7.036031506901508,45.711491522509114,2696],[7.036095877805974,45.71147006397315,2700],[7.036224622542987,45.71151297781563,2705],[7.036288995349571,45.71157734837559,2709],[7.03646065309409,45.711620260863405,2714],[7.036632311143347,45.711620258962725,2718],[7.036825427572282,45.71168462829996,2723],[7.036975627660722,45.711706084463465,2727],[7.037340402969247,45.71185628123358,2732],[7.038778051988809,45.712693095289275,2736],[7.039335946079279,45.71303640455179,2741],[7.039571979310852,45.7132080591103,2745],[7.039614893080429,45.71320805950074,2750],[7.039850921259109,45.71312222865543,2754],[7.0399152924463655,45.713143684798375,2759],[7.040022581185502,45.71325096945209,2763],[7.040258613534532,45.71342262436731,2768],[7.040393953617227,45.713806867870346,2772],[7.040440007835433,45.71401817119042,2777],[7.043602008179353,45.71515517201129,2781],[7.044422007627246,45.715735172978086,2786],[7.046442008164831,45.716425173551826,2790],[7.04766200833191,45.71717517399795,2795],[7.050192008513043,45.7188251751062,2799],[7.050902008135073,45.71942517566069,2804],[7.051052007894529,45.71998517563571,2808],[7.052342007566046,45.72144517748634,2813],[7.052872017518358,45.72219822600208,2817],[7.053572890194406,45.72219221958147,2822]]}}]}