{"type":"FeatureCollection","features":[{"type":"Feature","properties":{"slug":"40-s9","sct_code":"40_S9","source":"Catasto Sentieri VdA"},"geometry":{"type":"LineString","coordinates":[[7.014207993237411,45.68298894426849,1170],[7.014268492538552,45.683196635643114,1173],[7.014301693524755,45.683190935865866,1175],[7.014315394165882,45.68320663545519,1178],[7.014377893583666,45.68339142781232,1181],[7.014414796019845,45.68343912498126,1183],[7.014466895663951,45.683488323055755,1186],[7.014564410856886,45.683453630501816,1189],[7.0145955442680155,45.683383599245424,1192],[7.014616012783428,45.683377332393476,1194],[7.014624511297992,45.68344613011638,1197],[7.0146263061691645,45.68352510357159,1200],[7.014711712659018,45.683418429871296,1202],[7.014722253845614,45.68341934217573,1205],[7.014808950018765,45.68357623519092,1208],[7.0148419084588,45.683592021060214,1210],[7.014847708035015,45.68355622356854,1213],[7.014907407273836,45.68348682379453,1216],[7.014950708660556,45.6835352206628,1218],[7.015086739067933,45.6836544444815,1221],[7.015171177294505,45.6837476847771,1224],[7.0152936109272135,45.68391159621341,1227],[7.0153299441209125,45.6839529098088,1229],[7.015347726086524,45.68398444038706,1232],[7.0153876281699254,45.68405845694346,1235],[7.015464218529298,45.684182781283205,1237],[7.01550808984503,45.68427815427261,1240],[7.015530996390047,45.6843097027659,1243],[7.015558348016583,45.684364650150336,1245],[7.01557022101788,45.684372425133354,1248],[7.01558201605238,45.6843442473553,1251],[7.015611861059823,45.68422555648348,1253],[7.015619786608176,45.684206790977036,1256],[7.015629988923359,45.68417099794677,1259],[7.015659254028022,45.68414501476301,1261],[7.015679120750354,45.68415576744624,1264],[7.015705130852894,45.68418365615201,1267],[7.015737785941309,45.684214499123385,1270],[7.015753372209349,45.6842318001182,1272],[7.015769939467882,45.68425952473865,1275],[7.015886232484712,45.684406299550076,1278],[7.015954999036082,45.68452291895313,1280],[7.015992408739331,45.68457684658273,1283],[7.016000753978679,45.684603186233666,1286],[7.016019886615846,45.68463474016855,1288],[7.01603489204085,45.68463027009657,1291],[7.01605528259529,45.684588050229614,1294],[7.016067813044524,45.68453907021291,1296],[7.016102195760776,45.68448290114444,1299],[7.0161427091869815,45.684406024500014,1302],[7.016147663302131,45.68439088411548,1305],[7.016193307381042,45.68434166295359,1307],[7.016218124328412,45.6843155627545,1310],[7.016244802140501,45.68432454081143,1313],[7.016294526632048,45.68436892552576,1315],[7.016326413252057,45.684421515015806,1318],[7.016398680703854,45.68451548805348,1321],[7.016427266748288,45.68454938608374,1323],[7.016479407719445,45.684580349475446,1326],[7.016544507995432,45.68458974818401,1329],[7.016571608993977,45.68462504609239,1331],[7.016610509290284,45.68463824524244,1334],[7.016685608761342,45.68460054597702,1337],[7.016859610029036,45.68465594083861,1340],[7.016924412492545,45.68463664000141,1342],[7.016931711084044,45.684602141136274,1345],[7.016949510894284,45.684596140749036,1348],[7.017056412567338,45.68459494036895,1350],[7.01713981182784,45.68463813718994,1353],[7.017168911119655,45.684672133951615,1356],[7.017234012591341,45.684692333099164,1358],[7.017301813889473,45.68474652963421,1361],[7.017400712914954,45.68473682836499,1364],[7.017441213969392,45.684773926615584,1366],[7.0174828140481855,45.68477912573188,1369],[7.017524914426405,45.68476122698142,1372],[7.017575614808193,45.68479402350236,1374],[7.0176472164498165,45.68479032324586,1377],[7.017669815870367,45.684850119997996,1380],[7.017701214853034,45.68484651931315,1383],[7.0177491164779005,45.68491891695454,1385],[7.017809917241032,45.68491561596279,1388],[7.017865917269479,45.68488441592499,1391],[7.017919515828635,45.6849243137242,1393],[7.017952216670388,45.684921812046305,1396],[7.017996018353598,45.6849701102204,1399],[7.018041117887479,45.684956009412886,1401],[7.018039717562275,45.68503250705781,1404],[7.018073119011761,45.68501860824743,1407],[7.01811451704013,45.68502800694219,1409],[7.0181716192202925,45.685160600380776,1412],[7.01823642069499,45.68523359711227,1415],[7.018280520700129,45.685252595951596,1418],[7.018476721563379,45.685277290630694,1420],[7.0185151213094965,45.6853715873315,1423],[7.01859912080074,45.6854790817172,1426],[7.01866092200862,45.685602077102835,1428],[7.018723421795774,45.685658173554216,1431],[7.018764021940385,45.68567207290809,1434],[7.018900722368078,45.68566887117395,1436],[7.019117966125125,45.68561097146456,1439],[7.019273567145001,45.68563496773836,1442],[7.019175447893203,45.68567677696224,1444],[7.018958442142722,45.68579695477849,1447],[7.018971300464928,45.68580048647824,1450],[7.019118860505872,45.68582669895283,1453],[7.019345178332428,45.685877929175156,1455],[7.019445254380821,45.68591088634407,1458],[7.019257884695655,45.68594169705427,1461],[7.019249083001453,45.685946386757614,1463],[7.019170324667605,45.6859888540011,1466],[7.019072726051803,45.68603055515662,1469],[7.019040524451501,45.68608065418148,1471],[7.0191091257408935,45.68609905162215,1474],[7.01908892468091,45.68612395171262,1477],[7.019158626284786,45.68614464898001,1479],[7.019151224930835,45.68615684972568,1482],[7.019184125420996,45.68618544668713,1485],[7.019230925350956,45.68618954726604,1487],[7.01923662555649,45.68626204395615,1490],[7.019418626296687,45.68632153933892,1493],[7.019472628146995,45.68632163701128,1496],[7.0194740282133985,45.68634483622722,1498],[7.019539428515204,45.68637243598841,1501],[7.019598527595834,45.68642953145723,1504],[7.019676427238491,45.686463129926516,1506],[7.019651468318059,45.68652364608292,1509],[7.019753969643438,45.68669413932238,1512],[7.019821969008654,45.6867143368301,1514],[7.01989406903501,45.68671113524154,1517],[7.019942570389304,45.686790532259295,1520],[7.019949370232892,45.68682033077694,1522],[7.019886168802552,45.686865831444024,1525],[7.019803267749401,45.686882731982365,1528],[7.019770168629921,45.686912130296825,1531],[7.019747968990861,45.686991028686556,1533],[7.019807569406632,45.686998728040045,1536],[7.019793169178753,45.68715092274422,1539],[7.019927170439694,45.687343412404736,1541],[7.020003574882056,45.68741730413272,1544],[7.0200643590552545,45.687530944686934,1547],[7.02009118488676,45.68759524433625,1549],[7.020149170163428,45.68771389649527,1552],[7.020113670853004,45.68781449361313,1555],[7.020130772783306,45.68783709196878,1557],[7.020116871107976,45.6878938900171,1560],[7.020149372822255,45.68797028774556,1563],[7.020217670773844,45.68801438517157,1566],[7.020245373550058,45.688064181899,1568],[7.020418173081928,45.688153376783994,1571],[7.020523574907241,45.68816597398406,1574],[7.020558573551867,45.688138874749775,1576],[7.020584774093516,45.6881383748061,1579],[7.02084467645877,45.688319362664025,1582],[7.020887674727966,45.68835796105331,1584],[7.020887274939004,45.68841595804894,1587],[7.020950877400304,45.68851695510615,1590],[7.0210170763788655,45.68852295363857,1592],[7.021070276301891,45.68857715048921,1595],[7.021128078062326,45.68857574890606,1598],[7.02119437788696,45.68861864643214,1600],[7.0212069773712305,45.68865924535476,1603],[7.021244178274199,45.688686944150774,1606],[7.021238777377603,45.68879803945216,1609],[7.021276377143458,45.688862637095326,1611],[7.021349279982321,45.68886813594319,1614],[7.021365979014094,45.688917034287655,1617],[7.021465979556068,45.688913431233765,1619],[7.0215373803623375,45.688988828344584,1622],[7.0216207810517375,45.68903692544333,1625],[7.0217509820011355,45.68914621867711,1627],[7.021755181133098,45.68922561611867,1630],[7.0217828804239115,45.68928911322088,1633],[7.021823280688399,45.689314311054325,1635],[7.021819681506956,45.68933181081651,1638],[7.021876481613578,45.68940180821549,1641],[7.022034482054148,45.68945970278057,1644],[7.022066581514485,45.689498801401896,1646],[7.022150584501104,45.689514698745405,1649],[7.022196783876903,45.68958909552982,1652],[7.022321484806295,45.68965309148962,1654],[7.022372984978063,45.6897165883798,1657],[7.02252468503431,45.68980628232973,1660],[7.022704286444865,45.68999117320014,1662],[7.02279648545626,45.690018470008305,1665],[7.022890087250565,45.690077167357344,1668],[7.022885687966789,45.690157162940466,1670],[7.022911588253362,45.69026876058588,1673],[7.023011989161507,45.690295257741106,1676],[7.023116889512332,45.690366452606455,1679],[7.023271490232322,45.69042034790418,1681],[7.023366791295269,45.690506443500745,1684],[7.023430690997127,45.69053454067503,1687],[7.02361659037715,45.69071623224234,1689],[7.023788492525162,45.69081742593745,1692],[7.023823492148479,45.690894922483075,1695],[7.023884592481587,45.69093112016405,1697],[7.02395129190234,45.690957416752774,1700],[7.024116193142728,45.69098351325668,1703],[7.024252393988377,45.690948912935255,1705],[7.024326508369249,45.69091813114723,1708],[7.024377618068334,45.69090435053663,1711],[7.024391226907749,45.690901274614546,1713],[7.0244207749041205,45.69090557054889,1716],[7.024472134590536,45.69092301573418,1719],[7.024506338056483,45.690929284119214,1722],[7.024536511277504,45.69093500934396,1724],[7.024565960701892,45.69094214144585,1727],[7.024597266373925,45.69098277462838,1730],[7.024642962625505,45.691007690434255,1732],[7.024711137911581,45.69102684577537,1735],[7.024771268065249,45.69104444252296,1738],[7.0248187296075075,45.691057562814336,1740],[7.024850527486895,45.69107466949612,1743],[7.024864836079257,45.691090054286555,1746],[7.024904670481139,45.69112811488686,1748],[7.024936014002843,45.6911676829507,1751],[7.0249970526897085,45.69120741082909,1754],[7.0251354681951845,45.691263732884956,1757],[7.025232198771866,45.69128968397488,1759],[7.025294730210585,45.6913132498071,1762],[7.025307846713235,45.69131401844796,1765],[7.0254735616111,45.69132350642639,1767],[7.025582411899494,45.691337687778336,1770],[7.025692311707501,45.69136040180052,1773],[7.025798530711853,45.6913726455169,1775],[7.025844103077983,45.691381947942624,1778],[7.025869604497977,45.691386173550036,1781],[7.025992378744657,45.6913882957928,1783],[7.026051643226341,45.69139215808551,1786],[7.026089286812456,45.691396593516544,1789],[7.026172303209117,45.691416004500695,1792],[7.026222773821095,45.69143958278455,1794],[7.026292065002577,45.6914653791553,1797],[7.026355662161401,45.69149959170981,1800],[7.026383096456202,45.69152561061618,1802],[7.026415454058344,45.691584355512695,1805],[7.0264613056182945,45.691648549476206,1808],[7.0265610053545435,45.69167114669568,1810],[7.026602605422239,45.69163314828228,1813],[7.026668106126867,45.691615747734595,1816],[7.026674234986972,45.69161716773387,1818],[7.026675555424425,45.69161628688313,1821],[7.026734168474868,45.69160026949523,1824],[7.026836008611833,45.69162189718349,1827],[7.0268919753986205,45.69164273312209,1829],[7.026946327188562,45.69167110889079,1832],[7.0269706461479915,45.69167058307276,1835],[7.0270513963730785,45.69167765485466,1837],[7.027084926787987,45.691683909937844,1840],[7.027151069647717,45.6916841066073,1843],[7.027231621664219,45.69169685155737,1845],[7.027358311925685,45.69170282475617,1848],[7.027444812233764,45.69173837828044,1851],[7.027507785677106,45.69179031882897,1853],[7.027629264200669,45.69182931515774,1856],[7.027706971408314,45.691884584686214,1859],[7.027734990807542,45.69193237427847,1861],[7.027750084192294,45.69196385644619,1864],[7.0277854151651615,45.69199568810599,1867],[7.0278148642998,45.69200281936251,1870],[7.027890486395564,45.69200223243168,1872],[7.027947503780495,45.69203160062215,1875],[7.027970241187439,45.69203766996999,1878],[7.027998540830857,45.692039104610394,1880],[7.028021243724872,45.69204611932198,1883],[7.028027412592327,45.69209100685041,1886],[7.028026612869395,45.69213910519535,1888],[7.028061580701945,45.692150806811725,1891],[7.028124279769003,45.692129736085974,1894],[7.028173217265776,45.69212017358598,1896],[7.02820269975323,45.69212635934819,1899],[7.028209764610693,45.69215581089486,1902],[7.02821014966748,45.69218325426959,1905],[7.0282009906619765,45.69221337166815,1907],[7.028183902533315,45.692238621412706,1910],[7.028181990147838,45.692245599911274,1913],[7.028211813774033,45.69227459834523,1915],[7.028240691079248,45.69227363342126,1918],[7.028242104429795,45.69227273975564,1921],[7.028268138296006,45.69226183580109,1923],[7.028312693899335,45.69226165908556,1926],[7.028321407001925,45.692282623552536,1929],[7.0283174459217745,45.69231850741994,1931],[7.028331974701989,45.692366063048084,1934],[7.028376338038086,45.69244819406441,1937],[7.028397779408331,45.69249113917477,1940],[7.028410891503236,45.6925405631734,1942],[7.028433529472245,45.69254946862099,1945],[7.028469858295523,45.69255293369752,1948],[7.028540003698035,45.69259293479097,1950],[7.028589169749257,45.69263446652825,1953],[7.028649901990083,45.69265420027595,1956],[7.0287021287817595,45.69274308958771,1958],[7.028730933536722,45.692806975770615,1961],[7.028768436399018,45.69289229865228,1964],[7.02879379236485,45.692939096033115,1966],[7.028868032202606,45.69293943056469,1969],[7.028956515723359,45.69295704193899,1972],[7.028976454615777,45.69296590069419,1974],[7.0289968786173995,45.692999366631724,1977],[7.029026881283641,45.69302921400103,1980],[7.029045072457269,45.69304939601785,1983],[7.029047424954866,45.69309768827468,1985],[7.029065868704594,45.693149096147955,1988],[7.029107443254054,45.693214621119196,1991],[7.02918171665368,45.69321401095596,1993],[7.029214250212605,45.69324863179945,1996],[7.029237453385711,45.69324146355494,1999],[7.0292713504312765,45.69323731775338,2001],[7.029291389128204,45.69324334026621,2004],[7.029454412520606,45.6932527760106,2007],[7.029471587071873,45.6932634798199,2009],[7.029503502626076,45.69327727588371,2012],[7.0295024063816145,45.69330847846867,2015],[7.029513985537278,45.69332476154424,2018],[7.029572819209603,45.693340914878036,2020],[7.029641763101529,45.69333831962154,2023],[7.02973715876957,45.69335131889663,2026],[7.029846387864203,45.69335485852427,2028],[7.0298967288971035,45.69338221861694,2031],[7.029935843393585,45.69342168352896,2034],[7.030003073004869,45.69342946594815,2036],[7.030053645401462,45.69345020637447,2039],[7.030075055218851,45.69349409658709,2042],[7.030094097820425,45.693528484466235,2044],[7.030186131683932,45.69356034746976,2047],[7.030263424560822,45.69358911734226,2050],[7.030320378411174,45.693620375181105,2053],[7.030381819410396,45.69369688650468,2055],[7.030492718328904,45.693806654926284,2058],[7.030518761152884,45.69387238495305,2061],[7.030580490373493,45.6939214644187,2063],[7.0306411223587375,45.693950696471,2066],[7.030731323695541,45.69414608835781,2069],[7.030923923748999,45.69432237863073,2071],[7.031140626428972,45.69439377276858,2074],[7.031253326518126,45.69441627137588,2077],[7.031375725848317,45.69442026789585,2079],[7.031673128302365,45.69439976383935,2082],[7.031747329126582,45.69432876558312,2085],[7.031867828578405,45.69425096502361,2087],[7.0318912283534605,45.69419566679145,2090],[7.032012629723415,45.694092368345615,2093],[7.032045529442809,45.69402876956475,2096],[7.032194730005368,45.69407896660796,2098],[7.032386930232696,45.69404016411335,2101],[7.032564032958871,45.6940260618378,2104],[7.032692732316987,45.69402625919281,2106],[7.032761533716388,45.69404645737233,2109],[7.032990834496999,45.69402015401448,2112],[7.033251334540781,45.69405714911255,2114],[7.033312134165329,45.69408314599302,2117],[7.033508935162063,45.69407904278351,2120],[7.033605035612273,45.694060242620345,2122],[7.033923836676353,45.69410953585014,2125],[7.034182037762266,45.69409533128552,2128],[7.03419693888507,45.69407833171528,2131],[7.034327538384611,45.69406242894875,2133],[7.034495739207036,45.69408602543628,2136],[7.034611241051214,45.6941309229901,2139],[7.03491344305892,45.6941817153204,2141],[7.035028242119979,45.694186713028635,2144],[7.035067142497622,45.69417551226862,2147],[7.035165641424508,45.69418671165964,2149],[7.035282542947013,45.694169310236525,2152],[7.035425844118149,45.69420380521444,2155],[7.0357033446535,45.69423329978962,2157],[7.035869147038069,45.69430179509803,2160],[7.036071445212604,45.69434978963072,2163],[7.036162848137077,45.694393387318655,2166],[7.036257148592775,45.694377785207706,2168],[7.036299047394391,45.69439018491525,2171],[7.036510948307925,45.6943940803359,2174],[7.036578148193158,45.69443747758183,2176],[7.03667794905666,45.69445707586468,2179],[7.036728649762773,45.69448837330747,2182],[7.036932449674904,45.69453496822335,2184],[7.037019849619315,45.69459476420794,2187],[7.0371573510923895,45.69463246056158,2190],[7.037264450664569,45.694695356341825,2192],[7.037362451851749,45.69470415470507,2195],[7.037485052420173,45.69476035015773,2198],[7.037687352842955,45.69478384566268,2200],[7.037795851767398,45.69489994088472,2203],[7.037829152802915,45.69489834028894,2206],[7.037856051953942,45.694863640473486,2209],[7.037935354445352,45.694932236083915,2211],[7.038013555119896,45.6949270361023,2214],[7.038051753463839,45.69495073402427,2217],[7.038127253876457,45.694948632406145,2219],[7.038200556349601,45.694924032735464,2222],[7.0382446561896455,45.694939331746454,2225],[7.03833995495325,45.695028125713456,2227],[7.0383852560427425,45.6950330261401,2230],[7.038434455974714,45.6949738260137,2233],[7.038541754837836,45.695031523432206,2235],[7.038733456264243,45.695027519839286,2238],[7.038775958166222,45.69509461699927,2241],[7.0388680582447085,45.695085315009244,2244],[7.038911058041123,45.69512341334335,2246],[7.038963858596178,45.69512931178382,2249],[7.038996257686662,45.695169010185936,2252],[7.0390825588447505,45.695166209531926,2254],[7.039201958390764,45.69523630459299,2257],[7.039351958809976,45.69533259836945,2260],[7.0394378604311125,45.69541089372464,2262],[7.039518738165615,45.69552639610042,2265],[7.039606958735703,45.69565238242038,2268],[7.039699059866528,45.695726778700894,2270],[7.03991146141302,45.6958158712266,2273],[7.039952461525691,45.69598376573464,2276],[7.040256162437575,45.696130655238036,2279],[7.040283562268214,45.69621385046384,2281],[7.040356562042279,45.696276447989376,2284],[7.040660662716491,45.69642483737625,2287],[7.04073226232526,45.696537531696215,2289],[7.040828563179517,45.696556430846314,2292],[7.041052764366212,45.69672712019613,2295],[7.041151962821638,45.69682781453972,2297],[7.041252262280578,45.69685441267261,2300],[7.041329664540975,45.696915608968894,2303],[7.041432463283755,45.69710859993793,2305],[7.041389862645927,45.69739129099591,2308],[7.041409663583038,45.69749448647734,2311],[7.041456963235246,45.69753218414303,2314],[7.041475263938414,45.69761258222389,2316],[7.041540664584505,45.69769307876801,2319],[7.041538963243428,45.6977746747352,2322],[7.041474962652118,45.69794896934792,2324],[7.041441462585035,45.69814466311792,2327],[7.041475660578365,45.69819356151248,2330],[7.041448661332782,45.6982430593225,2332],[7.041494761910533,45.69825265976193,2335],[7.041499462453391,45.69831225630093,2338],[7.0414392602520754,45.69855944931313,2340],[7.041467662328075,45.698604246617464,2343],[7.041491662388409,45.698602746464076,2346],[7.0414898611433525,45.698862037015545,2348],[7.041446459810028,45.69899263384543,2351],[7.041371460029412,45.699105430885076,2354],[7.041407561048125,45.69920422734942,2357],[7.04146200815376,45.69928516070924,2359],[7.041631187319356,45.699463738467955,2362],[7.042045533530946,45.700214101499114,2365],[7.042203717145223,45.7001501131173,2367],[7.0422467991994315,45.70015368956971,2370],[7.042333646750497,45.70021856722069,2373],[7.042622008278898,45.70064516162287,2375],[7.042772008237133,45.70131516216876,2378],[7.043052008668673,45.701635162329,2381],[7.043382007939291,45.70236516270511,2383],[7.043202007473209,45.70276516282077,2386],[7.04392200848757,45.7038551635825,2389],[7.044522007647126,45.70451516383924,2392],[7.044362008143579,45.70502516477353,2394],[7.044672008322444,45.70530516526426,2397],[7.045352008587754,45.70540516502975,2400],[7.045242007514335,45.70554516482736,2402],[7.0456620085274935,45.705675164889946,2405],[7.045512007470013,45.7058251650956,2408],[7.045882007478873,45.7059951652378,2410],[7.046022008393222,45.70670516599018,2413],[7.04649200841248,45.70703516661112,2416],[7.047062008698217,45.70771516685508,2418],[7.046992008487756,45.707795166389666,2421],[7.047122008128996,45.70784516662627,2424],[7.047192007750497,45.70816516716038,2427],[7.047362007728876,45.70833516716676,2429],[7.047472008103173,45.70891516792956,2432],[7.0478220080813525,45.709215167892275,2435],[7.047812007800238,45.70947516760274,2437],[7.047972007827379,45.709845168108444,2440],[7.048152008168859,45.70991516882225,2443],[7.048002008069396,45.70994516852393,2445],[7.048132008258954,45.71002516852247,2448],[7.048042008184693,45.710135168904856,2451],[7.0476120079133615,45.71028516871669,2453],[7.046922008677522,45.71032516856903,2456],[7.047032008625675,45.71071516883601,2459],[7.04743200789606,45.71103516925837,2461],[7.047942007696896,45.71080516910724,2464],[7.048042008012311,45.711095169594195,2467],[7.047852007597866,45.71160516975767,2470],[7.0481720083082235,45.71168516983489,2472],[7.048262008049879,45.71195516987402,2475],[7.048212008541513,45.712195170564954,2478],[7.048472008314026,45.71297517040525,2480],[7.048460380604179,45.71328435856979,2483],[7.048603191265649,45.71324179565624,2486],[7.048859686565643,45.71325517865551,2488],[7.049139358069523,45.71334096203724,2491],[7.049659556190521,45.713529859516406,2494],[7.049760089131159,45.71359458074125,2496],[7.049870958935891,45.71373148344097,2499],[7.050097090976032,45.7142483805487,2502],[7.050354854102331,45.71459480517142,2505],[7.051011639742965,45.71529006336289,2507],[7.051298535717507,45.71553797603299,2510],[7.051359925639267,45.71562002917704,2513],[7.051382792721403,45.715701425005584,2515],[7.051443870181717,45.71579247339971,2518],[7.051568214862248,45.715911603043864,2521],[7.0515798049686556,45.71594780329274,2523],[7.051815029585608,45.71620383370901,2526],[7.051990115209861,45.71634182969313,2529],[7.052343727879352,45.71651887262981,2531],[7.0525830219571874,45.716657962679044,2534],[7.0528711819809065,45.716869890377424,2537],[7.053777635843179,45.717407377460376,2540],[7.054275676431461,45.71786589491507,2542],[7.054491171723441,45.71795057171317,2545],[7.054597982790647,45.718019895881376,2548],[7.054671284987482,45.718129151995996,2550],[7.054733014421066,45.71838672125565,2553],[7.054780633997571,45.718495539841236,2556],[7.054953236246341,45.718705493915756,2558],[7.055352621349732,45.71904531821415,2561],[7.055825317446002,45.71949439658974,2564],[7.056012016841077,45.71966858651232,2566],[7.056194660873718,45.71995971519406,2569],[7.056366648790909,45.720187657863505,2572],[7.056603472669694,45.72039870231801,2574],[7.056702466072775,45.720508394252406,2577],[7.056812430339436,45.72067227649275,2580],[7.0568162259945595,45.7209333590882,2583],[7.0569221362153876,45.72121418030171,2585],[7.056963211710967,45.72151189961063,2588],[7.05699269287432,45.721773419157515,2591],[7.056987078069281,45.72193533478671,2593],[7.0570331451994,45.722089129051454,2596],[7.057040061068342,45.7222602584738,2599],[7.057011568553961,45.72234077930985,2601],[7.056959939169588,45.72271792692203,2604],[7.056898897841623,45.72299590755829,2607],[7.056892034672033,45.723193804384245,2609],[7.056850074702002,45.72329209726973,2612],[7.056743900540799,45.72338929754052,2615],[7.056703188144032,45.7234516091272,2618],[7.0567520635157805,45.723524445696675,2620],[7.0570418338475935,45.7236913869112,2623],[7.057116395655512,45.72376466031059,2626],[7.057223559953666,45.7240094999831,2628],[7.057219816908487,45.72411744370886,2631],[7.057136208404373,45.72430503435788,2634],[7.0571565915684715,45.72445839158284,2636],[7.057192313368642,45.724540004803785,2639],[7.057399995693335,45.724757177061136,2642],[7.057782007694504,45.724735180070475,2644],[7.058142008554576,45.72530518033351,2647],[7.05801200770631,45.72616518099767,2650],[7.058692007642952,45.72649518069816,2653],[7.058744807934575,45.72665004627179,2655],[7.058789604581386,45.7266553080044,2658],[7.058876392751792,45.726746789253546,2661],[7.059215379059731,45.72697756561829,2663],[7.05965929874158,45.72714711950324,2666],[7.059994516692506,45.727301324313245,2669],[7.060124236263027,45.72745203782804,2671],[7.060822008114906,45.72809418247001,2674],[7.060922007672915,45.72853418306633,2677],[7.06075200754452,45.72898418296586,2679],[7.060872008259307,45.72899418334924,2682],[7.060852008633044,45.72921418318501,2685],[7.06055200793334,45.72959418369589,2687],[7.060522008309096,45.73000418388218,2690],[7.060282008619925,45.730444184439946,2693],[7.060542008171787,45.730304184346416,2696],[7.060622007676239,45.730484184204904,2698],[7.060782007529009,45.730404184582355,2701],[7.060742008280798,45.73061418441113,2704],[7.060252007764657,45.73087418473017,2706],[7.060272008323458,45.73098418421411,2709],[7.060442007837002,45.73097418431357,2712],[7.0604020077552665,45.73107418488258,2714],[7.060002007715627,45.73146418540461,2717],[7.059742007692859,45.73162418538604,2720],[7.0597420086794616,45.731514185399966,2722],[7.059512007929125,45.73152418547479,2725],[7.058992007753722,45.731944185633466,2728],[7.058872008465935,45.732154185099255,2731],[7.059222008021248,45.73201418577699,2733],[7.058442008713467,45.73278418616264,2736],[7.057672008468448,45.7333141862955,2739],[7.057622008613569,45.73364418642087,2741],[7.0572820075188405,45.734144186884684,2744],[7.057412008704977,45.73544418769949,2747],[7.057322007832561,45.73549418796707,2749],[7.057102008001191,45.73550418859564,2752],[7.056802008090434,45.73583418870573,2755],[7.057312007699709,45.73623418850966,2757],[7.058662008498454,45.736354188472795,2760],[7.060396580058996,45.735917232542704,2763],[7.060578574511392,45.735994322530175,2766],[7.0607920083815,45.735984188411955,2768],[7.06099200828173,45.7360041884389,2771],[7.061422007658063,45.7358941886343,2774],[7.061692007955858,45.73590418875319,2776],[7.061932007785879,45.735824187984186,2779],[7.062226501238206,45.73582418787928,2782],[7.062592008105544,45.735794188410274,2784],[7.0627320078903875,45.73588418857679,2787],[7.063142007611673,45.73586418836317,2790],[7.063262008477319,45.73581418821822,2792],[7.063384822957517,45.735847254484646,2795],[7.063522007444355,45.735884188812506,2798],[7.063732007752297,45.73586418842592,2800],[7.063932007541322,45.73627418914806,2803],[7.0639120080483195,45.73634418889303,2806],[7.063522008047587,45.736624189243784,2809],[7.06349200790939,45.73669418945623,2811],[7.063878811254078,45.73672319936015,2814],[7.063932007680595,45.73687418882589,2817],[7.064060007861278,45.73680818898065,2819],[7.064000008595401,45.73693818912795,2822],[7.0636620084620985,45.737254189921316,2825],[7.063692249202522,45.737345746369236,2827],[7.0637202553946485,45.737476728041074,2830],[7.0637081832313635,45.737593532030495,2833],[7.0636102429826995,45.737672875988856,2835],[7.0633455082912295,45.73778989702148,2838],[7.06350200858738,45.737914190163536,2841],[7.063692008402308,45.73793419049898,2844],[7.0636920083526435,45.7380141904977,2846],[7.063682008084115,45.738094190162094,2849],[7.063382008104978,45.7384341908753,2852],[7.063212008377268,45.73883419095569,2854],[7.0632368837852315,45.73894463066921,2857]]}}]}