{"type":"FeatureCollection","features":[{"type":"Feature","properties":{"slug":"40-s18","sct_code":"40_S18","source":"Catasto Sentieri VdA"},"geometry":{"type":"LineString","coordinates":[[7.062156769089317,45.75673329388407,1170],[7.062653798291481,45.75693055073848,1175],[7.06320603643097,45.75694853675956,1179],[7.063814367163436,45.75696458815703,1184],[7.064249888783321,45.75687296250181,1188],[7.064642353379836,45.7567716068049,1193],[7.065519568647983,45.75672346600045,1198],[7.065647243579379,45.75670312612486,1202],[7.065925682431187,45.75662233617588,1207],[7.066275882163118,45.756511258564316,1211],[7.0665056874316985,45.75646564604989,1216],[7.066573591058928,45.7564307923948,1221],[7.06664660049753,45.75636452583453,1225],[7.066792161549898,45.7561869783712,1230],[7.066983645409028,45.75606421138874,1234],[7.067043634719771,45.7560607255,1239],[7.067035624459826,45.75616573639468,1244],[7.066841111339127,45.75628108702237,1248],[7.066821865351271,45.75633067392243,1253],[7.066843274206766,45.756556866893824,1258],[7.066829491525388,45.75658363531518,1262],[7.066789075613297,45.75663695463746,1267],[7.0667235800794765,45.75667184828186,1271],[7.066657478875996,45.75673618149968,1276],[7.066722007780462,45.75705420545747,1281],[7.067102007600255,45.75726420571085,1285],[7.067242008442557,45.757914206367026,1290],[7.067682008355685,45.75850420687983,1294],[7.067722153464068,45.75865987133761,1299],[7.068260963185594,45.75869598754799,1304],[7.068361908085672,45.758751698249256,1308],[7.06844907068522,45.75883417747442,1313],[7.068725584268373,45.75901886486106,1317],[7.068954420227668,45.75909473867777,1322],[7.069145945039694,45.75913397899892,1327],[7.069217663437916,45.75925104672232,1331],[7.069260679112003,45.759293279113706,1336],[7.069406153904035,45.759373561644786,1340],[7.069441226950892,45.75943122618578,1345],[7.069424085238705,45.759498383069825,1350],[7.0693330441697935,45.7595591037364,1354],[7.069331612941102,45.75960058564912,1359],[7.069299832474265,45.75966230712904,1363],[7.069317405822282,45.75979749926508,1368],[7.069236168270958,45.76000365468903,1373],[7.069249733410728,45.76004020218631,1377],[7.06930774487919,45.76007750013118,1382],[7.069381644809466,45.76008393817052,1386],[7.0694590178894,45.76020457552679,1391],[7.069463563141115,45.7602876627599,1396],[7.069792007576057,45.76135420852797,1400],[7.070432007784387,45.76192420888365,1405],[7.070452007893334,45.762314209885176,1410],[7.070293007465288,45.76251420989609,1414],[7.070353609251727,45.76253018552607,1419],[7.070862007953246,45.762664210229396,1423],[7.071122007528003,45.76307321002179,1428],[7.071436234573915,45.76307891873827,1433],[7.071293093984619,45.76313950643273,1437],[7.071171576810191,45.763213958166794,1442],[7.070499466428534,45.76389564862617,1446],[7.0703496313636816,45.76406862812196,1451],[7.06972322196855,45.764415243729204,1456],[7.069605032860451,45.76447457148979,1460],[7.069857534381378,45.764505841507756,1465],[7.070632331843634,45.764424425849654,1469],[7.071004813147417,45.76436771267445,1474],[7.07076011315674,45.764669598526275,1479],[7.070647792337641,45.764780208160715,1483],[7.0705100512706585,45.764858887188794,1488],[7.070223017281604,45.76496654379419,1492],[7.070121858013265,45.765009839115244,1497],[7.069896018661578,45.76517253224458,1502],[7.069487761978889,45.76540414706635,1506],[7.069059925851128,45.76552742182116,1511],[7.0692030086171584,45.76573321194455,1515],[7.068783008020646,45.76598321274529,1520],[7.06877616422378,45.76708721587582,1525],[7.068772749492974,45.767178792783774,1529],[7.068961599166888,45.76745638039211,1534],[7.0690616288378125,45.76753907657288,1538],[7.069226855442979,45.767595873177264,1543],[7.0694052458836785,45.76764389150291,1548],[7.06970086620289,45.76764888812727,1552],[7.069920299288645,45.76762559486545,1557],[7.070011201695753,45.767600129322894,1562],[7.070181084159313,45.767521994911206,1566],[7.070284218726061,45.76751473694114,1571],[7.070449446559569,45.76757153179551,1575],[7.0706008909413445,45.767655095228356,1580],[7.070823007973018,45.7676932140464,1585],[7.071233007887706,45.76780321387378,1589],[7.071453007459832,45.767973214114676,1594],[7.071659767469085,45.767984080229766,1598],[7.071641008146332,45.76809621461126,1603],[7.071740007870659,45.76820621402075,1608],[7.071793008491822,45.76822321440688,1612],[7.072033008278874,45.76826321416593,1617],[7.0722631747316465,45.768161147435315,1621],[7.072448326431924,45.76804180992954,1626]]}}]}