{"type":"FeatureCollection","features":[{"type":"Feature","properties":{"slug":"41-s44","sct_code":"41_S44","source":"Catasto Sentieri VdA"},"geometry":{"type":"LineString","coordinates":[[6.946560008331612,45.659758131713524,1613],[6.946823007448894,45.66007713155012,1615],[6.946873008238026,45.660367131831684,1616],[6.947093007607642,45.66048713237997,1618],[6.946953008572098,45.66065713228272,1619],[6.947163007401495,45.660777132009926,1621],[6.947703007525774,45.660737132507506,1622],[6.947633007532124,45.66086713193371,1624],[6.947963007528032,45.66114713242276,1625],[6.948873008456084,45.66157713245954,1627],[6.949123007459338,45.66160713328903,1628],[6.9495730084739025,45.66195713336044,1630],[6.949703008134363,45.662437133689366,1631],[6.9499230084649115,45.66262713361476,1633],[6.949923007648334,45.66281713330149,1634],[6.950343007988952,45.663027133698534,1636],[6.95076300816946,45.663487134580556,1637],[6.951373007917676,45.66361713451552,1639],[6.952233007434181,45.66387713482357,1640],[6.952953008330526,45.6644571344807,1642],[6.954303008425531,45.665367135809404,1643],[6.954813008330015,45.665877136010394,1645],[6.955663007532338,45.66631713624816,1646],[6.956003007924049,45.66658713672028,1648],[6.9561030082927555,45.66660713681628,1649],[6.956203008538456,45.666347136453524,1651],[6.956303008559893,45.66636713636903,1652],[6.9565230086568,45.66659713607386,1654],[6.958960007581537,45.66795813706207,1655],[6.959593007415248,45.66827713719919,1657],[6.960873008226689,45.668647137853604,1658],[6.961283007639154,45.6689171383681,1660],[6.961823007878411,45.66946713845826,1661],[6.962813008030568,45.66998713920916,1663],[6.963333007778904,45.670207138896075,1664],[6.963693007535238,45.67043713897564,1666],[6.9640330078409285,45.67072713916147,1667],[6.963973008639906,45.67093713952023,1669],[6.96366300812532,45.67103713991538,1670],[6.963643007889351,45.67119713978232,1672],[6.964063008643264,45.67145713952729,1673],[6.964593008467458,45.67163713976172,1675],[6.965003008122246,45.6718671402452,1676],[6.965163008310373,45.67211714067898,1678],[6.965103007484369,45.672537140490036,1679],[6.965013008341769,45.67257714068353,1681],[6.9645230083518275,45.672407140528854,1682],[6.9641130078542295,45.67238714086826,1684],[6.9640330075398245,45.672457140566806,1685],[6.963963007731903,45.672717140571415,1687],[6.964053008465485,45.67279714126449,1688],[6.963993008024884,45.67302714110078,1690],[6.964103007754988,45.67324714145509,1691],[6.964613007562598,45.67350714141225,1693],[6.964823008235627,45.67343714142211,1694],[6.965663008436975,45.673557141201705,1696],[6.9661230081199506,45.67364714124951,1697],[6.966453007390254,45.673797141794374,1699],[6.9675330076233895,45.67380714192961,1700],[6.968393007683403,45.6740271413718,1702],[6.968383007658999,45.67426714167541,1703],[6.968113008287417,45.674307141642025,1705],[6.9678430074689635,45.674687142268006,1706],[6.968303008491476,45.67535714287897,1708],[6.96880300823066,45.67567714273141,1709],[6.969173007829111,45.67604714333943,1711],[6.969793008526633,45.67623714348234,1712],[6.970143402986626,45.67648166381806,1714],[6.9701362192530665,45.67654534384637,1715],[6.970107218831107,45.676551044240746,1717],[6.970054919167194,45.67667474179665,1718],[6.970004219730996,45.67667064172292,1720],[6.969910719169423,45.676697243586936,1721],[6.969753316502045,45.67663444851942,1723],[6.969735816540914,45.676593549670166,1724],[6.96966731526515,45.67658245084094,1726],[6.969566115766576,45.6765902517042,1727],[6.9695384150152595,45.67660985233178,1729],[6.96939761320254,45.67657555651159,1730],[6.969302813925812,45.67659035647702,1732],[6.969249211777299,45.676542360270986,1733],[6.9689902093948985,45.67646546603566,1735],[6.968940710097872,45.67645836800073,1736],[6.9688393100940225,45.676514068147064,1738],[6.9687279095595835,45.67640477321228,1739],[6.96870800864417,45.67642987319008,1741],[6.968721807385702,45.67645417208884,1742],[6.968763808813302,45.676465370781,1744],[6.968773809816318,45.676495268959904,1745],[6.968702308290531,45.67651627026506,1747],[6.9686641083284995,45.676492772216726,1748],[6.968645709752134,45.67659476843329,1750],[6.96859730935208,45.67667776694061,1751],[6.968510307310861,45.67659187017496,1753],[6.968445108287044,45.676617170557876,1754],[6.968396506418748,45.67659677262558,1756],[6.968303106098801,45.67641858036489,1757],[6.968217005257492,45.67640328284912,1759],[6.9681729036106805,45.67637328374081,1760],[6.968121703139421,45.67638998352074,1762],[6.968065502990629,45.67636178706189,1763],[6.967999901782875,45.67636968709358,1765],[6.967925403015282,45.676326589240006,1766],[6.967837301749033,45.67624499452884,1768],[6.967766999906105,45.67614429840481,1769],[6.967735397710817,45.67614370001381,1771],[6.9676978003955545,45.676161298735714,1772],[6.967855300230175,45.67633449009216,1774],[6.9678789502792435,45.67640804338228,1775],[6.9678580032307895,45.67645698723692,1777],[6.96785930478686,45.67661478176421,1778],[6.968060605458623,45.67669087510271,1780],[6.968161207152215,45.676650374418124,1781],[6.9681121046667105,45.67663777645964,1783],[6.968091604832319,45.676573378973785,1784],[6.968157204645009,45.67660637621786,1786],[6.968218007593515,45.67669427151802,1787],[6.968189707694483,45.67672317147601,1789],[6.968012605565913,45.67676867268647,1790],[6.967907906684964,45.6767475751903,1792],[6.967841904354935,45.67676327699518,1793],[6.967774104973656,45.67674577742553,1795],[6.967725103272687,45.67678967664891,1796],[6.967725304015962,45.67685057531461,1798],[6.967682204714916,45.67688727459544,1799],[6.967617905583336,45.67686487604299,1801],[6.967570202308825,45.676824278193706,1802],[6.967554402104526,45.676782080758784,1804],[6.967525904117345,45.67682827996016,1805],[6.967357802414473,45.676842781740454,1807],[6.967265502508456,45.67681478479858,1809],[6.96724420273526,45.676851682931584,1810],[6.967151200105556,45.67683748585321,1812],[6.967077199900107,45.67675368978591,1813],[6.967009097873096,45.67662709596286,1815],[6.96698439801477,45.67662479670118,1816],[6.966940097719935,45.67665749601565,1818],[6.966933599115647,45.676736293005355,1819],[6.966916299384084,45.676749392450304,1821],[6.966746496293585,45.676585400879304,1822],[6.966691459214533,45.67623552883314,1824],[6.966614669931164,45.67614221406614,1825],[6.966416389336414,45.67615062186688,1827],[6.966455790727414,45.676238018194134,1828],[6.96661789309195,45.676304213755536,1830],[6.9666050927635075,45.676318012517235,1831],[6.966530592915364,45.67630991383346,1833],[6.96658629411971,45.67635391278486,1834],[6.9666286559605055,45.67647974252406,1836],[6.966508381614395,45.67658810421615,1837],[6.96679056025854,45.67670905928946,1839],[6.96698865584913,45.67684573512879,1840],[6.967165698837878,45.67688561683545,1842],[6.967388703901105,45.67695837682672,1843],[6.967403905200642,45.67699257640828,1845],[6.967543104670378,45.67703367229452,1846],[6.967571105446566,45.67707146951301,1848],[6.967640605067785,45.67708946749705,1849],[6.967690905941222,45.67713946506336,1851],[6.967794808191165,45.67716506332815,1852],[6.967841808113353,45.677204460473384,1854],[6.967865809325346,45.67726555944565,1855],[6.9679846120196585,45.6773442531543,1857],[6.967997411045444,45.67745884910065,1858],[6.967912112368611,45.67748964917893,1860],[6.967932811687441,45.677579246776496,1861],[6.967899714011061,45.677628645870115,1863],[6.967824313195607,45.677651046149734,1864],[6.967683612195219,45.677637748631014,1866],[6.96761821164524,45.67761695060537,1867],[6.9674674097935,45.67749825675686,1869],[6.967314506905548,45.67750705972643,1870],[6.967265907339604,45.67747496225604,1872],[6.967055505163147,45.677421167631394,1873],[6.966995905850026,45.67743496857695,1875],[6.966893503254256,45.67740157108226,1876],[6.966747402385224,45.67738367412536,1878],[6.966645203143461,45.67742057364058,1879],[6.966575402602424,45.67738947548478,1881],[6.966519601694289,45.677388877902665,1882],[6.966361398758368,45.67730258290293,1884],[6.966331198211526,45.67731218346779,1885],[6.966333900366998,45.67739748075345,1887],[6.966216998634554,45.67734398331779,1888],[6.966143599136712,45.677325185954615,1890],[6.96611579686461,45.67733188594888,1891],[6.966170898628002,45.67740328333013,1893],[6.966257300278906,45.677427880059305,1894],[6.966305300274731,45.67746367916832,1896],[6.966357600360283,45.67746507677879,1897],[6.966398200649937,45.677484476221444,1899],[6.966461001364884,45.67755737146558,1900],[6.96647250750409,45.67760973177093,1902],[6.966577527082839,45.67767852556105,1903],[6.966688300464501,45.677734669519815,1905],[6.966737071990512,45.677785973274155,1906],[6.96678701074492,45.67785411018217,1908],[6.9668175927766764,45.6778926366908,1909],[6.966878230982054,45.67793512396289,1911],[6.967013838977207,45.677992331690405,1912],[6.9670955452872665,45.678041731107385,1914],[6.967277581464635,45.678116888821826,1915],[6.967457380162602,45.678204771202196,1917],[6.967555134198317,45.67825258826709,1918],[6.967604538004958,45.678286468558866,1920],[6.967606488415771,45.67833071196771,1921],[6.967588600385267,45.67833412979849,1923],[6.9675372042445,45.67833072368564,1924],[6.967474177007831,45.678329601928525,1926],[6.967393847748513,45.678315719723095,1927],[6.967348015759697,45.6783307316687,1929],[6.967359431325554,45.67835853727887,1930],[6.967427319370461,45.67839710568592,1932],[6.967534062208971,45.6784419685162,1933],[6.967645700257013,45.67848660784127,1935],[6.967733117443931,45.67852552361881,1936],[6.967826095733739,45.67858259457666,1938],[6.967899913749954,45.67865364641169,1939],[6.967981584854567,45.678740870865475,1941],[6.968059765058095,45.67878958399411,1942],[6.968129806448497,45.678830057937894,1944],[6.968163522371967,45.67888015982274,1945],[6.968191660654642,45.67892486915402,1947],[6.968212051016834,45.678975044459015,1948],[6.968229245978187,45.67906439151836,1950],[6.96823097878869,45.67910128917617,1951],[6.968278815915635,45.67914279458396,1953],[6.968330614514712,45.67918418863499,1954],[6.968347287440064,45.67921437294958,1956],[6.968340216762626,45.67923790817253,1957],[6.968330000992632,45.67925017978199,1959],[6.968268992496826,45.67929143542678,1960],[6.968209849985565,45.67933023374699,1962],[6.96813408753773,45.679361886803036,1963],[6.968090553631496,45.6793866408773,1965],[6.968054238167782,45.67942055286619,1966],[6.968019522971274,45.679471615330264,1968],[6.96798729007172,45.67952770383468,1969],[6.967973870691541,45.679554862253035,1971],[6.967958427925361,45.679575276451445,1972],[6.967800535155955,45.67968082430503,1974],[6.9677688362356935,45.67969457670378,1975],[6.967766832410072,45.67970388556044,1977],[6.967793820352635,45.67974359353137,1978],[6.967800199223596,45.67975384632277,1980],[6.967833000534233,45.679765461274684,1981],[6.967864057519526,45.67979092064028,1983],[6.96787323558658,45.67980727260209,1984],[6.967884348609006,45.679819301761164,1986],[6.967901629942518,45.67983268457645,1987],[6.967909831157405,45.67985151054347,1989],[6.967905265118376,45.67987944933978,1990],[6.967868698449859,45.67991812266239,1992],[6.967861611498067,45.67998109948451,1993],[6.967842324434612,45.680023097315456,1995],[6.967843905381728,45.68005301313706,1996],[6.967833465268265,45.68007150738531,1998],[6.96782185418404,45.68009776369088,1999],[6.967821525199152,45.680131381710936,2001],[6.96780541907247,45.68015911514365,2003],[6.967786764243764,45.68018368898022,2004],[6.967760110391792,45.68019477334388,2006],[6.967735811344589,45.68021702895922,2007],[6.967716862169693,45.68024969276567,2009],[6.967696136008111,45.6803069202276,2010],[6.967672013337792,45.68038432348804,2012],[6.967650287391162,45.680420051204116,2013],[6.967654735097355,45.680444413316444,2015],[6.967667149613302,45.680469540958065,2016],[6.96769688911729,45.68051698990369,2018],[6.967727614286484,45.680541445221735,2019],[6.9677538949089515,45.680576158728144,2021],[6.967773555172644,45.680621962972644,2022],[6.9677773042737785,45.6806656155236,2024],[6.967793481474501,45.680709490138064,2025],[6.96779626591877,45.6807307102073,2027],[6.967792839061862,45.68077625931266,2028],[6.967796836103232,45.68081306675047,2030],[6.967796681663283,45.68089089655254,2031],[6.96778871805202,45.68096360640551,2033],[6.967788648641413,45.680964104708494,2034],[6.967796806692775,45.68098554371195,2036],[6.967801085450788,45.681014573266815,2037],[6.967831300177197,45.68103877195243,2039],[6.967880188217245,45.681086963924514,2040],[6.967898884031174,45.68111033566882,2042],[6.967888646583438,45.68112322879736,2043],[6.967849256918975,45.68115615173746,2045],[6.9677435936811145,45.681203928214046,2046],[6.967645281847124,45.68128172400671,2048],[6.967615139043204,45.68132913242249,2049],[6.967598078118506,45.6813587164713,2051],[6.967597897810488,45.68136369424279,2052],[6.9675831976227816,45.681377131667176,2054],[6.967569038425436,45.68137563397647,2055],[6.967561341926953,45.68136740268059,2057],[6.967553253328953,45.6813454653595,2058],[6.9675408386841875,45.6813203377067,2060],[6.96753927572545,45.68131137580735,2061],[6.967536741933497,45.68131372399465,2063],[6.967521480323686,45.681290728337,2064],[6.967509629197831,45.68125004492084,2066],[6.967496553280763,45.68121867881787,2067],[6.967470416684498,45.68120451548905,2069],[6.9674525940852226,45.68120606591954,2070],[6.967428993894184,45.681219966865804,2072],[6.967396873859139,45.681261125957825,2073],[6.967382353488477,45.68128140257933,2075],[6.9673739445419125,45.68131736726686,2076],[6.967357675197462,45.68139864641655,2078],[6.9673457994711105,45.68148124946161,2079],[6.9673484461066515,45.68153079764963,2081],[6.967353360978684,45.681591283342115,2082],[6.967358178134831,45.68162997393095,2084],[6.967370622873919,45.68167876314417,2085],[6.967369247781508,45.681716720667836,2087],[6.967357535957053,45.6817457770407,2088],[6.967334552992735,45.68176716132291,2090],[6.967301837091855,45.68178764690212,2091],[6.967138244077779,45.68188831118174,2093],[6.967109195630642,45.681896031511236,2094],[6.96708292195366,45.681908540090355,2096],[6.967012437077403,45.68194153203664,2097],[6.966966146379803,45.68196872798707,2099],[6.966933813361122,45.68200302102948,2100],[6.966897251773855,45.68205591880532,2102],[6.966881897363102,45.68208740076816,2103],[6.966871229762673,45.68211211754806,2105],[6.966859238373478,45.6821243574089,2106],[6.966820870717353,45.68215356200044,2108],[6.966745396789454,45.68217712494385,2109],[6.966703343472326,45.68219800844449,2111],[6.966649799422921,45.68222897151719,2112],[6.966615690013828,45.68226323283898,2114],[6.9665729960669225,45.682289246976595,2115],[6.96651356878323,45.68231122785072,2117],[6.966478593776891,45.68234485087036,2118],[6.966432168442,45.682375780390316,2120],[6.966369536952677,45.682412647070066,2121],[6.966296433360518,45.68244434624361,2123],[6.966197832776765,45.682468741765724,2124],[6.96619138065203,45.68246964933521,2126],[6.9661560422598425,45.6824859061605,2127],[6.966096751123176,45.6825125515973,2129],[6.966017140383729,45.682552229014455,2130],[6.965945766054491,45.68258520445771,2132],[6.965928861783466,45.68261043201032,2133],[6.9659097527780265,45.68264745169148,2135],[6.965874250109403,45.68267110316684,2136],[6.965782221365909,45.68274698500215,2138],[6.96572999464486,45.68279088619096,2139],[6.965676451128057,45.682846594399514,2141],[6.96561621065878,45.68289097562652,2142],[6.965549681998263,45.68291282858997,2144],[6.965487594973498,45.68292685714304,2145],[6.965370264401992,45.68298963651078,2147],[6.9653692285301645,45.68298962525559,2148],[6.965289789201952,45.68300004038864,2150],[6.965165893287393,45.68301153187207,2151],[6.9651001044461305,45.68301981122095,2153],[6.965010564016896,45.683041028804254,2154],[6.964889875147349,45.68310524734763,2156],[6.96483276050951,45.683121877147514,2157],[6.96478735582719,45.683149088000725,2159],[6.964728071396611,45.68319161725359,2160],[6.964693240238338,45.68324940642601,2162],[6.964510342034245,45.68329020852324,2163],[6.964473941034033,45.68328160849554,2165],[6.964379140191909,45.683332909316064,2166],[6.964247338824041,45.6833614087904,2168],[6.964179039416974,45.683434508090684,2169],[6.96415754148691,45.68349860755135,2171],[6.964079140081947,45.68354780629461,2172],[6.963988639063533,45.6835566066065,2174],[6.963937239809246,45.68354190836387,2175],[6.963828539833761,45.68358510871746,2177],[6.963583535731099,45.68344331934569,2178],[6.96349993526025,45.68345482011843,2180],[6.963356035007372,45.683425422812974,2181],[6.963296733916207,45.683448422237895,2183],[6.9632385332702,45.6834304251367,2184],[6.963142134105232,45.68349062510246,2186],[6.963155035474,45.68358362167219,2187],[6.963100934708526,45.68354522286854,2189],[6.963060433699293,45.68358822219281,2190],[6.963031234375527,45.68358322262446,2192],[6.963008935025889,45.68360272358081,2193],[6.962972134084169,45.68352782589564,2195],[6.962949832907542,45.68352042736075,2196],[6.962914532917568,45.683537527230015,2198],[6.962810234018758,45.68381611902491,2200],[6.962732535091435,45.68389161677271,2201],[6.962732736153784,45.6839256159451,2203],[6.962772535906339,45.683988513483314,2204],[6.962762137529577,45.68407520978846,2206],[6.962881340335565,45.684254901735855,2207],[6.96295964133873,45.68445899387495,2209],[6.963043242807812,45.68449179128139,2210],[6.963090243964656,45.68456008795409,2212],[6.9632487450758065,45.684632783665414,2213],[6.96329134597482,45.68468208053748,2215],[6.963355246120123,45.6846904801172,2216],[6.963377646238318,45.6847207780741,2218],[6.963515547990122,45.68476587357346,2219],[6.963375748121117,45.68474497766273,2221],[6.963214646047797,45.68477227833552,2222],[6.9632987485441316,45.68481067571316,2224],[6.963252948602393,45.684843975063785,2225],[6.9634315484624265,45.684934268887616,2227],[6.963517750916401,45.68501706431824,2228],[6.9635111517111765,45.68512386214676,2230],[6.96347585018181,45.685150461479246,2231],[6.963359149506459,45.685123464585764,2233],[6.963274550049545,45.685075467264,2234],[6.963221648733069,45.68497187277108,2236],[6.963189547091331,45.68495037363267,2237],[6.963149848230666,45.684948473878805,2239],[6.962974444703108,45.68486437869496,2240],[6.962925544297148,45.684863380410206,2242],[6.96287634431662,45.684912080333156,2243],[6.9628563456867045,45.68496057749488,2245],[6.962794947705482,45.68500597795226,2246],[6.962758246253347,45.68509007545465,2248],[6.9626901460053805,45.685126175593346,2249],[6.962633145797762,45.68512324244644,2251],[6.962526244868263,45.685131078462845,2252],[6.962493545282978,45.685161477199074,2254],[6.962399544388394,45.685196978237045,2255],[6.962352945540851,45.68519447805593,2257],[6.962271845792974,45.685215680281146,2258],[6.962218843598455,45.685208880468025,2260],[6.962174943206018,45.68522818121612,2261],[6.962037988663816,45.68535200241559,2263],[6.962015844398755,45.685401777036724,2264],[6.96206234552896,45.685506872590985,2266],[6.962138847605348,45.68558156814692,2267],[6.962338250231416,45.68561066482582,2269],[6.962368450109641,45.685649663597516,2270],[6.962416448742772,45.68566886161104,2272],[6.962439252141305,45.68574115872534,2273],[6.962503651534851,45.685798354984136,2275],[6.962593753987561,45.685944549481384,2276],[6.962563753531649,45.68606984557225,2278],[6.962571154465088,45.68615014128307,2279],[6.962675956955682,45.68622043780573,2281],[6.9626691559915965,45.68631343392352,2282],[6.962743456675489,45.686352331883924,2284],[6.962869258240761,45.686384028089776,2285],[6.962858260219197,45.68644662785298,2287],[6.962927659820407,45.68646652423303,2288],[6.963073062935434,45.686639216301934,2290],[6.963075763850291,45.68670651396298,2291],[6.96315036504637,45.686828408690275,2293],[6.9631512646046865,45.68686340677935,2294],[6.96321506557604,45.68690990454389,2296],[6.963355367478447,45.68692030219946,2297],[6.96347726617163,45.68695349784487,2299],[6.963495467363272,45.68698069665871,2300],[6.963565868324027,45.686975296992536,2302],[6.963805271372293,45.687116988245116,2303],[6.963864172726834,45.68732298033536,2305],[6.963929074135461,45.687418374607326,2306],[6.963991175229687,45.6874719719638,2308],[6.964024776952832,45.68754276913001,2309],[6.964014977007319,45.68764336601827,2311],[6.9640341777765045,45.68780106000803,2312],[6.963938778497766,45.68796995623465,2314],[6.963944379676681,45.68810775028089,2315],[6.96390348037643,45.688132350788734,2317],[6.963849339322993,45.68815256407121,2318],[6.963765839178415,45.688140022412156,2320],[6.96355218677266,45.68805402206773,2321],[6.963501217033584,45.688063075991884,2323],[6.96340782269502,45.68816399299596,2324],[6.963398198598165,45.68818436901118,2326],[6.963402351201822,45.688216822108764,2327],[6.963461234052534,45.688255394225095,2329],[6.963531316206999,45.688298510651855,2330],[6.963689420052458,45.688372935747076,2332],[6.963839968908588,45.68845967925558,2333],[6.963889973695726,45.68850166612238,2335],[6.9639173040196845,45.68854418297091,2336],[6.9639365797128265,45.688600566661435,2338],[6.963941259416558,45.68864299108498,2339],[6.963964619158324,45.688733692463046,2341],[6.964001065100785,45.68880657088391,2342],[6.964020623297166,45.68885517580849,2344],[6.964022412120215,45.68897724968599,2345],[6.964003238328725,45.68923624525997,2347],[6.964007586982563,45.6893367262412,2348],[6.964019864158539,45.689439061402126,2350],[6.964007998017312,45.68949675750162,2351],[6.963983467379342,45.68953617065179,2353],[6.963939885700157,45.68958645177883,2354],[6.963916593495065,45.689609399555025,2356],[6.963955295565116,45.68971619495109,2357],[6.963995194342301,45.68976299335833,2359],[6.963992995383503,45.68980199188714,2360],[6.963913296572094,45.68993578810175,2362],[6.963851496802045,45.690106683757826,2363],[6.963843448252062,45.69013827663642,2365],[6.963826972143623,45.690163822908445,2366],[6.9637482808276125,45.69020227030591,2368],[6.963664143021439,45.690219450041035,2369],[6.963610598553277,45.690225966714415,2371],[6.963528139547918,45.69022138294939,2372],[6.963461931872327,45.6902096174784,2374],[6.963403671089573,45.69019923848538,2375],[6.963352632881132,45.69021015876091,2377],[6.963292302108171,45.690207837102164,2378],[6.963208909812756,45.69020448215498,2380],[6.963195234372625,45.690197491340236,2381],[6.96318960169239,45.69019791111721,2383],[6.963069799720664,45.690156230745124,2384],[6.96292863390425,45.69008170012448,2386],[6.9627315569154264,45.68988940433541,2387],[6.962619969506085,45.68977352534562,2389],[6.962465954468416,45.68973492602654,2390],[6.962146844582478,45.68968865248744,2392]]}}]}