{"type":"FeatureCollection","features":[{"type":"Feature","properties":{"slug":"42-s6","sct_code":"42_S6","source":"Catasto Sentieri VdA"},"geometry":{"type":"LineString","coordinates":[[7.863180008457695,45.59733808934605,1260],[7.864122008743059,45.59727008880746,1263],[7.864362008454394,45.597320089053476,1266],[7.8648320078555605,45.59747008939408,1269],[7.865232008413312,45.59748008905695,1271],[7.86578200772189,45.597360088867816,1274],[7.866112007603976,45.597370088786604,1277],[7.866392008202974,45.597470089349876,1280],[7.86645200803388,45.597580089533984,1283],[7.866822008580126,45.597610088841414,1286],[7.867692008693498,45.597880089566054,1289],[7.869462007501032,45.5985400893446,1291],[7.871172008135287,45.59905008996239,1294],[7.872092007914468,45.59911008998199,1297],[7.872642008295546,45.599240090599615,1300],[7.873031008191331,45.59928009058347,1303],[7.874781007586747,45.59953009030432,1306],[7.8753610078092215,45.59955009018269,1308],[7.8760034600440685,45.59965556769515,1311],[7.876081007858377,45.59969009067549,1314],[7.876006090806308,45.599723387025485,1317],[7.8755510080112545,45.59978009037561,1320],[7.874156983857752,45.59970424559851,1323],[7.8741535698913445,45.600047422996845,1326],[7.874091008752374,45.60019009063915,1328],[7.873891008486073,45.60041009124789,1331],[7.873462007824322,45.60048009085154,1334],[7.873432008605958,45.60032009067249,1337],[7.873332008637282,45.600330090625654,1340],[7.873062008571656,45.60042009133222,1343],[7.872942008306895,45.600550091053734,1346],[7.872822008512165,45.60053009092841,1348],[7.872802007875343,45.60087009111872,1351],[7.872732008589007,45.60087009157475,1354],[7.872722008511704,45.600920090896885,1357],[7.872502008613325,45.60098009107325,1360],[7.87233200793603,45.60091009110059,1363],[7.872082007945221,45.60092009140787,1366],[7.871922008727612,45.601280091911114,1368],[7.871972008233951,45.60154009176432,1371],[7.871862007944291,45.60168009167572,1374],[7.871742008207077,45.601730091719,1377],[7.871792008093241,45.60185009174403,1380],[7.871312007679113,45.60212009213871,1383],[7.871242007740305,45.60203009168322,1385],[7.870692008074423,45.60206009199015,1388],[7.870252008214641,45.601930091797726,1391],[7.869892008301094,45.60197009226963,1394],[7.869362007822386,45.60194009172594,1397],[7.869102007642656,45.602020092227,1400],[7.869092007950343,45.60207009212672,1403],[7.868692008613667,45.6023100919943,1405],[7.868452007784589,45.60254009255439,1408],[7.8683720075734085,45.6025500927713,1411],[7.868362008659314,45.60261009240905,1414],[7.867762007911224,45.60286009272304,1417],[7.867662008463842,45.6028400928202,1420],[7.8676020083437415,45.602950092527706,1423],[7.867432008684354,45.602990092971815,1425],[7.867422007616887,45.60308009279509,1428],[7.867332008665608,45.60311009264372,1431],[7.867432008464576,45.603300092995084,1434],[7.867432008061827,45.60394009348595,1437],[7.866972008090842,45.6046000939775,1440],[7.867132007549364,45.60483009391862,1443],[7.866802008731614,45.60510009393518,1445],[7.866732007976303,45.60534009386041,1448],[7.866612008703376,45.60538009409792,1451],[7.866642008205375,45.60546009399162,1454],[7.866572008509105,45.60559009428738,1457],[7.866272008501306,45.60582009421483,1460],[7.866202008119903,45.60616009441777,1462],[7.865982008470283,45.60644009452508,1465],[7.86607200791305,45.60658009492436,1468],[7.865912008263249,45.6067700947258,1471],[7.865492008044317,45.606960095389255,1474],[7.865222007957885,45.607370095084896,1477],[7.864942007907227,45.60764009579191,1480],[7.864862008432105,45.60782009628225,1482],[7.86453200802022,45.60817009601347,1485],[7.863832008218347,45.60858009596857,1488],[7.863622007857624,45.60857009621125,1491],[7.863692007673691,45.60855009636325,1494],[7.863622008391469,45.60852009637283,1497],[7.86351200858527,45.608570096296944,1500],[7.863312007926772,45.60872009667246,1502],[7.863172007708869,45.609050096909925,1505],[7.862542007494024,45.60955009689267,1508],[7.862232008211935,45.60995009717422,1511],[7.861894327523969,45.61003451789492,1514],[7.861832007929242,45.610050097311984,1517],[7.861882007553906,45.61031009761413,1520],[7.86176018542941,45.61030974059267,1522],[7.86203592753391,45.61098754103376,1525],[7.862055000345787,45.61135225964061,1528],[7.862091339537311,45.611537136124845,1531],[7.862395858878258,45.61217471905929,1534],[7.862389812950702,45.612255665185266,1537],[7.862409942617836,45.61244938170456,1539],[7.862524110381179,45.61272953959351,1542],[7.8625599596267906,45.612918910457346,1545],[7.862589624901804,45.61351325315011,1548],[7.862572834315837,45.613630095084304,1551],[7.862395950472447,45.614132371975536,1554],[7.862315263723575,45.61425757817795,1557],[7.8621429624024515,45.61445387824036,1559],[7.861950239379224,45.61460947051803,1562],[7.86170955917675,45.614778083816375,1565],[7.861081656425387,45.61512735426844,1568],[7.860488990359793,45.61551747322694,1571],[7.860412563953418,45.61557071586429,1574],[7.8603982988817105,45.615602075992726,1577],[7.860412778136233,45.6156787263937,1579],[7.860572535388534,45.61586483356817,1582],[7.860790635582242,45.616020021760484,1585],[7.860998918952257,45.616224613684295,1588],[7.861046567557598,45.61630609599188,1591],[7.861105655976331,45.616495698918335,1594],[7.861015583057049,45.61678732347594,1597],[7.8610763657545535,45.61687343617674,1599],[7.861208568252956,45.61695576145471,1602],[7.861279751682019,45.616983472304796,1605],[7.8616919401448735,45.61705508594572,1608],[7.8622736007606,45.617110385742365,1611],[7.862624460141617,45.61712287970537,1614],[7.862840286067254,45.617093526114665,1616],[7.863057153568543,45.61703268094376,1619],[7.863403766154279,45.61697762591377,1622],[7.86399462244994,45.616974502115085,1625],[7.864101543373001,45.61693956264204,1628],[7.864420330528777,45.61675371950445,1631],[7.864503734802576,45.616732046003925,1634],[7.864836032540369,45.61673084760665,1636],[7.865083748106466,45.61667030514803,1639],[7.865553994381044,45.61628794555406,1642],[7.865681401645064,45.61623070721569,1645],[7.865901466099735,45.616169886584274,1648],[7.866053961344707,45.61618040125319,1651],[7.866262164669383,45.61629047724122,1654],[7.866398177940117,45.61632332960207,1656],[7.8670457223075845,45.61641075957312,1659],[7.867309142323819,45.616386371742294,1662],[7.867487440930667,45.61632963333409,1665],[7.867763671766907,45.6162063619925,1668],[7.868554901356689,45.61574616588004,1671],[7.868829794256394,45.61560937854839,1674],[7.8689720622453825,45.615570284196885,1676],[7.869060974250289,45.61556245007179,1679],[7.869141058398638,45.61558402647007,1682],[7.869157177802306,45.61561081462333,1685],[7.869151104546915,45.615636734114126,1688],[7.8691008760695675,45.61569533901947,1691],[7.868987740089575,45.61581015144358,1694],[7.868828752046469,45.61593847337227,1696],[7.868662283781482,45.61603603310906,1699],[7.868370163709296,45.61631842466352,1702],[7.868307460141564,45.61639898883373,1705],[7.868412769983618,45.616534360362294,1708],[7.868426601908424,45.61658381041085,1711],[7.8683953307275525,45.616624193670425,1713],[7.8680525903331455,45.61688636416218,1716],[7.868010410335179,45.61693095054344,1719],[7.867940923696796,45.617018181604216,1722],[7.867862007669701,45.61698010146941,1725],[7.8677520078489245,45.61704010158506,1728],[7.8676020082147,45.61723010174468,1731],[7.86748200843813,45.61728010169443,1733],[7.867462007778574,45.61735010252128,1736],[7.867074564275522,45.61759026474274,1739],[7.866901167352534,45.61752710064482,1742],[7.866837134906098,45.617429159805994,1745],[7.8665520078382265,45.61768010278672,1748],[7.866012008375493,45.61787010232692,1751],[7.865602008079329,45.61819910287599,1753],[7.8652520082833455,45.61830010286939,1756],[7.865032008008007,45.618439102904325,1759],[7.864962007991788,45.618609102819995,1762],[7.864652007833894,45.61868910288189,1765],[7.864532008384908,45.618849103510556,1768],[7.864012008416839,45.618939102943,1771],[7.863702008217516,45.6193291032178,1773],[7.863450007856372,45.61939810387833,1776],[7.86334200871985,45.61965910331176,1779],[7.862502008058451,45.620009103931075,1782],[7.862512008451038,45.620299104118864,1785],[7.862342008192782,45.62054910462905,1788],[7.862062007679935,45.62068910431373,1790],[7.862082008321133,45.620759104826064,1793],[7.8625320076736,45.62113910469641,1796],[7.86255200775989,45.6214791051306,1799],[7.862702008107709,45.62171910531493,1802],[7.863282013408972,45.622139125575615,1805],[7.86325719727144,45.62214252929369,1808],[7.863160504175761,45.622340125789684,1810],[7.862931516185285,45.62255762355408,1813],[7.862911519852351,45.622690220656274,1816],[7.862843824241886,45.622770719449996,1819],[7.8628050267813725,45.62286651725571,1822],[7.862827329090675,45.6230125126336,1825],[7.862793433575967,45.62313890936754,1828],[7.8627274364296555,45.623183209828845,1830],[7.862661040884758,45.6232713081314,1833],[7.862613841782237,45.623285809005395,1836],[7.86249114738568,45.623382108774024,1839],[7.862367452538648,45.62341421004334,1842],[7.86233105526142,45.623476709238226,1845],[7.8621490620299825,45.62355281091631,1848],[7.8620159687184,45.623701008951436,1850],[7.862016769916794,45.62372670849444,1853],[7.862007169131578,45.6237145087213,1856],[7.861971073165146,45.62380170688509,1859],[7.8619899749582185,45.623923202858315,1862],[7.861903282865085,45.6241646970113,1865],[7.861933383293502,45.6241976955091,1867],[7.861945087287159,45.624406489426505,1870],[7.861905688866251,45.62442029006591,1873],[7.861910389785048,45.62446968766454,1876],[7.861868092644854,45.624542986344935,1879],[7.8618313934077335,45.62454548738986,1882],[7.861776596892952,45.62459748737522,1885],[7.8617683976358235,45.624651285576135,1887],[7.861688103262636,45.62476818379682,1890],[7.861674705122204,45.62484668206464,1893],[7.861584711233116,45.624995579090125,1896],[7.861596912425543,45.62507367632575,1899],[7.861579414694319,45.625149874548825,1902],[7.8616407150720615,45.625261269506225,1905],[7.861661617896759,45.625369765955874,1907],[7.861644120481846,45.62548346283944,1910],[7.861607622359784,45.62554456207147,1913],[7.861478129621199,45.6256803608713,1916],[7.861417731736918,45.62570096176249,1919],[7.861366534373767,45.62574416144581,1922],[7.861310935508782,45.625740362460505,1925],[7.861264637386956,45.625765362950595,1927],[7.861224341167506,45.6258790601924,1930],[7.8611293462835725,45.62595076031732,1933],[7.861082649180352,45.626010458890526,1936],[7.8610774503529575,45.62605515755261,1939],[7.860995754533697,45.62614195740253,1942],[7.860905658182834,45.626183057957526,1944],[7.860880560825977,45.62625065662668,1947],[7.860863260972405,45.62625565679464,1950],[7.860888163522703,45.62640355144275,1953],[7.860875063244151,45.62638735188057,1956],[7.86077596731832,45.62642105312773,1959],[7.860747568270435,45.62645785270151,1962],[7.86074846927351,45.626489552192226,1964],[7.860545578640859,45.62663035217828,1967],[7.860486481709115,45.626692150875286,1970],[7.860437388142997,45.62690314564275,1973],[7.86038329037112,45.62694884603329,1976],[7.860337192587425,45.62695034646041,1979],[7.860269144373667,45.62699001576165,1982],[7.8600023230498595,45.627096425203874,1984],[7.859946132107702,45.6271264505097,1987],[7.859830910769943,45.627140651123966,1990],[7.859575419627256,45.627207755074764,1993],[7.859503121796354,45.62720245638687,1996],[7.859425225820241,45.627238957625146,1999],[7.859244730861898,45.6272762595538,2002],[7.859147234511751,45.62729106132567,2004],[7.858962139233841,45.6272681662047,2007],[7.858876142986439,45.62734196598285,2010],[7.858746449138272,45.62740566688013,2013],[7.858710651182634,45.62745246558041,2016],[7.858526157960657,45.627525967667545,2019],[7.858475760140923,45.6275287681741,2021],[7.858324965610263,45.62758916958392,2024],[7.858265067929921,45.62759837083864,2027],[7.858162431846067,45.6276745716467,2030],[7.858093874788893,45.627704371614854,2033],[7.857995070732359,45.62772508357773,2036],[7.857883682278006,45.62774647428822,2039],[7.857775284374923,45.62774037701227,2041],[7.857644588756647,45.627758878717806,2044],[7.8573593970456255,45.62776638508382,2047],[7.857209383073229,45.62784086899214,2050]]}}]}