{"type":"FeatureCollection","features":[{"type":"Feature","properties":{"slug":"44-s10","sct_code":"44_S10","source":"Catasto Sentieri VdA"},"geometry":{"type":"LineString","coordinates":[[7.062156769089317,45.75673329388407,996],[7.062127764646108,45.75671622900713,997],[7.062140743200231,45.75668330281903,999],[7.062492636348532,45.75652814654753,1000],[7.062809183755295,45.75648401205449,1002],[7.062906383057732,45.75642715874704,1003],[7.063145915998445,45.75617020367063,1005],[7.0632254413727855,45.756113048564366,1006],[7.063738979700115,45.756054252516414,1008],[7.063839296439899,45.75562842514156,1009],[7.0636706737994635,45.75572907302241,1011],[7.063551719004812,45.75571805743875,1012],[7.063521459614618,45.75566353915894,1014],[7.063614187554673,45.75556160387196,1015],[7.063863737683398,45.755363322612986,1017],[7.064473105254149,45.755112634542904,1018],[7.064853645035591,45.755015387287095,1020],[7.065329142993891,45.754897623029755,1021],[7.065502026395005,45.754801546044725,1023],[7.065633115571166,45.754682257714876,1024],[7.06571362456772,45.75464312047023,1025],[7.065880777335862,45.75459644810434,1027],[7.065722008336528,45.75452420288187,1028],[7.065702008694231,45.7544842031426,1030],[7.0659520079996945,45.754274203455395,1031],[7.065959791511023,45.754170258032765,1033],[7.06557252063629,45.754226703385505,1034],[7.065368956650404,45.7542331209112,1036],[7.0649614869015185,45.75413084795044,1037],[7.064845294407495,45.75407487584262,1039],[7.064753727918748,45.75399231827188,1040],[7.064608131682783,45.753926846212714,1042],[7.064372522312056,45.75387335113823,1043],[7.064155034779553,45.75386516380762,1045],[7.064030965827542,45.753883535312866,1046],[7.063962431884898,45.753864473245784,1048],[7.063929238861556,45.753823896720974,1049],[7.063948771310876,45.7537810547738,1051],[7.063442259993626,45.753772076888076,1052],[7.062922351851632,45.753934271071216,1054],[7.062518651773519,45.754028336032945,1055],[7.062100340294635,45.75425708644699,1056],[7.06150045374208,45.75443431701424,1058],[7.060980715742701,45.75455470297024,1059],[7.060101227219574,45.75476696682621,1061],[7.059700646805833,45.75488162491335,1062],[7.059302470085535,45.754926917218974,1064],[7.0590251526520875,45.755061018683165,1065],[7.0586248327980385,45.75531915825097,1067],[7.05822144790957,45.755493987201916,1068],[7.057795714646473,45.755524847652495,1070],[7.0575519472983155,45.75530115286086,1071],[7.057291197700258,45.755404724725764,1073],[7.057147035557777,45.75548327761547,1074],[7.056762824214296,45.75580976229533,1076],[7.05656476027404,45.75595940190053,1077],[7.056420595687209,45.75603795382632,1079],[7.056153259224198,45.75614591127824,1080],[7.055952360755042,45.75619199499741,1082],[7.055630477648701,45.7562045167391,1083],[7.055443054013601,45.756232827818,1084],[7.0552340102697935,45.75632827473547,1086],[7.055003970805749,45.756472866860726,1087],[7.054698093660371,45.75676467626347,1089],[7.054467440034958,45.757111769683334,1090],[7.05437435899455,45.75720018975907,1092],[7.054245299479631,45.757325323982684,1093],[7.054173781578688,45.75742178693686,1095],[7.054116749120557,45.75758282551805,1096],[7.054113934058435,45.75766378268636,1098],[7.054233370305123,45.757926834057734,1099],[7.05424842401543,45.75804859820873,1101],[7.054148759256492,45.758141406210534,1102],[7.054030287204837,45.758220392826765,1104],[7.054014621161619,45.758301131024496,1105],[7.053931885608407,45.75846173154776,1107],[7.0537861466328575,45.75858525614117,1108],[7.053629433373552,45.75865459011332,1110],[7.05356517901734,45.758653495081674,1111],[7.053386518491298,45.75861444785931,1112],[7.053244220227775,45.758639024147236,1114],[7.053203789978956,45.758692338409276,1115],[7.053168699750311,45.758961757324705,1117],[7.053116044157309,45.75899686202428,1118],[7.053051163486461,45.75901375716375,1120],[7.052974057791247,45.75901244272327,1121],[7.05288597913685,45.75895693775046,1123],[7.052800404735402,45.75882947085658,1124],[7.052774068211125,45.75866251131913,1126],[7.052749931554083,45.758617096958254,1127],[7.052667496589572,45.75858418945727,1129],[7.0525900784633535,45.75859186999862,1130],[7.052447153813352,45.75863443575029,1132],[7.052368483285748,45.75867809706041,1133],[7.05214720054829,45.75875532845126,1135],[7.052015873510386,45.758834093731814,1136],[7.051856338973825,45.75898438226571,1138],[7.051791771133885,45.75899228145722,1139],[7.05156108074612,45.75897034498127,1141],[7.051470184578272,45.75899579596419,1142],[7.0514366477093064,45.75903572635244,1143],[7.051411889685011,45.75919281389702,1145],[7.051377412925478,45.75925972993546,1146],[7.050902868684334,45.759409142416075,1148],[7.0507226410135795,45.75941506712412,1149],[7.050595070890579,45.75938588806941,1151],[7.050509257667709,45.759404481105875,1152],[7.0504695167516696,45.75942381911717,1154],[7.050262971633443,45.75963665165299,1155],[7.050135255198254,45.75966605698347,1157],[7.049766719947797,45.75964090659679,1158],[7.049604788995803,45.75965768793292,1160],[7.049530941194719,45.75966473882675,1161],[7.049465431618749,45.759699622322835,1163],[7.048948557689592,45.76014082218782,1164],[7.048645765751532,45.760342662281715,1166],[7.048422902803965,45.760464862277054,1167],[7.048135308528179,45.76048910949946,1169],[7.0480127905306285,45.76048084031631,1170]]}}]}