{"type":"FeatureCollection","features":[{"type":"Feature","properties":{"slug":"44-s3","sct_code":"44_S3","source":"Catasto Sentieri VdA"},"geometry":{"type":"LineString","coordinates":[[7.027704415828796,45.76395955485956,990],[7.027581019633085,45.76407057627229,994],[7.027549011539487,45.76411274826803,997],[7.02754143549078,45.764154487153654,1001],[7.027559693110304,45.76419069041879,1004],[7.027599478748417,45.76421567454145,1008],[7.027904754858486,45.76431095184838,1012],[7.027956581726029,45.76433457586492,1015],[7.02800481909573,45.764425414397536,1019],[7.027966037310909,45.7644803340573,1022],[7.027860276321787,45.76451292422925,1026],[7.027411407216916,45.76447817078166,1030],[7.027359047710416,45.76450426813533,1033],[7.027344292723141,45.764558016671394,1037],[7.027757945418658,45.76486217916679,1040],[7.028160335628322,45.76512114288382,1044],[7.028222694264631,45.76517622286189,1048],[7.028232376166099,45.765266395643245,1051],[7.028205086614948,45.765310927319945,1055],[7.028152409632386,45.765346020116354,1058],[7.0280618100382215,45.765362457005764,1062],[7.027816983784013,45.765376230753866,1066],[7.0275342350570025,45.765371347921246,1069],[7.027488776588667,45.765384063670666,1073],[7.027468705384974,45.76540621843037,1076],[7.027530112206739,45.76548828403418,1080],[7.0279340911474115,45.76570227314727,1084],[7.027971379725568,45.76573891924818,1087],[7.027982329585379,45.76579311168763,1091],[7.027955039566143,45.76583764329324,1094],[7.027876657261351,45.76587229211104,1098],[7.027721795067906,45.76588761906467,1101],[7.027413339113987,45.76588229200068,1105],[7.0273033013573665,45.76590289284175,1109],[7.0272957650409085,45.76593426463863,1112],[7.027064105710767,45.76593926363521,1116],[7.026882586703417,45.76598113065023,1119],[7.026880048675967,45.766053091299526,1123],[7.026942407036371,45.76610817196466,1127],[7.027145190190448,45.76619268003564,1130],[7.027143604123771,45.76623765544701,1134],[7.027259593007096,45.76623065839567,1137],[7.0277567145483095,45.7663562512883,1141],[7.028051052456273,45.76639733590788,1145],[7.029173007655333,45.76635421280642,1148],[7.030013008688078,45.766384212755995,1152],[7.03047300822024,45.766564212626996,1155],[7.031413008444058,45.766674213548136,1159],[7.03181300778712,45.766704212728676,1163],[7.03206300793954,45.7667942132121,1166],[7.0318130080951935,45.766944213573154,1170],[7.031583007801659,45.76697421338847,1173],[7.0316230077942246,45.76700421310074,1177],[7.032103007647674,45.76707421320761,1181],[7.031903007474401,45.76714421333145,1184],[7.031113008278356,45.76714421331205,1188],[7.031253008499527,45.767204213172704,1191],[7.031093008473777,45.76722421383116,1195],[7.031283007464864,45.767304213470915,1199],[7.031513008076484,45.7673542139399,1202],[7.0315530080046855,45.76740421381692,1206],[7.031093007416193,45.76741421382731,1209],[7.031653008527022,45.76757421355428,1213],[7.030993007643629,45.76766421391409,1217],[7.031173007542581,45.76771421439234,1220],[7.030983007452704,45.767734214369256,1224],[7.0309330083566906,45.76777421400536,1227],[7.031013007991679,45.7678142137154,1231],[7.030833007728669,45.76786421369029,1235],[7.030153007555922,45.767794214258096,1238],[7.029983008505291,45.76785421399815,1242],[7.029963007443401,45.767904214527235,1245],[7.030033008058836,45.76791421369723,1249],[7.029924008581094,45.768014214499246,1253],[7.0301630075410975,45.767984213921075,1256],[7.030143007648571,45.768024213979885,1260],[7.029864008542708,45.768214214197926,1263],[7.029954007452354,45.76820421442046,1267],[7.029924008256989,45.76831421481413,1271],[7.030134007930287,45.768244214221916,1274],[7.030034007574314,45.76844421443029,1278],[7.030184008178034,45.768364214285036,1281],[7.030304008104504,45.768424214168775,1285],[7.030124007457558,45.76851421419694,1288],[7.029944008581389,45.768784215228514,1292],[7.029744008629423,45.76878421512402,1296],[7.029554007492319,45.76884421478307,1299],[7.0292240084015605,45.768634214586754,1303],[7.028964008144359,45.76859421434565,1306],[7.028914008030553,45.76861421473608,1310],[7.029134007824639,45.76872421521989,1314],[7.028364007736224,45.76875421523963,1317],[7.028094008524186,45.76889421537453,1321],[7.028244007587575,45.76885421533415,1324],[7.028534007881899,45.76887421469329,1328],[7.028764008599565,45.768934214908,1332],[7.0289640081850635,45.769074214996465,1335],[7.028654008020681,45.76906421496602,1339],[7.028404008478747,45.76914421499362,1342],[7.028304008378966,45.76929421557379,1346],[7.027974008443362,45.76961421587646,1350],[7.028254008383476,45.769594215806094,1353],[7.028424008372885,45.76951421582994,1357],[7.0287440079312935,45.76947421546476,1360],[7.029344008005687,45.76981421600965,1364],[7.029514007428075,45.769974216038726,1368],[7.029024008307418,45.76987421549024,1371],[7.028784007761923,45.76988421606004,1375],[7.028424008000427,45.770084215671325,1378],[7.028304007477911,45.770194216322096,1382],[7.028724007732361,45.7701242162784,1386],[7.028894007469145,45.77012421614649,1389],[7.029204007941826,45.770264215952906,1393],[7.0292540076523355,45.77035421572469,1396],[7.0287840084891755,45.77034421649325,1400],[7.0284340085587464,45.77045421664826,1404],[7.028354008645028,45.77052421633461,1407],[7.028214008504621,45.77057421594489,1411],[7.028814008368078,45.77050421601355,1414],[7.0289740084759265,45.770564216390184,1418],[7.029144007775708,45.77072421604858,1422],[7.029194008627153,45.77074421674248,1425],[7.028954008173726,45.77069421637197,1429],[7.028624008547385,45.77073421662673,1432],[7.028454007946956,45.770774216610775,1436],[7.028224008025541,45.77091421624535,1440],[7.02765400862409,45.771094216614806,1443],[7.027404007554738,45.77107421644463,1447],[7.027624008164743,45.77115421645629,1450],[7.02786400847594,45.771184216784256,1454],[7.027734007876075,45.77126421720625,1458],[7.028364007773018,45.77127421709142,1461],[7.028894007947345,45.771374216859684,1465],[7.028074007861233,45.771614216997705,1468],[7.027944008008653,45.77168421715152,1472],[7.028154008005959,45.771674217024874,1475],[7.02876400766865,45.77174421720797,1479],[7.028624008606339,45.77180421694794,1483],[7.028434007956767,45.771804217041456,1486],[7.028024008290456,45.771894217801396,1490],[7.027914008202344,45.771994217356514,1493],[7.028134008261085,45.77205421713053,1497],[7.028284007676485,45.77205421731567,1501],[7.028334008005047,45.77208421798727,1504],[7.028754008422072,45.771994217714294,1508],[7.02884400840872,45.772054217935256,1511],[7.028854008215732,45.77213421732694,1515],[7.028754007728688,45.77223421745625,1519],[7.028604007766561,45.77224421749441,1522],[7.028304008442223,45.77219421788728,1526],[7.028054008390358,45.77227421801325,1529],[7.028074007614705,45.772314217949535,1533],[7.02823400759954,45.772424217412684,1537],[7.02852400824222,45.77245421819047,1540],[7.028694008300618,45.77253421796918,1544],[7.028714008015941,45.77258421831373,1547],[7.028454008206488,45.77250421760202,1551],[7.028424007682258,45.772574218153615,1555],[7.028434008500511,45.772624217851615,1558],[7.02851400815703,45.77264421825131,1562],[7.028684007800335,45.77265421803784,1565],[7.028814008606758,45.772774217830325,1569],[7.029484008586383,45.77274421847533,1573],[7.02978400818511,45.77280421819129,1576],[7.0293140078626495,45.77282421818491,1580],[7.028904008527282,45.772914218502876,1583],[7.029034007852158,45.77306421865327,1587],[7.029580008191168,45.77311821857106,1591],[7.029704008624361,45.77322421876633,1594],[7.029694007649032,45.77325421878583,1598],[7.029570008373029,45.77325821884244,1601],[7.029350008678206,45.77321821838527,1605],[7.028844007802068,45.773204218527546,1609],[7.028664007428309,45.773244218141734,1612],[7.028604007466998,45.77335421871122,1616],[7.028484008330257,45.77340421824876,1619],[7.02817400856204,45.773494218476756,1623],[7.028254007582222,45.77355421839449,1627],[7.02818400828154,45.77361421905866,1630],[7.0283840077631785,45.77371421889773,1634],[7.028384008188474,45.77379421940324,1637],[7.028564007516,45.77399421900348,1641],[7.028704007913304,45.77427421967259,1645],[7.0286440077842975,45.774444219710745,1648],[7.028864008526035,45.77476421963912,1652],[7.028964008045873,45.77502421980973,1655],[7.028734007417161,45.775074220291046,1659],[7.028624007709146,45.775114220131705,1662],[7.028824008329663,45.77515421973091,1666],[7.028254008099597,45.775164219730975,1670],[7.028154008124375,45.77521422035216,1673],[7.027824007499331,45.77522422034221,1677],[7.0276840078215335,45.775274220184706,1680],[7.027284008684234,45.77524422012795,1684],[7.027134008533448,45.77535422063416,1688],[7.0268940081587115,45.77537422045484,1691],[7.026784008444009,45.77549422080097,1695],[7.026554007655166,45.7756342205735,1698],[7.026614008182241,45.7756642201604,1702],[7.026914007496849,45.77565422021073,1706],[7.027394008634586,45.77576422042834,1709],[7.0280040078491615,45.77605422047973,1713],[7.028484007738985,45.77607422050261,1716],[7.028244007430218,45.77617422093222,1720],[7.027904008458127,45.77617422084723,1724],[7.02754400810061,45.77627422143175,1727],[7.027124007573814,45.77630422136947,1731],[7.027024008594926,45.77645422159543,1734],[7.026974007480715,45.77646422149277,1738],[7.027014008319218,45.77651422110357,1742],[7.02773400830686,45.776554220829944,1745],[7.028304007458651,45.77672422173873,1749],[7.0285040078673715,45.776694221026645,1752],[7.028294008644313,45.77686422184085,1756],[7.0277640079973285,45.776764221207664,1760],[7.027494008587913,45.776784221789804,1763],[7.027054007468193,45.77707422136507,1767],[7.026954007625229,45.77720422138397,1770],[7.026854008312411,45.777244222158956,1774],[7.02680400798122,45.777374221778786,1778],[7.02711400759352,45.77727422209552,1781],[7.027664008675906,45.7772642217296,1785],[7.028214007963264,45.77735422195043,1788],[7.028504007541798,45.77734422158866,1792],[7.028574007677477,45.77739422184714,1796],[7.028054007607585,45.77749422171714,1799],[7.027914007713204,45.77747422187959,1803],[7.027714008594823,45.777534222198724,1806],[7.027454007417655,45.777734222646735,1810],[7.027364007907299,45.77791422274553,1814],[7.027284008548653,45.77794422229739,1817],[7.027364008619836,45.77797422219345,1821],[7.0275940086766395,45.77786422233812,1824],[7.027764007528444,45.77786422205351,1828],[7.02852400787515,45.77796422199024,1832],[7.028554007886564,45.77798422241138,1835],[7.028424008686773,45.77797422262131,1839],[7.028044008419858,45.77801422210366,1842],[7.027974007424077,45.77805422246208,1846],[7.027854007538837,45.77828422229587,1849],[7.027784007578314,45.778314222949106,1853],[7.027774007716458,45.7783742225133,1857],[7.027854007906138,45.77832422252346,1860],[7.0279740084917295,45.77831422302289,1864],[7.0287640079305405,45.778434222796925,1867],[7.029434008212667,45.77873422326087,1871],[7.0299140084914695,45.77881322301242,1875],[7.030244008284527,45.77881322285646,1878],[7.030544008381996,45.77885322308971,1882],[7.030874008408656,45.778853222916005,1885],[7.031064007881763,45.778833223111356,1889],[7.031004008243541,45.77896322316161,1893],[7.031014008124392,45.77900322296116,1896],[7.031124007788382,45.7789732231389,1900],[7.031084008424942,45.77908322317722,1903],[7.031204007688103,45.779043223247164,1907],[7.031154008212173,45.77914322323338,1911],[7.031254007528676,45.77916322352342,1914],[7.031194007969323,45.77922322374504,1918],[7.031354007701734,45.77920322384722,1921],[7.031294008570902,45.779373223363514,1925],[7.031424008614953,45.77934322328125,1929],[7.0313440075918825,45.77949322357963,1932],[7.0315440085674545,45.77946322385584,1936],[7.031464008225638,45.77956322353339,1939],[7.031614007576693,45.77948322340062,1943],[7.03154400849707,45.77967322361276,1947],[7.031584007436293,45.77968322404856,1950],[7.031854008646151,45.77957322369604,1954],[7.031924007525882,45.77940322339437,1957],[7.031984008493898,45.779383223927546,1961],[7.032034007508414,45.779223223255485,1965],[7.032194007878939,45.7791732233816,1968],[7.0322540084465155,45.77894322309274,1972],[7.032404008461608,45.77892322315003,1975],[7.032384008323037,45.77900322284569,1979],[7.0327540078769974,45.77893322326024,1983],[7.032974008039195,45.77884322316035,1986],[7.033704008031633,45.77837322279661,1990],[7.033724007800106,45.77828322235286,1993],[7.0338140081524205,45.77827322225849,1997],[7.0339140081700835,45.77817322227961,2001],[7.034904007549878,45.77792322204793,2004],[7.035384008235448,45.77776322265681,2008],[7.035524007891096,45.777673222168445,2011],[7.036734008117073,45.77757322174538,2015],[7.036894007545562,45.777673221936226,2019],[7.037174008638635,45.77781322247054,2022],[7.037724008450224,45.77797322267669,2026],[7.03799400785576,45.778013222520926,2029],[7.038014007600116,45.777943222334756,2033],[7.038334008619795,45.77793322273561,2036],[7.03881400857087,45.77797322260045,2040],[7.0391930083051975,45.77789322207393,2044],[7.039453008625027,45.77786322238337,2047],[7.039523007892553,45.77787322198204,2051],[7.039593008105297,45.777943222778426,2054],[7.039753007726803,45.777863222481805,2058],[7.039903007930369,45.77785322219236,2062],[7.040343008486572,45.77789322220034,2065],[7.0408230076900455,45.7778632226753,2069],[7.040883007670515,45.77773322196794,2072],[7.041163007650755,45.77768322201008,2076],[7.041603008356366,45.77774322267271,2080],[7.041783007621954,45.777703222456516,2083],[7.042033008384623,45.77773322217812,2087],[7.04203300866714,45.77757322221749,2090],[7.041623007444409,45.77724322175216,2094],[7.041463008479811,45.776963221806305,2098],[7.04146300763555,45.77684322112765,2101],[7.041623008367907,45.776863221474656,2105],[7.041673008158878,45.77682322172335,2108],[7.041503008237277,45.77650322112125,2112],[7.041573007733647,45.77654322098757,2116],[7.041593007858063,45.7764632214632,2119],[7.041773008318344,45.77637322144852,2123],[7.041823008315754,45.77626322078881,2126],[7.041963008386938,45.77615322128792,2130],[7.042033007676457,45.77640322070088,2134],[7.042333008578429,45.776693221522564,2137],[7.042623007477812,45.7768432212646,2141],[7.042893007709128,45.77686322113212,2144],[7.043163007432067,45.77701322151709,2148],[7.043203008078899,45.776973221689495,2152],[7.043173008707797,45.77691322131067,2155],[7.043373008295474,45.776783221884706,2159],[7.0435230076791955,45.77689322108665,2162],[7.043653008415294,45.77693322142159,2166],[7.043893008619799,45.77697322179054,2170],[7.044233008506722,45.77697322195619,2173],[7.044343008425197,45.77701322193179,2177],[7.044303008025094,45.77710322198537,2180],[7.04461300762657,45.77716322157011,2184],[7.045093008687625,45.777183221945094,2188],[7.045323008292184,45.77724322194856,2191],[7.045713008297876,45.777233221454466,2195],[7.045853007468668,45.777253221942516,2198],[7.045973007845599,45.7773332215536,2202],[7.046873008673671,45.77753322231152,2206],[7.047373007868828,45.777703222402714,2209],[7.047773007896934,45.777863222471886,2213],[7.048233008455972,45.778133222351066,2216],[7.048273008366929,45.77828322308697,2220],[7.048243008517713,45.77862322252733,2223],[7.04814300751584,45.77889322283819,2227],[7.048173008291196,45.77903322321914,2231],[7.048263008361711,45.77917322374177,2234],[7.048283007939786,45.77938322319497,2238],[7.048073008027081,45.77945322377216,2241],[7.0479930083703755,45.779513224020434,2245],[7.047783007496512,45.77985322404667,2249],[7.047623008420619,45.78000322377712,2252],[7.047493007746694,45.780343224468716,2256],[7.047203008446605,45.780563224167594,2259],[7.046803007733553,45.780783224925486,2263],[7.046313008054877,45.78128322526561,2267],[7.045683007491709,45.781603225784444,2270],[7.045193008028289,45.78195322551912,2274],[7.045053008371241,45.78206322619737,2277],[7.044813008623183,45.78238322640447,2281],[7.04477300865159,45.78253322593465,2285],[7.044743007535834,45.78294322679843,2288],[7.044663007923005,45.7832032264929,2292],[7.044353008287904,45.783553226719675,2295],[7.044293008612894,45.78370322742621,2299],[7.044323008643783,45.78375322696022,2303],[7.04458300864756,45.78377322705498,2306],[7.044733007578403,45.78399322725438,2310],[7.044693007544165,45.784153227212805,2313],[7.044763007854692,45.78416322719812,2317],[7.044843008654924,45.78422322799055,2321],[7.044203974163029,45.784775184850865,2324],[7.04376400864922,45.7850132286976,2328],[7.043374008533809,45.78553322876067,2331],[7.042774008158627,45.78681322956338,2335],[7.042124008608509,45.78769323062277,2339],[7.042084008427478,45.78789323063437,2342],[7.041744008214288,45.78846323122521,2346],[7.041664007909808,45.78901323191847,2349],[7.0413640086640426,45.78940323155809,2353],[7.041844008149331,45.78956323244132,2357],[7.0417240086182575,45.79044323293804,2360],[7.04160400766474,45.79054323324938,2364],[7.041334008402125,45.79039323315283,2367],[7.041314008563405,45.79050323302152,2371],[7.040954007436557,45.79050323308634,2375],[7.040984007512644,45.790683233439474,2378],[7.041154008107922,45.79086323361619,2382],[7.040384007445105,45.79164323412136,2385],[7.0398740074390345,45.79201323380974,2389],[7.03973400835981,45.79221323397089,2393],[7.039454008399529,45.792343234230394,2396],[7.039144007490401,45.79270323474606,2400],[7.039214007704456,45.79305323466248,2403],[7.039044007688686,45.7930532349225,2407],[7.038974008395526,45.79326323484177,2410],[7.038764008252423,45.793293235171376,2414],[7.038624007627998,45.79363323523067,2418],[7.038224008146644,45.79392323596665,2421],[7.037894007587114,45.794043236214534,2425],[7.03778400791199,45.794183236085836,2428],[7.03778400850868,45.794373236196876,2432],[7.037534008164793,45.7949032370122,2436],[7.037404008380678,45.79493323681516,2439],[7.037384008002883,45.795343236745886,2443],[7.036854008487352,45.79544323704903,2446],[7.036914008441542,45.79552323708178,2450],[7.0368440081755645,45.79557323697539,2454],[7.037044008065447,45.795783237268445,2457],[7.036564007906071,45.79585323724596,2461],[7.037074008485578,45.79609323750964,2464],[7.036864008145541,45.7961932376708,2468],[7.03701400822107,45.79629323739725,2472],[7.036904008179176,45.79632323743663,2475],[7.037624008336755,45.79653323830664,2479],[7.037584008036449,45.79675323833535,2482],[7.037484007454497,45.79674323782935,2486],[7.037554007577054,45.797063238023824,2490],[7.037414008111422,45.797183238598954,2493],[7.0374840077123615,45.79730323832157,2497],[7.037254007527518,45.79740323845317,2500],[7.037134008630395,45.79783323884934,2504],[7.036674007777921,45.79810323963106,2508],[7.03629400769728,45.79800323924926,2511],[7.036204007851339,45.79821323907115,2515],[7.035884008169295,45.79817323942721,2518],[7.035954008024642,45.79830323964907,2522],[7.03586400838363,45.7984132398701,2526],[7.035714007549889,45.79836323922046,2529],[7.035464007849205,45.79858323947275,2533],[7.035404008234302,45.79845323995833,2536],[7.035234007598431,45.79852323965763,2540],[7.035124008247682,45.79833323928264,2544],[7.034924008557642,45.79828323968721,2547],[7.034924008226046,45.798083239213554,2551],[7.034594007847104,45.79823323939443,2554],[7.034564008265575,45.79835323916877,2558],[7.034414008520174,45.79836323966723,2562],[7.03429400850581,45.79850323950527,2565],[7.034044008181702,45.798373239883276,2569],[7.034084008482224,45.79847323918337,2572],[7.0338540082262915,45.79865323983715,2576],[7.0337640084934065,45.79888323957002,2580],[7.0330840076011905,45.799603240657504,2583],[7.033264007476453,45.79974324083958,2587],[7.0332440079140675,45.80014324111154,2590],[7.032984008669631,45.80034324096627,2594],[7.032854008180021,45.80057324136659,2597],[7.033184007723272,45.80096324190851,2601],[7.03246400767629,45.801653241932414,2605],[7.032234008548321,45.80206324283293,2608],[7.031724007509213,45.80251324266072,2612],[7.031694008411478,45.8026832430521,2615],[7.031244008394323,45.80315324327176,2619],[7.030934008186752,45.803153243820674,2623],[7.030614008384218,45.80332324374413,2626],[7.029854007609804,45.80403324394949,2630],[7.029754007670037,45.80415324454981,2633],[7.029784008443578,45.80432324433924,2637],[7.029424007869452,45.804843244873595,2641],[7.02932400776211,45.8052932450784,2644],[7.0281540079541625,45.80548324527595,2648],[7.026674007909254,45.80537324547114,2651],[7.025584007797985,45.80497324472251,2655],[7.024414007905898,45.80428324487703,2659],[7.02391400838492,45.803943244227284,2662],[7.023714008229388,45.803683244035625,2666],[7.022854008687034,45.80322324343732,2669],[7.022364007996117,45.80282524320536,2673]]}}]}