{"type":"FeatureCollection","features":[{"type":"Feature","properties":{"slug":"45-s22","sct_code":"45_S22","source":"Catasto Sentieri VdA"},"geometry":{"type":"LineString","coordinates":[[7.493961764896734,45.80209425399517,1893],[7.494009008125598,45.80216924306256,1898],[7.494278008778417,45.80228724242157,1903],[7.494576008707116,45.80234824273362,1907],[7.4947640076056175,45.802446242792165,1912],[7.494896684266854,45.80267257021681,1917],[7.494978068210033,45.80292668924012,1922],[7.495233543456164,45.803236070114814,1926],[7.495337619107254,45.80343320080152,1931],[7.495403338999026,45.803501569798385,1936],[7.495446735048866,45.80355289760054,1941],[7.4967440079999665,45.80394824446319,1945],[7.497186810872024,45.804535346572166,1950],[7.497200955584294,45.80460753623488,1955],[7.497550102566658,45.80514315525396,1960],[7.497724967142284,45.80557972654261,1964],[7.49902600795767,45.807075246421554,1969],[7.5000880076408265,45.80910824850107,1974],[7.500454007552656,45.81067524991311,1979],[7.500177007603966,45.811853251217656,1983],[7.4997270083294545,45.812362251770836,1988],[7.5001700081603415,45.8131102520007,1993],[7.501504007570544,45.81406825267373,1998],[7.5026240079171,45.81439825280954,2002],[7.503884007770647,45.814368252765554,2007],[7.505924008550514,45.815578253858284,2012],[7.506444008786634,45.81619825476933,2017],[7.506844008497305,45.817098255115425,2021],[7.50738400867791,45.817508255799396,2026],[7.5078278532202125,45.81898938882749,2031],[7.508310008193405,45.819504257478314,2036],[7.508979008605547,45.81995125789187,2040],[7.5095340075455095,45.820606258156786,2045],[7.509767008707932,45.821048259321955,2050],[7.510813008473207,45.821671259727374,2055],[7.510855008412834,45.82212925991561,2059],[7.510080007973037,45.82257625998174,2064],[7.5099370082179515,45.8228412608892,2069],[7.510301008698661,45.82349326070607,2074],[7.511042007732782,45.824303261758615,2078],[7.511212007614885,45.82506726275495,2083],[7.51174400826607,45.825570262554265,2088],[7.511674008435441,45.82614026311388,2093],[7.510814008083284,45.82662826350262,2097],[7.5106240081035205,45.827158264499815,2102],[7.509504008686321,45.82820826541756,2107],[7.509254007957427,45.82868826600154,2112],[7.5092810081302686,45.82896726565391,2116],[7.508239008161099,45.83017326684472,2121],[7.507775423728052,45.83064713745509,2126],[7.506828689512859,45.83078327366326,2131],[7.506734535912552,45.83081354440232,2135],[7.5065669466851945,45.830941859554734,2140],[7.506432977427548,45.83101661156882,2145],[7.5061705426713425,45.83108068321936,2150],[7.506002683289889,45.831098739012084,2154],[7.505823398080577,45.831062642667746,2159],[7.505558561447899,45.83097592466369,2164],[7.505037614830372,45.830717097127746,2169],[7.504913332267518,45.83067046861137,2173],[7.504535099098437,45.83061151542648,2178],[7.50434075282286,45.83053696785039,2183],[7.504185440242787,45.830447180333564,2188],[7.503984358433442,45.83038379446543,2192],[7.503714803209234,45.83035326293602,2197],[7.503235260094552,45.83035148110303,2202],[7.502909236357955,45.830266205342504,2207],[7.502633850461381,45.83021309382511,2211],[7.502061722801132,45.830183092252305,2216],[7.5019593635223325,45.8301592490037,2221],[7.501612812086093,45.82999944696707,2226],[7.501462672710271,45.82995697574111,2230],[7.50129566072961,45.8299435342972,2235],[7.501144132812165,45.8299527967933,2240],[7.500904884755638,45.82999240944429,2245],[7.500637584309573,45.829997901875,2250],[7.5004626872910105,45.83003835818248,2254],[7.50031966371719,45.83009048316344,2259],[7.5002001298038685,45.83010691471722,2264],[7.500071668264703,45.830096227697915,2269],[7.499873931022341,45.83002837829221,2273],[7.499359079351411,45.829663849996244,2278],[7.499094803959046,45.82955687341721,2283],[7.49887703882389,45.82951576037331,2288],[7.498749849105298,45.82945783641902,2292],[7.498284008347395,45.829588266085246,2297],[7.4968940078899795,45.829518266283124,2302],[7.4947770077231395,45.82995826648851,2307],[7.494261008480616,45.8298942669877,2311],[7.4934690087253095,45.82994126661489,2316],[7.492514008080985,45.83016826651379,2321],[7.492391007643827,45.83047926718743,2326],[7.4920755164775334,45.83049468987094,2330],[7.490845007843448,45.83052826694776,2335],[7.4907889805594525,45.83052514526832,2340],[7.490755323147581,45.83057180515814,2345],[7.490728632962214,45.830600440160744,2349],[7.4906774518146975,45.83062422257566,2354],[7.490623558693554,45.83065249814183,2359],[7.49056008414991,45.83069967034908,2364],[7.490526989592027,45.830725502558124,2368],[7.490503500852513,45.83073153387771,2373],[7.490481259210873,45.83073939255393,2378],[7.490471335017903,45.83077096626145,2383],[7.490454177018166,45.83078251657224,2387],[7.490419908522242,45.830827809224715,2392],[7.490403599723112,45.830951697665114,2397],[7.490250032889155,45.8310239486327,2402],[7.490170205879188,45.83108879552218,2406],[7.490168709132777,45.831088867544516,2411],[7.49016335466517,45.83110251970127,2416],[7.48994800370511,45.83111144942322,2421],[7.4898439088895525,45.83112728488161,2425],[7.4898035311734095,45.83113490367582,2430],[7.4897536324868765,45.831108772856595,2435],[7.48973964486531,45.83110144791154,2440],[7.489641048878883,45.831105579745234,2444],[7.489612046731223,45.831115562070465,2449],[7.489600499659467,45.83111953698879,2454],[7.489553424956441,45.831135220620965,2459],[7.489528812696567,45.831134895196065,2463],[7.489499824808795,45.8311526288341,2468],[7.489424570730417,45.83115616277392,2473],[7.489368722730017,45.83116085962477,2478],[7.489338928795203,45.83116046563857,2482],[7.489293589864159,45.83115986607502,2487],[7.489233684709643,45.83117084999557,2492],[7.489199980645625,45.8311713106038,2497],[7.489155705719445,45.83115532535612,2501],[7.489092330293414,45.8311508636057,2506],[7.489063734389258,45.831154108957776,2511],[7.489026956684176,45.83114364196659,2516],[7.48902475107419,45.831146119408004,2520],[7.4889367113746355,45.83119115401218,2525],[7.488857521273627,45.83119644819758,2530],[7.488818684577379,45.831195028115964,2535],[7.48877618286764,45.83118540786654,2539],[7.488726639638887,45.83119652859614,2544],[7.488678121502799,45.83121762721935,2549],[7.488643098132104,45.83121897565047,2554],[7.488521625698007,45.8312064978195,2558],[7.488374149479807,45.8311972993377,2563],[7.488280833009006,45.83119787629199,2568],[7.488170213291082,45.83119143066968,2573],[7.48787752266329,45.831280860453404,2577],[7.487675751970473,45.83136243514457,2582],[7.487623007951452,45.83136826758324,2587]]}}]}