{"type":"FeatureCollection","features":[{"type":"Feature","properties":{"slug":"45-s24","sct_code":"45_S24","source":"Catasto Sentieri VdA"},"geometry":{"type":"LineString","coordinates":[[7.493961764896734,45.80209425399517,1893],[7.494009008125598,45.80216924306256,1896],[7.494278008778417,45.80228724242157,1899],[7.494576008707116,45.80234824273362,1902],[7.4947640076056175,45.802446242792165,1905],[7.494896684266854,45.80267257021681,1907],[7.494978068210033,45.80292668924012,1910],[7.495233543456164,45.803236070114814,1913],[7.495337619107254,45.80343320080152,1916],[7.495403338999026,45.803501569798385,1919],[7.495251008574805,45.8035772435132,1922],[7.49505900792275,45.80363124425348,1925],[7.494891008059411,45.80378124377538,1928],[7.494890007773622,45.80382024394331,1931],[7.4948070076052105,45.803876243783705,1934],[7.494670007927792,45.80391224403268,1936],[7.494421007905175,45.804042243901186,1939],[7.494306007567575,45.80425024421782,1942],[7.494085007835632,45.804361244343724,1945],[7.49394500861303,45.80451224431022,1948],[7.493669007603153,45.804623244819744,1951],[7.493558008358481,45.804717245249066,1954],[7.493527007771497,45.80483024477615,1957],[7.493271008384362,45.80522724529808,1960],[7.492937007995168,45.80548924545383,1963],[7.493071007683157,45.80556724517835,1965],[7.49320700814482,45.8055882452046,1968],[7.493504007587136,45.80570724565216,1971],[7.493582007810613,45.805822246025635,1974],[7.49349800842071,45.8058972460653,1977],[7.493252008770977,45.805951246248995,1980],[7.492979008289753,45.805947245443804,1983],[7.492842008790627,45.805984246143694,1986],[7.492811008278154,45.80611724624676,1989],[7.492756007881363,45.80615424593908,1992],[7.492457007801053,45.806093245729706,1994],[7.492294008138729,45.80611024567294,1997],[7.492182007962898,45.80618424604439,2000],[7.492073008360748,45.80618324649522,2003],[7.491314007840964,45.806040246076044,2006],[7.491124007724199,45.806037246079576,2009],[7.490962008628996,45.80595924592499,2012],[7.490772008517614,45.80593724629996,2015],[7.490445008699201,45.80593324603838,2018],[7.490061008413513,45.806023246330554,2021],[7.490054007917607,45.80627124660159,2023],[7.48983200826456,45.80643924667912,2026],[7.489695008066642,45.80647524634383,2029],[7.489312008591838,45.80650824672029,2032],[7.489296304166028,45.80658901514814,2035],[7.4892490085406465,45.80683224684691,2038],[7.489433007993014,45.80706324639454,2041],[7.489645821043885,45.80747326652214,2044],[7.489877008677293,45.80779224752544,2047],[7.48989800775238,45.80802124799723,2050],[7.489801008704148,45.808573248143254,2052],[7.489711007870574,45.80885724811,2055],[7.489764008692274,45.808915248332646,2058],[7.489763008418058,45.80897224841006,2061],[7.489650007650201,45.809104248990906,2064],[7.489676008722245,45.809142248808726,2067],[7.4896470081493405,45.809218248532815,2070],[7.489563008361884,45.80931224917071,2073],[7.489526007744497,45.80963624925257,2076],[7.489270008207962,45.81005224945623,2078],[7.489102008722918,45.810221249262696,2081],[7.489043007627402,45.81035324968251,2084],[7.488621007668133,45.81086225027395,2087],[7.488532008214477,45.81110924995457,2090],[7.488228008133248,45.81127625090844,2093],[7.488089007548379,45.81138925061017,2096],[7.4881120076548235,45.81152225028451,2099],[7.487934008693429,45.81205325132447,2102],[7.487820008450813,45.81222325105431,2105],[7.487462008065869,45.81237125161825,2107],[7.486960007535349,45.812784251836945,2110],[7.486706008195751,45.81310425233827,2113],[7.486512008700858,45.813216252386205,2116],[7.4862040081487,45.813536252719175,2119],[7.48576200834259,45.81372025257372,2122],[7.485282770423592,45.81403223007142,2125],[7.48508425094759,45.814217884011036,2128],[7.484980365105311,45.81434377604774,2131],[7.48486500863115,45.81466125300728,2134],[7.4849340085192715,45.815119253393476,2136],[7.484930007812799,45.81527225360695,2139],[7.485061007782946,45.815445253888925,2142],[7.4853020085300495,45.815619254492724,2145],[7.48546000848696,45.815793254037516,2148],[7.485453008037147,45.816060254459,2151],[7.485280008578765,45.81641925512796,2154],[7.485382008150324,45.816668255330896,2157],[7.485514007930782,45.81682325484374,2160],[7.485536007838665,45.817013255791075,2163],[7.485667008153329,45.817206255185816,2165],[7.485932007776444,45.81749525601611,2168],[7.48641700839739,45.81769225642671,2171],[7.486793008162999,45.81788725653291,2174],[7.486846007863632,45.817945256205675,2177],[7.4871400077524894,45.8181402562223,2180],[7.487407008124331,45.81835325615279,2183],[7.487640008055622,45.81879425689485,2186],[7.487747008155929,45.81889125705263,2189],[7.487981008255986,45.819294256992514,2192],[7.488004008747219,45.819447257268784,2194],[7.488217008420614,45.81962125808845,2197],[7.488322007991524,45.81979425782063,2200],[7.48855400788094,45.820273258449326,2203],[7.488425008735487,45.820995258696314,2206],[7.488580007712119,45.82130225921686,2209],[7.4887940076811805,45.82246726013291,2212],[7.488978008740629,45.82269826071028,2215],[7.489133007543427,45.82300526038697,2218],[7.489559008081221,45.82337326063626,2220],[7.489474007540779,45.823486261163545,2223],[7.4895270087405015,45.823544261353,2226],[7.489635007903016,45.823584261502674,2229],[7.489579007653595,45.82365926142999,2232],[7.489659008503221,45.823717261221596,2235],[7.489657008485458,45.823774261443354,2238],[7.48976500796626,45.823833261359795,2241],[7.489843008131496,45.82394826123361,2244],[7.489730008277575,45.82409926149046,2247],[7.48970000795019,45.8241942621174,2249],[7.489617007804831,45.824250261624016,2252],[7.489371008384448,45.824285261561045,2255],[7.489126008518837,45.824282261815284,2258],[7.488906007521239,45.82433626156775,2261],[7.48860700876297,45.824313262113705,2264],[7.488499007653851,45.82427326187128,2267],[7.488307007984795,45.82430926200369,2270],[7.488058008245148,45.824458261927454,2273],[7.487834008457931,45.824646261637454,2276],[7.487886008272326,45.82474226259338,2278],[7.4880200082701105,45.824839262461225,2281],[7.488115007952215,45.82533526290382,2284],[7.4882990087330645,45.82560426332328,2287],[7.488265008196953,45.8258522627198,2290],[7.488340008404254,45.826100263551254,2293],[7.488447008658338,45.826178263048234,2296],[7.488666008758179,45.826143263430325,2299],[7.488855008268476,45.82620226381811,2302],[7.489444008234176,45.82659126362313,2305],[7.489577007918944,45.82672626346,2307],[7.489602008154543,45.82680326405007,2310],[7.489462007908236,45.826915263699036,2313],[7.4894890081133765,45.82695426400008,2316],[7.48973300857826,45.82699526390077,2319],[7.490006007801096,45.82696126450889,2322],[7.4902230077322285,45.82700226378093,2325],[7.490439007578223,45.8270812644798,2328],[7.490545008451646,45.82719626389698,2331],[7.4904340082968845,45.82727126468942,2334],[7.490185008652488,45.827401264809545,2336],[7.489827007819849,45.82753026450337,2339],[7.489714008146665,45.82768126466359,2342],[7.489604008174709,45.827717264670426,2345],[7.489547008057349,45.827812264636336,2348],[7.4893020081428885,45.82780926528027,2351],[7.489081008757532,45.82790126449619,2354],[7.488941008673107,45.828052264986304,2357],[7.488933008088272,45.828337265274996,2360],[7.488570007859252,45.82865626561841,2363],[7.4885870075237095,45.82901926568512,2365],[7.4884980077936385,45.82926526647773,2368],[7.488708007960465,45.82957326682549,2371],[7.488730008477158,45.82976426670433,2374],[7.488723008644234,45.8300302667697,2377],[7.4886630078741945,45.83022026730651,2380],[7.487939007809089,45.83078226764422,2383],[7.487878300901192,45.83080959488782,2386],[7.487838723393027,45.83088335229404,2389],[7.487806746547038,45.83096355108681,2391],[7.487781737917947,45.83102572428611,2394],[7.487775109016965,45.83107908277053,2397],[7.4877370174715905,45.831205625611396,2400],[7.487623007951452,45.83136826758324,2403],[7.487591452027208,45.83138894767438,2406],[7.487558925442856,45.8313459415086,2409],[7.487487517354594,45.83125531600281,2412],[7.487414696380387,45.83112118986311,2415],[7.487310021618964,45.83104821278825,2418],[7.487150017883715,45.8307082239672,2420],[7.487170091246289,45.83066750912778,2423],[7.487182509926963,45.830639592304486,2426],[7.487165380381246,45.830602225266624,2429],[7.487099224509884,45.83055696182756,2432],[7.4870703619474295,45.83054064615652,2435],[7.487030306164498,45.830518002552864,2438],[7.486937658225481,45.83044611775426,2441],[7.486911345083674,45.830365147155135,2444],[7.486889866942599,45.83032092896605,2447],[7.4868699750987835,45.8302898660839,2449],[7.48676991998577,45.83025230600739,2452],[7.486713414882217,45.83023343967925,2455],[7.486612554886588,45.830177751874096,2458],[7.486535914078294,45.830136879109894,2461],[7.486490020803313,45.83011824416411,2464],[7.486383764762202,45.83008504059571,2467],[7.486241668630639,45.830068663508825,2470],[7.486147353969902,45.830058355694256,2473],[7.486109837446973,45.83005604674364,2476],[7.486028574976097,45.83004228733374,2478],[7.485931496436994,45.830038283501516,2481],[7.485870590567467,45.83003838169897,2484],[7.485814017926279,45.8300319931004,2487],[7.485743342854405,45.830024013477896,2490],[7.4856820265154065,45.829991494941936,2493],[7.485675622682993,45.829986744239854,2496],[7.485623594480724,45.82994814481095,2499],[7.485601966594629,45.829933363837924,2502],[7.485537640753501,45.82991620593289,2505],[7.485471995656885,45.82989993594266,2507],[7.4854196729445714,45.82987025462402,2510],[7.48536720287813,45.82984600667632,2513],[7.485312945471609,45.82983985193526,2516],[7.485275504121101,45.82983482648266,2519],[7.485231475885265,45.82982178701409,2522],[7.485151361294711,45.82981347754852,2525],[7.4850390348153235,45.82979840006254,2528],[7.484980048082932,45.82977826780788,2531],[7.484700051259475,45.8296882725861,2533],[7.4845731980116454,45.82969076426406,2536],[7.484537928429496,45.82970116708468,2539],[7.484457273326535,45.82971277867439,2542],[7.484362681008852,45.82976044095673,2545],[7.484325674098562,45.829787125808636,2548],[7.484244871311674,45.829804170637786,2551],[7.484170913523658,45.82980771921474,2554],[7.484101809553154,45.82979955511331,2557],[7.483960543694757,45.82980039769183,2560],[7.483847381457945,45.82981610735279,2562],[7.483769975738614,45.82980827929029,2565],[7.483529978783425,45.829708283412415,2568],[7.483469978329765,45.82965828525194,2571],[7.483389978314551,45.82954828760917,2574],[7.483269979252275,45.829538289858085,2577],[7.482969982310482,45.829348296668336,2580],[7.4829733081799406,45.829293369911746,2583],[7.483020366540662,45.82923058420803,2586],[7.483010914007817,45.82919694114671,2589],[7.483014104613355,45.829127232112604,2591],[7.483018762157047,45.829051201766156,2594],[7.48300120235249,45.828982122621284,2597],[7.482949975439541,45.82890830858756,2600],[7.482876248069036,45.82887153303195,2603],[7.482805964945761,45.82883527119335,2606],[7.482771507696309,45.82881579028386,2609],[7.48274738873448,45.82879735211498,2612],[7.482720703647751,45.828777975316505,2615],[7.482686493859292,45.828749438751245,2618],[7.48267525338266,45.82873388974491,2620],[7.482654947352207,45.8287182203254,2623],[7.482600199126048,45.82873017560731,2626],[7.4825460331323335,45.82876840810519,2629],[7.482534227883836,45.828773686641135,2632],[7.4825203734176995,45.8287590083384,2635],[7.482529178009711,45.82872107874465,2638],[7.482512782049605,45.8287045557975,2641],[7.482503744710319,45.82867952440229,2644],[7.4824728900128195,45.82867050923662,2647],[7.482448587883842,45.8286588629835,2649],[7.4824406360712175,45.82864154585769,2652],[7.482433245484715,45.82862740613267,2655],[7.4823970260794574,45.828625114092276,2658],[7.482366999760402,45.82863332049461,2661],[7.482343888967735,45.82864931861723,2664],[7.4823309354278384,45.82864914652696,2667],[7.482328300440368,45.82862691829928,2670],[7.482310662789761,45.828584561138456,2673],[7.482282272486641,45.828550440504536,2676],[7.482240241720417,45.82852361168042,2678],[7.482189983770851,45.828488226641745,2681],[7.481809988999393,45.82834823219965,2684],[7.481629993640772,45.82834823406319,2687],[7.481529996451168,45.82837156875396,2690]]}}]}