{"type":"FeatureCollection","features":[{"type":"Feature","properties":{"slug":"45-s25","sct_code":"45_S25","source":"Catasto Sentieri VdA"},"geometry":{"type":"LineString","coordinates":[[7.480854825670188,45.78682068348111,1627],[7.480730298718967,45.786885070146404,1628],[7.48077909219186,45.78692434102422,1629],[7.4808078986377184,45.78697829496104,1630],[7.480581649545925,45.78717835543195,1630],[7.480591795980999,45.7873806482624,1631],[7.4804991638483465,45.787512156020604,1632],[7.480522136077779,45.78760554000164,1633],[7.480511898845211,45.78789341901045,1634],[7.480546863324478,45.78799738954734,1635],[7.480656215644429,45.78811585020292,1636],[7.480942366797643,45.78832666759516,1637],[7.481027289474285,45.78842680117321,1637],[7.4811635388910185,45.78873912915818,1638],[7.4813682707683675,45.78906136698009,1639],[7.4814135660061325,45.789169974805596,1640],[7.481242031083298,45.789401706589814,1641],[7.481198453588825,45.78954063631642,1642],[7.481039672720712,45.78983553975726,1643],[7.480995750300092,45.79014997219471,1644],[7.480924738220177,45.79035153758002,1644],[7.480838121026546,45.7904763922876,1645],[7.480641962950152,45.79066511093283,1646],[7.480557555736999,45.790769677155076,1647],[7.480463775132286,45.79123195479683,1648],[7.4805283330175305,45.79194834990561,1649],[7.4805659227451855,45.79202985501575,1650],[7.480635630527829,45.7920982848052,1650],[7.480906878165463,45.792236898366355,1651],[7.4812659583417105,45.79256119043797,1652],[7.481568357179667,45.793033234740285,1653],[7.482126247134931,45.793632648455066,1654],[7.482268301049904,45.79377607453598,1655],[7.48237085073847,45.79384944071926,1656],[7.482485543365057,45.7939049671914,1657],[7.482628407881124,45.79397436756019,1657],[7.482748155121596,45.794065962767874,1658],[7.483009551108263,45.794375451054705,1659],[7.483148353840825,45.794579805589706,1660],[7.483480319711225,45.79517824374481,1661],[7.4834419701631365,45.79531724090017,1662],[7.48339234495945,45.79539758533118,1663],[7.483219761994565,45.79559330589393,1663],[7.482826518933127,45.79588959924689,1664],[7.4827637468837995,45.795965269458065,1665],[7.482759261821696,45.79604171381512,1666],[7.482804386407576,45.79608281342861,1667],[7.483076088701078,45.79613142495048,1668],[7.483275194990804,45.796188071519715,1669],[7.483964030786482,45.79640872627307,1670],[7.484764638985533,45.79668936250383,1670],[7.484991729724944,45.796737376804955,1671],[7.485219760668494,45.79673590058759,1672],[7.485354007621021,45.79683523847192,1673],[7.485953008757742,45.796842237751974,1674],[7.486789996606158,45.79718396991832,1675],[7.486883409332383,45.797287484011306,1676],[7.4872694994553965,45.7974957063154,1677],[7.487361980504547,45.79751992352738,1677],[7.487534082283772,45.79753753189037,1678],[7.487577431482557,45.79755535071134,1679],[7.487606764893947,45.79768603512161,1680],[7.4875575709838404,45.79778310629177,1681],[7.487503141863764,45.79782879830754,1682],[7.4873640086388225,45.798039239061886,1683],[7.487174007907093,45.79866924008108,1683],[7.48781400785509,45.799679240715264,1684],[7.4878974217827245,45.79973248363129,1685],[7.488284008397393,45.79997924083025,1686],[7.489234007704664,45.80018924091307,1687],[7.48974800813345,45.80053224141087,1688],[7.490757008595349,45.80052624097152,1689],[7.491740636257995,45.80111540175286,1690],[7.491906353030223,45.80124809710619,1690],[7.492143670460909,45.80135023395985,1691],[7.492276559998836,45.80138798979833,1692],[7.49290835067293,45.80149083152412,1693],[7.4931322097128295,45.801570289428035,1694],[7.493408836005388,45.80173594623015,1695],[7.4937952308068985,45.802006554032076,1696],[7.493943692903778,45.8020847371708,1697],[7.493961764896734,45.80209425399517,1697],[7.494110094740793,45.80214121260539,1698],[7.495064260631981,45.802234790052196,1699],[7.495359089552144,45.802202671076564,1700],[7.495627914540488,45.80212070820842,1701],[7.495873102109677,45.80202043257099,1702],[7.4961557920499855,45.80196114944771,1703],[7.496366117303985,45.80194591809045,1703],[7.496523214992389,45.80196598581895,1704],[7.496702293698522,45.80208084914094,1705],[7.496833901441639,45.8021365837025,1706],[7.496927484486072,45.80215581509088,1707],[7.497142678400499,45.80210914568402,1708],[7.497564623017647,45.80197068874835,1709],[7.497678347094524,45.801958682838766,1710],[7.49793019649167,45.801984494918905,1710],[7.498026797446568,45.80198126576042,1711],[7.498176904135905,45.80194723658458,1712],[7.498336054036775,45.80193582901812,1713],[7.498572544440241,45.801979439582354,1714],[7.498961906089351,45.802200567284586,1715],[7.499319372773519,45.8023965234144,1716],[7.499684802649326,45.80256558165159,1716],[7.500023178420117,45.80278378595365,1717],[7.500215430946154,45.80293256751154,1718],[7.50032035221319,45.802978947223544,1719],[7.500569227254359,45.80317572387073,1720],[7.500763413720642,45.803252526284375,1721],[7.500902928028487,45.80332861091856,1722],[7.501110842680044,45.80349334727095,1723],[7.501435562210937,45.80362136367326,1723],[7.5016054898571545,45.803763099662774,1724],[7.501962191954817,45.80389828440086,1725],[7.502085568826539,45.803976406069495,1726],[7.502289368964263,45.80417483798205,1727],[7.502457350279803,45.80426929482003,1728],[7.502563743984626,45.80438094500525,1729],[7.502579906185668,45.80449816268177,1730],[7.502561233662785,45.8045946727244,1730],[7.502575264792939,45.80467136045053,1731],[7.502624371954638,45.80475975851021,1732],[7.502741681011521,45.804824299250384,1733],[7.502971133184319,45.80490606032278,1734],[7.503030311416684,45.80497883940157,1735],[7.503106278329393,45.8052655990435,1736],[7.503213842721882,45.80545376773345,1736],[7.503126064612272,45.80560787525953,1737],[7.503078107817565,45.8058367582099,1738],[7.502990027386709,45.80600211221722,1739],[7.5029806039242795,45.80623375018293,1740],[7.502930251406882,45.806311844206995,1741],[7.5028551333131155,45.806353611858945,1742],[7.502327775471821,45.80658296084865,1743],[7.5021912671131314,45.806754429633344,1743],[7.502064989514976,45.80678427541198,1744],[7.502012202935852,45.80683308566521,1745],[7.501977869450989,45.806913639433596,1746],[7.502109072343476,45.80694011110821,1747],[7.502292278050471,45.80694701344093,1748],[7.502718571315103,45.806887348451234,1749],[7.503058710268204,45.80692105759337,1749],[7.5033456193961285,45.80690006568019,1750],[7.503746602946433,45.80682431447773,1751],[7.503839874093213,45.806825536106324,1752],[7.504402441463772,45.80696340920832,1753],[7.504557750261621,45.807050946659835,1754],[7.5046456383669815,45.80713310115082,1755],[7.504848409584681,45.80725051092356,1756],[7.504920457800228,45.80732345743768,1756],[7.505000924908166,45.80732226042999,1757],[7.505402303312672,45.80711150193867,1758],[7.505841343245127,45.80681573042409,1759],[7.505922651688289,45.806783042218996,1760],[7.50597399135219,45.806788213898486,1761],[7.506028005981611,45.80681367153627,1762],[7.506597251461027,45.807183382568844,1763],[7.507603235218403,45.80794581622624,1763],[7.508171694947448,45.80846626644816,1764],[7.508342588655277,45.80869350907943,1765],[7.508755260791309,45.809144418685825,1766],[7.509146240092536,45.80968504804945,1767],[7.509662872242405,45.810099059131346,1768],[7.510130208047568,45.81043142098788,1769],[7.5102258396151695,45.8105856756204,1769],[7.5103288643244985,45.810704024828276,1770],[7.510489246467749,45.810843372816734,1771],[7.511522979573637,45.812017903149226,1772],[7.511794689827114,45.81220595208572,1773],[7.511935600687975,45.81235179466623,1774],[7.512015876480023,45.812478846413114,1775],[7.512132677663527,45.812925889242834,1776],[7.512198309412358,45.81299874751418,1776],[7.512468708917686,45.81323628012468,1777],[7.512740744940179,45.81329157461859,1778],[7.512952563624271,45.81331233298798,1779],[7.513186300227655,45.81335587731646,1780],[7.513470186557892,45.81344957614495,1781],[7.513850992189231,45.81352878441354,1782],[7.514067510342174,45.81361485498748,1783],[7.5141793752203085,45.81364331131596,1783],[7.514779932772918,45.81368712264637,1784],[7.51539126564675,45.813809824635676,1785],[7.515848151740329,45.81381126116548,1786],[7.5161325230114056,45.81388695879963,1787],[7.516179578080856,45.81393257216886,1788],[7.516235855317847,45.81411556188594,1789],[7.516270103659443,45.814158758766794,1789],[7.516405792582865,45.81425952579189,1790],[7.516748417229578,45.8144439835833,1791],[7.516805003934478,45.814494220664194,1792],[7.516816915155717,45.814530377037585,1793],[7.5167828282584335,45.81472344373141,1794],[7.516839116646115,45.81478492745793,1795],[7.516890046718896,45.81480583965264,1796],[7.5170154989989895,45.814807468304394,1796],[7.5176415136976615,45.814741339765995,1797],[7.51780550686178,45.81474571776565,1798],[7.51791755503181,45.81476742247913,1799],[7.518025491405341,45.81482282535519,1800],[7.518256135765532,45.814983324766466,1801],[7.51849744589586,45.815105710201195,1802],[7.518892083617177,45.81539209088991,1802],[7.518942418612184,45.81543549552458,1803],[7.5189916205269425,45.815521637486455,1804],[7.518960876503398,45.815710247918055,1805],[7.518981067971544,45.81579826387392,1806],[7.519056660592801,45.81585999676146,1807],[7.51930911735109,45.815926272282596,1808],[7.519327821836454,45.815949015792576,1809],[7.519225533748357,45.81616595033858,1809],[7.519063318063288,45.81633710577567,1810],[7.5189069425993855,45.81640933199003,1811],[7.518467247581048,45.81648688441092,1812],[7.5183532267176885,45.816539408190266,1813],[7.518166287070884,45.8166719898563,1814],[7.517885275926229,45.816954107924424,1815],[7.51771578438642,45.81715666852678,1816],[7.517382880495077,45.817453862738816,1816],[7.51728135826549,45.81764155405084,1817],[7.517262706117569,45.81773806653992,1818],[7.517277178321146,45.81779900725756,1819],[7.517420378986653,45.81798087434023,1820],[7.517454324738347,45.818156823188296,1821],[7.517639101266812,45.8184697357062,1822],[7.5177720503697,45.81879547609503,1822],[7.517863372252531,45.81887091446331,1823],[7.518134247613779,45.81897118309747,1824],[7.518818379167266,45.81926356884572,1825],[7.519510204130373,45.81950879795879,1826],[7.519826898686266,45.81958040498479,1827],[7.5199829820785595,45.81964093000148,1828],[7.520233430611302,45.81978368100274,1829],[7.520386595964508,45.81983291713786,1829],[7.520572229745235,45.81987132302458,1830],[7.520750595643223,45.81994113597736,1831],[7.520896434250764,45.82002402813752,1832],[7.521271816316295,45.820310151022056,1833],[7.521406873999887,45.82043565497536,1834],[7.521590547098082,45.82066979299289,1835],[7.521644225034497,45.82070873944642,1836],[7.521898971317713,45.82081104048561,1836],[7.5220163363936186,45.820875561940824,1837],[7.522266197461375,45.82091929621671,1838],[7.5223490679615495,45.82094961953602,1839],[7.522369802110902,45.82101739088482,1840],[7.522274485877079,45.82121416721255,1841],[7.522266388132677,45.821398571082206,1842],[7.522232612857361,45.82158039268153,1842],[7.522240180963236,45.82165924425625,1843],[7.522327525809906,45.82188538459468,1844],[7.522431671293081,45.822084740903,1845],[7.522472783533073,45.82223377956345,1846],[7.522677142404875,45.8225379365448,1847],[7.522695017346161,45.82259217021321,1848],[7.522683818644316,45.82265052811267,1849],[7.522606074300965,45.82279127928941,1849],[7.522600000635952,45.82289920575829,1850],[7.522467860774745,45.82302800282126,1851],[7.5224655396614155,45.82311572687386,1852],[7.522503197403385,45.82327372123511,1853],[7.522539721089874,45.82335294726126,1854],[7.522735384640764,45.82362098995327,1855],[7.5227221663939305,45.823877330899,1855],[7.522835492611333,45.824094806323956,1856],[7.522918019657145,45.8243816366261,1857],[7.5229578809084305,45.82445640544954,1858],[7.523014423700979,45.82450888889621,1859],[7.5232206922972535,45.824619560545784,1860],[7.52328021485882,45.824681082794534,1861],[7.523310424880017,45.824755726731944,1862],[7.523323061298535,45.82488639609412,1862],[7.523238583212108,45.825038311126896,1863],[7.52324686694919,45.82509017059575,1864],[7.523294175061909,45.82512678379533,1865],[7.5233990382981135,45.82517764154811,1866],[7.523817951793795,45.82527980995893,1867],[7.524267256863175,45.825449872539494,1868],[7.524986186672319,45.82589117728916,1869],[7.52515332100032,45.82602159104833,1869],[7.52526314644745,45.82625026929807,1870],[7.525338284725017,45.826329992867,1871],[7.525351342005431,45.82644491667838,1872],[7.5253816151102875,45.82651731075492,1873],[7.525715058601314,45.826809627629885,1874],[7.526038210957063,45.82724806741824,1875],[7.526080227001637,45.82736336476439,1875],[7.526073209255789,45.8275072807956,1876],[7.525914683679375,45.82778199798736,1877],[7.525747474762765,45.828263612317535,1878],[7.525707201519605,45.828326095451295,1879],[7.52557564959543,45.8284324025637,1880],[7.525252539975779,45.828601489765155,1881],[7.524995689405399,45.82882093382861,1882],[7.524819818771362,45.82914267763901,1882],[7.524697380976035,45.829269352338436,1883],[7.5246734908769035,45.829320796162364,1884],[7.524684756302959,45.82938169440411,1885],[7.524752511696049,45.829497324602436,1886],[7.524753708421455,45.82957384352465,1887],[7.524700859927437,45.82962491338782,1888],[7.5244545990880685,45.82968698582452,1888],[7.5243890581867205,45.82973114129692,1889],[7.524374344769706,45.829800704403944,1890],[7.524389488704827,45.8299584071495,1891],[7.524371735969004,45.83002118068954,1892],[7.524473213330289,45.83007874397789,1893],[7.524506229177109,45.83016917448266,1894],[7.524557079741046,45.83055909884476,1895],[7.524637350172573,45.830688391334014,1895],[7.524710940060976,45.830705092413545,1896],[7.524743592101393,45.83068751326695,1897],[7.524951704021448,45.830363935852944,1898],[7.5250268981324435,45.83031990469794,1899],[7.525132663975658,45.83033702093602,1900],[7.525230934044252,45.83051604762868,1901],[7.525268416800275,45.8305592834375,1902],[7.525372935475529,45.830623635485495,1902],[7.5254940773398165,45.830667951083136,1903],[7.525567538960253,45.83056764467301,1904],[7.525619496522609,45.83055031444221,1905]]}}]}