{"type":"FeatureCollection","features":[{"type":"Feature","properties":{"slug":"45-s16","sct_code":"45_S16","source":"Catasto Sentieri VdA"},"geometry":{"type":"LineString","coordinates":[[7.47024621664386,45.78230211599492,1627],[7.47064400830135,45.782189225583174,1626],[7.47103400860527,45.78364922674932,1625],[7.4709740082956255,45.784049227667204,1624],[7.470244007801556,45.78484922813142,1623],[7.47004400860286,45.78610922950415,1622],[7.469274008052046,45.78724922981332,1621],[7.469194008794009,45.787659230223376,1620],[7.468584007738684,45.78795923031432,1618],[7.469014008341468,45.78825923053081,1617],[7.469554008265753,45.78834923135426,1616],[7.4699140087831095,45.788749231510636,1615],[7.469914008079134,45.78960923214406,1614],[7.470304008517308,45.78990923254458,1613],[7.470324008794536,45.79010923254903,1612],[7.470074008271787,45.790859232995736,1611],[7.4704740084818875,45.79115923346889,1610],[7.470694008217845,45.792059234202966,1609],[7.47116400846934,45.79194923399725,1608],[7.472234008234244,45.79121923307749,1607],[7.473334007800985,45.789959232412166,1606],[7.472734007556488,45.789289231810145,1605],[7.472964008610953,45.788859231789964,1603],[7.473314008028181,45.788709231458974,1602],[7.473674007796953,45.788579231320696,1601],[7.474124008299673,45.78868923105945,1600],[7.474664008592151,45.78851923082162,1599],[7.475494008177769,45.78883923133182,1598],[7.476094008676603,45.78883923126725,1597],[7.476504008691128,45.7893792319014,1596],[7.4765540075237364,45.78982923198849,1595],[7.476472424826327,45.78997608289225,1594],[7.47648863819684,45.789986889985784,1593],[7.4767440087332,45.79040923240722,1592],[7.477584008527113,45.79003923264325,1591],[7.478564008314622,45.79007923218596,1590],[7.478614007762842,45.79042923248716,1588],[7.479014008216735,45.790409232712854,1587],[7.479802248922599,45.790110430426544,1586],[7.479949534326501,45.789960547051464,1585],[7.47999045788557,45.78983058476617,1584],[7.4799979716063225,45.789731677759235,1583],[7.479803765164838,45.7890225572732,1582],[7.479784404500031,45.78878828732748,1581],[7.4798742894863315,45.7885284706719,1580],[7.479889422851692,45.78826765742305,1579],[7.47992475432929,45.78815112142179,1578],[7.479997951397094,45.78801708831556,1577],[7.4801834659094375,45.78780354529061,1576],[7.480330622006668,45.787513788675035,1575],[7.4804991638483465,45.787512156020604,1573],[7.480591795980999,45.7873806482624,1572],[7.480581649545925,45.78717835543195,1571],[7.4808078986377184,45.78697829496104,1570],[7.48077909219186,45.78692434102422,1569],[7.480730298718967,45.786885070146404,1568],[7.480854825670188,45.78682068348111,1567]]}}]}