{"type":"FeatureCollection","features":[{"type":"Feature","properties":{"slug":"45-s14","sct_code":"45_S14","source":"Catasto Sentieri VdA"},"geometry":{"type":"LineString","coordinates":[[7.480854825670188,45.78682068348111,1522],[7.481136898898491,45.78669982097701,1527],[7.481335921460973,45.786642870419776,1532],[7.481425093370581,45.78663863760125,1536],[7.481734086149552,45.786667125359266,1541],[7.481983913783219,45.78673546140441,1546],[7.48209513514567,45.786774863764336,1551],[7.482613756090077,45.78706890425054,1555],[7.483036910899633,45.78724042834828,1560],[7.4834573710973,45.787545967264855,1565],[7.483644023855764,45.78772740784118,1570],[7.483976726242683,45.78796661012553,1574],[7.484165529945021,45.788019336507396,1579],[7.484564049194047,45.78802683458897,1584],[7.48485420916746,45.78813639592598,1589],[7.4855377530289795,45.789665112552896,1593],[7.4857140080761875,45.7905992327535,1598],[7.486224008275468,45.79117923304943,1603],[7.486484008551188,45.79115923377836,1608],[7.4866940087149665,45.79134923381382,1612],[7.4871240085575215,45.79123923384027,1617],[7.4877040084060615,45.791409233626645,1622]]}}]}