{"type":"FeatureCollection","features":[{"type":"Feature","properties":{"slug":"46-s1","sct_code":"46_S1","source":"Catasto Sentieri VdA"},"geometry":{"type":"LineString","coordinates":[[7.314652387365473,45.84057301097347,1277],[7.314699007804698,45.8401692758201,1285],[7.314229008392664,45.83960927501592,1293],[7.313579008067973,45.83983927560273,1302],[7.312979008075781,45.840269275675105,1310],[7.312619008671335,45.8401392757248,1318],[7.312639007949447,45.839969276026196,1326],[7.31237900876461,45.839969275679415,1334],[7.312379007936434,45.83979927575973,1342],[7.311499008590489,45.840039276086195,1351],[7.311309008188527,45.84001927577614,1359],[7.311289008580649,45.839909275817796,1367],[7.309240063988631,45.840017870164495,1375],[7.309339007682939,45.83988927584168,1383],[7.308989008775992,45.839739275799495,1391],[7.308889007867739,45.839369275033754,1400],[7.308669008083253,45.839329275493384,1408],[7.3090990087595795,45.83917927521918,1416],[7.309399008202994,45.838899274335574,1424],[7.310019008637975,45.83844927401643,1432],[7.310481510862601,45.837785769481854,1441],[7.310593532334546,45.83735495866471,1449],[7.310118767279619,45.83743867220689,1457],[7.309462578989834,45.83771178691721,1465],[7.309098417188746,45.837702129042306,1473],[7.308858235908995,45.83773746796359,1481],[7.308638568945366,45.83787917199864,1490],[7.308253423311246,45.838020069406284,1498],[7.307949013171221,45.83807903443449,1506],[7.30781266081578,45.83808312953058,1514],[7.3077697728583235,45.83803418803231,1522],[7.307835265120837,45.837903727753236,1530],[7.307844866304177,45.83780799298212,1539],[7.307771692304826,45.83763267973092,1547],[7.307841803936469,45.83750834335566,1555]]}}]}