{"type":"FeatureCollection","features":[{"type":"Feature","properties":{"slug":"46-s6","sct_code":"46_S6","source":"Catasto Sentieri VdA"},"geometry":{"type":"LineString","coordinates":[[7.303576025374847,45.873017489718094,1558],[7.30416000809853,45.8745583070701,1577],[7.305040008639911,45.875638307895315,1597],[7.305370008574278,45.875738307900534,1616],[7.305770007634237,45.875638308402564,1635],[7.306350008235194,45.8758483082679,1655],[7.306200008350104,45.87610830820825,1674],[7.3070200083958,45.87659830914885,1693],[7.308030007726154,45.87743830928674,1713],[7.30833000762113,45.87781831042143,1732],[7.309210008283134,45.8780183102003,1751],[7.308650007585968,45.87889831130425,1771],[7.30779000878172,45.879148311173445,1790],[7.307920008316076,45.879428311993294,1809],[7.308220008283235,45.87955831203926,1829],[7.308070008609123,45.87957831153879,1848],[7.3080900076555935,45.87966831164273,1867],[7.306630007815591,45.8793883119204,1887],[7.306370008201371,45.87947831155996,1906],[7.307060008533685,45.88035831244727,1925],[7.308500008193902,45.880828313182434,1945],[7.308580008346365,45.88095831265781,1964],[7.308010007962374,45.88120831345034,1983],[7.306910008468095,45.8811083134508,2003],[7.30706000772655,45.881618313341775,2022],[7.306400008378629,45.881468313101514,2041],[7.306670008529821,45.882008313981544,2061],[7.306836228831888,45.88209190695439,2080],[7.306890171793873,45.88220168279215,2099],[7.306990527789884,45.88227903953801,2119],[7.306870565736067,45.88232692110682,2138],[7.306565546728119,45.88233718126827,2157],[7.306552006689093,45.88235358171359,2177],[7.306568427043381,45.88237445214683,2196],[7.306630036385576,45.88242180095932,2215],[7.306743942315524,45.88249948027671,2235],[7.307017610037131,45.88262276494971,2254],[7.307085819501217,45.88267274312681,2274],[7.307127562876654,45.88273260657699,2293],[7.3071230831698655,45.88280459525474,2312],[7.307074131042962,45.882869511234745,2332],[7.307081402260548,45.88298139622593,2351],[7.307181371497398,45.88307446438496,2370],[7.3073049444168054,45.883349846012386,2390],[7.307533370237043,45.88369494876333,2409],[7.30760491269204,45.88383051088207,2428],[7.307147066310043,45.88444692344679,2448],[7.306702658861002,45.88490385533649,2467],[7.3063886812192536,45.885349218670505,2486],[7.306083611950267,45.885925216527625,2506],[7.305991235515739,45.88602285242169,2525],[7.305905989518401,45.886084590769244,2544],[7.305726853001499,45.88630694294413,2564],[7.305684103050834,45.88644131239648,2583],[7.305668359975477,45.886747090876845,2602],[7.305524592051865,45.88706447277081,2622],[7.305535422186896,45.88713213604759,2641],[7.3054500078429365,45.88722831859318,2660],[7.305340007662817,45.88790831942488,2680],[7.305430007551986,45.8880383198915,2699],[7.305880052414409,45.8880383210408,2718],[7.30617121445267,45.888206309872544,2738],[7.306550008363016,45.88964832101653,2757],[7.307340008739604,45.89028832170632,2776],[7.307756725562203,45.89054447189797,2796],[7.308430007509931,45.89095832218897,2815],[7.309290007869612,45.89226832327166,2834],[7.309890008282339,45.89271832365893,2854],[7.31026000797749,45.8932283247005,2873],[7.310490008417948,45.893868325109345,2892],[7.310430007531927,45.894278325783134,2912],[7.31159000815871,45.89487832627878,2931],[7.312210008330602,45.895658326428894,2950],[7.312280007741521,45.89601832736319,2970],[7.311472114111393,45.89668195531875,2989]]}}]}