{"type":"FeatureCollection","features":[{"type":"Feature","properties":{"slug":"48-s2","sct_code":"48_S2","source":"Catasto Sentieri VdA"},"geometry":{"type":"LineString","coordinates":[[7.81063361455906,45.62961285343291,1044],[7.810356664951558,45.62979898456128,1051],[7.810096749834427,45.62989978509703,1057],[7.809671987660004,45.629985365376605,1064],[7.809498111689877,45.6300555596408,1070],[7.8092428586181075,45.630295917368784,1077],[7.8091692592845945,45.63034465383715,1083],[7.80900510040457,45.630410446510375,1090],[7.808396528094241,45.630561613147805,1097],[7.807805874823468,45.630793967885644,1103],[7.807189029237359,45.63099454186809,1110],[7.807102757737728,45.63099814217041,1116],[7.806882269307784,45.63095983658424,1123],[7.806756428331109,45.63097652342007,1130],[7.806686914057859,45.63100279925966,1136],[7.806614007700493,45.630960111512884,1143],[7.806504007858809,45.631030111686,1149],[7.8063340083419615,45.631100111209406,1156],[7.805804008397555,45.63123011172722,1162],[7.805774008448417,45.63125011171296,1169],[7.805564007655397,45.6313051116651,1176],[7.805493005416517,45.63131297472915,1182],[7.804381007974017,45.63143611134777,1189],[7.803568007901969,45.63106811143575,1195],[7.803203008360568,45.63131611142048,1202],[7.802948007608058,45.63127711170407,1209],[7.802428008414739,45.63156011209647,1215],[7.801866007930437,45.631446111340836,1222],[7.8005830085462575,45.631468111767056,1228],[7.800528007865317,45.63164811214408,1235],[7.800829008541504,45.631939111562154,1241],[7.800774007674323,45.63211811206597,1248],[7.800566008135893,45.63226011178724,1255],[7.800259008604982,45.63222111178157,1261],[7.799845007839773,45.632361111912154,1268],[7.799590008539399,45.632322111920736,1274],[7.7992260086618295,45.632534112347294,1281],[7.798920008600871,45.63245911203875,1287],[7.798609008675477,45.632600112393575,1294],[7.798357008422939,45.63238111233395,1301],[7.798042007822434,45.6327021123167,1307],[7.797534007638176,45.63244411209624,1314],[7.797328008470907,45.63251411255029,1320],[7.797382008168378,45.632371112185666,1327],[7.797924605224091,45.63195950089659,1334],[7.797335887059205,45.63206131377517,1340],[7.796642837656376,45.6321485199161,1347],[7.796574008580576,45.63235011202878,1353],[7.796294008518186,45.63244011261569,1360],[7.7959440079053515,45.63260011277964,1366],[7.79575400874402,45.63273011285615,1373],[7.795604008565665,45.63279011217314,1380],[7.795544008673846,45.63283011217106,1386],[7.7951640079736135,45.633200112416326,1393],[7.795064008533605,45.633380113399525,1399],[7.795154008037772,45.63350011290406,1406],[7.795094007629356,45.63364011287153,1413],[7.795094008410753,45.633710112939816,1419],[7.795064007971394,45.6337901131085,1426],[7.795014007693291,45.633800112844106,1432],[7.795054007578739,45.63390011288619,1439],[7.794934007885878,45.633900113351814,1445],[7.794804008278926,45.63393011364274,1452],[7.794684007527461,45.63400011299126,1459],[7.794704007499225,45.63403011356914,1465],[7.794714007658526,45.6341701138927,1472],[7.794694008311776,45.63427011368135,1478],[7.794644007895738,45.63434011355528,1485],[7.794654008504424,45.634360113278994,1492],[7.7946140085363265,45.634370113957864,1498],[7.7945140082694895,45.63445011331604,1505],[7.794404007549355,45.63449011334303,1511],[7.794296640740332,45.63461696787807,1518],[7.794415812751233,45.635005252951316,1524],[7.794474136550375,45.63512737761727,1531],[7.794590006922602,45.635277111574204,1538],[7.79477514245334,45.635450077955134,1544],[7.7952317454419795,45.63573391569256,1551],[7.795647770859157,45.63602182409482,1557],[7.796133671293151,45.636280770612146,1564],[7.796371215023775,45.63636273367692,1570],[7.796422764838952,45.63639772963691,1577],[7.796447532813948,45.63643978613296,1584],[7.796452061441641,45.63651807129099,1590],[7.7963305706587915,45.63696744934856,1597],[7.796280633898098,45.63705243129546,1603],[7.796070420739997,45.637301899808335,1610],[7.79606534837165,45.63737710095356,1617],[7.796097759375872,45.6374399594198,1623],[7.796166755852362,45.637485196719865,1630],[7.7967659139497325,45.63759972661643,1636],[7.79686176948681,45.637654738528965,1643],[7.796913545954742,45.63772729104253,1649],[7.7969296512251285,45.63804248411647,1656],[7.796905801955425,45.63827624852807,1663],[7.796930253444423,45.63838901622938,1669],[7.796968686049926,45.63844792536086,1676],[7.797247819620104,45.6387073839437,1682],[7.797298490575576,45.63877542249421,1689],[7.7973470919889225,45.63888394043911,1696],[7.79743487930736,45.639222389751176,1702],[7.797608456928354,45.639336727193204,1709],[7.797916842512944,45.63941883684428,1715],[7.798237712978813,45.63953686366805,1722],[7.798256943173103,45.63950648621982,1728],[7.798195833968616,45.63946837620704,1735],[7.798285185280062,45.63938827785907,1742],[7.798427987670602,45.63942006647768,1748],[7.7985440078325325,45.63940011730159,1755],[7.798664008201256,45.63948011727656,1761],[7.7990240075356985,45.63953011683734,1768],[7.799234008122942,45.63960011763529,1774],[7.799279008657334,45.63966411739155,1781],[7.799444008731431,45.63970011726921,1788],[7.799534008097739,45.639690117453355,1794],[7.799974008315489,45.63973011706493,1801],[7.80000400828063,45.63974011695136,1807],[7.800024008015997,45.639820117067934,1814],[7.800544008713477,45.64000011779072,1821],[7.800564007821162,45.63999011743921,1827],[7.800624008642392,45.640000117162046,1834],[7.800703017344533,45.63997158385824,1840],[7.8006740076890715,45.640040117267596,1847],[7.800574007603709,45.64017011785949,1853],[7.800524008326287,45.6402901180494,1860],[7.800604007663632,45.640540118120825,1867],[7.800554008397505,45.64059011834122,1873],[7.800544008393269,45.640760117809094,1880],[7.800690008273019,45.640867117921445,1886],[7.800757077139171,45.64093949888675,1893],[7.800791008606991,45.64097611790394,1900],[7.801214008262894,45.64203011916629,1906],[7.801248007682041,45.6436091201081,1913],[7.801082008234433,45.6441471205018,1919],[7.800824007652454,45.64441912047009,1926],[7.80093400830484,45.64465912033665,1932],[7.800554008640515,45.645489120964555,1939],[7.800704008480717,45.64688912264465,1946],[7.800574007867224,45.64687912242418,1952],[7.800344008120227,45.64724912272395,1959],[7.799724007943266,45.64760912249444,1965],[7.799174007872616,45.648399122989765,1972],[7.799364008671809,45.64892912378257,1979],[7.7998140084335725,45.64937912414186,1985],[7.799614008326594,45.64967912403548,1992],[7.799414008713133,45.64967912465037,1998],[7.799104008512608,45.65006912421615,2005],[7.799514008475349,45.65011912483609,2011],[7.798614008567444,45.65083912479515,2018],[7.798814007900921,45.65099912473183,2025],[7.798674007514032,45.65104912534302,2031],[7.798914008640142,45.65133912544273,2038],[7.79882400855473,45.65144912556501,2044],[7.799074008139476,45.651509125257974,2051],[7.799124008339739,45.65207912556885,2057],[7.799414008270865,45.65197912557627,2064],[7.799294008536199,45.652339125962605,2071],[7.7995110076172125,45.65280812634015,2077],[7.799610008238338,45.6529891266002,2084],[7.799508008307697,45.65298812665937,2090],[7.799549008419053,45.65345612673655,2097],[7.799336007618095,45.65381412718575,2104],[7.799482007494191,45.65417512770338,2110],[7.7994260086840494,45.65439112796403,2117],[7.799576008411336,45.654572127777165,2123],[7.799473007809624,45.6546071279688,2130],[7.799625008420467,45.654681127480096,2136],[7.799468007989603,45.65482312778504,2143],[7.799619008411293,45.65496912824108,2150],[7.799412008428751,45.655039128007786,2156],[7.799514007700691,45.65507612790012,2163],[7.799357008434232,45.655218128055935,2169],[7.79951000830328,45.65525612844116,2176],[7.799405007519258,45.65539912786717,2183],[7.799762007751893,45.655510128561325,2189],[7.799552008766051,45.65568812818013,2196],[7.799756008672288,45.655762128528565,2202],[7.799752008673176,45.6559421290507,2209],[7.799906008056495,45.65598012860143,2215],[7.799903008646074,45.65612412896565,2222],[7.800106008023378,45.656234128839,2229],[7.80036300776501,45.65620112894735,2235],[7.800257008776084,45.65634412855126,2242],[7.801078008034958,45.656388129289645,2248],[7.801128007978653,45.65646112904132,2255],[7.801179007668366,45.65646112875942,2261],[7.801332008281296,45.65649912940156,2268],[7.80133000787909,45.65660712870683,2275],[7.801120007580015,45.656821129225754,2281],[7.801167008136464,45.65700112949409,2288],[7.801114008384698,45.65710912906698,2294],[7.801111007635716,45.657217129559136,2301],[7.801214008710476,45.65721812957014,2308],[7.801160008492914,45.65732512949052,2314],[7.801570008177687,45.65740212996128,2321],[7.801719008238786,45.65761912973294,2327],[7.801510007859177,45.6577611300072,2334],[7.801766007974032,45.65780012969191,2340],[7.801661008496195,45.65790713038764,2347],[7.801867008069209,45.65790913019625,2354],[7.801760008014397,45.65808813041038,2360],[7.801864008348233,45.65805313055988,2367],[7.801913007506693,45.65816113013418,2373],[7.802117008084657,45.658199129981234,2380],[7.802112008634444,45.65845113053615,2387],[7.801800008534715,45.65862813018927,2393],[7.801846008664153,45.658881131001834,2400],[7.802147007550338,45.65920813077956,2406],[7.80219400794399,45.659424131296774,2413],[7.8028530082048375,45.65979113093632,2419],[7.802948007746503,45.66015213126798,2426],[7.802632008149744,45.66054513168461,2433],[7.802527007652561,45.660652132218075,2439],[7.802212007616361,45.66097313234399,2446],[7.801685007861638,45.66161513224568,2452],[7.801319007687443,45.66190013323379,2459],[7.798854008265628,45.661946132918885,2466],[7.7984910076404255,45.66212213260801,2472],[7.797358007781889,45.66229013303189,2479],[7.796794008156143,45.662212132719915,2485],[7.7959180084742625,45.66238313347636,2492],[7.794788007548803,45.66240713348668,2498],[7.794371007639364,45.6626911330473,2505],[7.794417007694518,45.66294313402211,2512],[7.794263008296621,45.66294113324931,2518],[7.7941040078945525,45.6631561342156,2525],[7.793794007917503,45.66326013427003,2531],[7.7935900080708835,45.663186134174126,2538],[7.793235007725408,45.6630031340154,2544],[7.79313000868646,45.66310913402016,2551],[7.7929270086689755,45.662999133571795,2558],[7.792771008621869,45.66307013357444,2564],[7.7925670079179445,45.66299513346857,2571],[7.792418007560257,45.662778133639556,2577],[7.792264008664048,45.66277613377626,2584],[7.792313007722886,45.66288513375953,2591],[7.792210007956199,45.662884133839924,2597],[7.79216000764372,45.662811133855996,2604],[7.791751008702258,45.6627351336391,2610],[7.790828007680774,45.66268913386069,2617],[7.78979800814006,45.66282213352303,2623],[7.78938400824716,45.662962133831265,2630],[7.7888210079676155,45.66292013337179,2637],[7.78881900846518,45.66299213343224,2643],[7.788564007757934,45.66291713353387,2650],[7.78815100811159,45.66302113384933,2656],[7.788050008661913,45.662948133737665,2663],[7.787793008362324,45.662945133963795,2670],[7.78732700875009,45.6631201337687,2676],[7.787226007625094,45.66304713381138,2683],[7.787071008573805,45.66308113415762,2689],[7.78696900819937,45.66304413399266,2696],[7.786660008532176,45.66311313355222,2702],[7.786396008497618,45.663434133947604,2709]]}}]}