{"type":"FeatureCollection","features":[{"type":"Feature","properties":{"slug":"48-s1","sct_code":"48_S1","source":"Catasto Sentieri VdA"},"geometry":{"type":"LineString","coordinates":[[7.800443008562269,45.60397009329797,461],[7.800623008164334,45.604080092968275,464],[7.800903008367335,45.604210093216075,467],[7.801133007557201,45.60427009321687,470],[7.8012530079824165,45.60428009327178,473],[7.801363008781131,45.604310093174476,476],[7.801793007767735,45.60434009388599,478],[7.801943007959953,45.60437009338935,481],[7.802323008631133,45.60456009370889,484],[7.802433008442727,45.60467009366583,487],[7.802463008217664,45.604680093870805,490],[7.8025390087805935,45.604666093475004,493],[7.802583008479483,45.604690093425255,496],[7.80279500790334,45.60470409401261,499],[7.802840340578072,45.60476182543039,502],[7.80288300766135,45.60483009393698,505],[7.802833008326477,45.60489009433929,508],[7.803065204581395,45.60502831351513,511],[7.803096769881928,45.605201542694964,513],[7.8031116007870995,45.60533746044411,516],[7.803220014832918,45.605514388553985,519],[7.803262990502124,45.60561818147723,522],[7.803425308131388,45.605784942577856,525],[7.803929935060832,45.606159490404984,528],[7.804163007830867,45.606440095236,531],[7.804283008139593,45.606750094985934,534],[7.804586525046808,45.60706965427431,537],[7.804761861767735,45.60729931707427,540],[7.804770697286878,45.60732346754261,543],[7.804769271732084,45.60734167907437,546],[7.804756083421569,45.607375806793854,548],[7.80469522928652,45.60730663944053,551],[7.804616391102764,45.60719178612708,554],[7.804583302719412,45.60714799338357,557],[7.804541108960679,45.60711412853011,560],[7.804495189685529,45.607103032481874,563],[7.804431184598672,45.60710892407783,566],[7.8043966008976735,45.60712332505771,569],[7.804371038333953,45.6071531306744,572],[7.8043772821599156,45.60718928350166,575],[7.804637610613498,45.60743970248713,578],[7.805036935089899,45.60791329689865,581],[7.805140148965478,45.6080696632742,583],[7.805159877943236,45.60813110961395,586],[7.805186538734157,45.60818716052565,589],[7.805083008112768,45.608570096563945,592],[7.805163008739692,45.60892009632032,595],[7.8054330076959095,45.60906009662212,598],[7.805683008683795,45.60949009715325,601],[7.8060130079961585,45.609620097179395,604],[7.806182348602462,45.610131606297045,607],[7.806330315433504,45.61029080555716,610],[7.806371849923719,45.61036056217588,613],[7.806403008026539,45.61045009741879,615],[7.806365023975342,45.61050211252704,618],[7.806422862044968,45.61064062131037,621],[7.806391104060155,45.61070648517296,624],[7.806417489741196,45.61074726499239,627],[7.806554610893889,45.6108410909628,630],[7.806721722325026,45.611027814079456,633],[7.806883111086687,45.61130682894803,636],[7.8071333254471424,45.61158396392387,639],[7.807490350491612,45.61200747504541,642],[7.807573575084618,45.612102265386724,645],[7.807735424068676,45.612324137408535,648],[7.808034059534799,45.612622234379344,650],[7.808269798188001,45.61284699723668,653],[7.808372244412868,45.61292503739528,656],[7.808406472102146,45.61297067882558,659],[7.80846323612614,45.613142023388626,662],[7.808508826704753,45.61318973917339,665],[7.808561001600332,45.613226077421324,668],[7.808631111176891,45.61323915946932,671],[7.808689060355597,45.61327269746077,674],[7.808729154698531,45.613318399978745,677],[7.808784663881277,45.61346717911549,680],[7.80892718369498,45.61366215261807,683],[7.808903203691902,45.61368660049773,685],[7.808914146773659,45.613723764214114,688],[7.809123964870506,45.61366945631733,691],[7.809294793805643,45.614125976264724,694],[7.809320307150685,45.61417887654484,697],[7.809151878424241,45.61425324055303,700],[7.809196524563595,45.61442028924961,703],[7.809283753532058,45.61447810105298,706],[7.80937649101214,45.614623909788705,709],[7.8094107096982155,45.61474841857946,712],[7.8093933431349996,45.614872387869156,715],[7.80938685650278,45.61490302795651,718],[7.809358736652969,45.61495193089014,720],[7.8092887276108955,45.615022760301315,723],[7.80924798274762,45.61506594126052,726],[7.809187744418885,45.61512680967932,729],[7.809175258594269,45.615161050496056,732],[7.809119667175724,45.61525691795477,735],[7.808912622333154,45.61532855410181,738],[7.808761110428714,45.615434591883684,741],[7.808701550838342,45.61551696439997,744],[7.808581227995861,45.61562951340734,747],[7.808499287212983,45.61567004211553,750],[7.808409096742018,45.61575186993353,753],[7.808261329645605,45.61582428258483,755],[7.808146948748829,45.61600414277075,758],[7.808068184805102,45.61614239163523,761],[7.808017342007355,45.61628609642095,764],[7.8079134929177165,45.61638323640849,767],[7.807887092457618,45.61645524821247,770],[7.807897516743063,45.61652432848217,773],[7.807954286714795,45.61658792676301,776],[7.807988862624451,45.61660178774736,779],[7.808056108160756,45.61662498944146,782],[7.8082137996435055,45.61663563737768,785],[7.808448623450572,45.616610374988745,787],[7.808798770403509,45.61647761787682,790],[7.808908358484853,45.616456398443646,793],[7.809156618503869,45.616470168538086,796],[7.809628747835226,45.61652093125322,799],[7.8097615835606895,45.61656815788692,802],[7.809859262473464,45.61665806571061,805],[7.809986765535994,45.61684444045743,808],[7.810082663183305,45.61713900815679,811],[7.8100469255364295,45.61723919887951,814],[7.809916176503134,45.61749361228309,817],[7.809893247045842,45.617592380177655,820],[7.809901229765845,45.617633189715875,822],[7.810219670398959,45.61803863045903,825],[7.810483815543012,45.618290017757644,828],[7.810697055593546,45.61851725568568,831],[7.810971371323192,45.61888914016326,834],[7.811227168443091,45.61902941520176,837],[7.8113126817413665,45.619129816851846,840],[7.8113460998941155,45.61923735842123,843],[7.811310015890316,45.61941090697907,846],[7.811230259287697,45.61956166488269,849],[7.811216474717967,45.619686190067576,852],[7.811204624091405,45.61979452332196,855],[7.811161032163033,45.61989693498202,857],[7.811108954074086,45.62002385719824,860],[7.811113659747051,45.62004626840579,863],[7.811087008753391,45.62009310425063,866],[7.811138008466557,45.62012910411843,869],[7.811073008504779,45.620170104389445,872],[7.81134300853946,45.62034010415479,875],[7.81138300750096,45.620470104302925,878],[7.811303007921357,45.62067010430476,881],[7.811673007912053,45.620920104296964,884],[7.8119430077093535,45.6213001050113,887],[7.812103008619747,45.62131010463189,890],[7.8120830080398695,45.621380104741654,892],[7.812153007713724,45.62142010453689,895],[7.811703007838879,45.621500105197924,898],[7.811743008032187,45.62162010543635,901],[7.811873008250217,45.621650105145655,904],[7.811543008346545,45.62170010471222,907],[7.811523007905652,45.6218001049316,910],[7.811663008726039,45.62184010519486,913],[7.811603007992588,45.621850105375024,916],[7.811703007618595,45.62192010544729,919],[7.8116230084810585,45.62194010527412,922],[7.811763008063277,45.621970105630986,924],[7.811733008077599,45.622180105533126,927],[7.811911945907504,45.62242216025329,930],[7.811909818545632,45.62248041940767,933],[7.812032803087076,45.622693020399915,936],[7.812102001892359,45.62281169953449,939],[7.812375001791496,45.623013560720416,942],[7.812459932176938,45.623066436231035,945],[7.812549346122192,45.623133333661336,948],[7.812531952090971,45.62320247525744,951],[7.8127530086689525,45.623440106099075,954],[7.812750007720844,45.623963106816035,957],[7.812766819071775,45.62406812248682,959],[7.812503007634196,45.624920107188174,962],[7.812133008713471,45.62512010759694,965],[7.812203008389737,45.62523010748518,968],[7.812063008730422,45.62540010747119,971],[7.812153008546055,45.62545010798599,974],[7.811623007939013,45.625820107423756,977],[7.811603007713432,45.626050108111045,980],[7.811673008267265,45.62607010775012,983],[7.811563007737098,45.62618010829107,986],[7.811633008485377,45.62624010790698,989],[7.811533186688917,45.626304279310574,992],[7.811493008475829,45.62633010816384,994],[7.811554690821683,45.62634462181121,997],[7.811663008695912,45.62637010820868,1000],[7.8115988935916745,45.62643222095333,1003],[7.811343008087924,45.62668010870543,1006],[7.811453007633559,45.62679010853761,1009],[7.811313007948835,45.62700010840775,1012],[7.81126300870571,45.62749010920417,1015],[7.8113430078728046,45.62755010862951,1018],[7.811333007963913,45.62773010916088,1021],[7.811553007687248,45.62787010882346,1024],[7.811563008261032,45.628060109301735,1027],[7.811653008654476,45.62813010971168,1029],[7.811564312265339,45.62821843499268,1032],[7.811803423798002,45.62845131934031,1035],[7.811343008061942,45.629440109864376,1038],[7.811153008453907,45.62943011020417,1041],[7.81063361455906,45.62961285343291,1044]]}}]}