{"type":"FeatureCollection","features":[{"type":"Feature","properties":{"slug":"50-s10","sct_code":"50_S10","source":"Catasto Sentieri VdA"},"geometry":{"type":"LineString","coordinates":[[7.686916008587942,45.60921109671392,875],[7.687006007765826,45.609311096950286,879],[7.687226007694506,45.60941109722912,882],[7.687196008350571,45.609461097057704,886],[7.687316008205774,45.60956109713359,889],[7.687246008210414,45.60955109658818,893],[7.687266008136456,45.60961109663383,896],[7.687206007730762,45.609681096881054,900],[7.687056008651623,45.609721097383165,904],[7.687236007913133,45.60989109725618,907],[7.687276007871906,45.60984109714924,911],[7.687386007933069,45.60991109712704,914],[7.687466007666284,45.610041097580805,918],[7.6875660081711095,45.610131097281084,921],[7.687606007560314,45.610231097640835,925],[7.6873960077959955,45.61035109790039,929],[7.6874860083131775,45.61034109726761,932],[7.687526008622568,45.61031109757859,936],[7.687666008168677,45.610421097363265,939],[7.687566007861852,45.61049109723662,943],[7.687546007952862,45.61048109804596,946],[7.687536007823641,45.61051109774222,950],[7.68753600757976,45.61049109724228,954],[7.6874860082432175,45.61055109753837,957],[7.687516007599371,45.610681097613885,961],[7.6873660087840925,45.610871098191794,964],[7.68730600772705,45.61086109828669,968],[7.687346008348243,45.61095109804164,971],[7.68727600828511,45.61099109830602,975],[7.687146008229132,45.611021097650564,978],[7.687126008439938,45.611051097579384,982],[7.687096007840797,45.611051098366005,986],[7.687006008102947,45.611281097844156,989],[7.686846007774098,45.611331098099456,993],[7.686736007943453,45.61141109817999,996],[7.686876008633382,45.611521098025726,1000],[7.686896007548825,45.61159109790153,1003],[7.686886008095732,45.61158109835634,1007],[7.68682600760108,45.61174109835063,1011],[7.686586008380035,45.61187109851111,1014],[7.686436008042785,45.61192109886881,1018],[7.686216008183327,45.612101098608655,1021],[7.686196008316756,45.61217109845237,1025],[7.686006008702921,45.612301099148326,1028],[7.685986007574203,45.61243109861161,1032]]}}]}