{"type":"FeatureCollection","features":[{"type":"Feature","properties":{"slug":"53-s6","sct_code":"53_S6","source":"Catasto Sentieri VdA"},"geometry":{"type":"LineString","coordinates":[[6.965410200742153,45.74265585730425,1343],[6.965324007657086,45.74262519397195,1346],[6.965134008449355,45.74244519355667,1349],[6.964324007817718,45.74217519344419,1353],[6.964624008364072,45.742715193426896,1356],[6.964524007552477,45.74302519384217,1359],[6.9642740082788,45.74271519347144,1362],[6.964144008466782,45.742865194234156,1365],[6.964234008193881,45.74308519458706,1369],[6.963394008600436,45.742475193597926,1372],[6.962574008498324,45.74232519320317,1375],[6.962724008064784,45.742475193690474,1378],[6.9610050076125605,45.742155193292554,1381],[6.961065007502881,45.74234519348716,1385],[6.961555008139786,45.74259519364707,1388],[6.9620350078277555,45.74304519383894,1391],[6.961315007382992,45.74301519446623,1394],[6.9605950080735814,45.742675193585264,1397],[6.960205008257219,45.74271519368247,1401],[6.9598250074864465,45.742545193471585,1404],[6.960385008461203,45.743295194151735,1407],[6.960045007547472,45.74317519455511,1410],[6.960045007878434,45.743305194770265,1413],[6.960315008023962,45.74361519438566,1417],[6.960415007672704,45.74358519469272,1420],[6.960335008320757,45.74385519442148,1423],[6.9605150076666575,45.743995194756266,1426],[6.960545008285264,45.74435519473357,1429],[6.9603550078554735,45.744335195472836,1433],[6.959925007849895,45.74458519510038,1436],[6.959365007524644,45.744385194807904,1439],[6.959165007742118,45.74453519556695,1442],[6.958885007617403,45.74446519560404,1445],[6.9586250079741205,45.74472519588059,1448],[6.9583450085226675,45.74423519503602,1452],[6.9584750075125275,45.74416519463042,1455],[6.958085007572269,45.744035194910346,1458],[6.957885007977748,45.743745194496135,1461],[6.957815008106508,45.74390519489125,1464],[6.957245008098383,45.74335519421434,1468],[6.957195007435108,45.743485194725125,1471],[6.956765008381849,45.743395194623695,1474],[6.9563850077134655,45.743125194366456,1477],[6.956385008421922,45.74323519435577,1480],[6.956275007923902,45.74310519413516,1484],[6.956215007999013,45.743245194066,1487],[6.956035007585736,45.74307519418982,1490],[6.95604500745235,45.743145194444004,1493],[6.955695007678996,45.74306519421835,1496],[6.955655007784707,45.743145193814115,1500],[6.955475007470517,45.74290519445433,1503],[6.955405007556456,45.74301519414119,1506],[6.9549050076048795,45.74264519406329,1509],[6.9548650075536935,45.742755194199766,1512],[6.954505007447292,45.74270519386032,1516],[6.9543350077118715,45.7429051944403,1519],[6.954105007583591,45.74265519407237,1522],[6.95386500818354,45.74281519413767,1525],[6.953031107842589,45.742630918633225,1528],[6.952547135908177,45.74218021791856,1532],[6.95222234356007,45.7419223776357,1535],[6.952073452709222,45.741775698110295,1538],[6.951771066712134,45.74160826437864,1541],[6.951302964787153,45.741433752927854,1544],[6.951278692336766,45.7413962818085,1548],[6.95099930113837,45.74127039849581,1551],[6.950756871689037,45.74122104564801,1554],[6.950065818891276,45.74113663868472,1557],[6.949586284492004,45.741026467318186,1560],[6.9495322082106705,45.74103180675023,1564],[6.94945785229801,45.74105449703249,1567],[6.949326166050487,45.74109503391992,1570],[6.94912559542732,45.741176163076545,1573],[6.949026651376672,45.74120098569613,1576],[6.94886643752762,45.74124251102842,1580],[6.948533778630807,45.74132491377915,1583],[6.948277367677107,45.74139989001544,1586],[6.948113046663158,45.74143640727003,1589],[6.948008199286405,45.74145511593695,1592],[6.947894056780758,45.74149339311739,1596],[6.94739000214364,45.74175504423445,1599],[6.947236096128292,45.741824995656884,1602],[6.9470947566346055,45.741903110399505,1605],[6.946902607881373,45.742030077712094,1608],[6.946723995614866,45.74210537617506,1612],[6.9464519627468455,45.74220516472938,1615],[6.946231042279329,45.74229793598098,1618],[6.946039207389824,45.74238286294792,1621],[6.945897672823866,45.742416140676575,1624],[6.945822717354379,45.7424216563488,1628],[6.945700661292856,45.74240830642526,1631],[6.94562476470929,45.74240608341875,1634],[6.9455700943466105,45.742426550206446,1637],[6.945549430081996,45.74245535213791,1640],[6.94555084155647,45.74248369253597,1643],[6.945573259282239,45.74250726247188,1647],[6.945659737641961,45.74252168897004,1650],[6.9457721218813,45.7425314330361,1653],[6.945937198603037,45.74254126606589,1656],[6.946019658341094,45.7425315946952,1659],[6.946149189886353,45.742508183432605,1663],[6.946225495543264,45.742499258995714,1666],[6.946252343771919,45.74250231598676,1669],[6.946273852080202,45.74251728915294,1672],[6.946285437950667,45.74253551671314,1675],[6.946282328938672,45.74255347911719,1679],[6.9462397150291295,45.74257931228045,1682],[6.946140391126701,45.7426144213573,1685],[6.945978043184052,45.74266384098505,1688],[6.945793807880415,45.74270857700447,1691],[6.945543813534744,45.742762939512815,1695],[6.945276182144451,45.74278850083846,1698],[6.945069567842606,45.74277496455685,1701],[6.94491640181757,45.742745206648706,1704],[6.944798389664568,45.74270586547613,1707],[6.944784530294361,45.74270328940757,1711],[6.944727944614417,45.742709135841594,1714],[6.944700687174351,45.74271722557836,1717],[6.944685235483768,45.74273753998399,1720],[6.944716069202273,45.742765552137314,1723],[6.94476668639668,45.74278877196325,1727],[6.944933673885936,45.742846690563745,1730],[6.945203218451832,45.74291503537955,1733],[6.945546368577171,45.74298127086171,1736],[6.9456858538609305,45.74298721194794,1739],[6.9458085089054675,45.742984270762534,1743],[6.945847445273933,45.74299183496553,1746],[6.945875453660131,45.743030092678005,1749],[6.945862515050198,45.74304873602759,1752],[6.945813151444935,45.74305814483011,1755],[6.94567806090479,45.743066011576246,1759],[6.945668553064826,45.74306381361127,1762],[6.945663116446301,45.7430646617797,1765],[6.9452523603189915,45.743048271646494,1768],[6.944624535977071,45.742991971163434,1771],[6.944368928559824,45.74295136819501,1775],[6.944204897708204,45.74286741013548,1778],[6.944070353476079,45.74276112742873,1781],[6.944036324238635,45.742755032552616,1784],[6.944011957307777,45.742751161952725,1787],[6.943974336299873,45.74277450998271,1791],[6.943973391644107,45.742800233808744,1794],[6.944001523336517,45.74283506137233,1797],[6.944086864480949,45.74291382111938,1800],[6.944260501091792,45.743057664074385,1803],[6.9443994103221245,45.7431794305543,1807],[6.944548931879433,45.74331254321365,1810],[6.944649663472664,45.743372702560485,1813],[6.944786883258126,45.74344038232384,1816],[6.94503124485599,45.74352715041179,1819],[6.945255639523744,45.743556928731,1822],[6.945367364931879,45.74358467964913,1826],[6.945408438067638,45.743600863619534,1829],[6.945419363061505,45.74363709768536,1832],[6.945381363136006,45.74367073515065,1835],[6.945225355692507,45.74371426256952,1838],[6.945023370097796,45.74380844321675,1842],[6.94493851944075,45.74384981867531,1845],[6.9447658054856065,45.74388103173078,1848],[6.9447283662204295,45.743874554373875,1851],[6.944644029870478,45.743859963211065,1854],[6.944613131176725,45.7438594071176,1858],[6.94452401159991,45.74385780315781,1861],[6.944486704858532,45.7438725767334,1864],[6.944477593590485,45.74392046246926,1867],[6.944510940664825,45.74394680349421,1870],[6.94461694953666,45.743996761154165,1874],[6.944815026698172,45.74407583282586,1877],[6.945071323102929,45.74417139586694,1880],[6.945206415058819,45.74416353076357,1883],[6.945306838968819,45.74416533757082,1886],[6.945335917519989,45.74417444100547,1890],[6.945341755294542,45.744215731896,1893],[6.945313804885554,45.74424268537676,1896],[6.945209672086706,45.74427513384669,1899],[6.945038651451739,45.74432697026169,1902],[6.944737875836167,45.74437475586349,1906],[6.944638144161703,45.74435408404826,1909],[6.944429954520148,45.744283411234626,1912],[6.9443321050028315,45.74427821716442,1915],[6.944218867404429,45.74429162387846,1918],[6.944081451119256,45.744296014039925,1922],[6.943999212436324,45.74426780174798,1925],[6.943949146924587,45.74423089800113,1928],[6.943696875872397,45.743749323995274,1931],[6.943158351677699,45.743361600930484,1934],[6.942885643558871,45.743086670912206,1938],[6.942720292558499,45.74303868936227,1941],[6.942271659795737,45.743003604968955,1944],[6.942132002383318,45.74295608550909,1947],[6.942067770415267,45.742954928081744,1950],[6.9419508303320505,45.742988823211775,1954],[6.9417927055792354,45.74309398083815,1957],[6.941701457905619,45.7431283387426,1960],[6.94133845054522,45.743211801748195,1963],[6.940592968985896,45.74355838536494,1966],[6.940350480976775,45.74386003297101,1970],[6.940230890606663,45.74396588337744,1973],[6.940019718547069,45.744115084794075,1976],[6.939732081942334,45.744290083731094,1979],[6.940265008495964,45.74464519558531,1982],[6.940445008239811,45.74470519514298,1986],[6.941495008388227,45.74449519561861,1989],[6.941635008513014,45.74453519571602,1992],[6.942195008604762,45.74442519516737,1995],[6.9429850078551745,45.744805195461076,1998],[6.943625007927053,45.74503519549132,2002],[6.94476500773785,45.74508519550525,2005],[6.945695008013854,45.74501519558256,2008],[6.947145008053338,45.74456519551553,2011],[6.947855008332114,45.74478519551421,2014],[6.94858500803764,45.744785195780764,2017],[6.949395008511069,45.74487519558765,2021],[6.949935008383846,45.74499519536819,2024],[6.950155008225872,45.74514519619276,2027],[6.950595007564048,45.74561519630417,2030],[6.950675008526254,45.746645197095305,2033],[6.951025008341501,45.74715519738498,2037],[6.951215007450149,45.748085197819734,2040],[6.951895007496565,45.74915519879161,2043],[6.951845007650093,45.749975199611555,2046],[6.952015007792443,45.750215199715335,2049],[6.952085007983913,45.750865200686775,2053],[6.9522150076868074,45.751055200419884,2056],[6.952015008536559,45.75146520127254,2059],[6.952335008311261,45.752055200950004,2062],[6.952705008554126,45.7523052013141,2065],[6.952735008399216,45.752635202142436,2069],[6.952705008308614,45.75356520209498,2072],[6.952255008494581,45.75402520280974,2075],[6.951835007428949,45.75397520291561,2078],[6.951625007441287,45.75431520329006,2081],[6.951775007756737,45.7545852029514,2085],[6.951945008326192,45.75464520382086,2088],[6.950905007638666,45.75501520405851,2091],[6.952809008205765,45.756775205210815,2094],[6.952938007476592,45.757461205524265,2097],[6.953193007655861,45.757538205425476,2101],[6.954281007994931,45.757305205095015,2104],[6.95513626977504,45.75751861649922,2107]]}}]}