{"type":"FeatureCollection","features":[{"type":"Feature","properties":{"slug":"53-s3","sct_code":"53_S3","source":"Catasto Sentieri VdA"},"geometry":{"type":"LineString","coordinates":[[6.967036491596142,45.74324011509564,1033],[6.967100345215847,45.74334025835404,1034],[6.967190596307427,45.743386069478454,1035],[6.967452732004481,45.74350404006093,1037],[6.967522796731502,45.74355479121068,1038],[6.967624856738831,45.743808624331336,1039],[6.967497954447212,45.74454891548885,1040],[6.967402313839665,45.74473172564477,1041],[6.967602978699412,45.74525733071566,1043],[6.967705902346134,45.74568669163763,1044],[6.9679712572274415,45.7462674516073,1045],[6.9679807387334,45.74639362867503,1046],[6.967812173163899,45.74656614277793,1047],[6.9678033151997845,45.74661098634444,1049],[6.967837816009553,45.74665660323845,1050],[6.967887150692425,45.74668201040984,1051],[6.967985698368954,45.746699737228305,1052],[6.968101774244879,45.74675580603936,1053],[6.968296084449124,45.74704728205017,1055],[6.9691852890587915,45.74791815309845,1056],[6.969319410121485,45.74816355583133,1057],[6.969547936371427,45.748464637717284,1058],[6.969691332158468,45.74878670813247,1059],[6.9697871889249425,45.74896842497045,1061],[6.969771303685089,45.7490851502988,1062],[6.969558744038822,45.74951790022866,1063],[6.969344300660431,45.74972560052854,1064],[6.969369668508604,45.74975648168529,1065],[6.969415185299347,45.749768537222714,1067],[6.969704601952909,45.74975000842036,1068],[6.969935113095396,45.74975869368942,1069],[6.970168323457075,45.74975374916661,1070],[6.970298454659891,45.749770819335765,1071],[6.970402312113432,45.74985399082165,1073],[6.970430423366861,45.74991591943538,1074],[6.97055564431463,45.750008150600955,1075],[6.970840067166405,45.75031922456113,1076],[6.970927722885659,45.75038378609075,1077],[6.971024008105889,45.75048519987484,1079],[6.970804008348203,45.75059519995976,1080],[6.970864008214657,45.75072520037874,1081],[6.971064007892022,45.75088520012412,1082],[6.9712240074356835,45.75104520090103,1083],[6.971214008224731,45.751125200534446,1085],[6.971264007968024,45.75122520053051,1086],[6.971644007703405,45.75147520096953,1087],[6.971754008097062,45.75166520119299,1088],[6.9718140074818775,45.75173520134954,1090],[6.971934008173997,45.75182520152508,1091],[6.971924007457602,45.75191520083836,1092],[6.971954008159999,45.752045201661524,1093],[6.972054008227794,45.7521952017886,1094],[6.972294008301548,45.75235520126069,1096],[6.972364008019568,45.752425201360325,1097],[6.972324007794935,45.75249520160919,1098],[6.972344008150047,45.75253520159449,1099],[6.972524008152359,45.75259520173376,1100],[6.97265400837311,45.75261520196947,1102],[6.9728140080578065,45.752665201581415,1103],[6.972914008366109,45.752735201915506,1104],[6.972954007638674,45.75278520178649,1105],[6.973144008118729,45.752905201748504,1106],[6.973104007678141,45.75292520219622,1108],[6.972974008258147,45.752915202142134,1109],[6.972944008099783,45.75293520181411,1110],[6.972964007854972,45.7529452018179,1111],[6.972924007724558,45.75297520186095,1112],[6.97343400785331,45.75332520225465,1114],[6.973554007825068,45.75338520263001,1115],[6.973674008308582,45.75342520268312,1116],[6.974164008239406,45.75330520240809,1117],[6.97426400823323,45.75332520238328,1118],[6.974274008585946,45.75334520265629,1120],[6.974254007744471,45.75338520202466,1121],[6.974324008624479,45.75339520211586,1122],[6.974344007498696,45.75342520206528,1123],[6.974434008596978,45.75342520255032,1124],[6.974434008667987,45.75346520205967,1126],[6.974514008133029,45.75346520240438,1127],[6.974664008045612,45.753725202861666,1128],[6.974604007484145,45.75379520293109,1129],[6.974604007667565,45.753835202440065,1130],[6.974564008493254,45.75389520292462,1132],[6.974434007980802,45.75402520323549,1133],[6.9744940086002405,45.75406520302122,1134],[6.974524007888067,45.754185203443605,1135],[6.974570846930583,45.75423617009363,1136],[6.974554008477336,45.75426520347597,1138],[6.97473400794674,45.754315203146476,1139],[6.974894007476234,45.75439520327216,1140],[6.974914008099044,45.75454520345182,1141],[6.9750240083787105,45.754545203464765,1142],[6.975164007961823,45.754595203365156,1144],[6.975354007546422,45.75463520328902,1145],[6.975604007747478,45.75466520384322,1146],[6.97585400800483,45.75473520334974,1147],[6.975954007657281,45.754745203081065,1148],[6.975914008433082,45.75465520298142,1150],[6.975634007807166,45.75446520347307,1151],[6.975624008040276,45.75441520348272,1152],[6.97606400830704,45.75448520309839,1153],[6.976044007893472,45.75442520357841,1154],[6.975894007582817,45.7543352035228,1156],[6.975714008067219,45.754165202674535,1157],[6.975594007908165,45.75383520229965,1158],[6.97538400847223,45.75357520241034,1159],[6.975384007724846,45.75353520289026,1160],[6.97573400831465,45.753575202428884,1162],[6.975904007817252,45.753685202735525,1163],[6.975984007828671,45.75371520281335,1164],[6.976024008283808,45.753755202867445,1165],[6.976204008061262,45.75378520272662,1166],[6.976494008404712,45.75380520305288,1168],[6.976624007466224,45.753835202889334,1169],[6.9767140082898385,45.75393520258078,1170],[6.976784007920035,45.753875202682444,1171],[6.97692400863929,45.75406520276027,1172],[6.977044007638675,45.75411520338661,1174],[6.977234008311411,45.75424520335688,1175],[6.977424007593716,45.754345203132324,1176],[6.9775740081038045,45.754395203478,1177],[6.977764007487333,45.75442520333626,1178],[6.97787400741476,45.75448520299578,1180],[6.978014008084098,45.7545052031681,1181],[6.978044008507682,45.75440520317425,1182],[6.978144008101265,45.75446520283585,1183],[6.978224007779206,45.7544852034821,1184],[6.978314007445963,45.75460520297714,1186],[6.9783640074545294,45.75472520359893,1187],[6.978394008309812,45.75475520346801,1188],[6.978654007581309,45.754795203871346,1189],[6.979334008176413,45.75500520407538,1190],[6.979454007483615,45.75505520396214,1192],[6.979654007526657,45.755105204084195,1193],[6.979934008356468,45.75522520426101,1194],[6.980024007872746,45.755315204342196,1195],[6.980224007787237,45.75532520396693,1197],[6.980234007450265,45.75526520381099,1198],[6.980334007902215,45.75531520370923,1199],[6.980414008277785,45.75539520431713,1200],[6.9805440076284775,45.75567520437698,1201],[6.9809040074961475,45.75585520419449,1203],[6.981054007402531,45.755905204437575,1204],[6.981244008313378,45.756065204727555,1205],[6.981344007534462,45.75629520455155,1206],[6.981514007725632,45.75656520519076,1207],[6.981804007554578,45.75681520544682,1209],[6.982064008490611,45.756945205697335,1210],[6.982104007415209,45.7570152052037,1211],[6.982194008593599,45.757095205727445,1212],[6.982314008455828,45.7571452052945,1213],[6.982354008073128,45.75718520578792,1215],[6.982624008350501,45.75733420521875,1216],[6.98272400824307,45.75749420538237,1217],[6.982773871867436,45.75762488078721,1218],[6.982841457646561,45.757742839941436,1219],[6.9829325864596425,45.75778195035368,1221],[6.982909675338311,45.75788651046867,1222],[6.982894701395838,45.75808981480838,1223],[6.982928490330155,45.75830093061829,1224],[6.982930226325093,45.75838789606974,1225],[6.982899517081901,45.758429116383404,1227],[6.982907364196863,45.75848167164658,1228],[6.9829740078651295,45.75852420631903,1229],[6.983004008044565,45.75858420657128,1230],[6.983084008176205,45.758654206512844,1231],[6.983344008299251,45.75858420643437,1233],[6.983674007386267,45.75853420691347,1234],[6.9838240084106,45.75856420692107,1235],[6.983564007749211,45.7587142070237,1236],[6.983654008245483,45.758804206901175,1237],[6.983954008407927,45.75900420712391,1239],[6.9840140082782165,45.759094207259395,1240],[6.983944008642042,45.759144207401285,1241],[6.984034007743666,45.75918420693903,1242],[6.983994007457068,45.759224206870954,1243],[6.983964008509617,45.75921420691637,1245],[6.983770474739064,45.75927301232585,1246],[6.983564008340392,45.75934420698105,1247],[6.983514008624161,45.759464207338254,1248],[6.983684008106563,45.75942420760758,1249],[6.984384008328216,45.75938420744153,1251],[6.984067317107124,45.7595225523661,1252],[6.983864007537964,45.75967420723842,1253],[6.9838840080090625,45.75967420748602,1254],[6.983844007512915,45.759704207718116,1255],[6.98379400762798,45.759794207465774,1257],[6.983991411823891,45.75976172142286,1258],[6.984114008110314,45.75974420747348,1259],[6.98431400763511,45.75976420764317,1260],[6.984454007538549,45.759754207249635,1261],[6.98447400820686,45.759824207582184,1263],[6.984534007627787,45.75988420760195,1264],[6.984534007725931,45.759964207427544,1265],[6.9846140082352255,45.76000420736402,1266],[6.984664007801414,45.76005420762062,1267],[6.984631273507555,45.76010785485283,1269],[6.98454400799196,45.760224208039375,1270],[6.984594008386625,45.76022420833958,1271],[6.985084008074143,45.760014207706185,1272],[6.985041410468756,45.76007506061467,1273],[6.98492400805919,45.76021420827962,1275],[6.984864008427984,45.76023420828507,1276],[6.984944008664958,45.76022420798359,1277],[6.984864007695838,45.7603142080913,1278],[6.984854007599294,45.76042420769361,1279],[6.98505400776589,45.760354208016295,1281],[6.985324008573432,45.76031420778756,1282],[6.98562400759397,45.76030420751043,1283],[6.985524008048845,45.760364208351014,1284],[6.985344007785412,45.76058420792472,1285],[6.985090361779856,45.76071531524519,1287],[6.985099761389803,45.760753139483576,1288],[6.985062182967331,45.76085039016356,1289],[6.984913844812864,45.76108502544368,1290],[6.9848453616277615,45.761144071456684,1291],[6.984615973903517,45.76125134558989,1293],[6.984375534974924,45.76140011128325,1294],[6.984115182598862,45.761778041418566,1295],[6.98383848970452,45.76200717391306,1296],[6.98383035956551,45.762065534117184,1297],[6.98385100431266,45.76209449878861,1299],[6.9838899438816,45.7621070867503,1300],[6.983959884915558,45.76210100302528,1301],[6.984024008005964,45.76215420954518,1302],[6.983994007458587,45.7622942095317,1304],[6.983954007615401,45.76237420978762,1305],[6.983964007795131,45.76239421007616,1306],[6.983774007409332,45.76267421022073,1307],[6.983684008505349,45.762864210241915,1308],[6.983764008639853,45.76290420984663,1310],[6.9837440077481405,45.76300421043113,1311],[6.9837740083295134,45.7631942102076,1312],[6.983887928080902,45.76316792078058,1313],[6.984164007422621,45.763144210033026,1314],[6.984215438349829,45.76312349482812,1316],[6.984314007862784,45.763064209762256,1317],[6.98438400768911,45.762914210364656,1318],[6.984504008452918,45.762844210156594,1319],[6.984554008134351,45.762874210267555,1320],[6.984564007802958,45.762944210472035,1322],[6.984604007411123,45.762934210156864,1323],[6.984594007910427,45.76301420989633,1324],[6.984774008210859,45.76306420984618,1325],[6.984954007910639,45.763074210058726,1326],[6.984974008132577,45.76309421028091,1328],[6.985054007528056,45.763224210184354,1329],[6.985084007850567,45.76336421052611,1330],[6.985084007837986,45.76354421025529,1331],[6.98542400857299,45.76361421034664,1332],[6.985494007458047,45.76370421049911,1334],[6.985936529467509,45.76372752589272,1335],[6.986271126783701,45.76380529736627,1336],[6.986528235834674,45.76379442954966,1337],[6.986674284526985,45.76381240513611,1338],[6.986936692190384,45.7638581002864,1340],[6.987110214924453,45.76392789522799,1341],[6.987145202514665,45.76397471449556,1342],[6.987416278055073,45.764149408970454,1343],[6.987033319706503,45.76437217438522,1344],[6.986633983289341,45.76455864840624,1346],[6.9864448963341435,45.764637096746824,1347],[6.9865002866856285,45.764704692807655,1348],[6.986622445927271,45.7648604762279,1349],[6.986687686836756,45.76493244821504,1350],[6.986735731876611,45.76495695495552,1352],[6.986813003130868,45.764985089253706,1353],[6.986895302024566,45.76499712459578,1354]]}}]}