{"type":"FeatureCollection","features":[{"type":"Feature","properties":{"slug":"53-s2","sct_code":"53_S2","source":"Catasto Sentieri VdA"},"geometry":{"type":"LineString","coordinates":[[6.988065716353674,45.762282060528705,1031],[6.988204007819737,45.76217420991251,1030],[6.988454008065678,45.762194209611394,1030],[6.988564008101399,45.76217420988336,1029],[6.988594008250162,45.7620942092153,1029],[6.988504007567542,45.76193420953049,1028],[6.988544008295656,45.76192420965387,1028],[6.988784008203437,45.76194420891504,1027],[6.988944007545354,45.76197420902591,1027],[6.989074007617145,45.76196420959176,1026],[6.988924008423644,45.76184420901196,1026],[6.988964008372791,45.761824209337526,1025],[6.989074008194381,45.76185420909801,1025],[6.989014008283102,45.76177420950697,1024],[6.989084008053296,45.76172420897901,1023],[6.9892600079901595,45.76177820958672,1023],[6.989424007496527,45.76173420923446,1022],[6.989684007860342,45.76173420930257,1022],[6.989764007851001,45.76175420902976,1021],[6.98983400863547,45.761824209101974,1021],[6.990114008418997,45.76187420915545,1020],[6.991384008291827,45.76196420932301,1020],[6.991504007549043,45.762004209426344,1019],[6.991864008465944,45.762064209416245,1019],[6.9919440086583915,45.76206420924473,1018],[6.992054007944166,45.76209420972061,1018],[6.992344008081215,45.76210420966266,1017],[6.99253400788992,45.762184209152075,1016],[6.992984008085876,45.762204209358416,1016],[6.993244008471549,45.76224420975693,1015],[6.993304008103605,45.76229421000138,1015],[6.993494008028713,45.76233420934912,1014],[6.993514008464654,45.76235420987833,1014],[6.9935540084513175,45.76233420949844,1013],[6.993834008079406,45.76240420958375,1013],[6.994394007546776,45.76248420988344,1012],[6.995514008235742,45.762384209958746,1012],[6.995554007520763,45.76236420976629,1011],[6.9957540081617555,45.76239420932247,1011],[6.9958740078358135,45.76239420989257,1010],[6.995994008065129,45.76242420925075,1009],[6.9963640077780545,45.762594209851606,1009],[6.996514007891665,45.762654210033084,1008],[6.9965540084166316,45.76265420968169,1008],[6.9968576583172055,45.762781490015705,1007],[6.996892111768095,45.76282249696053,1007],[6.997259488172321,45.762918353236444,1006],[6.997388002318956,45.762920606754214,1006],[6.997479250007444,45.762886204428284,1005],[6.997545116716518,45.762842356450875,1005],[6.997817571233794,45.76277512856975,1004],[6.99790785280909,45.76276771067596,1004],[6.998294038033226,45.76275647873032,1003],[6.998755401036915,45.76280056623823,1002],[6.9988601425559,45.76274839811398,1002],[6.9991441598156285,45.76271737194722,1001],[6.999567290703205,45.76275178579895,1001],[7.000113158232266,45.762590334805815,1000],[7.000397817039626,45.762541315612324,1000],[7.000959102581522,45.76230812594635,999],[7.001103680469134,45.76222065073994,999],[7.001272353806275,45.76217859989169,998],[7.0015174919300645,45.762155887975986,998],[7.001764557352153,45.762079205828215,997],[7.001880539895133,45.762072234460504,997],[7.002084875229862,45.762111811460734,996],[7.002290174352522,45.76212440324016,995],[7.00281771874984,45.76211562850968,995],[7.002909925102567,45.76205423689276,994],[7.003156656814737,45.76162652361809,994],[7.003250145986748,45.761529151865226,993],[7.003124007663272,45.761494208706466,993],[7.003144008637413,45.761384208699326,992],[7.003014007576497,45.76135420849931,992],[7.002974008587418,45.761274208657255,991],[7.003004008576253,45.76122420851269,991],[7.003064007906473,45.761204208873,990],[7.00327400772839,45.76119420863717,990],[7.0033740083120355,45.761144209020586,989],[7.003354008646178,45.76106420881735,988],[7.003294008318604,45.76106420842072,988],[7.003284007890186,45.76102420875175,987],[7.0034440083855,45.76093420822365,987],[7.003714008207913,45.760864208774976,986],[7.003744008157921,45.760844208241046,986],[7.003824007541696,45.76080420838496,985],[7.004514007801329,45.76081420876481,985],[7.004624007563024,45.76084420793554,984],[7.004574007880281,45.760934208646596,984],[7.004592099130128,45.761039573107624,983],[7.005224686380581,45.760969618463115,983],[7.005701136358765,45.760950937414535,982],[7.005933737148199,45.76091899651718,981],[7.006125220377825,45.76095834189588,981],[7.007132086637801,45.760849907400015,980],[7.007362123624777,45.76088992343121,980],[7.007634557548234,45.76082267175163,979],[7.007778801101052,45.76074418282059,979],[7.007885452051546,45.76063803628124,978],[7.007924645453305,45.76062071876737,978],[7.00795002715758,45.76063016205254,977],[7.007961276958413,45.76067536113295,977],[7.007897383438349,45.7610252689887,976],[7.0079468662435955,45.76108013551405,976],[7.008061885483841,45.76110014277811,975],[7.0081797866489275,45.76103919504324,974],[7.008233112091795,45.76098612160075,974],[7.008260735343952,45.76093259990594,973],[7.008265217981238,45.76080667007464,973],[7.008450254725834,45.76066588769003,972],[7.008659071718498,45.760579523068564,972],[7.009022739586227,45.760477856493665,971],[7.009474442715181,45.76043172657112,971],[7.009088643436375,45.76079402537783,970],[7.0088904366906615,45.76094357976231,970],[7.0088631341233505,45.76098810662822,969],[7.008873424450635,45.76106029060243,969],[7.0091770003678855,45.76084056845076,968],[7.009347263909343,45.76075353052784,967],[7.009673018688495,45.760633199913805,967],[7.010206306722556,45.76046248083738,966],[7.010645157964876,45.76041612237131,966],[7.011111628759253,45.760316239766176,965],[7.011372483475541,45.760212775229014,965],[7.011775016561735,45.760102776030664,964],[7.012315392758782,45.76009418079322,964],[7.0136046330267625,45.75999960381982,963],[7.014108371051299,45.759936359422355,963],[7.014768871279421,45.75980383322729,962],[7.015092056695904,45.75975544706015,962],[7.015594515063375,45.759728176153544,961],[7.015941806331401,45.75972520928197,960],[7.01645870925427,45.75965318264031,960],[7.016935145833213,45.75963445446659,959],[7.0175930869345,45.759573872072366,959],[7.01784946579718,45.75959632305443,958],[7.01893307452261,45.759498116899216,958],[7.02023227889106,45.7594846430504,957],[7.020555458248935,45.759436241309515,957],[7.021084249701061,45.7593914014848,956],[7.0213447643011,45.759296908837186,956],[7.021448206574515,45.75928069975686,955],[7.021708720065955,45.75918620625858,955],[7.021786657754716,45.759142986300056,954],[7.022085525147542,45.7590757250471,953],[7.023046966390423,45.75879535259287,953],[7.023176108621907,45.75877958680551,952],[7.023536562750544,45.75876782408554,952],[7.023755977122101,45.758744619242634,951],[7.024411361103614,45.75875595787951,951],[7.024733897976916,45.75872553433853,950],[7.025609013099143,45.75870466385878,950],[7.026359428174765,45.75857362494976,949],[7.0276752672762886,45.75845234697715,949],[7.028635403725992,45.75820790720656,948],[7.029190513044935,45.758145482949196,948],[7.029320285820083,45.75811171994544,947],[7.029564884282812,45.75801629665891,946],[7.029795199151341,45.7579759034645,946],[7.029902081831142,45.75794174492602,945],[7.030385450660241,45.75785107740801,945],[7.030742481292116,45.75775372564942,944],[7.031227855835785,45.75766308734655,944],[7.031341204690569,45.75765371129573,943],[7.03161029130944,45.75762017694176,943],[7.032979991663213,45.75736025720864,942],[7.0331586551448035,45.75729582805832,942],[7.0346271435893994,45.75665956657053,941],[7.035796311606438,45.756216151424105,941],[7.036025896129957,45.756163802832184,940]]}}]}