{"type":"FeatureCollection","features":[{"type":"Feature","properties":{"slug":"53-s7","sct_code":"53_S7","source":"Catasto Sentieri VdA"},"geometry":{"type":"LineString","coordinates":[[6.922061694445266,45.768891395833045,1329],[6.922102040616072,45.768843852634554,1332],[6.922013943186488,45.768800454671,1335],[6.922121639824209,45.768669659307534,1338],[6.922341931254258,45.76820607289196,1342],[6.922527628728145,45.768020975358375,1345],[6.9225639245910875,45.7679233781244,1348],[6.922583723091678,45.76781628220353,1351],[6.922575418210373,45.76755059258124,1354],[6.922656615189193,45.76723010456388,1357],[6.922657510319084,45.766929714036344,1361],[6.9225756093995985,45.766864419194064,1364],[6.922527908700641,45.766759324832044,1367],[6.922659904031384,45.766497332101096,1370],[6.92279420003628,45.766312434989885,1373],[6.922809296694625,45.76623883823801,1376],[6.9227203971621805,45.76617114265455,1380],[6.922722196573101,45.76613494446196,1383],[6.9227903932184605,45.76595404918709,1386],[6.922839488494722,45.76569275892065,1389],[6.922757189448505,45.765686160520275,1392],[6.922676088395935,45.765607266011,1395],[6.922645388059341,45.76552596880801,1399],[6.922371182455285,45.765172287607555,1402],[6.922325881600786,45.76507679180414,1405],[6.922328679090926,45.76497369606851,1408],[6.922219876277673,45.76463290965287,1411],[6.922259072612389,45.764518314539025,1414],[6.922254369152699,45.76425652452524,1417],[6.922229066977851,45.764156227971164,1421],[6.922246666858489,45.76406703200337,1424],[6.922376560955488,45.763812439348655,1427],[6.922400458569325,45.76364624454945,1430],[6.922359957571129,45.763559348802886,1433],[6.922270458405187,45.76349795313524,1436],[6.92221155579215,45.76342455644621,1440],[6.922177154407946,45.76334026116466,1443],[6.922178153718983,45.763286761892495,1446],[6.9222744506200895,45.76310076713097,1449],[6.922255249470891,45.763050469980826,1452],[6.92233524780901,45.76286107524,1455],[6.922355145365271,45.76274808029817,1459],[6.922330542409232,45.76262058590477,1462],[6.922391141096397,45.76243539067999,1465],[6.92243433648008,45.76219399961296,1468],[6.922457630172523,45.76185731193977,1471],[6.922497827671592,45.761690817747656,1474],[6.922584724138246,45.761514422712544,1478],[6.922806117852022,45.761166532276924,1481],[6.922803817365649,45.761102834707074,1484],[6.922948816618111,45.7610455334115,1487],[6.923155117122858,45.76103922975785,1490],[6.923450012457196,45.76084843157743,1493],[6.923562709364182,45.76074003447791,1496],[6.923588770804227,45.76069256040218,1500],[6.923680405842863,45.76048754240003,1503],[6.923779503361218,45.76041854361057,1506],[6.9238156045502235,45.76041484183138,1509],[6.92384700329871,45.760358843963694,1512],[6.923899964174831,45.76026263462209,1515],[6.923985919885566,45.76010385623191,1519],[6.924114994939285,45.75996215441211,1522],[6.924181894353295,45.75988915518424,1525],[6.9242190405137345,45.759882370669416,1528],[6.924272698805724,45.759874784586785,1531],[6.9243359819911685,45.75981755787131,1534],[6.924439471952745,45.75975561378905,1538],[6.924518600963736,45.759690891245405,1541],[6.92459973436648,45.759602077201805,1544],[6.924707394861348,45.759517636095644,1547],[6.9247140753287795,45.759518215620055,1550],[6.924714587658417,45.759516259202,1553],[6.92478948410899,45.75942016181978,1557],[6.9251462814172,45.7592830618413,1560],[6.925262071850453,45.759109922226656,1563],[6.92532757678272,45.75895877009796,1566],[6.925346473232632,45.758855574227375,1569],[6.925431770828792,45.75874017729258,1572],[6.925483150194525,45.75847840867543,1576],[6.9255381032482,45.75836908938019,1579],[6.925486552913082,45.758319895442426,1582],[6.925482465758112,45.75823157674277,1585],[6.925492649609086,45.75817795621938,1588],[6.92552424342986,45.75813707880376,1591],[6.925853783424945,45.75785134170523,1594],[6.925873208062239,45.75778620530911,1598],[6.92581756246992,45.75745179760938,1601],[6.925901665280397,45.75724792801847,1604],[6.926215974626056,45.75714349561243,1607],[6.926511789233694,45.75696430788559,1610],[6.926573379137093,45.7569088672849,1613],[6.926714487816906,45.75665840450805,1617],[6.926744284467228,45.75654285133314,1620],[6.926726343095311,45.75645322267872,1623],[6.926520437313639,45.75611759043677,1626],[6.926530431012681,45.755985603614214,1629],[6.926623339811048,45.755819401489234,1632],[6.926808303290639,45.75564772484629,1636],[6.927091214949262,45.75544924980318,1639],[6.927236703293965,45.75524113530075,1642],[6.927595177665897,45.75506903584414,1645],[6.927711859648839,45.75494970096038,1648],[6.927932757074313,45.75449647804992,1651],[6.928145059569005,45.75427528614262,1655],[6.928173782745998,45.75405076360901,1658],[6.928223377604542,45.753951644228685,1661],[6.928376545135917,45.7538115383112,1664],[6.928643536553753,45.75349131838466,1667],[6.928838421045222,45.75332696301287,1670],[6.9293984443116425,45.75294775766809,1673],[6.929512874187365,45.752889106187524,1677],[6.929655572293625,45.752755952500415,1680],[6.929910982067698,45.75261055327156,1683],[6.930180105015569,45.752508267335514,1686],[6.930622828217533,45.752126929968554,1689],[6.931109328338766,45.751803536802974,1692],[6.931285076151584,45.75174242290003,1696],[6.931800639445096,45.75141479010912,1699],[6.932099840262545,45.75121504314082,1702],[6.932077340208609,45.751136346746385,1705],[6.932131535398862,45.75085645544853,1708],[6.93203783380344,45.750686064201425,1711],[6.93198186088743,45.75065304363442,1715],[6.93189200549036,45.75055318308177,1718],[6.93194411134502,45.75033979902786,1721],[6.932073100479147,45.75020199183664,1724],[6.9322561767056055,45.75000518740899,1727],[6.932494748710888,45.74981149350635,1730],[6.932925478957073,45.74928825514673,1734],[6.933034903982559,45.7491102236908,1737],[6.9332757941221805,45.748853565897036,1740],[6.933844180615898,45.74843182164576,1743],[6.933898558893746,45.74835180003426,1746],[6.934440908727726,45.74793858234784,1749],[6.934787885062153,45.74759383400257,1752],[6.935208291547063,45.747349418824456,1756],[6.935380283203316,45.74721751925719,1759],[6.9355371047508125,45.74714834940851,1762],[6.935644195255024,45.74703327741099,1765],[6.936132146097473,45.74670007371151,1768],[6.936470815310649,45.746580185121935,1771],[6.936654654195932,45.74647549949274,1775],[6.936758425993162,45.74645037250036,1778],[6.937163648154953,45.74626867998059,1781],[6.9375629795750875,45.74589786698757,1784],[6.9377916506399995,45.74562297769217,1787],[6.938059191446668,45.74533978912008,1790],[6.938527973304458,45.745177240485894,1794],[6.938684785308375,45.74510806612596,1797],[6.938868284089568,45.74501237137966,1800],[6.938987217019619,45.74492451175662,1803],[6.939235610878503,45.744811986336245,1806],[6.939341696031526,45.74472389450874,1809],[6.939476784904936,45.744546319843295,1813],[6.939565887423942,45.74443541808431,1816],[6.939732081942334,45.744290083731094,1819],[6.940019718547069,45.744115084794075,1822],[6.940230890606663,45.74396588337744,1825],[6.940350480976775,45.74386003297101,1828],[6.940592968985896,45.74355838536494,1831],[6.94133845054522,45.743211801748195,1835],[6.941701457905619,45.7431283387426,1838],[6.9417927055792354,45.74309398083815,1841],[6.9419508303320505,45.742988823211775,1844],[6.942067770415267,45.742954928081744,1847],[6.942132002383318,45.74295608550909,1850],[6.942271659795737,45.743003604968955,1854],[6.942720292558499,45.74303868936227,1857],[6.942885643558871,45.743086670912206,1860],[6.943158351677699,45.743361600930484,1863],[6.943696875872397,45.743749323995274,1866],[6.943949146924587,45.74423089800113,1869],[6.943999212436324,45.74426780174798,1873],[6.944081451119256,45.744296014039925,1876],[6.944218867404429,45.74429162387846,1879],[6.9443321050028315,45.74427821716442,1882],[6.944429954520148,45.744283411234626,1885],[6.944638144161703,45.74435408404826,1888],[6.944737875836167,45.74437475586349,1892],[6.945038651451739,45.74432697026169,1895],[6.945209672086706,45.74427513384669,1898],[6.945313804885554,45.74424268537676,1901],[6.945341755294542,45.744215731896,1904],[6.945335917519989,45.74417444100547,1907],[6.945306838968819,45.74416533757082,1910],[6.945206415058819,45.74416353076357,1914],[6.945071323102929,45.74417139586694,1917],[6.944815026698172,45.74407583282586,1920],[6.94461694953666,45.743996761154165,1923],[6.944510940664825,45.74394680349421,1926],[6.944477593590485,45.74392046246926,1929],[6.944486704858532,45.7438725767334,1933],[6.94452401159991,45.74385780315781,1936],[6.944613131176725,45.7438594071176,1939],[6.944644029870478,45.743859963211065,1942],[6.9447283662204295,45.743874554373875,1945],[6.9447658054856065,45.74388103173078,1948],[6.94493851944075,45.74384981867531,1952],[6.945023370097796,45.74380844321675,1955],[6.945225355692507,45.74371426256952,1958],[6.945381363136006,45.74367073515065,1961],[6.945419363061505,45.74363709768536,1964],[6.945408438067638,45.743600863619534,1967],[6.945367364931879,45.74358467964913,1971],[6.945255639523744,45.743556928731,1974],[6.94503124485599,45.74352715041179,1977],[6.944786883258126,45.74344038232384,1980],[6.944649663472664,45.743372702560485,1983],[6.944548931879433,45.74331254321365,1986],[6.9443994103221245,45.7431794305543,1990],[6.944260501091792,45.743057664074385,1993],[6.944086864480949,45.74291382111938,1996],[6.944001523336517,45.74283506137233,1999],[6.943973391644107,45.742800233808744,2002],[6.943974336299873,45.74277450998271,2005],[6.944011957307777,45.742751161952725,2008],[6.944036324238635,45.742755032552616,2012],[6.944070353476079,45.74276112742873,2015],[6.944204897708204,45.74286741013548,2018],[6.944368928559824,45.74295136819501,2021],[6.944624535977071,45.742991971163434,2024],[6.9452523603189915,45.743048271646494,2027],[6.945663116446301,45.7430646617797,2031],[6.945668553064826,45.74306381361127,2034],[6.94567806090479,45.743066011576246,2037],[6.945813151444935,45.74305814483011,2040],[6.945862515050198,45.74304873602759,2043],[6.945875453660131,45.743030092678005,2046],[6.945847445273933,45.74299183496553,2050],[6.9458085089054675,45.742984270762534,2053],[6.9456858538609305,45.74298721194794,2056],[6.945546368577171,45.74298127086171,2059],[6.945203218451832,45.74291503537955,2062],[6.944933673885936,45.742846690563745,2065],[6.94476668639668,45.74278877196325,2069],[6.944716069202273,45.742765552137314,2072],[6.944685235483768,45.74273753998399,2075],[6.944700687174351,45.74271722557836,2078],[6.944727944614417,45.742709135841594,2081],[6.944784530294361,45.74270328940757,2084],[6.944798389664568,45.74270586547613,2087],[6.94491640181757,45.742745206648706,2091],[6.945069567842606,45.74277496455685,2094],[6.945276182144451,45.74278850083846,2097],[6.945543813534744,45.742762939512815,2100],[6.945793807880415,45.74270857700447,2103],[6.945978043184052,45.74266384098505,2106],[6.946140391126701,45.7426144213573,2110],[6.9462397150291295,45.74257931228045,2113],[6.946282328938672,45.74255347911719,2116],[6.946285437950667,45.74253551671314,2119],[6.946273852080202,45.74251728915294,2122],[6.946252343771919,45.74250231598676,2125],[6.946225495543264,45.742499258995714,2129],[6.946149189886353,45.742508183432605,2132],[6.946019658341094,45.7425315946952,2135],[6.945937198603037,45.74254126606589,2138],[6.9457721218813,45.7425314330361,2141],[6.945659737641961,45.74252168897004,2144],[6.945573259282239,45.74250726247188,2148],[6.94555084155647,45.74248369253597,2151],[6.945549430081996,45.74245535213791,2154],[6.9455700943466105,45.742426550206446,2157],[6.94562476470929,45.74240608341875,2160],[6.945700661292856,45.74240830642526,2163],[6.945822717354379,45.7424216563488,2166],[6.945897672823866,45.742416140676575,2170],[6.946039207389824,45.74238286294792,2173],[6.946231042279329,45.74229793598098,2176],[6.9464519627468455,45.74220516472938,2179],[6.946723995614866,45.74210537617506,2182],[6.946902607881373,45.742030077712094,2185],[6.9470947566346055,45.741903110399505,2189],[6.947236096128292,45.741824995656884,2192],[6.94739000214364,45.74175504423445,2195],[6.947894056780758,45.74149339311739,2198],[6.948008199286405,45.74145511593695,2201],[6.948113046663158,45.74143640727003,2204],[6.948277367677107,45.74139989001544,2208],[6.948533778630807,45.74132491377915,2211],[6.94886643752762,45.74124251102842,2214],[6.949026651376672,45.74120098569613,2217],[6.94912559542732,45.741176163076545,2220],[6.949326166050487,45.74109503391992,2223],[6.94945785229801,45.74105449703249,2227],[6.9495322082106705,45.74103180675023,2230],[6.949586284492004,45.741026467318186,2233],[6.950065818891276,45.74113663868472,2236],[6.950756871689037,45.74122104564801,2239],[6.95099930113837,45.74127039849581,2242],[6.951278692336766,45.7413962818085,2245],[6.951488081658668,45.74138267389729,2249],[6.95171905690236,45.74140481793612,2252],[6.951946160215007,45.74144489328425,2255],[6.952299918544708,45.741536742526165,2258],[6.952420713079124,45.74158391135532,2261],[6.952519795594971,45.74157668716299,2264],[6.952547934117682,45.741532188600715,2268],[6.952504856126634,45.74149091356349,2271],[6.951690047383458,45.74106677488081,2274],[6.9514467711701435,45.74088689770318,2277],[6.951342745114751,45.74085353135041,2280],[6.951247130139767,45.74084281551103,2283],[6.951024170064894,45.74084331403466,2287],[6.950959486431194,45.74081065318018,2290],[6.950995182073443,45.74075728997591,2293],[6.951455449654565,45.74069354211156,2296],[6.95160294439813,45.74069168740557,2299],[6.9518696739526495,45.74076847428229,2302],[6.951969538313245,45.74078376610838,2306],[6.952201566203453,45.74088693531829,2309],[6.952400584118249,45.74090400284574,2312],[6.9526888508439235,45.740963176332635,2315],[6.952770764837782,45.74094214323524,2318],[6.952772005855948,45.74089716244571,2321],[6.952731808217086,45.7408649397303,2324],[6.952595597161618,45.740821995148465,2328],[6.952302591963867,45.740672732187335,2331],[6.9522543660423475,45.74064036535395,2334],[6.952259004222572,45.74056844365723,2337],[6.952324860379865,45.74054712295279,2340],[6.95255183511955,45.74054669026323,2343],[6.952864186397331,45.740606293295535,2347],[6.953023355460633,45.74065864966309,2350],[6.953311181962034,45.74066380824531,2353],[6.953465390192811,45.7406980774762,2356],[6.953652708718013,45.74078243772266,2359],[6.953095008434172,45.7402551919027,2362],[6.951805007804053,45.73959519142222,2366],[6.952875269557461,45.73966593019862,2369],[6.953475007487384,45.73973519105326,2372],[6.953375007950678,45.73943519085553,2375],[6.953515007411873,45.739455191447746,2378],[6.953495007749247,45.73930519073283,2381],[6.9532550073569785,45.73921519134436,2385],[6.953435008164631,45.73911519094998,2388],[6.953125007501869,45.73896519076248,2391],[6.953175008360408,45.73861519092938,2394],[6.9529450075990376,45.738605190207906,2397],[6.953175007569501,45.73852519021168,2400],[6.9530450082683375,45.73850519022508,2404],[6.953745007435583,45.7383651904725,2407],[6.953535008634949,45.73809519045391,2410],[6.9536750079656455,45.73803518982364,2413],[6.953605007359462,45.73810519065883,2416],[6.953785008474877,45.73812519035063,2419],[6.953655008472109,45.73751519016853,2422],[6.953865007670023,45.73747519003438,2426],[6.953735008378214,45.737445189349025,2429],[6.954085008619215,45.7374151893194,2432],[6.954145008003702,45.73724518953446,2435],[6.954365007947854,45.73732518918054,2438],[6.9543250077123,45.73712518923291,2441],[6.954425007359136,45.737115189626664,2445],[6.95485500796888,45.73732518946371,2448],[6.955045008067838,45.73593518892233,2451],[6.955345007984681,45.736225188579105,2454],[6.955345008476615,45.73582518871881,2457],[6.955605007814111,45.73592518863387,2460],[6.956164008438786,45.735525188217466,2464],[6.956234007948725,45.7351951877216,2467],[6.95589400814259,45.73467518734186,2470],[6.955704007542774,45.73365518662095,2473],[6.95556400830837,45.73329518677769,2476],[6.955854007735598,45.733475186969834,2479],[6.955884007910969,45.733295186863586,2483],[6.956074008084742,45.73333518670289,2486],[6.956374007397248,45.733195186486945,2489],[6.956624007837249,45.73324518678673,2492],[6.956634008239217,45.73345518630321,2495],[6.956974008615521,45.73344518687978,2498],[6.957074008042002,45.733815186484044,2501],[6.957294007821788,45.73389518683071,2505],[6.957544008192135,45.73421518738303,2508],[6.957764008428232,45.73477518783958,2511],[6.957714007570667,45.73506518816486,2514],[6.958364008461381,45.73489518764485,2517],[6.9585240075085055,45.73508518773046,2520],[6.95881400757382,45.735125187491896,2524],[6.958944008500773,45.73554518803976,2527],[6.959224944312698,45.73551267782187,2530],[6.959244008215065,45.735705187885024,2533],[6.959554185816729,45.73546313136365,2536],[6.960055004677349,45.73525611209682,2539],[6.960297868474374,45.73542948956745,2543],[6.960380491859661,45.73551275917993,2546],[6.960400663168847,45.735600365973355,2549],[6.96039155261678,45.73570063391003,2552],[6.960813344292826,45.73672523526371,2555],[6.960905095699893,45.73719490710356,2558],[6.960907735813099,45.737320960997806,2562],[6.960973409325235,45.737547148835915,2565],[6.961025871787802,45.73760658856774,2568],[6.961183968741621,45.73769941898342,2571]]}}]}