{"type":"FeatureCollection","features":[{"type":"Feature","properties":{"slug":"56-s3","sct_code":"56_S3","source":"Catasto Sentieri VdA"},"geometry":{"type":"LineString","coordinates":[[7.156839802235139,45.655401366143096,1227],[7.157062629252661,45.65533425805819,1232],[7.157745778651404,45.65546184552191,1237],[7.159006561679517,45.65507970387579,1242],[7.15894800809545,45.654245127536356,1247],[7.159008008255406,45.65385512762981,1252],[7.158958008236584,45.65333512682066,1257],[7.159098008081021,45.65340512741929,1262],[7.159138008527285,45.65327512697751,1266],[7.160198008586255,45.65421512777027,1271],[7.161148007552892,45.65450512770211,1276],[7.161329480142008,45.65483941846476,1281],[7.161338007887712,45.65485512787356,1286],[7.161458007521766,45.65475512772946,1291],[7.1615280083601025,45.65487512779747,1296],[7.161758008240068,45.654885127915925,1301],[7.162258008352313,45.654375127767956,1306],[7.161628008183717,45.6536251268845,1311],[7.161668008683727,45.65311512665374,1316],[7.161928008435076,45.653295126794326,1321],[7.162138008025379,45.65321512664336,1326],[7.1623280077062645,45.65329512662276,1331],[7.162498008470771,45.653495126815464,1336],[7.162448008735758,45.65352512723541,1340],[7.16328800831032,45.65369512690493,1345],[7.163648007761913,45.65364512703871,1350],[7.1642780086248194,45.65342512724308,1355],[7.164148008793865,45.653255126726705,1360],[7.1642380076886525,45.653015126860595,1365],[7.163899119724401,45.652744015062886,1370],[7.163748007983488,45.65255512599328,1375],[7.163713192391148,45.652193218502156,1380],[7.164047970650723,45.65235611324231,1385],[7.164512862117014,45.65246484384141,1390],[7.164841524567152,45.652618637246476,1395],[7.165343896540716,45.652955234501036,1400],[7.166076921988908,45.65302906962208,1405],[7.166568008263319,45.653235126645335,1410],[7.166668008359501,45.65369512700025,1414],[7.166768008353483,45.65354512712674,1419],[7.167018007701801,45.65354512737863,1424],[7.1672580077262795,45.65329512690212,1429],[7.167648007584724,45.65258512602571,1434],[7.167708007663349,45.65256512604139,1439],[7.168039790552845,45.65263848319756,1444],[7.167865194602666,45.652482670388316,1449],[7.167806045997817,45.65232870950154,1454],[7.167808100055062,45.65226573752345,1459],[7.167847755861034,45.65223037090043,1464],[7.167899652121436,45.652213202038496,1469],[7.167976029410154,45.652232428689665,1474],[7.168026165229263,45.652269235757224,1479],[7.168074247354463,45.65236901479065,1484],[7.168186466700424,45.6524698225674,1488],[7.168454082357955,45.65252811897609,1493],[7.168569822519418,45.65252097438911,1498],[7.168738045515256,45.65247866844003,1503],[7.169466055789387,45.65219331648687,1508],[7.169673052345979,45.65214262993245,1513],[7.170023493893809,45.652022235974414,1518],[7.170255850926766,45.651980955432805,1523],[7.170525224562735,45.65198527092764,1528],[7.170587310231475,45.65204927041187,1533],[7.170611206984323,45.652103657432676,1538],[7.170514383527575,45.6523181233249,1543],[7.170470627151508,45.65247943503947,1548],[7.170445493001931,45.65285706194857,1553],[7.170469389935828,45.652911448994914,1558],[7.171209579138964,45.653040313400204,1563],[7.171937822634164,45.653141979678345,1567],[7.172515064398247,45.65315121807256,1572],[7.172630220111455,45.653162061421305,1577],[7.172782688090041,45.65320950444837,1582],[7.172857605307747,45.6532737079802,1587],[7.17286779920597,45.65335487739297,1592],[7.172730742946851,45.65362270564989,1597],[7.172447311126093,45.65405020409034,1602],[7.172445262140626,45.65411317621187,1607],[7.172388096427971,45.65429227543254,1612],[7.172265912610346,45.654497336190566,1617],[7.172249571728412,45.65460508307965,1622],[7.172281907881471,45.65479461530059,1627],[7.172331756078519,45.65484041655577,1632],[7.172432916329663,45.65488703892357,1637],[7.172585681469894,45.65492548625291,1641],[7.172768008453195,45.654905127747355,1646],[7.172638008520415,45.654785127750095,1651],[7.172908008206932,45.65437512737199,1656],[7.1733680086187075,45.654585127486854,1661],[7.17372800822454,45.65451512778225,1666],[7.173758008184023,45.654565127568596,1671],[7.174598008454687,45.65460512783523,1676],[7.17471800778548,45.654475127922545,1681],[7.174938007557808,45.654375127703574,1686],[7.175250008698402,45.6541081273611,1691],[7.1761402083738535,45.65346255636143,1696],[7.176203478720866,45.65333572890527,1701],[7.1763727718573085,45.6531627602051,1706],[7.177037833609372,45.65262606597669,1711],[7.177151594353766,45.65250496909301,1715],[7.177199107203214,45.65240903559171,1720],[7.177218910833389,45.652302827447265,1725],[7.177213624548118,45.65210567266888,1730],[7.17703987354723,45.65180196171232,1735],[7.177055653602404,45.65173174618223,1740],[7.177194145175889,45.651481783074956,1745],[7.177186772694824,45.65134891940966,1750],[7.177113422956927,45.65116092102217,1755],[7.177102459733425,45.650922704378615,1760],[7.176930599431086,45.65060202644175,1765],[7.1764672385059916,45.65004725622284,1770],[7.176144540147634,45.64962256039753,1775],[7.175993906669246,45.649511990464774,1780],[7.175792487609157,45.649450321843574,1785],[7.175305946824112,45.64941554707791,1789],[7.17506545300821,45.64931269656051,1794],[7.174990246108444,45.64925749051485,1799],[7.174901628104027,45.64922007151329,1804],[7.174839248194306,45.649165070354435,1809],[7.174765210875353,45.649073880017376,1814],[7.1747078003279,45.6488659461615,1819],[7.174587134189112,45.64862999909833,1824],[7.1745122209877845,45.648565796716106,1829],[7.1744037981128965,45.64834804656655,1834],[7.174334732497065,45.64810392334769,1839],[7.174346133999815,45.64775307792122,1844],[7.174285802695217,45.64763510422175,1849],[7.174185823198355,45.6475524994701,1854],[7.173867796706067,45.64746640824969,1859],[7.1737666483974225,45.647419787281876,1863],[7.1735908822205445,45.647299967234346,1868],[7.173354788037963,45.647062172762105,1873],[7.173246664915227,45.64683542553937,1878],[7.173202380671517,45.64661870009693,1883],[7.173165072420781,45.64658210046301,1888],[7.173130104423828,45.64647353255546,1893],[7.172941223929737,45.646362502414334,1898],[7.1728791416228015,45.64629850420456,1903],[7.172845929746238,45.6461359600243,1908],[7.172857924884181,45.645767122702765,1913],[7.172753024444594,45.645441418672526,1918],[7.172748975853093,45.645171332478576,1923],[7.172805252545898,45.64501922074568,1928],[7.172807593039885,45.644947252477394,1933],[7.172865332082947,45.64475016053327,1937],[7.172920145306353,45.64464302889448,1942],[7.172949599580208,45.64452649081885,1947],[7.172989539116444,45.64448212619609,1952],[7.173041719164612,45.64445595880578,1957],[7.173156272221637,45.64448479343974,1962],[7.173230886059026,45.64455799268442,1967],[7.173356802725929,45.64463201245887,1972],[7.173444242694966,45.6447054167101,1977],[7.173505739055848,45.644787406687236,1982],[7.1736497049477945,45.64509573337119,1987],[7.173785525077787,45.64525991818029,1992],[7.173961577812312,45.6453707418388,1997],[7.174037948071387,45.645389964346414,2002],[7.174264428170678,45.64552859592774,2007],[7.1744670114006395,45.64561284079098,2011],[7.17477278705314,45.6456807331526,2016],[7.174926113509993,45.64570118496581,2021],[7.175246761418505,45.64570630873477,2026],[7.1754693160759855,45.64576836913487,2031],[7.175693039669566,45.645794444921286,2036],[7.175883384261848,45.64586049033734,2041],[7.175908159954885,45.64588788820113,2046],[7.176034667277742,45.64594391301007,2051],[7.176111623147771,45.64594514205496,2056],[7.176276316768933,45.646010777153336,2061],[7.176363470708963,45.64609317529281,2066],[7.176491438875948,45.64610421935846,2071],[7.176697531028827,45.646080507730865,2076],[7.176786729257235,45.646099933197384,2081],[7.176900703843385,45.646146756251525,2085],[7.176912946041164,45.64616495310391,2090],[7.177141479646104,45.64624060674872,2095],[7.177409659449263,45.646280889809525,2100],[7.177935236461493,45.64629827702602,2105],[7.178139286750242,45.64633753520206,2110],[7.178214784699482,45.646383743129675,2115],[7.1783013586959195,45.64648413195419,2120],[7.178447688573187,45.64672048450135,2125],[7.178560207543153,45.646812286230684,2130],[7.178674476731032,45.64685011149374,2135],[7.1787869963316595,45.64694191300722,2140],[7.178861037558263,45.64703310082577,2145],[7.178969183865302,45.647259843076725,2150],[7.179094531077562,45.64735184882063,2155],[7.179205886107003,45.64747963418503,2160],[7.179343185941805,45.647598832345544,2164],[7.179418978099531,45.647636043446006,2169],[7.179504681584093,45.64776341958705,2174],[7.179515175871173,45.64783559254967,2179],[7.1798136833016395,45.648128373241924,2184],[7.179952151796221,45.64821158644588,2189],[7.18017982367906,45.648314222367375,2194],[7.180741062240251,45.64851892960001,2199],[7.1809455620096605,45.6486436966276,2204],[7.180963418309827,45.64868673440627,2209],[7.18107536275383,45.648796525887164,2214],[7.181201881868965,45.6488525451227,2219],[7.181533337128604,45.648920828284666,2224],[7.1817490616255,45.648996268699875,2229],[7.181873834968455,45.649106263638906,2234],[7.182071493695308,45.649343428565935,2238],[7.182258655980819,45.6495084204194,2243],[7.182486046344662,45.649620047938875,2248],[7.182711109421672,45.64980364362156,2253],[7.182958336011311,45.6500955999592,2258],[7.183207019899253,45.6503425754012,2263],[7.18345396047064,45.65064352679217,2268],[7.183790112147323,45.65096389780885,2273],[7.184037640166292,45.651246855837215,2278],[7.184214761057459,45.65153930933822,2283],[7.18431725676182,45.65161624779608,2288],[7.184359721940589,45.651678179007725,2293],[7.184508007538987,45.6511851250232,2298],[7.184568008257113,45.65084512493885,2303],[7.184468007591494,45.6505951248016,2308],[7.18416800810683,45.64952512442506,2312],[7.184078007775293,45.64930512383808,2317],[7.183568007535696,45.64889512371172,2322],[7.183518008370883,45.64877512398793,2327],[7.183658008440763,45.648355123856376,2332],[7.1839280080178405,45.64823512330279,2337],[7.183928008282899,45.64815512320889,2342],[7.183528008438793,45.64791512314269,2347],[7.183528007976761,45.64783512303282,2352],[7.1837680077903325,45.64781512330358,2357],[7.183788007813072,45.64766512322363,2362],[7.1831980083425835,45.64723512308068,2367],[7.182908007770167,45.64632512239681,2372],[7.182678008443904,45.64600512186252,2377],[7.182418007600158,45.64580512150463,2382],[7.182308007984214,45.64553512165723,2386],[7.182588008442375,45.64556512186511,2391],[7.183628008791852,45.64599512138435,2396],[7.184498008025711,45.64616512188376,2401],[7.184508008138534,45.64588512200469,2406],[7.184228008000438,45.645675121276,2411],[7.184258007721633,45.64553512143124,2416],[7.183958008626959,45.64509512097012,2421]]}}]}