{"type":"FeatureCollection","features":[{"type":"Feature","properties":{"slug":"58-s9","sct_code":"58_S9","source":"Catasto Sentieri VdA"},"geometry":{"type":"LineString","coordinates":[[7.3583448604634984,45.75600624994722,816],[7.358281130430995,45.75609988999643,821],[7.3581353004215,45.756331807797956,826],[7.357963303440866,45.75641483953483,831],[7.357874224828443,45.756553945664564,836],[7.357445507144922,45.75653340218713,840],[7.357006008305356,45.75657120459317,845],[7.356756008092082,45.75652120516136,850],[7.3565660077597395,45.75657120484772,855],[7.356456008359134,45.756641205183165,860],[7.356236008034096,45.75689120553186,865],[7.355896008523243,45.757061205139486,870],[7.3557760084033985,45.75720120562146,875],[7.355676007786782,45.75723120495277,879],[7.355793542438219,45.757344434183295,884],[7.3557876848046915,45.75737426583543,889],[7.355658732119005,45.757436619331266,894],[7.3557360087390595,45.757501205319734,899],[7.355736007559544,45.75756120555255,904],[7.355466008552674,45.75766120541001,909],[7.355356008551319,45.75765120613591,914],[7.355148008569196,45.757704206081236,919],[7.355037008073118,45.75777820576087,923],[7.354678008507293,45.75794520633635,928],[7.354786008178294,45.75799120568076,933],[7.354826008334907,45.75808120569774,938],[7.354996007789257,45.75815120577851,943],[7.355086007551483,45.75816120629731,948],[7.355506007558564,45.75830120607353,953],[7.355616008725942,45.75845120668179,958],[7.355816007825208,45.75858120652593,963],[7.356016007926533,45.75862120612289,967],[7.356536007722796,45.75886120702361,972],[7.356796007691345,45.75906120689484,977],[7.356956008067373,45.759051206593725,982],[7.35719600764218,45.75911120712468,987],[7.357296008244241,45.75919120734631,992],[7.357336008688198,45.759301207444366,997],[7.35724600764198,45.75937120719246,1002],[7.357086008580656,45.75939120750747,1006],[7.357026008799785,45.75946120746837,1011],[7.356534008656128,45.759629206979426,1016],[7.355878007539804,45.75969520712205,1021],[7.3551340076413885,45.76002820788676,1026],[7.355146008480708,45.76030120832994,1031],[7.355276008205293,45.76034120832307,1036],[7.355126007927486,45.76042120787787,1041],[7.3549460085221865,45.760471208455925,1046],[7.354726008718543,45.760631208583504,1050],[7.354666008331084,45.76081120813665,1055],[7.354606008243954,45.760891208194984,1060],[7.354746008301316,45.760881208201134,1065],[7.3550560082729035,45.760826208253555,1070],[7.3551900077002355,45.76090520852334,1075],[7.355336008081449,45.76100120881808,1080],[7.35568600807872,45.761111208332395,1085],[7.35601600810733,45.761271208465644,1090],[7.356046007862145,45.7613212088389,1094],[7.3563360077990145,45.76139120850434,1099],[7.356456008304758,45.761521208932216,1104],[7.3566560082266665,45.76163120897344,1109],[7.356796007939289,45.761661209300485,1114],[7.357066007930762,45.761831209552405,1119],[7.357386007904995,45.76195120933746,1124],[7.357636419906271,45.76221852374022,1129],[7.357654007717225,45.762235209782894,1133],[7.357570008011641,45.76233020949921,1138],[7.357656008655955,45.762411209623615,1143],[7.357756007850306,45.7624512092412,1148],[7.357786007897211,45.76252121011713,1153],[7.357766008210485,45.7626412100936,1158],[7.357986008699963,45.76279121014691,1163],[7.358366008231575,45.763171210051574,1168],[7.358566008113903,45.763321210438136,1173],[7.358486008634429,45.76343121006525,1177],[7.358406008014701,45.76344121020142,1182],[7.358336008383139,45.76351121020063,1187],[7.358146008518018,45.76351121007443,1192],[7.358036008087783,45.76345121008538,1197],[7.357726008152929,45.76350121021906,1202],[7.357636008395881,45.76357121025025,1207],[7.357726008299187,45.7637112104344,1212],[7.357776007681129,45.763711211052694,1216],[7.35786600870501,45.76383121107665,1221],[7.357936008576207,45.76418121087261,1226],[7.358076008433203,45.76439121106227,1231],[7.358246008409929,45.76449121126394,1236],[7.358386008204841,45.764531211002854,1241],[7.358326008801444,45.7645712110574,1246],[7.358456007666832,45.76469121121953,1251],[7.358426007719644,45.764721211744884,1256],[7.358546007613639,45.76474121181375,1260],[7.358816007875819,45.765061211420516,1265],[7.358976007769494,45.76512121163259,1270],[7.35922600849147,45.765121211818034,1275],[7.359076008555467,45.76520121201088,1280],[7.3591960081106595,45.76529121204036,1285],[7.35911600850533,45.76535121238058,1290],[7.35923600833716,45.765471212004776,1295],[7.359296007586781,45.765601212406594,1300],[7.359536008249173,45.765831212473394,1304],[7.359506008340833,45.76596121265397,1309],[7.359296008714731,45.766091212433615,1314],[7.359156007935762,45.76611121217416,1319],[7.3588260078750345,45.766301212776305,1324],[7.358496008439843,45.76640121263716,1329],[7.358326008301638,45.76657121311825,1334],[7.358276007845311,45.7665612131505,1339],[7.358171346608442,45.76663968114617,1343],[7.358046007890795,45.76684121292421,1348],[7.357726007586064,45.76699121356115,1353],[7.357596008515671,45.76711121323954,1358],[7.357506007948747,45.76714121301661,1363],[7.356977008625872,45.76767421397481,1368],[7.3574073715549595,45.767796551624464,1373],[7.357463008539256,45.767814214158264,1378],[7.3578460080116175,45.76784121422196,1383],[7.358096008330054,45.767981214511636,1387],[7.358476008137444,45.76802121379117,1392],[7.3587160082608065,45.768131214290456,1397],[7.359156007831069,45.76822121443761,1402],[7.359286007830914,45.7683212144455,1407],[7.3596260075173525,45.76828121477287,1412],[7.359836007764684,45.76828121429616,1417],[7.359962799974809,45.76831300836061,1422],[7.360316319244198,45.76831808361986,1427],[7.3606178049485935,45.76830215983858,1431],[7.360798654728474,45.768316005932434,1436],[7.361361109545914,45.768542338632166,1441],[7.361559056551838,45.76860368149828,1446],[7.3620185496627695,45.76870927629078,1451],[7.362678631843746,45.76933527698817,1456],[7.3630776462080565,45.769653762786255,1461],[7.36337684671088,45.76986731207348,1466],[7.363595974578674,45.76996045666488,1470],[7.363978430109954,45.769965935114826,1475],[7.364120368430892,45.76994996694458,1480],[7.364306007700517,45.76983021574018,1485],[7.364646008217138,45.76978021596503,1490]]}}]}