{"type":"FeatureCollection","features":[{"type":"Feature","properties":{"slug":"60-s12","sct_code":"60_S12","source":"Catasto Sentieri VdA"},"geometry":{"type":"LineString","coordinates":[[7.458535778528681,45.66917856372403,1610],[7.4587120086058185,45.66929213780206,1612],[7.458702008630569,45.669462138552504,1614],[7.458882008674684,45.66992213884241,1616],[7.458832008413532,45.67070213907726,1618],[7.458962007916209,45.671002139496956,1621],[7.4588820077477225,45.67114213985322,1623],[7.458832007634492,45.671512139766634,1625],[7.458992007680051,45.6717721401083,1627],[7.459002008461675,45.672402140269696,1629],[7.458942008723927,45.67253214073919,1631],[7.458992007842949,45.6730921406306,1633],[7.45891200828368,45.6733421414483,1635],[7.458922008733369,45.673472141277344,1637],[7.45915200758497,45.673592141054755,1639],[7.458942007813966,45.673762141846275,1642],[7.458852007930438,45.674072141867555,1644],[7.458712008759922,45.674222142226,1646],[7.458782007749563,45.67438214165398,1648],[7.458672007831477,45.67455214205091,1650],[7.458587008256077,45.67499914237285,1652],[7.4586020077571185,45.67506214227509,1654],[7.458712007925924,45.67513214228411,1656],[7.458792007780827,45.67539214235423,1658],[7.4587620080931964,45.67550214301683,1660],[7.458572008189486,45.675722143294486,1663],[7.458562007725737,45.675822143164595,1665],[7.458662008819262,45.67606214287963,1667],[7.458732007780775,45.676482143780476,1669],[7.45862200808563,45.67653214304644,1671],[7.458738007683965,45.67698114369647,1673],[7.458992008598662,45.67748214421558,1675],[7.459182008117458,45.67767114400699,1677],[7.459336008232205,45.67767314397356,1679],[7.459437007764914,45.67771014431237,1681],[7.460362007776672,45.677723144272164,1684],[7.460461008712235,45.67783214436814,1686],[7.461022007920472,45.67795214420114,1688],[7.461142008400102,45.678082144314004,1690],[7.461462007947839,45.678182144568794,1692],[7.46158200858368,45.67829214480004,1694],[7.461782007719391,45.678342144873625,1696],[7.461842008622104,45.678552144808535,1698],[7.462122007691143,45.678822144975534,1700],[7.462872008405721,45.67932214537019,1703],[7.463002007729232,45.67957214581431,1705],[7.463262008579837,45.67975214579732,1707],[7.463152008680141,45.680222146001,1709],[7.463252008589735,45.68073214699504,1711],[7.463222008670819,45.6811321464198,1713],[7.4633620080563405,45.681362147409374,1715],[7.4636120083227,45.68156214730853,1717],[7.463682008562181,45.681752147149986,1719],[7.463762008431998,45.68178214760025,1721],[7.463782007820409,45.682002147206376,1724],[7.463941008050095,45.68205614724587,1726],[7.46398900825506,45.68216414778803,1728],[7.464102007968144,45.682342148116284,1730],[7.4637920075557425,45.68304214795628,1732],[7.463082008481174,45.683752149131145,1734],[7.462792008506879,45.68408214918751,1736],[7.462752008590525,45.68424214875272,1738],[7.4624220079466435,45.68460214951007,1740],[7.462042007579354,45.68493214931848,1742],[7.461592007724029,45.68521214983687,1745],[7.461582007895166,45.68537214980093,1747],[7.462212008355092,45.68570215029518,1749],[7.462162007866732,45.68589214996589,1751],[7.46225200815963,45.68598215015688,1753],[7.462212008640505,45.68629215031219,1755],[7.462282008384936,45.68660215078913,1757],[7.462132007683689,45.687012151044506,1759],[7.4621520087852815,45.68750215148313,1761],[7.461962007861334,45.68784215148171,1764],[7.461982008187688,45.68795215189072,1766],[7.4621420077580805,45.68802215203675,1768],[7.462112008270621,45.68818215181417,1770],[7.462222007675168,45.68836215206881,1772],[7.462232008197857,45.688522152157844,1774],[7.461652008045528,45.68926215323966,1776],[7.461442008562609,45.689692152854356,1778],[7.461042007802271,45.690012153605046,1780],[7.4610020087577995,45.69015215304287,1782],[7.460702007703867,45.6905321533679,1785],[7.46058200862368,45.69077215414034,1787],[7.460532008544599,45.691252154674686,1789],[7.4606020079213495,45.691582154400436,1791],[7.46106200765593,45.69190215513283,1793],[7.461882008105878,45.69222215468941,1795],[7.4622220084148525,45.69247115525217,1797],[7.462282008598227,45.69283115511449,1799],[7.462202007794357,45.69305115567393,1801],[7.4620420084153665,45.69323115586995,1803],[7.462062008076081,45.69336115552446,1806],[7.461972008139676,45.693541155747134,1808],[7.461712008470445,45.69389115626899,1810],[7.46117300836164,45.6943411567785,1812],[7.461123007694928,45.69446115706132,1814],[7.461223008622034,45.69480115688578,1816],[7.461213008217801,45.69531115707393,1818],[7.461343008198893,45.69551115764839,1820],[7.461333008354974,45.69566115764401,1822],[7.4612730076811085,45.695901158016056,1824],[7.461257298779654,45.6959893422942,1827],[7.461366683422787,45.696129679963214,1829],[7.461532066808541,45.69624101398068,1831],[7.461602839595906,45.69629255334862,1833],[7.461643955299427,45.69634170951128,1835],[7.461666594503463,45.69639359241888,1837],[7.461687860493862,45.69649554612397,1839],[7.461669413994486,45.69660043741537,1841],[7.461634954345107,45.6966956893936,1843],[7.461597295185114,45.6967269228314,1846],[7.4615707390051,45.69676623984004,1848],[7.461582167793835,45.69681400429912,1850],[7.461691624929335,45.69700344003826,1852],[7.4618930075649965,45.697511159134265,1854],[7.462053008604339,45.697741159517825,1856],[7.462093008526236,45.69816115973918,1858],[7.461973008473047,45.69826115991748,1860],[7.461483007970027,45.69847115954452,1862],[7.461043008718698,45.6988311598393,1864],[7.460963007668024,45.69935116033317,1867],[7.461023008383971,45.6995711605387,1869],[7.460913007584943,45.70023116076268,1871],[7.460973007585498,45.70042116103762,1873],[7.46083300808422,45.70057116158461,1875],[7.46071300839674,45.70058116156557,1877],[7.460563008170475,45.700941161407144,1879],[7.46033800846916,45.70105316182543,1881],[7.460123007726951,45.70092116152289,1883],[7.46004300802613,45.7009211612472,1885],[7.459853008682777,45.701021161352124,1888],[7.4597930077779235,45.70119116124692,1890],[7.459973008799448,45.70122116166662,1892],[7.459983007885835,45.701421162081715,1894],[7.4596530085311885,45.701891161983085,1896],[7.4594630083139855,45.701881162349736,1898],[7.4592130086563575,45.701681162181664,1900],[7.45898300803383,45.7017211623415,1902],[7.458753007721698,45.70164116240291,1904],[7.458453008732189,45.701161162049665,1907],[7.45806300762809,45.70090116186498,1909],[7.457983007705484,45.701091161994974,1911],[7.457923008576896,45.70100116138792,1913],[7.457803007557455,45.701001161321486,1915],[7.45780300865687,45.70113116156021,1917],[7.457653008737494,45.70103116190773,1919],[7.457423008480043,45.7013511614176,1921],[7.456973007946253,45.70130116203993,1923],[7.4568030087592945,45.70121116168731,1925],[7.4566360081037955,45.701147162038495,1928],[7.456588008467049,45.70100316173139,1930],[7.456487008825587,45.70092916115113,1932],[7.4563130080724624,45.70114116176605,1934],[7.456363008053518,45.70128116144934,1936],[7.456503007596897,45.70149116174211,1938],[7.456503008428469,45.70154116190574,1940],[7.4565730087762265,45.7016611623971,1942],[7.456613008677152,45.70191116180855,1944],[7.456593007995651,45.701961162619035,1946],[7.456610007699756,45.70208316237976,1949],[7.456573008133009,45.702101162262906,1951],[7.456443008556674,45.70231116272691,1953],[7.456433007814264,45.70236116273356,1955],[7.456453008314218,45.70243116248086,1957],[7.456423008363331,45.702481162239174,1959],[7.456423007816314,45.70253116237616,1961],[7.456339007816111,45.702583163128146,1963],[7.456303008590963,45.70273116313313,1965],[7.456303008372068,45.70300116317427,1967],[7.456063008297829,45.70335116321553,1970],[7.455983007629266,45.70378116377361,1972],[7.4557630083074775,45.704131163488874,1974],[7.455833008411865,45.70434116407327,1976],[7.455733008122976,45.70472116480217,1978],[7.455743007710488,45.705591164609785,1980],[7.455673008017348,45.70575116508637,1982],[7.455763008091599,45.7060011655995,1984],[7.455903008772591,45.70608116545704,1986],[7.455883008009826,45.70630116577853,1989],[7.456063008028476,45.70647116579108,1991],[7.456173007773261,45.706721166266554,1993],[7.456403007770996,45.70698116613263,1995],[7.4567730084822115,45.707161166117416,1997],[7.456833007617967,45.707271166557845,1999],[7.457843008206973,45.70725116596189,2001],[7.458153007971818,45.70734116625496,2003],[7.45822300755257,45.70741116640115,2005],[7.458293007910227,45.70737116664678,2007],[7.458483008299722,45.70748116661548,2010],[7.458776007772366,45.707405166428785,2012],[7.458743008434277,45.70756116678871,2014],[7.459223008128455,45.7076611669547,2016],[7.460203008365193,45.70826116701192,2018],[7.460273007658349,45.70837116722036,2020],[7.461653007593078,45.70861116705035,2022],[7.462223008563965,45.70860116706415,2024],[7.462823007579137,45.70829116686238,2026],[7.462993008509004,45.70832116740041,2028],[7.463243008780329,45.70823116715883,2031],[7.463713008607801,45.707941166701126,2033],[7.465003008459015,45.70733116675043,2035],[7.465473007726311,45.706901165559444,2037],[7.465723007895513,45.706791165950136,2039],[7.466093008080213,45.70680116578166,2041],[7.466243008407821,45.70687116605684,2043],[7.466983007577704,45.70689116563347,2045],[7.467393008184905,45.70701116603476,2047],[7.467713008110509,45.70689116557037,2050],[7.468223008259388,45.706841165524125,2052],[7.4685080087781035,45.70667216585769,2054],[7.468543008154871,45.70675116621352,2056],[7.468644882693847,45.70681841012521,2058],[7.468707616976915,45.706813721210516,2060],[7.468929733572379,45.70687232782553,2062],[7.469034795720976,45.70687973766157,2064],[7.469290175659666,45.70685579133137,2066],[7.469462638424547,45.706817598830206,2068],[7.4696232516893994,45.706801749692524,2071],[7.469980602315903,45.70682903939566,2073],[7.470262453581122,45.706886818047494,2075],[7.470351386114012,45.7068790075617,2077],[7.470443889945507,45.706799241875956,2079],[7.470482460685768,45.70670975242889,2081],[7.470549098129825,45.7062831155816,2083],[7.470586810623021,45.70622511758326,2085],[7.470655023358629,45.706167526150686,2087],[7.471007826349485,45.705978737466026,2089],[7.471243636781851,45.70581088159824,2092],[7.471417265670342,45.70559719102843,2094],[7.471450786621193,45.70557513812963,2096],[7.471527468022249,45.70558966516897,2098],[7.471616812651195,45.70564036308557,2100],[7.471758929004308,45.70577277416891,2102],[7.47179623860656,45.70603879181723,2104],[7.471847525493762,45.70611598304489,2106],[7.472229671148135,45.70648561734358,2108],[7.472726727969824,45.70691079224564,2110],[7.473341596450856,45.707211532236634,2113],[7.473484161988817,45.70725394030403,2115],[7.473723644057508,45.70721663792534,2117],[7.474187252143883,45.707101324760735,2119],[7.474318358740772,45.70710757454066,2121]]}}]}