{"type":"FeatureCollection","features":[{"type":"Feature","properties":{"slug":"61-s10","sct_code":"61_S10","source":"Catasto Sentieri VdA"},"geometry":{"type":"LineString","coordinates":[[7.166714538230781,45.71522012514485,1205],[7.166702136296697,45.71525466934702,1207],[7.166684918401766,45.71529861118969,1208],[7.1666659546495985,45.71536147670005,1210],[7.166664511167359,45.71543262859321,1212],[7.166684297294319,45.715797471100885,1213],[7.166622993988064,45.71608839766949,1215],[7.166527683304907,45.7162893805688,1217],[7.166488704246533,45.716486768319875,1218],[7.166177614176574,45.71686429982234,1220],[7.165975592908185,45.71701046878491,1222],[7.165819941777893,45.71720294318084,1223],[7.165742819077027,45.717277791279066,1225],[7.165583025413627,45.717389354414706,1227],[7.165397829625752,45.71757632504495,1228],[7.165450008111912,45.717664173905014,1230],[7.165380007720173,45.717754174379635,1232],[7.165576271372279,45.71780534693226,1233],[7.165850008657502,45.717854174798084,1235],[7.166999008594983,45.71790417454351,1237],[7.168866008104629,45.71785117436719,1238],[7.169437007903668,45.71768017414479,1240],[7.169970094090966,45.717591383602304,1242],[7.1702270857579276,45.71758573546862,1243],[7.170248502697699,45.71763220761969,1245],[7.170260008498534,45.71765717423403,1247],[7.17018900793694,45.717714174388306,1248],[7.170099007657963,45.718134174351064,1250],[7.170479008281393,45.718044174276635,1252],[7.171029007959645,45.71802417497404,1253],[7.170919007727415,45.718074175003615,1255],[7.171009008321058,45.71813417428682,1257],[7.17079900773663,45.71822417446797,1258],[7.171039008565088,45.71821417510333,1260],[7.1708490086238745,45.718364175107375,1262],[7.171039008666623,45.718404175291425,1263],[7.170919008265521,45.71854417518997,1265],[7.1709290086227995,45.71868417512147,1267],[7.170969008432236,45.7186941754354,1268],[7.171009008303067,45.71862417471476,1270],[7.171339007499755,45.71868417536692,1272],[7.171419008169149,45.71864417494439,1273],[7.1718190077438875,45.71866417473815,1275],[7.172339008234958,45.71862417469922,1277],[7.171869008071255,45.71891417495966,1278],[7.171859007874122,45.718944175033315,1280],[7.172289008422955,45.71893417552309,1282],[7.172299008471507,45.71896417527198,1283],[7.1719790077833725,45.719164175122124,1285],[7.1724590077557036,45.71923417518622,1287],[7.172749007527701,45.71936417567949,1288],[7.172909008741025,45.719594175370545,1290],[7.172699007967774,45.719544175462,1292],[7.172759008486845,45.71962417605092,1293],[7.172709007521257,45.71963417591979,1295],[7.172459008628074,45.71957417589496,1297],[7.172409007981758,45.71970417624897,1298],[7.172499007602878,45.71986417557983,1300],[7.172479008212545,45.720054176123426,1302],[7.172299008770858,45.72024417610766,1303],[7.17258900845799,45.720384176656474,1305],[7.173079007606158,45.72070417652822,1307],[7.173239007654286,45.720874176742555,1308],[7.1734090080304895,45.72128417671388,1310],[7.173269007626644,45.7211941771963,1312],[7.1720490082731905,45.72081417626924,1313],[7.171859008322262,45.7208641766573,1315],[7.17155900781294,45.721124176632706,1317],[7.171719007893988,45.721144176666186,1318],[7.1720290080561595,45.72130417680214,1320],[7.172119008627997,45.72144417706009,1322],[7.1720290085896465,45.72141417681684,1323],[7.1720490081413235,45.72156417698386,1325],[7.1718990075736455,45.721524177013066,1327],[7.171799008559764,45.72156417716497,1328],[7.171789008276225,45.72163417771068,1330],[7.17194900794183,45.72169417700351,1332],[7.1719230078613005,45.72182417782235,1333],[7.171870008449844,45.72189517773427,1335],[7.172168429237629,45.721948253048296,1337],[7.172190684034045,45.72204087171065,1338],[7.172385839786299,45.72231190404749,1340],[7.172716086895875,45.72250651047166,1342],[7.173447251065218,45.72291828378658,1343],[7.17392693464464,45.7232224403462,1345],[7.174397337984188,45.72365504264268,1347],[7.174494166958912,45.723813764260896,1348],[7.174586809077499,45.7241010140752,1350],[7.174714922328269,45.72423880236144,1352],[7.1751034508985585,45.72452363627834,1353],[7.175251723611289,45.724668890735764,1355],[7.175424535368857,45.725000286010655,1357],[7.17548431000225,45.72504410626931,1358],[7.175894418432861,45.72513638852122,1360],[7.1762293431374875,45.72518817395366,1362],[7.176405663703187,45.7252552878257,1363],[7.176488951843801,45.72536020913219,1365],[7.176530088895894,45.72551762485982,1367],[7.176861238575714,45.725806430247474,1368],[7.177134316666186,45.72590529526126,1370],[7.177245817662674,45.72603308317515,1372],[7.177391169677736,45.72630542075179,1373],[7.177624254876247,45.72644864936009,1375],[7.1777542931924945,45.72659923403852,1377],[7.177894411683242,45.72663747190862,1378],[7.17794578946776,45.72663829155709,1380],[7.1780978750093825,45.72670372188146,1382],[7.178423348714139,45.72696993063622,1383],[7.178549161682321,45.727052942526115,1385],[7.178637903650258,45.72709036012312,1387],[7.178778901321601,45.72710160913236,1388],[7.178947927495405,45.727041300090754,1390],[7.1790790044961375,45.72696238457906,1392],[7.179318099571711,45.726723180142415,1393],[7.179585219880813,45.72641241710592,1395],[7.1797656418375935,45.72600126515265,1397],[7.179845922569146,45.72590353799093,1398],[7.18034131020439,45.72568641669456,1400],[7.180577180855942,45.7255461647983,1402],[7.180749705734119,45.72537790162335,1403],[7.180818600165686,45.72523498940453,1405],[7.181101177402353,45.724843463556574,1407],[7.181207142183097,45.724746144451586,1408],[7.181337918604701,45.724676222137184,1410],[7.181519194796857,45.72463410553463,1412],[7.1816091028884035,45.724635537003444,1413],[7.181762355247794,45.72466497864316,1415],[7.181927867979933,45.72471261644168,1417],[7.182130745617466,45.724796851124005,1418],[7.18226881978123,45.72489805529595,1420],[7.182319612394111,45.72491686486323,1422],[7.18273149847906,45.724896417423984,1423],[7.183052308822588,45.724910522061855,1425],[7.183271825111849,45.72487801161071,1427],[7.183622698326784,45.724757583841395,1428],[7.184024071458388,45.72466495974749,1430],[7.185304372919096,45.72441529125482,1432],[7.185743107713672,45.724359257137465,1433],[7.186454768070889,45.72420854874104,1435],[7.186647802466014,45.724174168501634,1437],[7.1867289299632295,45.72400649995928,1438],[7.186790365914198,45.72391369175652,1440],[7.186876785626825,45.72383672516866,1442],[7.186994760403818,45.72380309417995,1443],[7.187240540089409,45.723752991793354,1445],[7.1879621234526265,45.72369243749622,1447],[7.188333431453212,45.72373433025505,1448],[7.188429905797913,45.723731360206735,1450],[7.188730258263297,45.72358311358833,1452],[7.188982106749611,45.72352245058364,1453],[7.189146111158857,45.723332034912325,1455],[7.189270995701169,45.723191160053496,1457],[7.189401137714842,45.72308266255935,1458],[7.189499678588171,45.72302377392865,1460],[7.18956062267619,45.72300853081276,1462],[7.189623699933846,45.723025739843514,1463],[7.189611547450499,45.72291203162798,1465]]}}]}