{"type":"FeatureCollection","features":[{"type":"Feature","properties":{"slug":"62-s4","sct_code":"62_S4","source":"Catasto Sentieri VdA"},"geometry":{"type":"LineString","coordinates":[[7.180357954671061,45.821861848858056,1378],[7.18052608864921,45.821617560788795,1382],[7.180819471005371,45.821505116058624,1386],[7.181491008335687,45.82184125964226,1390],[7.183531007692527,45.82186125981784,1394],[7.183831008310935,45.82201125986033,1398],[7.184171008585888,45.82182125992547,1402],[7.184621008308079,45.82203125968038,1406],[7.185331007631294,45.82188125955554,1410],[7.186531008405647,45.82221125998014,1414],[7.187691007816383,45.82272126043451,1418],[7.1878503707275545,45.82233384385891,1422],[7.1876827446575815,45.82227807627307,1426],[7.187807053599416,45.82200519334757,1430],[7.188205425818658,45.8218719661333,1434],[7.188386833213311,45.82178330331905,1438],[7.188708393653828,45.821524899027274,1442],[7.188833888201803,45.8212803015078,1446],[7.188901050098396,45.821149400744396,1450],[7.189111528458416,45.82110793800381,1455],[7.18922380269067,45.820945187664805,1459],[7.189395635200467,45.82099291296257,1463],[7.189966192934935,45.821249469183215,1467],[7.191413827412917,45.821135182116684,1471],[7.192342774057494,45.820807545296304,1475],[7.194001008697775,45.82081125905394,1479],[7.196061007608597,45.82092125895591,1483],[7.197051008152318,45.82085125919778,1487],[7.200220008199949,45.8213582588319,1491],[7.201211007708883,45.82165125968709,1495],[7.203441007603245,45.821801259667495,1499],[7.205591008647495,45.82240126034886,1503],[7.207045072021696,45.822508876860994,1507],[7.207026366985359,45.82247356787379,1511],[7.205169610366056,45.82192259534671,1515],[7.204700343977681,45.821804902160885,1519],[7.204234140411284,45.82163162065504,1523],[7.204069537414944,45.82152124147354,1527],[7.203610722512999,45.82110677845011,1531]]}}]}