{"type":"FeatureCollection","features":[{"type":"Feature","properties":{"slug":"62-s10","sct_code":"62_S10","source":"Catasto Sentieri VdA"},"geometry":{"type":"LineString","coordinates":[[7.214409040092483,45.82481339295782,1389],[7.214354445040005,45.824916167131306,1396],[7.2137820254754885,45.82543465197789,1403],[7.213626496450614,45.82563402612702,1410],[7.2133810084184935,45.82620126357702,1417],[7.213401007971496,45.82680126384126,1425],[7.213701007808027,45.82684126446252,1432],[7.214211007505759,45.82699026416004,1439],[7.214431007892696,45.82716026390522,1446],[7.213781008404714,45.82733026429521,1453],[7.213811008417284,45.827460264288504,1460],[7.214041008760761,45.82757026483966,1467],[7.213811007786784,45.827740264659965,1474],[7.2135110083470355,45.82768026444537,1481],[7.213661008453311,45.827870265192324,1488],[7.213401008421867,45.82789026517641,1496],[7.213081007578749,45.828450265521575,1503],[7.213361007821408,45.828300265201875,1510],[7.213681007500451,45.82854026532321,1517],[7.213461007618914,45.828620266029695,1524],[7.213701008053454,45.82869026544769,1531],[7.213421008220751,45.828820265804445,1538],[7.214341008088454,45.82922026573415,1545],[7.214431007558241,45.829310265820126,1552],[7.214111008192362,45.82942026642557,1560],[7.2144310086010135,45.829610266925194,1567],[7.214091007742276,45.82970026633405,1574],[7.214171008406826,45.82982026628379,1581],[7.213211007717724,45.82997026684229,1588],[7.2135910083746975,45.830100267095766,1595],[7.2134810079385225,45.83034026720432,1602],[7.213761007635208,45.83049026698276,1609],[7.213631008106973,45.830570267684315,1616],[7.2144310079802585,45.83073026707401,1623],[7.214368360016325,45.83088866223564,1631],[7.212976793874094,45.8313308850063,1638],[7.212896795740057,45.83130488582823,1645],[7.212517803877605,45.83128888970895,1652],[7.212095815557325,45.831410890996324,1659],[7.2110718417355475,45.831578896457,1666],[7.21077884783003,45.83159389962486,1673],[7.2104938567171555,45.8316359009407,1680],[7.210068862875174,45.83160190595457,1687],[7.209928018717711,45.83161946202355,1695],[7.209895800492805,45.83164368494198,1702],[7.209915869026573,45.831658905979,1709],[7.210034867981094,45.8317049035606,1716],[7.210292865276252,45.83186489683972,1723],[7.210862782640026,45.83208048135228,1730],[7.2108934925078945,45.832122634409096,1737],[7.210828673457858,45.83214438127011,1744],[7.210513352500795,45.83214932436257,1751],[7.210068184838468,45.83217694088554,1759],[7.20994939118512,45.83219468950082,1766],[7.209870720211695,45.8322331809796,1773],[7.209969779211759,45.83230096941839,1780],[7.209991008268354,45.83236026849625,1787],[7.210271008706368,45.83247026892899,1794],[7.210331008152143,45.832540269392176,1801],[7.210641008704681,45.832610269349075,1808],[7.210801008007376,45.832730269189526,1815],[7.210961007661265,45.83281026904247,1822],[7.211001007701926,45.83291026940372,1830],[7.21114100778861,45.833040269142614,1837],[7.211241008314675,45.83341027004241,1844],[7.211271007638433,45.83343026987503,1851],[7.211371007634267,45.83358027014729,1858],[7.211511008174779,45.83374026969349,1865],[7.2117910083651005,45.83386027035154,1872],[7.21201100774255,45.83405027082148,1879],[7.212091008627164,45.834310270395015,1886],[7.212141008509449,45.83459027093734,1894],[7.212131008628841,45.83485027122498,1901],[7.212101007946716,45.83510027127631,1908],[7.212011008337535,45.83526027103022,1915],[7.212041008458956,45.83546027133727,1922],[7.211961007749477,45.835990271748535,1929],[7.211928157384807,45.83602123115816,1936],[7.21169546052274,45.83631435800866,1943],[7.211551833344863,45.83644950462164,1950],[7.211420416212922,45.836660828425714,1957],[7.211335817719268,45.83700543373051,1965],[7.2111406172421075,45.837289740194855,1972],[7.210954792729648,45.837646068839845,1979],[7.210731968696712,45.83782478805045,1986],[7.210675902276145,45.837952138111014,1993],[7.210596595530444,45.838328517125795,2000],[7.210580160471351,45.83854566605932,2007],[7.210527642152173,45.83871003009793,2014],[7.210290803149627,45.838924698008846,2021],[7.2102269996133295,45.8389476889819,2029],[7.210211033217954,45.83903747195055,2036],[7.21013901881417,45.83913755794099,2043],[7.210109818102154,45.83924285007787,2050],[7.209921158552946,45.83944555723031,2057],[7.209659223470579,45.83981585932563,2064],[7.209423826002243,45.84004498289412,2071],[7.209223658902625,45.840159259249575,2078],[7.208996568837318,45.840624909401775,2085],[7.208298152141137,45.84105326592059,2092],[7.2082346681725875,45.841202235318434,2100],[7.208111007693071,45.841290276439615,2107],[7.207772482553916,45.84174951013584,2114],[7.2078811616284675,45.84194081290183,2121],[7.2079310082436345,45.8424802778301,2128],[7.207544426616688,45.84302445980709,2135],[7.2065510076011146,45.84371027925118,2142],[7.206171007987504,45.84379027910168,2149],[7.205871007499458,45.84407027895381,2156],[7.205761008417731,45.84461027968158,2164],[7.205441008558252,45.84463027943796,2171],[7.205141008503895,45.844950279741276,2178],[7.204391007614087,45.84510028066568,2185],[7.20421100847878,45.845320280876315,2192],[7.203911008346913,45.84542028052665,2199],[7.204021008761871,45.845720280569594,2206],[7.203591007560652,45.84577028107344,2213],[7.203231007949818,45.84600028071864,2220],[7.202711007835148,45.84663028153262,2228],[7.202651007765996,45.84731028249743,2235],[7.202651007827674,45.847500282322265,2242],[7.202611008532796,45.847680282419404,2249],[7.202781008469714,45.84768028231373,2256],[7.202691008651952,45.84802028287783,2263],[7.202711008664939,45.84808028295899,2270],[7.202521008151772,45.84845028338201,2277],[7.2055010081873965,45.84821028283027,2284],[7.206811007952331,45.84768028298698,2291],[7.2071110079482725,45.84733028182092,2299],[7.2075010075845745,45.84744028259298,2306],[7.208981007861754,45.84690028157097,2313],[7.209391007738525,45.84701028166454,2320],[7.210271008479052,45.84776028300736,2327],[7.210801008443244,45.847870282410234,2334],[7.210821008024042,45.84843028321655,2341],[7.2114510079275,45.84853028300424,2348],[7.211211007907767,45.84873028364778,2355],[7.20994100794443,45.84884028381253,2363],[7.210161008650669,45.84901028394005,2370],[7.2115310076631705,45.8490102840904,2377],[7.212001008530057,45.849140284252016,2384],[7.212951007795942,45.848750283602236,2391],[7.213161007815961,45.848960284058066,2398],[7.213331007777439,45.84896028353935,2405],[7.21370000853863,45.8493782844788,2412],[7.21385100841955,45.84871028369274,2419],[7.214151008003395,45.84860028369947,2426],[7.215571008453612,45.848840283320115,2434],[7.215331007949368,45.848530282954485,2441],[7.215591008542318,45.8480602827853,2448],[7.215521008536457,45.84701028204147,2455],[7.215111008210915,45.846900281466326,2462]]}}]}