{"type":"FeatureCollection","features":[{"type":"Feature","properties":{"slug":"62-s9","sct_code":"62_S9","source":"Catasto Sentieri VdA"},"geometry":{"type":"LineString","coordinates":[[7.214409040092483,45.82481339295782,1389],[7.214354445040005,45.824916167131306,1395],[7.2137820254754885,45.82543465197789,1401],[7.213626496450614,45.82563402612702,1407],[7.2133810084184935,45.82620126357702,1412],[7.213401007971496,45.82680126384126,1418],[7.213701007808027,45.82684126446252,1424],[7.214211007505759,45.82699026416004,1430],[7.214431007892696,45.82716026390522,1436],[7.213781008404714,45.82733026429521,1442],[7.213811008417284,45.827460264288504,1447],[7.214041008760761,45.82757026483966,1453],[7.213811007786784,45.827740264659965,1459],[7.2135110083470355,45.82768026444537,1465],[7.213661008453311,45.827870265192324,1471],[7.213401008421867,45.82789026517641,1477],[7.213081007578749,45.828450265521575,1483],[7.213361007821408,45.828300265201875,1488],[7.213681007500451,45.82854026532321,1494],[7.213461007618914,45.828620266029695,1500],[7.213701008053454,45.82869026544769,1506],[7.213421008220751,45.828820265804445,1512],[7.214341008088454,45.82922026573415,1518],[7.214431007558241,45.829310265820126,1523],[7.214111008192362,45.82942026642557,1529],[7.2144310086010135,45.829610266925194,1535],[7.214091007742276,45.82970026633405,1541],[7.214171008406826,45.82982026628379,1547],[7.213211007717724,45.82997026684229,1553],[7.2135910083746975,45.830100267095766,1559],[7.2134810079385225,45.83034026720432,1564],[7.213761007635208,45.83049026698276,1570],[7.213631008106973,45.830570267684315,1576],[7.2144310079802585,45.83073026707401,1582],[7.214368360016325,45.83088866223564,1588],[7.212976793874094,45.8313308850063,1594],[7.212896795740057,45.83130488582823,1599],[7.212517803877605,45.83128888970895,1605],[7.212095815557325,45.831410890996324,1611],[7.2110718417355475,45.831578896457,1617],[7.21077884783003,45.83159389962486,1623],[7.2104938567171555,45.8316359009407,1629],[7.210068862875174,45.83160190595457,1635],[7.209928018717711,45.83161946202355,1640],[7.209895800492805,45.83164368494198,1646],[7.209915869026573,45.831658905979,1652],[7.210034867981094,45.8317049035606,1658],[7.210292865276252,45.83186489683972,1664],[7.210862782640026,45.83208048135228,1670],[7.2108934925078945,45.832122634409096,1675],[7.210828673457858,45.83214438127011,1681],[7.210513352500795,45.83214932436257,1687],[7.210068184838468,45.83217694088554,1693],[7.20994939118512,45.83219468950082,1699],[7.209870720211695,45.8322331809796,1705],[7.209969779211759,45.83230096941839,1711],[7.209991008268354,45.83236026849625,1716],[7.210271008706368,45.83247026892899,1722],[7.210331008152143,45.832540269392176,1728],[7.210641008704681,45.832610269349075,1734],[7.210801008007376,45.832730269189526,1740],[7.210961007661265,45.83281026904247,1746],[7.211001007701926,45.83291026940372,1752],[7.21114100778861,45.833040269142614,1757],[7.211241008314675,45.83341027004241,1763],[7.211271007638433,45.83343026987503,1769],[7.211371007634267,45.83358027014729,1775],[7.211511008174779,45.83374026969349,1781],[7.2117910083651005,45.83386027035154,1787],[7.21201100774255,45.83405027082148,1792],[7.212091008627164,45.834310270395015,1798],[7.212141008509449,45.83459027093734,1804],[7.212131008628841,45.83485027122498,1810],[7.212101007946716,45.83510027127631,1816],[7.212011008337535,45.83526027103022,1822],[7.212041008458956,45.83546027133727,1828],[7.211961007749477,45.835990271748535,1833],[7.211928157384807,45.83602123115816,1839],[7.21169546052274,45.83631435800866,1845],[7.211551833344863,45.83644950462164,1851],[7.211420416212922,45.836660828425714,1857],[7.211335817719268,45.83700543373051,1863],[7.2111406172421075,45.837289740194855,1868],[7.210954792729648,45.837646068839845,1874],[7.210731968696712,45.83782478805045,1880],[7.210675902276145,45.837952138111014,1886],[7.210596595530444,45.838328517125795,1892],[7.210580160471351,45.83854566605932,1898],[7.210527642152173,45.83871003009793,1904],[7.210290803149627,45.838924698008846,1909],[7.2102269996133295,45.8389476889819,1915],[7.210211033217954,45.83903747195055,1921],[7.21013901881417,45.83913755794099,1927],[7.210109818102154,45.83924285007787,1933],[7.209921158552946,45.83944555723031,1939],[7.209659223470579,45.83981585932563,1944],[7.209423826002243,45.84004498289412,1950],[7.209223658902625,45.840159259249575,1956],[7.208996568837318,45.840624909401775,1962],[7.208298152141137,45.84105326592059,1968],[7.2082346681725875,45.841202235318434,1974],[7.208111007693071,45.841290276439615,1980],[7.207772482553916,45.84174951013584,1985],[7.2078811616284675,45.84194081290183,1991],[7.2079310082436345,45.8424802778301,1997],[7.207544426616688,45.84302445980709,2003],[7.2065510076011146,45.84371027925118,2009],[7.206171007987504,45.84379027910168,2015],[7.205871007499458,45.84407027895381,2020],[7.205761008417731,45.84461027968158,2026],[7.205441008558252,45.84463027943796,2032],[7.205141008503895,45.844950279741276,2038],[7.204391007614087,45.84510028066568,2044],[7.20421100847878,45.845320280876315,2050],[7.203911008346913,45.84542028052665,2056],[7.204021008761871,45.845720280569594,2061],[7.203591007560652,45.84577028107344,2067],[7.203231007949818,45.84600028071864,2073],[7.202711007835148,45.84663028153262,2079],[7.202651007765996,45.84731028249743,2085],[7.202651007827674,45.847500282322265,2091],[7.202611008532796,45.847680282419404,2096],[7.202781008469714,45.84768028231373,2102],[7.202691008651952,45.84802028287783,2108],[7.202711008664939,45.84808028295899,2114],[7.202521008151772,45.84845028338201,2120],[7.202351007892295,45.84862028305236,2126],[7.202241008379804,45.84888028324893,2132],[7.202091008065136,45.84903028333481,2137],[7.202181008518795,45.849030284096706,2143],[7.202201007626318,45.849070283509306,2149],[7.202111008409293,45.84911028425112,2155],[7.201881008501642,45.84933028391432,2161],[7.201921007924398,45.84948028452223,2167],[7.201701007773431,45.84987028453321,2172],[7.201681007968331,45.84995028491777,2178],[7.201731007925405,45.85004028511551,2184],[7.201621007754223,45.85017028440116,2190],[7.201621007536336,45.85040028469914,2196],[7.201511007634737,45.85053028477654,2202],[7.201511007664344,45.850590285166184,2208],[7.201731008728182,45.85066028526801,2213],[7.2017510085635354,45.85072028548954,2219],[7.201681008122505,45.8507702851626,2225],[7.201811008011531,45.8507702849916,2231],[7.201811007621861,45.8508502852008,2237],[7.201921007615982,45.850900285101694,2243],[7.2019010084142465,45.85096028569302,2248],[7.202611008105906,45.8510002853306,2254],[7.202691008716018,45.851090285522915,2260],[7.2027110086771815,45.8512002855916,2266],[7.2026110085997574,45.85126028579684,2272],[7.202241007997128,45.851430285516855,2278],[7.202131008045106,45.8515402863438,2284],[7.201851007786716,45.85160028602625,2289],[7.201921008578547,45.851820286161725,2295],[7.202001007748576,45.8518402860642,2301],[7.201901007788595,45.852200286618235,2307],[7.201941007950698,45.85231028661276,2313],[7.20188100867411,45.85263028708279,2319],[7.2019010080577575,45.852760287081075,2324],[7.202031008149378,45.8528902868542,2330],[7.202071007706388,45.853000287681056,2336],[7.20218100858839,45.853040286963605,2342],[7.202301007937091,45.853230287794354,2348],[7.202351007841145,45.85323028712563,2354],[7.202371008336521,45.85341028794687,2360],[7.202201007753835,45.85353028816888,2365],[7.201961007934988,45.853620287800545,2371],[7.201851008448052,45.85362028797246,2377],[7.2013210080586045,45.8537502881858,2383],[7.200971008069557,45.85392028815757,2389],[7.200801008592385,45.854030288647124,2395],[7.200051008205521,45.8543102881389,2401],[7.199821008622387,45.85450028872526,2406],[7.199711008182508,45.854540289157256,2412],[7.199371007523013,45.854930289481615,2418],[7.199111008206975,45.855100289332086,2424],[7.199061008490849,45.855210288923914,2430],[7.198742008434071,45.85551028940184,2436],[7.198492007597954,45.85559028927101,2441],[7.19825200846782,45.85574028954334,2447],[7.198082007974478,45.85572028940313,2453],[7.198062008328578,45.855740289645595,2459],[7.1980620081408295,45.855850289970995,2465],[7.197952007704231,45.855960290301596,2471],[7.197842008193352,45.85622029048828,2477],[7.1977320077635385,45.85624029009399,2482],[7.197542007996357,45.85641028999638,2488],[7.19726200838293,45.85656029061843,2494],[7.197072008251188,45.856620290311746,2500],[7.196982008308403,45.85658029041688,2506],[7.1965320084050415,45.85673029063551,2512],[7.196122008681416,45.85695029051602,2517],[7.1961220075845755,45.857030290642975,2523],[7.196002008669737,45.85716029120442,2529],[7.195872008585217,45.85720029159167,2535],[7.195722008551555,45.8572002913236,2541],[7.195612008036281,45.85733029099137,2547],[7.195612007985441,45.857610291926655,2553],[7.195502008661047,45.85770029188185,2558],[7.1955720076638245,45.85783029159698,2564],[7.195502008030202,45.85798029189205,2570],[7.195162007701976,45.85841029263251,2576],[7.195052008395506,45.858430292371416,2582],[7.19492200785411,45.8585602921447,2588],[7.1947920076749385,45.85853029242252,2593],[7.1947520083547705,45.85849029251023,2599],[7.194622007654577,45.858510292552765,2605],[7.194672008161505,45.858580292325705,2611],[7.194412008773656,45.8586202921122,2617],[7.1943720082716816,45.858750292652296,2623],[7.194242007619867,45.85886029273926,2629],[7.194242008270875,45.85890029236093,2634],[7.194172007516141,45.858920292616745,2640],[7.1938720080884435,45.858810292552285,2646],[7.193682007652215,45.858790292763366,2652],[7.193592007822171,45.8588602922962,2658],[7.193572008115761,45.858920293155315,2664],[7.193422007839277,45.85883029298862,2669],[7.193252008748369,45.858790292188516,2675],[7.193342008151258,45.859130292985604,2681],[7.193312007918671,45.85935029337363,2687]]}}]}