{"type":"FeatureCollection","features":[{"type":"Feature","properties":{"slug":"63-s17","sct_code":"63_S17","source":"Catasto Sentieri VdA"},"geometry":{"type":"LineString","coordinates":[[7.186351996207773,45.734911892254104,1678],[7.186162486620008,45.73499272685598,1680],[7.185948596171232,45.735041239831716,1683],[7.185758334074735,45.7352926408901,1685],[7.185431897944165,45.73530163465315,1688],[7.185100244665436,45.735482215428355,1690],[7.184941919467563,45.73551046077873,1692],[7.184747423524632,45.735581710067976,1695],[7.184654872789134,45.73555356315269,1697],[7.184559449985502,45.73550462236342,1699],[7.184471887998509,45.7354955404283,1702],[7.18431074034049,45.73566729395698,1704],[7.184330242233238,45.73574322598907,1707],[7.184265968262071,45.73586268692151,1709],[7.184127352746509,45.73601685392394,1711],[7.184539007781586,45.736703188658886,1714],[7.18489900830783,45.73680318877735,1716],[7.1856280079961286,45.737530189303044,1718],[7.185649008283064,45.73876319110495,1721],[7.18646900809511,45.739423191148845,1723],[7.186339008575591,45.739923191763786,1726],[7.185606919195749,45.74086417278612,1728],[7.185887529923717,45.740931634199114,1730],[7.186065358970267,45.740997462612505,1733],[7.186151505353629,45.74111583822863,1735],[7.1861345778793,45.741241577467605,1737],[7.185984508625961,45.741509211371245,1740],[7.185962043334281,45.7418058735549,1742],[7.185972268386582,45.74188704113215,1745],[7.186008480934506,45.7419596208753,1747],[7.186078125055419,45.74199222897193,1749],[7.186212300823596,45.742016861261625,1752],[7.186325310673379,45.74209966102811,1754],[7.186440943139422,45.74210149715213,1756],[7.186570589043125,45.74206755335662,1759],[7.186777031718629,45.74204382920283,1761],[7.1869954484452165,45.74204729647204,1764],[7.187380016186281,45.74208040202361,1766],[7.187776559036783,45.74214069800943,1768],[7.188381291679762,45.74212328982991,1771],[7.188930558256025,45.74223100699547,1773],[7.189084735463602,45.7422334516246,1775],[7.189304025925025,45.742209926606016,1778],[7.189808882549916,45.74210092170457,1780],[7.190143223347263,45.74209721959181,1783],[7.190187755476666,45.74211142610171,1785],[7.190204846899914,45.74217920123166,1787],[7.190097991239102,45.742303516039904,1790],[7.189850677888406,45.74239860305569,1792],[7.189798121998418,45.74243377240295,1794],[7.1896898107077245,45.74260306662321,1797],[7.189636963666827,45.7426472318542,1799],[7.18959492870664,45.742754572455766,1802],[7.189603995712463,45.74287172362859,1804],[7.18949713736563,45.74299603782017,1806],[7.1894545200758815,45.74312137027955,1809],[7.189320218756789,45.74329925270737,1811],[7.189009117246846,45.74357783835998,1813],[7.188713771261451,45.74376666729462,1816],[7.188646618741123,45.74385560805594,1818],[7.188645454629494,45.74389159188205,1821],[7.188650860272978,45.74392317961241,1823],[7.188694520381477,45.74396437458607,1825],[7.1887327748544045,45.743973981817156,1828],[7.189014568939084,45.74400545197371,1830],[7.189349502927895,45.74398376044038,1832],[7.189607927424639,45.743942854078846,1835],[7.189889721911577,45.74397432208109,1837],[7.19041680153907,45.74397367356287,1840],[7.190481625559447,45.7439566994468,1842],[7.190717549833274,45.743816427810636,1844],[7.191029401032633,45.743713360546,1847],[7.19124927782349,45.743671839934436,1849],[7.191634731288605,45.74367794344293,1851],[7.192205872337908,45.74350697341148,1854],[7.192451444326299,45.74346585718295,1856],[7.192880087361709,45.74332863083349,1859],[7.1930731033825674,45.74332268400231,1861],[7.193377110590278,45.743462501673974,1863],[7.193697740554191,45.74348557398574,1866],[7.193648277551666,45.7435844217545,1868],[7.1935517300319605,45.7436573385154,1870],[7.1933660652142555,45.74371410535658,1873],[7.193301426467759,45.74383198224828,1875],[7.193178384252021,45.7438940083217,1878],[7.193107392766509,45.743986961928485,1880],[7.192983429025303,45.74406700855665,1882],[7.192915453986784,45.74415199925717,1885],[7.192769447094124,45.74426398013691,1887],[7.192674401068744,45.74437696704744,1889],[7.192427479481964,45.74457293341254,1892],[7.192351458408157,45.74466094213431,1894],[7.192102441539728,45.744817933661174,1897],[7.19208643374844,45.74489295024376,1899],[7.191835485786499,45.74493393917241,1901],[7.1918344812070645,45.74497794235665,1904],[7.191746472412001,45.74496998132558,1906],[7.191647484916655,45.744989929982225,1908],[7.191672463809011,45.745058995313734,1911],[7.191500472046023,45.74511993224216,1913],[7.191193454956404,45.745398961964206,1916],[7.191109471793892,45.74545796992897,1918],[7.190980478589252,45.745507003357076,1920],[7.190826507930236,45.74562996500029,1923],[7.190799520296843,45.745673968823304,1925],[7.190635490971268,45.74572392566894,1927],[7.190460482541875,45.74585996168784,1930],[7.190392508384365,45.74588292886044,1932],[7.190343558990627,45.745881001233826,1935],[7.19013653207859,45.745972950487875,1937],[7.190047520786815,45.74611493703935,1939],[7.189891539565326,45.74623094141408,1942],[7.189888523907771,45.74631693815534,1944],[7.189664567638569,45.746490943745,1946],[7.189647553625326,45.74654794018362,1949],[7.189605561880516,45.74658892652304,1951],[7.189430553612033,45.74669696828478,1954],[7.18937054175845,45.74675798765917,1956],[7.189257557718921,45.74680894972698,1958],[7.18918757065131,45.746809956184606,1961],[7.189170556070483,45.746846919977244,1963],[7.189029575337795,45.74685194997398,1965],[7.1889766044146075,45.74687198238694,1968],[7.188898571940216,45.74694297641972,1970],[7.18862457561926,45.747043978515386,1973],[7.188514608629818,45.7471409562923,1975],[7.188405562963452,45.74717993181885,1977],[7.188339600181911,45.74723994540161,1980],[7.1882495809740234,45.747223937485856,1982],[7.188070630618715,45.747238942364774,1984],[7.188018583208565,45.747341953511224,1987],[7.187745591579579,45.747391911915585,1989],[7.187727571267644,45.747429964802365,1992],[7.187644593486549,45.7474819315121,1994],[7.187568571655876,45.747502970986865,1996],[7.187542589904176,45.74755896074521,1999],[7.187397586032845,45.74756692477397,2001],[7.187391636202898,45.74762593167215,2003],[7.187330616973095,45.747646970564055,2006],[7.187160639030363,45.747767919875145,2008],[7.186959646280777,45.74785291257997,2011],[7.186797629794805,45.74795290749954,2013],[7.186709622204948,45.747974952299266,2015],[7.186700654792859,45.74802390172119,2018],[7.186591609451903,45.74805793240583,2020],[7.186580630169157,45.748123980652885,2022],[7.186475608956197,45.74818692823274,2025],[7.1864866743618325,45.748224981011575,2027],[7.186364636945327,45.74828993994822,2030],[7.186374698258007,45.74840795402147,2032],[7.1862466256709565,45.748469896314624,2034],[7.186217626117576,45.748507949217014,2037],[7.186159625096057,45.748520942102466,2039],[7.186121655921955,45.748555894049055,2041],[7.186024679940846,45.74857793899979,2044],[7.185899710386645,45.74864490929779,2046],[7.185836679623466,45.748637953382634,2049],[7.185744649149195,45.748691932349416,2051],[7.185690671979076,45.748744905520695,2053],[7.1855397183099425,45.74879092247458,2056],[7.185386669223247,45.74885889971898,2058],[7.185323723608902,45.74890491500045,2060],[7.185290700060799,45.74890994456183,2063],[7.1852316919388155,45.74888295666436,2065],[7.18519665706719,45.74893190580092,2068],[7.1851507261532515,45.74892494939289,2070],[7.185048721704657,45.74899896118144,2072],[7.184965659029021,45.748992926744016,2075],[7.184909669614766,45.74906090301108,2077],[7.184904727113312,45.74916793748963,2079],[7.184810683952497,45.749138937209004,2082],[7.184794673281295,45.74908495928382,2084],[7.184730720582744,45.74906392202349,2087],[7.184723680409705,45.74912494106915,2089],[7.184652686991723,45.74910792672372,2091],[7.184663667890975,45.74914296224208,2094],[7.18455973429339,45.74913391091843,2096],[7.18448974836653,45.74918093260424,2098],[7.184494693602706,45.74920691573675,2101],[7.184455720466691,45.74926290618951,2103],[7.184373747662567,45.74926491895012,2106],[7.184366706913765,45.74930992865848,2108],[7.18428976247576,45.74930590630847,2110],[7.184175967375651,45.74932501004185,2113],[7.184117995531505,45.74939159801583,2115],[7.18376614001259,45.74953502667953,2117],[7.18367974853108,45.749594003454206,2120],[7.183661646758358,45.74963628105812,2122],[7.183605306594663,45.7496422516148,2125],[7.183507810854825,45.74960906769708,2127],[7.183460899150995,45.74956061500999,2129],[7.183377378183999,45.74975729904156,2132],[7.1832886014984965,45.750115909559085,2134],[7.183220556636183,45.75023183454881,2136],[7.183189309426999,45.75040234821583,2139],[7.183182302088322,45.75061825026841,2141],[7.183083300498006,45.7508956928693,2144],[7.18302022016032,45.75125471188409,2146],[7.183015840045384,45.751389650635154,2148],[7.182929686373793,45.75166729745869,2151],[7.182909535422677,45.75189199091027,2153],[7.182784537312767,45.752178020172245,2155],[7.182781908822166,45.7522589833996,2158],[7.182840027636473,45.75244891984896,2160],[7.182844992753904,45.752692013972,2163],[7.182809361940604,45.75299746612578,2165],[7.182692245903924,45.75343663015018,2167],[7.18266508422117,45.75348120076968,2170],[7.182661287086939,45.753598147618746,2172],[7.182772562003461,45.75373492648437,2174],[7.182985475127447,45.753909324432726,2177],[7.183046224457681,45.75401829754961,2179],[7.183045056334264,45.75405428119998,2182],[7.183031037429658,45.75409006041884,2184],[7.182712103689023,45.75440900641787,2186],[7.182656610926342,45.754534131270205,2189],[7.182652229434313,45.754669069916424,2191],[7.18262331445703,45.754767615963985,2193],[7.182404845313315,45.755160164046956,2196],[7.182401923853804,45.75525012312237,2198],[7.182374468865595,45.7553036895498,2201],[7.182348474604517,45.75531227643402,2203],[7.181988638738766,45.75570257387924,2205],[7.181947747519387,45.755773927443904,2208],[7.181886406880597,45.75607896992478,2210],[7.181893121124375,45.75626808846472,2212],[7.181871944643405,45.75632625498253,2215],[7.181772491298757,45.7564191776435,2217],[7.181512834521398,45.75649604883389,2220],[7.181408270048411,45.75654838730259,2222],[7.181341967079765,45.756610335470334,2224],[7.181283488469517,45.75689012440371,2227],[7.181157487800709,45.757040527060866,2229],[7.181112956022144,45.75732673306557,2231],[7.181032045929006,45.75744245175093,2234],[7.1808991444327654,45.7575753434413,2236],[7.180836487430507,45.75772285463171,2239],[7.180763610383973,45.757789198022664,2241],[7.180733213428418,45.757848133709345,2243],[7.180716282227897,45.75805846076243,2246],[7.180672463044525,45.758219772735025,2248],[7.180483764544396,45.75848678342317,2250],[7.180203346192771,45.75880633578014,2253],[7.180149013377274,45.758895475608924,2255],[7.180119799045441,45.7590030167435,2258],[7.180131460378824,45.75943522900824,2260],[7.180105443224162,45.75983983924062,2262],[7.180166192980052,45.75994881379443,2265],[7.180136100389158,45.76008334257234,2267],[7.18015741630383,45.76021869045383,2269],[7.180207947316367,45.76024649721336,2272],[7.180284475275318,45.760265717589526,2274],[7.180374440517675,45.76026715088926,2277],[7.1804443962175935,45.76029076672801,2279],[7.180549691090059,45.76041395151928,2281],[7.18066419109751,45.76045177761873,2284],[7.180921820448684,45.76043787994773,2286],[7.181362889172343,45.7603188960902,2288],[7.181582253529561,45.760295387092846,2291],[7.181815346780419,45.76024509457216,2293],[7.181853903330583,45.76024570833532,2296],[7.181891290763276,45.76028230567347,2298],[7.18192634004549,45.7603908701762,2300],[7.181924878666596,45.76043584966088,2303],[7.181883691437477,45.76051619898942,2305],[7.181816799559099,45.76059613912127,2307],[7.18177736586377,45.760622513029645,2310],[7.181530541692981,45.76069958850637,2312],[7.181440283341155,45.760707152000606,2315],[7.1813879971001935,45.76073332113568,2317],[7.1812434056161685,45.760830024834796,2319],[7.181137370637133,45.76092734235368,2322],[7.181045942183182,45.76097088909733,2324],[7.180897840120006,45.76117554302959,2326],[7.180879723593237,45.76133726435968,2329],[7.180927039059478,45.76146402560931,2331],[7.1809571155893765,45.76172552050219,2334],[7.180946279789699,45.76245439223904,2336],[7.180962626692423,45.76274267006507,2338],[7.181017532169083,45.763031561951614,2341],[7.181566632452754,45.762767059629155,2343],[7.18198918754493,45.76206308422425,2345],[7.1827527997934,45.76165777371154,2348],[7.18316440825018,45.761558453806195,2350],[7.18355711724658,45.76157528633612,2353],[7.184130206934728,45.761626746550064,2355],[7.184867188859769,45.76175491547073,2357],[7.1850476096202245,45.761829882342596,2360],[7.185652359183442,45.76183949041823,2362],[7.185927009020069,45.76199821048749,2364],[7.186319007919022,45.76166120894117,2367],[7.1866470084945,45.76162820953699,2369],[7.186811007843979,45.761592209781554,2372],[7.187081007584663,45.761673209141755,2374]]}}]}