{"type":"FeatureCollection","features":[{"type":"Feature","properties":{"slug":"63-s13","sct_code":"63_S13","source":"Catasto Sentieri VdA"},"geometry":{"type":"LineString","coordinates":[[7.219487915495592,45.71738379921636,821],[7.219205274437812,45.717496399662494,825],[7.218734794781527,45.717808584574676,830],[7.21835594962321,45.71799168732454,834],[7.21818464034426,45.7180250182249,838],[7.217970532627729,45.71811618414284,843],[7.217927934146009,45.71814252040309,847],[7.2178710365386545,45.71822713926518,852],[7.217807434709601,45.718383657423914,856],[7.217707044412772,45.71840909270127,860],[7.217658252611164,45.71839033008983,865],[7.217646465563603,45.718331642216974,869],[7.217706674324954,45.71800405969874,873],[7.2176909049720495,45.717931808775084,878],[7.217523395583527,45.717807687384116,882],[7.2173194820707405,45.717691997249,886],[7.217059601380068,45.71734141641873,891],[7.216895124262016,45.71698332565246,895],[7.2168359609178445,45.71679988316686,900],[7.2167997906961885,45.71657230783342,904],[7.216764243798103,45.71655375432351,908],[7.216719149729486,45.716557548755794,913],[7.216687017606658,45.71657054706473,917],[7.2166769002794515,45.71661089272735,921],[7.216735138979598,45.717039331788236,926],[7.216715479348142,45.71710202817952,930],[7.216687328849035,45.71712859226534,935],[7.2166434454561905,45.71713615792395,939],[7.216597190354977,45.717122639513605,943],[7.216575988646883,45.71708184892691,948],[7.216597480492136,45.71697417723413,952],[7.216538007913935,45.71687017362358,956],[7.216438007869739,45.716853173320544,961],[7.215758008454314,45.71701317420028,965],[7.215318008545222,45.71696317416355,969],[7.215188008103531,45.716863173811866,974],[7.2152180082819415,45.71676317334134,978],[7.2151680079138,45.71653317351465,983],[7.215058008726249,45.71633317289279,987],[7.215018008485667,45.71572317235995,991],[7.214668007684776,45.71511317230357,996],[7.214528008547831,45.71498317244846,1000],[7.213748008528644,45.71456317203317,1004],[7.213208008492607,45.714563171516836,1009],[7.212890666704192,45.71440527617908,1013],[7.212883486667682,45.71471883061836,1017],[7.212833908244069,45.71475970246819,1022],[7.212943748016668,45.714853868220544,1026],[7.212998007872202,45.71521317279383,1031],[7.213158007534443,45.71536317266252,1035],[7.2134880086329565,45.71550317222003,1039],[7.213718007902079,45.71569317313459,1044],[7.213798008444977,45.71591317330629,1048],[7.213818007764044,45.71608317275267,1052],[7.213658007562756,45.71632317288686,1057],[7.213598008575273,45.716513173362145,1061],[7.213138007779533,45.71703317378411,1065],[7.212994008645214,45.717119173586916,1070],[7.212928008039379,45.71726317399005,1074],[7.212948008439177,45.71757317440659,1079],[7.212858007909846,45.71788317454495,1083],[7.212868008480886,45.71815317459235,1087],[7.212798008734842,45.718313174802546,1092],[7.212758008451627,45.71864317530744,1096],[7.212688007941483,45.7186531749455,1100],[7.212418008592873,45.71829317441417,1105],[7.212368007869932,45.71835317471877,1109],[7.212308007682922,45.718683175253034,1114],[7.212228008787714,45.71866317480572,1118],[7.212078008307589,45.71837317462001,1122],[7.211998007571566,45.7184131747176,1127],[7.2118040079975305,45.71862517456576,1131],[7.211794008210014,45.71892917544492,1135],[7.211742008553555,45.71885217477074,1140],[7.2115790087365665,45.71874317508587,1144],[7.211409007688579,45.71889317494293,1148],[7.211359008456738,45.71904317547069,1153],[7.21128900875185,45.71902317524809,1157],[7.211263060735726,45.71886460664297,1162],[7.211199007895816,45.71847317522017,1166],[7.21104900773863,45.71837317466112,1170],[7.2109290080686055,45.718543175077336,1175],[7.210809007981385,45.71862317470513,1179],[7.210679536998317,45.718906663619514,1183],[7.210480976250248,45.718936803635955,1188],[7.2100090084318165,45.71890317550781,1192],[7.20968900787959,45.71899317568726,1196],[7.209609008523984,45.71906317494595,1201],[7.209389008085922,45.71906317507314,1205],[7.208769008643409,45.71924317512721,1210],[7.208529007631102,45.719443175576416,1214],[7.208449007619742,45.719673175948415,1218],[7.208349007969371,45.71963317563093,1223],[7.20830900803544,45.71943317576489,1227],[7.208219007690204,45.719303175837084,1231],[7.208219008522387,45.71898317554643,1236],[7.2083205423039205,45.718843088039854,1240],[7.208085030981244,45.71889758041147,1245],[7.207795478889483,45.71951407893484,1249],[7.2075457064667,45.71969017138636,1253],[7.207024500339511,45.7199160061385,1258],[7.206812389553049,45.720119690012034,1262],[7.206667660090803,45.72022542486261,1266],[7.206537212874544,45.7202863807827,1271],[7.206226384563146,45.7203625049345,1275],[7.206346580622977,45.72022038295096,1279],[7.2063742825768555,45.7201578137655,1284],[7.206376586111051,45.72008584511134,1288],[7.206254201822048,45.7198949104237,1293],[7.206179860471394,45.71981383188888,1297],[7.205899994724218,45.719808339735444,1301],[7.205787443677666,45.71982457379957,1306],[7.205379405491709,45.720034530391146,1310],[7.205006909000861,45.72018583543205,1314],[7.204384476950052,45.720374111585315,1319],[7.2046306985040625,45.72040948352791,1323],[7.204699462733148,45.72046906926448,1327],[7.204685436283559,45.72051835300251,1332],[7.204578039781516,45.720561666007114,1336],[7.204483545788493,45.72057818173851,1341],[7.2038897607475025,45.72064985269141,1345],[7.203496443751241,45.72075617337886,1349],[7.203290619224511,45.72083844053182,1354],[7.2031701989140515,45.72089955033629,1358],[7.2030203559207955,45.721014200711096,1362],[7.202754057728572,45.72115402113103,1367],[7.202541515876689,45.721293955194,1371],[7.202434842378139,45.72140075340542,1375],[7.202374411433785,45.72152205386693,1380],[7.202332642030971,45.72167464249299,1384],[7.202287763597765,45.721920686714626,1389],[7.202385007853213,45.722287178174085,1393],[7.202550008029932,45.722252177695964,1397],[7.20236157178811,45.72319993372037,1402],[7.2023087391612926,45.72330710935693,1406],[7.202321714423656,45.72336581838058,1410],[7.202347130354173,45.72342472141137,1415],[7.20246028905751,45.723552510795756,1419],[7.2025467164073165,45.72361237488637,1424],[7.203001818104171,45.72375904729326,1428],[7.2032971086689495,45.72383931054255,1432],[7.203246817363903,45.72391836640648,1437],[7.202415603764621,45.72401884588864,1441],[7.202759008137359,45.724603179412384,1445],[7.201749007829814,45.72479317948187,1450],[7.2019590076923405,45.725173180452416,1454],[7.200779007761021,45.725093179607626,1458],[7.200869008484338,45.725543179912755,1463],[7.201979008047955,45.726333180723024,1467],[7.201549008162065,45.726703180918065,1472],[7.201564863665011,45.72672200331054,1476],[7.202062008127652,45.72731218141865,1480],[7.202482008546523,45.72777618168557,1485],[7.201866682356446,45.72802763463999,1489],[7.201765008643007,45.72806918273335,1493],[7.201449249165208,45.72815215653774,1498],[7.20121700834545,45.728213182821015,1502],[7.2004030087234066,45.72812418263711,1506],[7.198610008618143,45.728057182449064,1511],[7.198374007921805,45.728625183047406,1515],[7.19766600771876,45.72865218247954,1520],[7.196732008789949,45.72894218280677,1524],[7.195784702802915,45.72929809352568,1528],[7.195616973165909,45.72918722969363,1533],[7.195656069165257,45.72894854679156,1537],[7.1954913594382495,45.72879583721804,1541],[7.195178510578443,45.728709345901294,1546],[7.1948999694833535,45.72888610525009,1550],[7.194709783858682,45.728960030055944,1554],[7.194399977649768,45.72893281849995,1559],[7.19410682133969,45.728977795799224,1563],[7.1937747176298465,45.728942336467036,1568],[7.193621398149668,45.72897117526418,1572],[7.193520814105547,45.72903830933111,1576],[7.193443059659783,45.72908666915477,1581],[7.193385762935105,45.729145054262084,1585],[7.193347078532357,45.72917516677457,1589],[7.193275073307911,45.729212298280096,1594],[7.19322418485257,45.729238982883814,1598],[7.1931729104562585,45.72925380397911,1603],[7.193143444175724,45.72926061390677,1607],[7.193061199162922,45.72923640445833,1611],[7.193012103763082,45.72922538685203,1616],[7.192954005333554,45.729213147611574,1620],[7.192890023890306,45.72920432009028,1624],[7.192847295729862,45.729204722301276,1629],[7.192799271519864,45.7292142033002,1633],[7.19275659721041,45.72922484720326,1637],[7.192686425874604,45.729252843852734,1642],[7.192552267854874,45.72935283258331,1646],[7.192318378460973,45.72948117780224,1651],[7.192054374175285,45.72956096557924,1655],[7.191826010856163,45.7295701250183,1659],[7.191750816437267,45.72958310238632,1664],[7.191738303317506,45.72960167501062,1668]]}}]}