{"type":"FeatureCollection","features":[{"type":"Feature","properties":{"slug":"63-s3","sct_code":"63_S3","source":"Catasto Sentieri VdA"},"geometry":{"type":"LineString","coordinates":[[7.209860789516001,45.73532000744457,821],[7.20993919177418,45.73530429445151,824],[7.210009008211291,45.73525318796878,827],[7.21003900799451,45.73518318806965,830],[7.210169008167849,45.735083187539615,833],[7.2101890084644245,45.73502318805686,835],[7.210269008195189,45.734943188011485,838],[7.210429007595973,45.73489318746418,841],[7.210769008339381,45.73483318800414,844],[7.211219008119501,45.73483318730254,847],[7.211439008350241,45.734863187939304,850],[7.211519008099747,45.73488318798459,853],[7.211619008109097,45.7349331877586,856],[7.2118790075616985,45.734963187406045,859],[7.212059008303627,45.735003187606225,861],[7.212289008465492,45.73499318794756,864],[7.212429008322038,45.73500318806003,867],[7.212689008021298,45.73508318769638,870],[7.212759007679626,45.735063187509034,873],[7.212829007643989,45.73499318815246,876],[7.212839008638184,45.73495318764608,879],[7.212779008017653,45.734733187220336,882],[7.212789007571408,45.734583186979044,885],[7.2127590083114335,45.73437318759601,887],[7.212779007945907,45.734243187412766,890],[7.21281900800955,45.73418318719451,893],[7.212949007911999,45.734103187279246,896],[7.213019008313724,45.7340131867078,899],[7.213079008589583,45.73398318683613,902],[7.213309008159591,45.73392318687538,905],[7.213429007886058,45.733933187017584,908],[7.213609007965791,45.73389318668868,911],[7.214429007571488,45.73274318576952,913],[7.214589008648169,45.73233318570907,916],[7.214619008727388,45.73211318532687,919],[7.2146490086531765,45.73205318563983,922],[7.214629007820755,45.732003185262094,925],[7.214519008706615,45.73188318544179,928],[7.214459008100471,45.73172318550243,931],[7.21451900777923,45.73162318549676,934],[7.214519008036944,45.731433184921656,937],[7.2145790085574,45.7313231852415,939],[7.214759007784081,45.73110318483966,942],[7.214889008115519,45.730833184793866,945],[7.21500900876747,45.73078318448356,948],[7.2150790086739836,45.730633184682404,951],[7.215149007668014,45.730553184192054,954],[7.215209008056351,45.73051318443669,957],[7.215279008748745,45.73039318437913,960],[7.21532900863165,45.73034318434855,963],[7.2153890082428385,45.730103184215,965],[7.215419007826848,45.73006318361003,968],[7.215501619279421,45.73000687869958,971],[7.215509008222891,45.729983183987734,974],[7.215669007919775,45.73006318417465,977],[7.21597900804219,45.730403184353754,980],[7.216069007874353,45.73045318427639,983],[7.216222432035122,45.7305732622993,986],[7.216309007819983,45.730643184458934,989],[7.216348494834098,45.73064002177265,991],[7.216449008713463,45.73060318410825,994],[7.2164390085031105,45.730563184146256,997],[7.2163490081580255,45.73051318450863,1000],[7.216299007786482,45.730523184565016,1003],[7.216299008162837,45.730493183812115,1006],[7.2163890077451045,45.73048318376016,1009],[7.216569008518022,45.730583184702766,1012],[7.216619008548823,45.73056318397002,1015],[7.216639008623713,45.73052318442279,1018],[7.216629008670574,45.730493184133934,1020],[7.216589008704347,45.73047318399591,1023],[7.21654900818712,45.73047318404115,1026],[7.216479007797806,45.73041318392664,1029],[7.2164590086917135,45.73033318402487,1032],[7.216419008240443,45.73029318361263,1035],[7.216399008575355,45.73019318438328,1038],[7.216409008293833,45.73014318386284,1041],[7.216584007751681,45.730091183960006,1044],[7.216579008479683,45.72990318351428,1046],[7.2165990079826825,45.72985318340715,1049],[7.216649008449983,45.729863183428044,1052],[7.216695007699463,45.729841183265314,1055],[7.216669008768372,45.72980318366717,1058],[7.216829008090296,45.72978318388466,1061],[7.216939008592405,45.72979318354736,1064],[7.216979008599742,45.729763183495955,1067],[7.217169008499937,45.72973318389055,1070],[7.217249007967659,45.72964318374113,1072],[7.21737900797934,45.72962318386285,1075],[7.2174790084637985,45.72956318325962,1078],[7.2175890077253735,45.729533183660216,1081],[7.217639008790651,45.72946318332276,1084],[7.217699007924595,45.729453182997545,1087],[7.217749008750785,45.72938318350747,1090],[7.217739008527914,45.729333183097374,1093],[7.2177690085350905,45.729293183678124,1096],[7.217969008143804,45.729313183140206,1098],[7.218059008747725,45.72929318303268,1101],[7.218309008573586,45.729283183559296,1104],[7.218449007515047,45.72919318334682,1107],[7.218549008789129,45.72915318292548,1110],[7.218609008697263,45.72914318303394,1113],[7.218639007808662,45.72915318344536,1116],[7.218709008251517,45.729083183135806,1119],[7.218979007803121,45.72897318343916,1122],[7.219149007904512,45.72886318284629,1124],[7.219409008550207,45.72890318306336,1127],[7.2196190081438125,45.72886318279361,1130],[7.220039007891363,45.72873318282784,1133],[7.220089008275374,45.72864318298984,1136],[7.220049008132956,45.72841318228855,1139],[7.219999008103288,45.72828318249065,1142],[7.219999007649455,45.72821318219153,1145],[7.220079008006428,45.72812318275598,1148],[7.220109008105772,45.72804318229202,1150],[7.220209007638856,45.7279931825281,1153],[7.2202890087401945,45.72800318221859,1156],[7.220438008144963,45.7278831822206,1159],[7.220558007998679,45.727753182396285,1162],[7.220628008629937,45.727723182227564,1165],[7.2207080084673025,45.72771318229195,1168],[7.220838008113566,45.72750318228518,1171],[7.220968008353124,45.72737318209193,1174],[7.221128008370466,45.72733318147851,1176],[7.221398007645555,45.72718318190522,1179],[7.2214980082958995,45.72715318123971,1182],[7.221628008666527,45.727133181925566,1185],[7.221848008701915,45.72714318123817,1188],[7.221918007865472,45.72711318115375,1191],[7.221958008589337,45.727123181589704,1194],[7.222048007789329,45.727063181481604,1197],[7.222093007532386,45.726978181035626,1200],[7.222260007900728,45.7268661813605,1202],[7.222318113532604,45.726775769344854,1205],[7.221978008498246,45.72683318154152,1208],[7.222068007914752,45.72653318152027,1211],[7.22156800863818,45.72635318070701,1214],[7.220942008515717,45.726383180889435,1217],[7.220826008194549,45.72642718067637,1220],[7.220690007881326,45.726444181116165,1223],[7.220488007941446,45.72645318125209,1226],[7.220258007852287,45.72643318134179,1228],[7.2198500220497355,45.726526067340544,1231],[7.219328008477049,45.72660318095727,1234],[7.218889007988021,45.726773181290056,1237],[7.2187890086861035,45.726763181059326,1240],[7.218629007930659,45.72667318102486,1243],[7.218591007900816,45.7265821809878,1246],[7.2186200084832075,45.72650718133571,1249],[7.218809008052486,45.726423181434264,1252],[7.2190280076365765,45.726293180756485,1254],[7.219178007931357,45.72613318044023,1257],[7.219458007693448,45.7259031802654,1260],[7.21957800765543,45.72578318019353,1263],[7.219728007744882,45.725693180361674,1266],[7.219938008047076,45.725603180303956,1269],[7.220078008654269,45.72548317999472,1272],[7.220128008263845,45.72530318043805,1275],[7.220103303259599,45.72528588692566,1278],[7.220028007912212,45.7252331797078,1280],[7.2200080086139655,45.72508318003471,1283],[7.219898008047231,45.725023179608954,1286],[7.219778007905607,45.72502317959446,1289],[7.219428008150436,45.724983180347074,1292],[7.219398007800279,45.724893180124795,1295],[7.219268007845368,45.72482317995649,1298],[7.219098007892755,45.724783179567524,1301],[7.218928008492565,45.72476318005703,1304],[7.218698007675048,45.72480317945137,1306],[7.2184180087180545,45.7248131798602,1309],[7.218338008199213,45.72483317964379,1312],[7.218138007618613,45.724773179440156,1315],[7.2180980078062795,45.72470317970338,1318],[7.218148007572832,45.72463317997278,1321],[7.218358007710215,45.72445317954556,1324],[7.218348007944803,45.724443179605764,1327],[7.218438008704804,45.72432317896864,1330],[7.218588008245787,45.72420317891914,1332],[7.218648007784959,45.72402317933065,1335],[7.218688008065878,45.72396317877203,1338],[7.218893530293609,45.72386844666433,1341],[7.219028008073962,45.72375317860552,1344],[7.2191580078320285,45.72367317870916,1347],[7.219158008226139,45.72360317927133,1350],[7.219078007767953,45.72346317865937,1353],[7.219118008437558,45.72337317896001,1356],[7.2190980082839245,45.723193178275146,1358],[7.219118008534565,45.72310317813155,1361],[7.219269019702571,45.72294860724299,1364],[7.219298007555322,45.72291317830886,1367],[7.21924800866322,45.72278317808141,1370],[7.219118007716536,45.72273317792941,1373],[7.219108007693396,45.722703177819525,1376],[7.2191980083265594,45.72269317826652,1379],[7.219358007573732,45.72272317775556,1382],[7.219388007792165,45.72275317822968,1384],[7.219448007813532,45.72272317856425,1387],[7.219528007534481,45.722593178071584,1390],[7.219488008552054,45.722493178015206,1393],[7.219388007689734,45.72238317801946,1396],[7.219408007902369,45.72227317758234,1399],[7.219288007703789,45.72216317802524,1402],[7.219348008311756,45.72210317762165,1405],[7.219338008641552,45.72206317786853,1408],[7.219678008551152,45.72197317800464,1411],[7.21998800828409,45.721863177381536,1413],[7.220078007887358,45.72178317765507,1416],[7.220088008757863,45.721743177333465,1419],[7.220048007525431,45.721563177392696,1422],[7.22005900839489,45.721481176955386,1425],[7.219986243218788,45.721432187650464,1428],[7.219958008050376,45.721413177566674,1431],[7.220188008323973,45.721253176910544,1434],[7.220348008169491,45.721203176794205,1437],[7.220478007710054,45.72112317716457,1439],[7.2200480076341025,45.72100317713961,1442],[7.2198480083588485,45.72099317644506,1445],[7.219688008634782,45.721003177194035,1448],[7.219538008350715,45.720983177085536,1451],[7.219468008605526,45.72092317691732,1454],[7.2196280078330775,45.72084317699481,1457],[7.219798007965626,45.720793176920616,1460],[7.219848007679073,45.72079317678061,1463],[7.220028008148624,45.72070317694752,1465],[7.220298007538092,45.72067317675827,1468],[7.2202680081059345,45.720633176857206,1471],[7.220128007676515,45.72058317682912,1474],[7.219788008030007,45.720543176064574,1477],[7.219498008047973,45.72047317619432,1480],[7.219268007991009,45.720463176621,1483],[7.219008007828007,45.72051317662419,1486],[7.2188524853913645,45.720506262783026,1489],[7.218768522518591,45.720486790150666,1491],[7.218369061637715,45.72060949054843,1494],[7.218374798947107,45.72054777831426,1497],[7.218438324848926,45.72049476562853,1500],[7.218648658261235,45.72042154119866,1503],[7.219098355155673,45.72020803842039,1506],[7.219233434098391,45.72016514247409,1509],[7.2195119656510816,45.72010648064577,1512],[7.219312273506582,45.72009989862502,1515],[7.2191510080310115,45.7200761761319,1517],[7.218764179704891,45.720074484051075,1520],[7.218581008499695,45.720048176166685,1523],[7.2181280079801855,45.720033175686616,1526],[7.217858008595052,45.720073175814136,1529],[7.217938008119151,45.72000317619462,1532],[7.218208007780233,45.71968317613306,1535],[7.218348007572581,45.71960317560819,1538],[7.21854800754832,45.719523175618036,1541],[7.218658008577187,45.71943317606253,1543],[7.218908007706463,45.71908317568895,1546],[7.219028008381287,45.71901317534054,1549],[7.219478008517899,45.7188531753466,1552],[7.219728008109462,45.718743175169266,1555],[7.219858008533122,45.71873317482995,1558],[7.2199180083271814,45.71868317465576,1561],[7.219948008318937,45.71840317438674,1564],[7.2201171898559515,45.7183296703875,1567],[7.220222754342119,45.71819180516095,1569],[7.220238256833336,45.71813354370193,1572],[7.219794817476201,45.71764510046162,1575],[7.21958745305268,45.717415214006245,1578],[7.219487915495592,45.71738379921636,1581]]}}]}