{"type":"FeatureCollection","features":[{"type":"Feature","properties":{"slug":"63-s7","sct_code":"63_S7","source":"Catasto Sentieri VdA"},"geometry":{"type":"LineString","coordinates":[[7.192478592378861,45.731084090478966,1581],[7.193215046571216,45.73106969892879,1582],[7.194759841030347,45.73145589660204,1583],[7.194963237908602,45.73153417887118,1584],[7.195184506692845,45.731632316770195,1585],[7.195298862896353,45.73168303657065,1586],[7.195501240475028,45.73182081546128,1587],[7.195786334861522,45.73206482773016,1588],[7.195894051185149,45.73224129995953,1589],[7.195970505228638,45.73236655458405,1590],[7.196127034761613,45.73244681535671,1591],[7.196135719705254,45.732448713939164,1592],[7.196339007751689,45.73262318579616,1593],[7.196345060446128,45.73278510113178,1594],[7.196371915432763,45.73285995107006,1595],[7.196386839180438,45.732986299358316,1596],[7.196356144092837,45.73308159167436,1597],[7.196251856844824,45.733405353742754,1598],[7.196301752867676,45.73354398659409,1599],[7.196453923160735,45.73392251776245,1600],[7.1965385575104905,45.73402254739636,1601],[7.196772334768849,45.734237082628596,1602],[7.196891990649358,45.734386370674606,1602],[7.196920135756411,45.73453549565145,1603],[7.196882560916216,45.73473613391927,1604],[7.19685615338345,45.73487414419784,1605],[7.196842346204539,45.73501876091091,1606],[7.196838345555337,45.73514302551067,1607],[7.196879358261783,45.735226949087625,1608],[7.196933313309419,45.735320121651476,1609],[7.197025287317339,45.735419625926916,1610],[7.196963774311271,45.735738446481726,1611],[7.196852032662337,45.73605390975627,1612],[7.19691090464508,45.73644256263635,1613],[7.196921759991171,45.736617048267405,1614],[7.196768699486043,45.73675508231059,1615],[7.196729007551173,45.73730318954968,1616],[7.196776206717631,45.73747094500531,1617],[7.196841904034823,45.737502641790506,1618],[7.19689156124585,45.737526598631646,1619],[7.19701870689156,45.73767087797178,1620],[7.196982131634156,45.73775037425167,1621],[7.196926204372837,45.737871930744795,1622],[7.197035837359782,45.73790634523543,1623],[7.19715193537455,45.73793893914531,1624],[7.197537409622573,45.7379052900264,1625],[7.197541621874263,45.73790089401391,1626],[7.197559008437183,45.737903189924786,1627],[7.198721007820687,45.73726318956067,1628],[7.199283957510245,45.73711187049677,1629],[7.199810483223549,45.73700419621945,1630],[7.2000713155468885,45.73703265987621,1631],[7.200195225325576,45.737049992709885,1632],[7.201027599856361,45.73695031459146,1633],[7.201218524477351,45.73693281381464,1634],[7.2014920835077865,45.73684996466819,1635],[7.20187981031969,45.73674584021028,1636],[7.201984494462754,45.73673384785455,1637],[7.201950627353748,45.73659147005099,1638],[7.20208344690579,45.73640728308644,1639],[7.202156427882335,45.736319565556826,1640],[7.202290395740873,45.736251606524455,1641],[7.202429120523263,45.736198056526874,1642],[7.20246431215537,45.73612811603165,1643],[7.202423707728945,45.736033033884574,1644],[7.202416266242525,45.73599873705812,1645],[7.202434980072441,45.73595846596504,1645],[7.202480422730895,45.73591132956013,1646],[7.202498983997789,45.735846254052106,1647],[7.2025015869373386,45.7357736414208,1648],[7.202501587467578,45.73565956715418,1649],[7.202571717257872,45.735519062867155,1650],[7.202661431400188,45.735483922420606,1651],[7.202829952819729,45.73544678805223,1652],[7.202913243686094,45.73543877579876,1653],[7.203129617654183,45.73541267706702,1654],[7.203327908713217,45.73539357944266,1655],[7.20349985997584,45.73535868698032,1656],[7.203662437508823,45.7353116841583,1657],[7.203908826338344,45.73523865534302,1658],[7.204039036704337,45.73521164991575,1659],[7.204243519010031,45.73515163330013,1660],[7.204477982395503,45.73506987060282,1661],[7.204770662590923,45.73498723407326,1662],[7.2048935389726925,45.73501060746397,1663],[7.205152655079928,45.734959137978095,1664],[7.205257438530364,45.73524960065319,1665],[7.205340262938904,45.73525432052333,1666],[7.2054127243026125,45.73520162570248,1667],[7.205539216965709,45.735166870952945,1668],[7.205705713845652,45.735149833033525,1669],[7.2058369781655625,45.7351279697448,1670],[7.206039991259743,45.73510424238215,1671],[7.20618510869743,45.735068924396664,1672],[7.2063572214352805,45.7350289025344,1673],[7.20637041830364,45.73503594572067,1674],[7.206318663803894,45.73508982049644,1675],[7.206047544483046,45.73526842183188,1676],[7.2058887525067,45.73534966722437,1677],[7.20573483794917,45.73543098901732,1678],[7.205658115889197,45.735502415719594,1679],[7.2056319977403485,45.73554026506837,1680],[7.205646951186216,45.73557476430704,1681],[7.2057172696051754,45.73555803165573,1682],[7.205726516400808,45.73557696113359,1683],[7.205751412708345,45.735632657215945,1684],[7.205785192075715,45.73568321219621,1685],[7.205869778724864,45.73573854713271,1686],[7.2059758128610225,45.73577621232933,1687],[7.206076549948786,45.73579129727596,1688],[7.206256851573617,45.73581700042341,1688],[7.2065450178763575,45.73579902334348,1689],[7.206697347518806,45.73578341312392,1690],[7.206779016080008,45.73576669511763,1691],[7.2069271014726795,45.735733017692546,1692],[7.207071054382386,45.73569456249998,1693],[7.207156486970923,45.73567026901737,1694],[7.20734358785101,45.73567192411674,1695],[7.207770007785308,45.73564118814708,1696],[7.208281008557497,45.735757188144255,1697],[7.208873331616373,45.73606850289755,1698],[7.208911737289375,45.735856488950574,1699],[7.209050544906042,45.7358675257758,1700],[7.209114524256324,45.73564705348695,1701],[7.209134623639227,45.73561193425364,1702],[7.2092038837451256,45.73562187768501,1703],[7.209290180779859,45.73549477711899,1704],[7.209466213722477,45.73552854209696,1705],[7.209609359860063,45.73560165936258,1706],[7.209666685172881,45.735589268597636,1707],[7.209830259777822,45.73541908436819,1708],[7.209860789516001,45.73532000744457,1709]]}}]}