{"type":"FeatureCollection","features":[{"type":"Feature","properties":{"slug":"63-s6","sct_code":"63_S6","source":"Catasto Sentieri VdA"},"geometry":{"type":"LineString","coordinates":[[7.201769724512267,45.73751055593292,1581],[7.201861357465758,45.73744891712567,1583],[7.20211434723591,45.737174242726354,1585],[7.202150719709679,45.737029553107625,1586],[7.201984494462754,45.73673384785455,1588],[7.201950627353748,45.73659147005099,1590],[7.20208344690579,45.73640728308644,1592],[7.202156427882335,45.736319565556826,1594],[7.202290395740873,45.736251606524455,1595],[7.202429120523263,45.736198056526874,1597],[7.20246431215537,45.73612811603165,1599],[7.202423707728945,45.736033033884574,1601],[7.202416266242525,45.73599873705812,1603],[7.202434980072441,45.73595846596504,1605],[7.202480422730895,45.73591132956013,1606],[7.202498983997789,45.735846254052106,1608],[7.2025015869373386,45.7357736414208,1610],[7.202501587467578,45.73565956715418,1612],[7.202571717257872,45.735519062867155,1614],[7.202661431400188,45.735483922420606,1615],[7.202829952819729,45.73544678805223,1617],[7.202913243686094,45.73543877579876,1619],[7.203129617654183,45.73541267706702,1621],[7.203327908713217,45.73539357944266,1623],[7.20349985997584,45.73535868698032,1624],[7.203662437508823,45.7353116841583,1626],[7.203908826338344,45.73523865534302,1628],[7.204039036704337,45.73521164991575,1630],[7.204243519010031,45.73515163330013,1632],[7.204477982395503,45.73506987060282,1633],[7.204770662590923,45.73498723407326,1635],[7.2048935389726925,45.73501060746397,1637],[7.205152655079928,45.734959137978095,1639],[7.205257438530364,45.73524960065319,1641],[7.205340262938904,45.73525432052333,1642],[7.2054127243026125,45.73520162570248,1644],[7.205539216965709,45.735166870952945,1646],[7.205705713845652,45.735149833033525,1648],[7.2058369781655625,45.7351279697448,1650],[7.206039991259743,45.73510424238215,1652],[7.20618510869743,45.735068924396664,1653],[7.2063572214352805,45.7350289025344,1655],[7.20637041830364,45.73503594572067,1657],[7.206318663803894,45.73508982049644,1659],[7.206047544483046,45.73526842183188,1661],[7.2058887525067,45.73534966722437,1662],[7.20573483794917,45.73543098901732,1664],[7.205658115889197,45.735502415719594,1666],[7.2056319977403485,45.73554026506837,1668],[7.205646951186216,45.73557476430704,1670],[7.2057172696051754,45.73555803165573,1671],[7.205726516400808,45.73557696113359,1673],[7.205751412708345,45.735632657215945,1675],[7.205785192075715,45.73568321219621,1677],[7.205869778724864,45.73573854713271,1679],[7.2059758128610225,45.73577621232933,1680],[7.206076549948786,45.73579129727596,1682],[7.206256851573617,45.73581700042341,1684],[7.2065450178763575,45.73579902334348,1686],[7.206697347518806,45.73578341312392,1688],[7.206779016080008,45.73576669511763,1689],[7.2069271014726795,45.735733017692546,1691],[7.207071054382386,45.73569456249998,1693],[7.207156486970923,45.73567026901737,1695],[7.20734358785101,45.73567192411674,1697],[7.207770007785308,45.73564118814708,1699],[7.208281008557497,45.735757188144255,1700],[7.208873331616373,45.73606850289755,1702],[7.208911737289375,45.735856488950574,1704],[7.209050544906042,45.7358675257758,1706],[7.209114524256324,45.73564705348695,1708],[7.209134623639227,45.73561193425364,1709],[7.2092038837451256,45.73562187768501,1711],[7.209290180779859,45.73549477711899,1713],[7.209466213722477,45.73552854209696,1715],[7.209609359860063,45.73560165936258,1717],[7.209666685172881,45.735589268597636,1718],[7.209830259777822,45.73541908436819,1720],[7.209860789516001,45.73532000744457,1722]]}}]}