{"type":"FeatureCollection","features":[{"type":"Feature","properties":{"slug":"63-s10","sct_code":"63_S10","source":"Catasto Sentieri VdA"},"geometry":{"type":"LineString","coordinates":[[7.1921615753496715,45.73048786744448,1678],[7.1922833692239045,45.73079581526909,1680],[7.192258401997479,45.73084331133862,1682],[7.19228954369357,45.73091639579352,1685],[7.192478592378861,45.731084090478966,1687],[7.192826291014811,45.731201498667545,1689],[7.193313283079056,45.73139648921559,1691],[7.19396127363342,45.731613477490804,1694],[7.194108272215814,45.73173547367345,1696],[7.194165272829915,45.73181247129729,1698],[7.194243274192758,45.7319874663043,1700],[7.194309284680563,45.73250645235509,1703],[7.1944202879528945,45.732838444171946,1705],[7.194691472536495,45.73339316899565,1707],[7.194305428118505,45.733539226711606,1709],[7.1938580085087445,45.733736186549244,1712],[7.193089007917919,45.73395218722993,1714],[7.192589007740473,45.734287187461426,1716],[7.192143008134302,45.734623187866475,1718],[7.191640008784373,45.73503518774279,1721],[7.191034008373964,45.735254188150776,1723],[7.190592007608689,45.735475187731346,1725],[7.19026200811343,45.735584188444314,1727],[7.189985007987731,45.73573218789627,1730],[7.1898690078475065,45.73595918845272,1732],[7.189482008377829,45.73614318904186,1734],[7.189470007764705,45.736524188782674,1736],[7.188859007662359,45.73689618925391,1739],[7.188511007620801,45.73757618974657,1741],[7.188444007964554,45.737956190070754,1743],[7.187097008165126,45.73755319005957,1745],[7.185906007696063,45.73734418977064,1748],[7.1856280079961286,45.737530189303044,1750],[7.185649008283064,45.73876319110495,1752],[7.18646900809511,45.739423191148845,1754],[7.186339008575591,45.739923191763786,1757],[7.185606919195749,45.74086417278612,1759],[7.185887529923717,45.740931634199114,1761],[7.186065358970267,45.740997462612505,1763],[7.186151505353629,45.74111583822863,1766],[7.1861345778793,45.741241577467605,1768],[7.185984508625961,45.741509211371245,1770],[7.185962043334281,45.7418058735549,1772],[7.185972268386582,45.74188704113215,1775],[7.186008480934506,45.7419596208753,1777],[7.186078125055419,45.74199222897193,1779],[7.186212300823596,45.742016861261625,1781],[7.186325310673379,45.74209966102811,1784],[7.186440943139422,45.74210149715213,1786],[7.186570589043125,45.74206755335662,1788],[7.186777031718629,45.74204382920283,1790],[7.1869954484452165,45.74204729647204,1793],[7.187380016186281,45.74208040202361,1795],[7.187776559036783,45.74214069800943,1797],[7.188381291679762,45.74212328982991,1799],[7.188930558256025,45.74223100699547,1802],[7.189084735463602,45.7422334516246,1804],[7.189304025925025,45.742209926606016,1806],[7.189808882549916,45.74210092170457,1808],[7.190143223347263,45.74209721959181,1811],[7.190187755476666,45.74211142610171,1813],[7.190204846899914,45.74217920123166,1815],[7.190097991239102,45.742303516039904,1817],[7.189850677888406,45.74239860305569,1820],[7.189798121998418,45.74243377240295,1822],[7.1896898107077245,45.74260306662321,1824],[7.189636963666827,45.7426472318542,1826],[7.18959492870664,45.742754572455766,1829],[7.189603995712463,45.74287172362859,1831],[7.18949713736563,45.74299603782017,1833],[7.1894545200758815,45.74312137027955,1835],[7.189320218756789,45.74329925270737,1837],[7.189009117246846,45.74357783835998,1840],[7.188713771261451,45.74376666729462,1842],[7.188646618741123,45.74385560805594,1844],[7.188645454629494,45.74389159188205,1846],[7.188650860272978,45.74392317961241,1849],[7.188694520381477,45.74396437458607,1851],[7.1887327748544045,45.743973981817156,1853],[7.189014568939084,45.74400545197371,1855],[7.189349502927895,45.74398376044038,1858],[7.189607927424639,45.743942854078846,1860],[7.189889721911577,45.74397432208109,1862],[7.19041680153907,45.74397367356287,1864],[7.190481625559447,45.7439566994468,1867],[7.190717549833274,45.743816427810636,1869],[7.191029401032633,45.743713360546,1871],[7.19124927782349,45.743671839934436,1873],[7.191634731288605,45.74367794344293,1876],[7.192205872337908,45.74350697341148,1878],[7.192451444326299,45.74346585718295,1880],[7.192880087361709,45.74332863083349,1882],[7.1930731033825674,45.74332268400231,1885],[7.193377110590278,45.743462501673974,1887],[7.193697740554191,45.74348557398574,1889],[7.1937228569800284,45.74350397233946,1891],[7.193721696143926,45.74353995626864,1894],[7.193574558710677,45.743717640681474,1896],[7.193410217869681,45.744030061357876,1898],[7.193085304738542,45.74453795416284,1900],[7.192911303788334,45.744751214987616,1903],[7.192667540252534,45.74513438247519,1905],[7.192295062739094,45.74592053792368,1907],[7.192289543925921,45.746091461378,1909],[7.192310594550457,45.74623580363973,1912],[7.19246630498889,45.74658929010508,1914],[7.192557480868284,45.74695075567613,1916],[7.192525392849867,45.74714826035887,1918],[7.192557841512671,45.74733778575723,1921],[7.1927526853269015,45.747673889904895,1923],[7.1928274584231895,45.74774707754833,1925],[7.192915661887953,45.74780247650134,1927],[7.193094101821941,45.747850302403286,1930],[7.193388767563933,45.7478819653545,1932],[7.193554358736174,45.7479295872999,1934],[7.193665940019166,45.74805735993651,1936],[7.193742043803712,45.74811222846812,1939],[7.19381633751049,45.74821356164386,1941],[7.193853975678512,45.74827570090204,1943],[7.193842134159506,45.7483756719339,1945],[7.193865591250466,45.748396556958056,1948],[7.193940291491385,45.748378430179734,1950],[7.194072479945775,45.74820779771076,1952],[7.194131028207464,45.748186222018646,1954],[7.19423073648754,45.748084291961284,1957],[7.194418463079216,45.74784424451896,1959],[7.194721542308866,45.74761502062744,1961],[7.194895545683875,45.74740175717648,1963],[7.195053218044572,45.747296242174144,1966],[7.195092346015076,45.74727885937103,1968],[7.1951563025076775,45.747288870596925,1970],[7.19505620620434,45.74760230864294,1972],[7.195053015799676,45.74770126444913,1975],[7.195115522626326,45.74775625561629,1977],[7.195231457342302,45.74774908703476,1979],[7.195546802228755,45.74753805589667,1981],[7.195771039843009,45.747361586995105,1984],[7.195809877732054,45.74735319993016,1986],[7.195852660995939,45.74737333856319,1988]]}}]}