{"type":"FeatureCollection","features":[{"type":"Feature","properties":{"slug":"64-s15","sct_code":"64_S15","source":"Catasto Sentieri VdA"},"geometry":{"type":"LineString","coordinates":[[7.185455011756348,45.835002590044006,1640],[7.185160582844532,45.835164147089124,1646],[7.185108450601257,45.835233070425666,1653],[7.185043706869959,45.835497965193156,1659],[7.184934052823125,45.83580138192057,1665],[7.184870979275236,45.83615886724536,1671],[7.184881008351604,45.83658127239861,1678],[7.183462008253965,45.83869027459906,1684],[7.182228849342636,45.839929640084016,1690],[7.182295470099558,45.83993242832967,1696],[7.182510297488414,45.83987451412342,1703],[7.182251153030307,45.84010890208438,1709],[7.18199946199454,45.840460413739606,1715],[7.181592030712749,45.84088595026059,1721],[7.18148027696252,45.841055178533566,1728],[7.181258397950261,45.84157817136905,1734],[7.1810231236827065,45.84267247701608,1740],[7.181046114253522,45.8427943507578,1746],[7.181031190256606,45.84285711613335,1753],[7.180763500876279,45.84316786822481,1759],[7.180186309887061,45.84349169013125,1765],[7.17993676614721,45.843640721584386,1772],[7.179011402823723,45.844373009146366,1778],[7.178968050098007,45.84438341014877,1784],[7.1788273843157455,45.84448708100906,1790],[7.178096830523466,45.84516846426476,1797],[7.178041230991596,45.84529358346109,1803],[7.177897291671285,45.84536329093337,1809],[7.177817710781708,45.84543402490178,1815],[7.177629278764688,45.845683030846075,1822],[7.177462474626783,45.846058387549036,1828],[7.177151431040638,45.84651244614923,1834],[7.177071847536889,45.846583179545405,1840],[7.1769671076739785,45.846635510546655,1847],[7.17660228071025,45.84676469386393,1853],[7.176419131491575,45.846851774407384,1859],[7.17613006403009,45.847027167782,1865],[7.175945736724997,45.84715023046084,1872],[7.175375758622038,45.847645151181695,1878],[7.175239974265369,45.84785899236644,1884],[7.175180245901028,45.84811005012692,1891],[7.175081899724646,45.848360490889874,1897],[7.175014889072934,45.84844042412608,1903],[7.174711464754011,45.848660586624,1909],[7.174396048686312,45.848853555382775,1916],[7.174013911975786,45.84911746011951,1922],[7.173648473018922,45.84926462503185,1928],[7.17349311806484,45.84928914227883,1934],[7.173171891894251,45.84926600456035,1941],[7.172913555847553,45.84928887401117,1947],[7.17196200825182,45.8494102844754,1953],[7.171232008453811,45.84969028447399,1959],[7.171432008682848,45.84982028424052,1966],[7.1705720082364435,45.85017028506421,1972],[7.170722008548057,45.850270285201795,1978],[7.171662007945512,45.85017028504922,1984],[7.171992008732185,45.850340285126734,1991],[7.172162007788355,45.85051028468071,1997],[7.171492008145822,45.85068028558444,2003],[7.172032008224002,45.85102028522295,2010],[7.171882007714377,45.85120028544447,2016],[7.17087200824869,45.85124028576155,2022],[7.168212008020472,45.85210028646658,2028],[7.167802007983299,45.8523802869668,2035],[7.167462007947491,45.85285028732056,2041],[7.166942008652736,45.85308028760887,2047],[7.165682008697191,45.85405028801334,2053],[7.164995827209249,45.85426986671296,2060],[7.164932008601175,45.854290288585396,2066],[7.164242007979414,45.85469028857844,2072],[7.163722007951436,45.85521028919717,2078],[7.163362008684223,45.8558102898073,2085],[7.162842296143902,45.85748872896913,2091],[7.162532846501669,45.85788877023608,2097],[7.162225467515413,45.85822584106522,2104],[7.162183879147201,45.85831517609069,2110],[7.162172613622593,45.85865701052518,2116],[7.162115778317935,45.85881810350957,2122],[7.162135894818444,45.858989435004354,2129],[7.162182946920292,45.85912519821179,2135],[7.162192560601659,45.85922435741501,2141],[7.162164142706072,45.859304903905304,2147],[7.1621105679600365,45.85936704480454,2154],[7.161992618727573,45.85942814987245,2160],[7.161525861059839,45.85951964303512,2166],[7.161433660685149,45.859581161941655,2172],[7.161380084860582,45.85964330247897,2179],[7.1612865213559385,45.86013681904663,2185],[7.16121562025438,45.86033368677555,2191],[7.1612085009615765,45.86054958201674,2197],[7.16116512924453,45.860692890393004,2204],[7.161030444274104,45.860870730372675,2210],[7.160845740989557,45.86100276282781,2216],[7.160754130812763,45.86104628985787,2223],[7.160700552781974,45.861108430028374,2229],[7.160616476241877,45.86131408561693,2235],[7.160538066686809,45.861762842525316,2241],[7.160742008309699,45.86229029583425,2248],[7.160253007717256,45.86270029655847,2254],[7.159603008211537,45.86287029672451,2260],[7.159503007710715,45.8634302964944,2266],[7.158923008508256,45.86356029686992,2273],[7.158923007965705,45.86392029689255,2279],[7.158573008367175,45.86392029762569,2285],[7.158230507388258,45.864383114626676,2291],[7.157420007577226,45.865478298576015,2298],[7.157183007836329,45.86626029968584,2304],[7.157373008110825,45.866880299982924,2310],[7.157143008067176,45.86750030033854,2316],[7.158083008212452,45.86795030136158,2323],[7.158143007861607,45.86875030177757,2329],[7.15840300767228,45.86924030196169,2335],[7.1585330075235305,45.86943030263448,2342],[7.159113008208578,45.8696903023572,2348],[7.159543008659749,45.869740302676064,2354],[7.16096300863204,45.86943030199606,2360],[7.161923008414302,45.86907030182269,2367],[7.162353007555915,45.8688103016386,2373],[7.1626130083648745,45.8684303011406,2379],[7.162642238535124,45.868423946301625,2385],[7.162843008295026,45.868380301377655,2392],[7.1630230082601445,45.86815030095228,2398],[7.1639230086663845,45.86783030054701,2404],[7.1640230085676695,45.868170301256214,2410],[7.1643230081607765,45.86821030160724,2417],[7.1650830083397326,45.868640301778335,2423],[7.165318667621865,45.86867581251509,2429],[7.165813008515899,45.86875030193554,2435],[7.166167368985582,45.868715552548196,2442],[7.166398632759466,45.86869287312163,2448]]}}]}