{"type":"FeatureCollection","features":[{"type":"Feature","properties":{"slug":"65-s15","sct_code":"65_S15","source":"Catasto Sentieri VdA"},"geometry":{"type":"LineString","coordinates":[[7.655521730747559,45.74901404657871,621],[7.655493076392432,45.74906369638059,621],[7.6553658652992915,45.749100650150694,621],[7.6552836868703125,45.74909199276252,621],[7.654927153581997,45.74907241423014,622],[7.654619987983799,45.74898821809727,622],[7.654299993987651,45.74898822103611,622],[7.653870008773619,45.74919821946041,622],[7.653530020450331,45.74942821777356,622],[7.653380526416644,45.749513047726744,622],[7.653373864634358,45.749561674574736,623],[7.653410081571338,45.74965438557429,623],[7.653520181483092,45.74987229334159,623],[7.653572559105038,45.749997784728734,623],[7.653619424050371,45.75008494723551,623],[7.65362647861679,45.750222118991324,623],[7.653603511493811,45.75067050493012,623],[7.653516541833998,45.75090326273275,624],[7.653437367240395,45.75103191342796,624],[7.653316294638006,45.75114122937232,624],[7.653559487817458,45.751027348657956,624],[7.653737485420668,45.75088283180201,624],[7.654020280569161,45.75053988755793,624],[7.6540523235304505,45.7504547773425,624],[7.653955390622565,45.75038328178984,625],[7.653944593076966,45.75033411346683,625],[7.654091031893035,45.7503538615454,625],[7.654189552219651,45.750360662001526,625],[7.654241678986439,45.750482335698074,625],[7.654249320024743,45.75053564394335,625],[7.654322200417012,45.75058841205702,626],[7.65418534232344,45.75078711246679,626],[7.65407001484258,45.75090904631159,626],[7.653328658791784,45.75153349229224,626],[7.6529612420540625,45.75175867242685,626],[7.652499897135053,45.75199034526268,626],[7.652115711863967,45.75223055552272,626],[7.651572503896794,45.752597665854424,627],[7.651408330371137,45.752739363334484,627],[7.651374708277228,45.752768382765005,627],[7.651143614127783,45.75299758477623,627],[7.651046511537069,45.753182547073955,627],[7.651056041984686,45.75331126607954,627],[7.651100699859391,45.753441201826114,627],[7.651108355352762,45.75354139587343,628],[7.6510901502461,45.75361318586525,628],[7.650880539143618,45.753979466704784,628],[7.650847660139607,45.75403047848957,628],[7.650808518115368,45.75406549259614,628],[7.650694815467522,45.75412150445023,628],[7.650561998510928,45.75414894149863,629],[7.650434656456305,45.75416745696741,629],[7.650298008270449,45.75417087649579,629],[7.649935615491852,45.75424989834016,629],[7.649722052592526,45.754299439389285,629],[7.6496180365171345,45.7543079582871,629],[7.649379300923596,45.75429893273849,629],[7.648874321754951,45.75427240483047,630],[7.648480534731662,45.75429024690495,630],[7.648019319897431,45.7543882959802,630],[7.647825156848297,45.75441131987595,630],[7.647740370734481,45.75442831725053,630],[7.647318246470389,45.75457563867632,630],[7.646860836506807,45.75467907622629,631],[7.6468013504343,45.7547416640379,631],[7.646680092419133,45.75486107106288,631],[7.646457901294409,45.75492691350983,631],[7.6461967948646175,45.754979097795925,631],[7.645766583132244,45.75504168317195,631],[7.645562194141337,45.75509763994962,631],[7.645304314898214,45.75519948744827,632],[7.6452036002566715,45.755254568692074,632],[7.645177636029751,45.755369615738914,632],[7.645377497075287,45.75562164195917,632],[7.645414394546212,45.75566638988404,632],[7.645420007698482,45.75572820441074,632],[7.645399166286671,45.755740066551375,632],[7.6452974726118965,45.75579794982186,633],[7.645243350709619,45.75582875573911,633],[7.6448578658618445,45.75561257344233,633],[7.64460831595882,45.755533509908844,633],[7.644454544708062,45.75557980379772,633],[7.644240038699239,45.755795915550216,633],[7.644114416798594,45.75591229157538,634],[7.643983871440561,45.756008432584544,634],[7.643812051647378,45.756086388445894,634],[7.643577775779382,45.756141210999246,634],[7.643286603449275,45.75615370571052,634],[7.643053123820415,45.7561234593732,634],[7.642514187942724,45.75615959532748,634],[7.642211805248334,45.756099283104184,635],[7.641606509510988,45.756039800277506,635],[7.6415398388479,45.7560425734524,635],[7.641483202612847,45.756060489565755,635],[7.641440715417327,45.756097197768824,635],[7.6414305339899835,45.75614405391793,635],[7.641444561238917,45.756192076426274,635],[7.641475340771261,45.7562771921295,636],[7.641624973097612,45.75645424466225,636],[7.641703872867347,45.75658591877383,636],[7.641610444698971,45.75667969654178,636],[7.641330414895449,45.75661122962266,636],[7.640966582433144,45.75647463298644,636],[7.64077689399013,45.75646573013825,637],[7.640214591130814,45.75642234306109,637],[7.6398519426032,45.75634592443438,637],[7.638532275655149,45.75583903011122,637],[7.6380100077720545,45.75566820402247,637],[7.63679942215874,45.75551394828304,637],[7.636587876466836,45.755376053295,637],[7.636379904470249,45.7552993500135,638],[7.635962046548183,45.75515965603006,638],[7.635618870896725,45.75503348114079,638],[7.635352499153212,45.75488988242015,638],[7.635123160426007,45.754803887779914,638],[7.634957823078742,45.75474995225217,638],[7.634718516063033,45.75467733844052,639],[7.634610334028344,45.754651213028,639],[7.634440589388241,45.75465538805217,639],[7.634202092061342,45.75467557807143,639],[7.633976119348436,45.754701234865244,639],[7.633840658786525,45.754742875859215,639],[7.633735494359914,45.754821541715515,639],[7.633640960396333,45.75492121850459,640],[7.633484715924524,45.755150209847116,640],[7.6333694264569685,45.75541292351228,640],[7.633303452934637,45.755513755338626,640],[7.6330766912520325,45.75576169271935,640],[7.632955721114925,45.755848645389264,640],[7.632862591290107,45.755851851097184,640],[7.632638008864562,45.75583332219442,641],[7.63238186309907,45.75583069868872,641],[7.632290872595909,45.75580912774765,641],[7.63211153642544,45.755767309791096,641],[7.6320090311694955,45.755746142571276,641],[7.63196987279685,45.75574257205188,641],[7.631938594443256,45.75572323879859,642],[7.631885989137709,45.75565881679343,642],[7.631826913095966,45.755589537994304,642],[7.631721837187521,45.75548582218124,642],[7.631632637674356,45.75539301875356,642],[7.631573816892956,45.755339251651414,642],[7.631495175607894,45.75529355544004,642],[7.631375286314737,45.75523916732796,643],[7.631284945604768,45.75523188177225,643],[7.63119420955884,45.7552148420585,643],[7.631141315790757,45.755187823256016,643],[7.631027652229609,45.755102698843686,643],[7.630893487097021,45.75502269560581,643],[7.630817251411234,45.754988659112136,644],[7.630747002114809,45.754946324751195,644],[7.630687132413609,45.754854388762,644],[7.630646852449059,45.75481911805551,644],[7.630602327199883,45.75480197116884,644],[7.630549103610579,45.75479114184992,644],[7.63020982257826,45.75473921826832,644],[7.63005569008509,45.75473914213164,645],[7.629511738818201,45.754747683427055,645],[7.629072979878413,45.75477406804496,645],[7.628876186995005,45.75485820461719,645],[7.628695871281167,45.7549392633652,645],[7.6283499901107605,45.755110339814415,645],[7.628156232159134,45.75524918606739,645],[7.628060659067194,45.7552746248727,646],[7.627889822329276,45.755336158879,646],[7.627762027913247,45.755436539248855,646],[7.627716129421709,45.75548780109823,646],[7.627698747205999,45.755590645390015,646],[7.627605348566398,45.75563445026843,646],[7.6273925489803425,45.755726399720345,647],[7.627202613169387,45.75578712086912,647],[7.627052662201226,45.755801335134244,647],[7.626880491511627,45.75580103791408,647],[7.6267296155274975,45.75575845823861,647],[7.626333112705518,45.75560059680434,647],[7.625946547871733,45.755527929923154,647],[7.62519529159729,45.75545862805369,648],[7.625002847697878,45.75540757046167,648],[7.624721744354344,45.75534222434039,648],[7.624627868767499,45.75532613616661,648],[7.624148816646436,45.75493442915586,648],[7.6240076854442815,45.75484563042631,648],[7.623874181985171,45.75478480338547,648],[7.623716154906238,45.754738704377324,649],[7.6234903087620545,45.75471571400005,649],[7.623326688652694,45.754683804761704,649],[7.6232279198490085,45.754626726649825,649],[7.623104552597662,45.754600479319244,649],[7.622888000373464,45.75460577406605,649],[7.622713936489334,45.75458558361513,650],[7.622595591638188,45.75459372062962,650],[7.6225200075414,45.754608202791374,650],[7.62240282268552,45.7546965229269,650],[7.622281674356826,45.75474980656145,650],[7.622128642300884,45.7547672344863,650],[7.621968626546902,45.75474447439239,650],[7.621915271025838,45.75474894482184,651],[7.621840205497059,45.75478021063783,651],[7.6217583913848435,45.754808639925784,651],[7.621668405896989,45.75481431627908,651],[7.62158425108142,45.754800681223216,651],[7.621455825716249,45.75474463699592,651],[7.621267991086073,45.75470180928659,652],[7.62113722829303,45.75469855597519,652],[7.621040212929235,45.7547290567867,652],[7.620879063823349,45.75481833781996,652],[7.620756347614695,45.75485070082593,652],[7.620735219755093,45.75488322557948,652],[7.6205131545354545,45.7548297065375,652],[7.6204295392961,45.7548349854155,653],[7.620354631835792,45.75482093460206,653],[7.620265664146187,45.75480424687744,653],[7.620137488896866,45.754741447505566,653],[7.620025173726436,45.7547083729564,653],[7.619868463399932,45.75469640635789,653],[7.619702073755543,45.75471917795887,653],[7.6196047692251465,45.75474932753754,654],[7.619537651515725,45.75475423988661,654],[7.619470990757001,45.75473895517598,654],[7.619351156437392,45.754576253763986,654],[7.6193040926900375,45.75450349544267,654],[7.619251666645925,45.75447857209774,654],[7.618998248843446,45.75437841661733,655],[7.618653507945883,45.754208932428234,655],[7.618383404458045,45.754155156846124,655],[7.617954354825601,45.75401671332985,655],[7.617520008660143,45.7539282028326,655],[7.616889119851653,45.753885944498336,655],[7.616524730582347,45.753843150165,655],[7.615955542033183,45.75386671390265,656],[7.615511685694436,45.75385946135415,656],[7.614957732883941,45.75377876554568,656],[7.6148042020023485,45.75380706642717,656],[7.61465698329641,45.75389280030794,656],[7.614550183134702,45.75393330882111,656],[7.614439910157932,45.75395480113487,656],[7.614164472729828,45.75405935805895,657],[7.613992594040354,45.754149213860714,657],[7.613772811166493,45.75422815010231,657],[7.613228427552663,45.75433748720364,657],[7.612919299191944,45.754408432828406,657],[7.61251700571342,45.75448453921391,657],[7.612022751144297,45.754570482269244,658],[7.6116222850442306,45.75458188683818,658],[7.611458679238709,45.754620337551565,658],[7.611371010479999,45.754647189650264,658]]}}]}