{"type":"FeatureCollection","features":[{"type":"Feature","properties":{"slug":"65-s19","sct_code":"65_S19","source":"Catasto Sentieri VdA"},"geometry":{"type":"LineString","coordinates":[[7.65469060035333,45.749902774659596,635],[7.654821297795455,45.74991028743176,638],[7.655049008414386,45.74995819983945,640],[7.655224953938763,45.75010145958198,643],[7.655331279380584,45.7501655779956,646],[7.655699008084843,45.750668200484036,648],[7.655539453091424,45.75102502371004,651],[7.65541630184416,45.75116758240304,654],[7.6553463958346235,45.75151848151329,656],[7.655341367083785,45.75171088203256,659],[7.655213554435251,45.75193228139193,662],[7.655414338245716,45.752349136362305,664],[7.655603650874454,45.75255303801691,667],[7.6556648766655035,45.75263026288251,670],[7.655692995174891,45.75283504844103,672],[7.655690611660704,45.752934305900354,675],[7.655663697024856,45.75301283361657,677],[7.655426835574631,45.753041004960636,680],[7.65526581705786,45.75316245256145,683],[7.6543590887438,45.75344272286536,685],[7.653759008481068,45.75362820216686,688],[7.653359008566551,45.75400820245754,691],[7.652669008639171,45.754418202865175,693],[7.652417159411586,45.75481378176089,696],[7.651946793494647,45.755356801128535,699],[7.65146900755972,45.75578820387167,701],[7.650680008316221,45.756058204155956,704],[7.6510400079478575,45.756928205302614,707],[7.650870007673166,45.75722820505061,709],[7.650770007556195,45.757298205354836,712]]}}]}