{"type":"FeatureCollection","features":[{"type":"Feature","properties":{"slug":"65-s8","sct_code":"65_S8","source":"Catasto Sentieri VdA"},"geometry":{"type":"LineString","coordinates":[[7.701814727608234,45.725616890664604,1191],[7.7017832339763395,45.725720125425106,1193],[7.701775202218988,45.72583034032408,1194],[7.701802879343559,45.72593616465218,1196],[7.701743442362156,45.7260189386099,1198],[7.701679905858937,45.72604219574442,1200],[7.70154926674963,45.72600618028158,1201],[7.701415876047124,45.725911623548086,1203],[7.701261326831788,45.725843682826884,1205],[7.7011051096153,45.725847661584616,1206],[7.700942149627881,45.72590623725885,1208],[7.70083482057202,45.725981947906014,1210],[7.700680123688512,45.72601904737659,1212],[7.700555150160622,45.72607944604874,1213],[7.700510117851095,45.72617254843798,1215],[7.7003836271699475,45.72629828261432,1217],[7.69993666664514,45.72651354348954,1219],[7.699719489831129,45.726634712983795,1220],[7.6995696692213915,45.72667893097979,1222],[7.699261248640281,45.72690106489281,1224],[7.699253788677846,45.72700519183855,1225],[7.699194404122526,45.72706456994247,1227],[7.699205125878381,45.72714594263805,1229],[7.699150455914102,45.727219504356704,1231],[7.699228007501375,45.72780818230207,1232],[7.698917995964626,45.72818876607066,1234],[7.698545807932438,45.72846845918898,1236],[7.69845892117717,45.7286259948782,1237],[7.698498007992413,45.72877818303769,1239],[7.698478008394706,45.72909818269947,1241],[7.69873800794552,45.729208182772744,1243],[7.698763288359586,45.729316200011446,1244],[7.698848007559519,45.729678183872934,1246],[7.698738008455293,45.73010818361065,1248],[7.6985480086931535,45.730278184096896,1249],[7.697618008754041,45.7303481837128,1251],[7.697338008014683,45.73064818406242,1253],[7.696378007637996,45.73113818447199,1255],[7.694918008245444,45.73143818489134,1256],[7.694878007694964,45.73184818476178,1258],[7.694508007815424,45.731998185547525,1260],[7.693778008774807,45.73287818616525,1262],[7.693348008581953,45.73388818664299,1263],[7.692558390158368,45.734822047663144,1265],[7.692518320079809,45.734891204552405,1267],[7.692618008074111,45.73497818718953,1268],[7.69163800795108,45.73594818869279,1270],[7.691208007515795,45.73677818894426,1272],[7.6900280078099295,45.73834819015817,1274],[7.689878007581676,45.73881819023199,1275],[7.689978008473582,45.740128191689195,1277],[7.688848008712641,45.74190819272535,1279],[7.6888480081947534,45.74216819348901,1280],[7.6892280087671505,45.742488193719595,1282],[7.689078008616833,45.742808193356986,1284],[7.688698007663887,45.74302819417518,1286],[7.688548007731018,45.74347819389808,1287],[7.689748007841419,45.744138195092376,1289],[7.689728007574626,45.74433819481915,1291],[7.689958007888516,45.7447181956269,1292],[7.689978007946059,45.745278195949936,1294],[7.689598008343043,45.74589819613263,1296],[7.689038008244103,45.746308196825495,1298],[7.68849800794148,45.746478197023066,1299],[7.6885480086813605,45.74673819650301,1301],[7.688852823027178,45.74702607844374,1303],[7.6889080077601815,45.74761819768847,1304],[7.68929800860795,45.74802819757091,1306],[7.690218008071124,45.74847819799031,1308],[7.691526681995636,45.74874736178737,1310],[7.6915508178952114,45.74879588998604,1311],[7.691481920438964,45.74889321178034,1313],[7.691455190267327,45.74895563285349,1315],[7.691458430974978,45.74901357116304,1317],[7.691405195908221,45.74912876462191,1318],[7.691285993856411,45.749215860577074,1320],[7.691215249662571,45.749293860352374,1322],[7.691164921348446,45.74939978316933,1323],[7.6912712203714415,45.74960929624603,1325],[7.6912562515875305,45.749735363208146,1327],[7.69121862452689,45.7498022586356,1329],[7.691268159903263,45.75001175948229,1330],[7.6912726738063615,45.750190013181204,1332]]}}]}