{"type":"FeatureCollection","features":[{"type":"Feature","properties":{"slug":"66-s14","sct_code":"66_S14","source":"Catasto Sentieri VdA"},"geometry":{"type":"LineString","coordinates":[[7.257988978174175,45.7315582272741,1198],[7.257815518455519,45.73152329738538,1201],[7.257116183823783,45.73114278967107,1204],[7.256741628914486,45.73093283144601,1207],[7.255970983023186,45.73045303728181,1210],[7.255630672263962,45.73027682842135,1213],[7.255324249282234,45.73018578037425,1216],[7.255061620813658,45.73015676385895,1219],[7.254598977731227,45.73016279255879,1222],[7.254136734604687,45.73011899466549,1225],[7.25399986913582,45.730073075074685,1229],[7.25397734001494,45.730032246048886,1232],[7.253997220159368,45.72999444778228,1235],[7.253932120127214,45.72995668430768,1238],[7.2538405138469155,45.729901130938714,1241],[7.253681396394755,45.72995637575709,1244],[7.253466127913704,45.73001568865671,1247],[7.253228205526615,45.73006682238619,1250],[7.253104836817516,45.730054569604555,1253],[7.253049755686812,45.730081621756874,1256],[7.252946924426886,45.730118033161595,1259],[7.2528709398787505,45.73016316448059,1262],[7.252832374016061,45.730204119440195,1265],[7.252784079371323,45.730285285079106,1268],[7.25270190078143,45.73037958262562,1271],[7.252580534971346,45.730466751562474,1274],[7.252469260966608,45.73055644912995,1277],[7.252362593802556,45.73062069592403,1280],[7.252233238847897,45.73069231164633,1283],[7.25202115698086,45.73080776761333,1286],[7.251939163321158,45.73088248126614,1290],[7.2517639530029365,45.73095695526843,1293],[7.251602831003177,45.731028084032076,1296],[7.251483622654812,45.73108679617758,1299],[7.251411691006154,45.73111062298192,1302],[7.2513383612468045,45.73112493092095,1305],[7.25122439720782,45.73109707177664,1308],[7.251057163208407,45.731051779056976,1311],[7.250976028303112,45.73104460166323,1314],[7.250809223888362,45.73106697433921,1317],[7.250628303229708,45.73114788816812,1320],[7.250369380868069,45.731202678849435,1323],[7.250280614960839,45.731236335816355,1326],[7.250133213243309,45.73128868055985,1329],[7.250004891805982,45.7313270722357,1332],[7.249895760632377,45.731347953763226,1335],[7.249798675497665,45.731363083890976,1338],[7.2497289239393545,45.73134421007585,1341],[7.24964650350592,45.73132395489286,1344],[7.249524275661142,45.731275788103346,1348],[7.2493903011097,45.73122388050918,1351],[7.249319294156185,45.73121804434689,1354],[7.249231087655754,45.73122025293595,1357],[7.249089063610794,45.73126318224883,1360],[7.248983612564759,45.73130192427276,1363],[7.248843987242083,45.73132233639453,1366],[7.248699686646952,45.73132962041365,1369],[7.248437167733595,45.7313232205086,1372],[7.248272828310137,45.731348001634025,1375],[7.2481753333199155,45.73137618214082,1378],[7.24796604963342,45.73145606268204,1381],[7.247770390900898,45.731533777510876,1384],[7.247646481143566,45.73159360159904,1387],[7.247411982978875,45.73157203933064,1390],[7.247211186994117,45.731610662247576,1393],[7.246939266773818,45.73163379044425,1396],[7.246765757104723,45.73165368084185,1399],[7.246557782988156,45.7316374310805,1402],[7.24625458756987,45.73154968446221,1406],[7.245943266703944,45.73160177221258,1409],[7.245530626513168,45.73162835584899,1412],[7.245357430614515,45.73169405559088,1415],[7.245213936391231,45.731771555735435,1418],[7.245007741302639,45.73180505690054,1421],[7.244893177155176,45.731804159661664,1424],[7.2446593034405025,45.731694921259646,1427],[7.244616068058784,45.73156012470168,1430],[7.24465534359157,45.73154046620665,1433],[7.244672641667465,45.73148746750338,1436],[7.244733240468834,45.73149901408479,1439],[7.244717340839413,45.73145976751347,1442],[7.244719639004034,45.73138896914378,1445],[7.244768836895311,45.73135956965522,1448],[7.244825776763501,45.731304578951786,1451],[7.244817834212706,45.7312753715129,1454],[7.244814829897076,45.73101107811782,1457],[7.244852224262544,45.730795282326866,1460],[7.244842542436813,45.73076949358355,1463],[7.244686110391527,45.730893506388554,1467],[7.244601520287288,45.73099666352106,1470],[7.244541836109029,45.731129878310085,1473],[7.244409883423756,45.73122993388926,1476],[7.244267074920785,45.73129777226276,1479],[7.244188718135275,45.73136422781829,1482],[7.2441723714256,45.73146665247543,1485],[7.244116505922094,45.73157262516919,1488],[7.244062053508729,45.731633512238176,1491],[7.244028934041945,45.73166267888256,1494],[7.244007674058806,45.73169202694878,1497],[7.243995140289843,45.73174619326932,1500],[7.244012179238737,45.73179094151088,1503],[7.2440171544565715,45.731828329015684,1506],[7.244008108183638,45.73185545540064,1509],[7.24398481429297,45.73187949245026,1512],[7.24395163915559,45.731891898230835,1515],[7.243894200338734,45.73189388449366,1518],[7.243780807952742,45.73185052500569,1521],[7.243742792658608,45.73182124030873,1525],[7.243699487611902,45.73176460789373,1528],[7.243689762451541,45.73168266195445,1531],[7.243691606320721,45.73162385349813,1534],[7.24367917873616,45.73149737971938,1537],[7.243679108550404,45.731434237749944,1540],[7.243640530056321,45.731357587787954,1543],[7.24363352728626,45.73125415790689,1546],[7.2436031857952745,45.7311761999017,1549],[7.243614618375245,45.73113834734409,1552],[7.24363529964828,45.73106691362112,1555],[7.243665547037607,45.73101715279091,1558],[7.243668200354644,45.7309325269005,1561],[7.2436345611508175,45.73082878552024,1564],[7.243485911520339,45.730650988164534,1567],[7.243315455107832,45.73055386047545,1570],[7.243180748386954,45.730443781544096,1573],[7.243343877616275,45.72964748867778,1576],[7.243301434089937,45.72949439026117,1579],[7.243236511632807,45.729346953968324,1582],[7.243162530329135,45.72916943874402,1586],[7.243095130616431,45.72909900747891,1589],[7.242795601346414,45.728933542948,1592],[7.242648771300217,45.72882977616339,1595],[7.242457783694484,45.72877283390261,1598],[7.242392938387358,45.728745021501915,1601],[7.242302630596551,45.72861930395628,1604],[7.24226142740239,45.72857637250197,1607],[7.2420853577962765,45.72864672138814,1610],[7.241911305743017,45.728738887879125,1613],[7.241834666724718,45.72877680402302,1616],[7.241616991862333,45.72891031689423,1619],[7.241395266470399,45.729117231570484,1622],[7.241448539232965,45.72917413806525,1625],[7.241450788038095,45.72958080657754,1628],[7.24139756436332,45.7296625404699,1631],[7.241387429102904,45.72984464627678,1634],[7.241333149287268,45.73014082982245,1637],[7.241225545391835,45.73039568958944,1640],[7.241057275991133,45.73063836427337,1644],[7.241022793841941,45.73081559478031,1647],[7.240978008029602,45.7309116613306,1650],[7.240887908306846,45.7310182806933,1653],[7.2408420626471415,45.73114808305353,1656],[7.240944826043919,45.731354429049794,1659],[7.240976479965151,45.73147192413585,1662],[7.240901462693604,45.73144983072521,1665],[7.240808007628643,45.73126318453155,1668],[7.240708007936037,45.73098318419648,1671],[7.240518008788017,45.7307831842513,1674],[7.2403380085337385,45.730703184414736,1677],[7.240248008480843,45.7307931843329,1680],[7.240098008537341,45.73083318489786,1683],[7.239948008723093,45.73078318482398,1686],[7.239838008178675,45.730883184581046,1689],[7.239618008759678,45.730693183978886,1692],[7.239518008377811,45.730693184454154,1695],[7.2393380075365625,45.730753184423655,1698],[7.239228008731932,45.73076318407627,1702],[7.238948008645659,45.730913184926095,1705],[7.238908007913848,45.7309931845969,1708],[7.2387580087556165,45.73119318499681,1711],[7.2386180078201585,45.731253184990635,1714],[7.238498008401183,45.73134318441466,1717],[7.23840800874595,45.73138318463924,1720],[7.23830800842014,45.73138318495633,1723],[7.238228008496895,45.73148318505758,1726],[7.238088008749707,45.73150318492421,1729],[7.237998008208104,45.73149318476901,1732],[7.237828007711832,45.73152318467184,1735],[7.237618008328141,45.7317031847001,1738],[7.237378007667505,45.73206318574192,1741],[7.237338007927158,45.73209318572763,1744],[7.2373080080794825,45.73216318560784,1747],[7.237148008317107,45.73235318558484,1750],[7.237098007619264,45.73237318538924,1753],[7.237078007609516,45.73243318599424,1756],[7.237108008720553,45.73249318610918,1759],[7.237008008574512,45.73255318587348,1763],[7.236908008703076,45.73265318594128,1766],[7.2365880077721,45.73267318552323,1769],[7.236378008514013,45.73270318584567,1772],[7.236248008211085,45.732863186199715,1775],[7.236158008401862,45.73283318621554,1778],[7.2360280081449755,45.73270318576594,1781],[7.2357980083111695,45.73261318548466,1784],[7.235568008497038,45.732583186221234,1787],[7.23550800873093,45.732633185511965,1790],[7.235458008717771,45.7326331862144,1793],[7.235408008160978,45.73276318589629,1796],[7.235368007823499,45.732813186273816,1799],[7.235248008064563,45.732793186146495,1802],[7.235228007964955,45.732883186263535,1805],[7.235268007724655,45.73295318618601,1808],[7.235338008189469,45.733013186438484,1811],[7.235348007537429,45.733093185990896,1814],[7.23543800789011,45.73317318665189,1817],[7.2354480078143855,45.73322318636417,1821],[7.235278008215014,45.73341318671466,1824],[7.235278007715072,45.7335931866286,1827],[7.235208008079063,45.733663186249736,1830],[7.235178007740193,45.7337731868288,1833],[7.234558007907091,45.73404318659013,1836],[7.234458007660829,45.73413318664268,1839],[7.234198008292205,45.73426318684126,1842],[7.234108008014524,45.73448318715223,1845],[7.23420800779462,45.7347531871904,1848],[7.2341880083375285,45.73486318729616,1851],[7.234038007700187,45.73492318725987,1854],[7.2337980079027755,45.73488318769788,1857],[7.2337380076222635,45.734853187986005,1860],[7.2335980085785625,45.734863187209825,1863],[7.233498008248921,45.73489318764888,1866],[7.233448008588655,45.73492318730876,1869],[7.233318008092888,45.735143187536686,1872],[7.23321800859729,45.73526318813126,1875],[7.233158007557607,45.735383188150514,1879],[7.233018008442127,45.73552318831911,1882],[7.2328480079285,45.73562318819569,1885],[7.232658007907362,45.73569318814679,1888],[7.2325080080560955,45.73570318789475,1891],[7.232468008674386,45.735763188693426,1894],[7.232438008754941,45.73588318816918,1897],[7.232358007800807,45.73597318803961,1900],[7.232308008076072,45.736143188482615,1903],[7.231968008007163,45.73637318839125,1906],[7.231658007744243,45.73635318908897,1909],[7.231548007670512,45.73638318870483,1912],[7.231448008313255,45.73634318896756,1915],[7.231168008613378,45.73644318863577,1918],[7.231018007874479,45.7365331889443,1921],[7.230898008703767,45.736653189148605,1924],[7.230918007868105,45.73687318949811,1927],[7.2306280078951986,45.73700318937476,1930],[7.230778008780078,45.73707318923745,1933],[7.23079800771952,45.73712318940405,1936],[7.230768007657536,45.737213189495044,1940],[7.230678007680107,45.73732318917563,1943],[7.230438007702377,45.73739318940994,1946],[7.230288008735833,45.73750318985582,1949],[7.230158007816434,45.73752319000639,1952],[7.230118008772233,45.73760319015199,1955],[7.229838008518043,45.73774318959441,1958],[7.2296380087617225,45.73780319009433,1961],[7.229588008665706,45.73789319038325,1964],[7.229458008182711,45.737973190279185,1967],[7.229548008738315,45.738003190129355,1970],[7.229579008535977,45.7382531899943,1973],[7.229649008309471,45.7383431907899,1976],[7.229549007841907,45.7384531902658,1979],[7.229129008091248,45.73852319032816,1982],[7.228829007822727,45.73865319076966,1985],[7.228679008615783,45.738633190182846,1988],[7.228439008167615,45.738703190698565,1991],[7.228549008455245,45.73886319081366,1994],[7.228519007995319,45.73892319047218,1998],[7.22859900874496,45.73899319113054,2001],[7.228119008247122,45.739243190934474,2004],[7.228079007961125,45.739303191052855,2007],[7.227819008247185,45.739523191373465,2010],[7.227399008749218,45.739783191670824,2013],[7.227249008350542,45.73994319165125,2016],[7.227159008435573,45.74012319137301,2019],[7.227039008466212,45.740243191951805,2022],[7.22684900758046,45.74036319206606,2025],[7.226719007694695,45.74041319172051,2028],[7.2265890086420015,45.74041319216076,2031],[7.226589008312697,45.740393191983955,2034],[7.226349007865096,45.740563192550624,2037],[7.226369007853974,45.74066319256123,2040],[7.226329008272101,45.74070319189512,2043],[7.226249008470656,45.74074319196916,2046],[7.226109008711982,45.74075319189994,2049],[7.226059008289641,45.74081319259641,2052],[7.22594847989933,45.74086330837683,2055],[7.225929007517475,45.74091319221096,2059],[7.225849008271916,45.74091319257204,2062],[7.2253436041583985,45.74108503011116,2065],[7.225188590636458,45.7412392521041,2068],[7.225137950723974,45.74129995710186,2071],[7.2250987411207515,45.741334619238,2074],[7.225009210896246,45.7413780129641,2077],[7.224956098456326,45.74146443638958,2080],[7.224806877347792,45.74144633834066,2083],[7.224798901072081,45.74153067932847,2086],[7.224619008551229,45.74156319246295,2089],[7.224293008525958,45.74172019343579,2092],[7.224019008135956,45.74194319317334,2095],[7.223849008501968,45.742153193555346,2098],[7.2235890076005,45.74235319387964,2101],[7.223419008352942,45.74259319341418,2104],[7.223229008772628,45.74267319345988,2107],[7.223129008352098,45.742863194211886,2110],[7.222869008063799,45.74307319431981,2113],[7.222859007752836,45.74313319402376,2117],[7.222739007783313,45.74317319388148,2120],[7.222679007863461,45.74334319454133,2123],[7.22248900783692,45.74352319415681,2126],[7.222509007913101,45.74357319484592,2129],[7.222399008273706,45.74369319491357,2132],[7.22240900842285,45.74374319479535,2135],[7.222309007859204,45.7437431946097,2138],[7.22222900850464,45.74380319472165,2141],[7.222179007551805,45.743923195071865,2144],[7.221999007904907,45.744043195123,2147],[7.221489008653526,45.74468319581251,2150],[7.221399008657326,45.74471319553228,2153],[7.221199008202367,45.74525219583604,2156],[7.2211890084095005,45.745512196055024,2159],[7.221099007683993,45.74563219577925,2162],[7.221079008779206,45.7459921967269,2165],[7.220919008625136,45.746322196286684,2168],[7.22093900799508,45.746382196845055,2171],[7.220586785305096,45.746862196857904,2175],[7.2205690085409495,45.746942196836294,2178],[7.22062900775818,45.74707219695282,2181],[7.220509007904509,45.7473261972438,2184],[7.220089008221799,45.747982197840656,2187],[7.220159008422109,45.74837219845454,2190],[7.219169007968909,45.748352198347526,2193],[7.217149008576997,45.74880219835548,2196],[7.216572194456232,45.74878966050467,2199],[7.216229008631255,45.74878219882778,2202],[7.214189008279889,45.749362199115694,2205],[7.212715704491651,45.749550571931266,2208],[7.211999007846515,45.74964219961979,2211],[7.210799007999813,45.75007219936989,2214],[7.207689008370916,45.75150220046096,2217],[7.207259008733175,45.752009201208686,2220],[7.207243538555946,45.75200858126575,2223],[7.204839008156174,45.751912200885926,2226],[7.202709008783959,45.75210220094603,2229],[7.202349007995116,45.75221220166592,2232],[7.201359008434801,45.752862201716155,2236],[7.199969008539787,45.75311220195612,2239],[7.198249007733762,45.75365220281225,2242],[7.197760008361322,45.754062202821835,2245],[7.196530007555967,45.75440220350647,2248],[7.196190023567801,45.75478802855438,2251],[7.196645008662491,45.75541220389912,2254],[7.197144008708337,45.755888204763195,2257],[7.197591008533751,45.75639920502489,2260],[7.197626008471768,45.756904205012496,2263]]}}]}