{"type":"FeatureCollection","features":[{"type":"Feature","properties":{"slug":"67-s18","sct_code":"67_S18","source":"Catasto Sentieri VdA"},"geometry":{"type":"LineString","coordinates":[[7.577223938328907,45.82510596556222,1598],[7.577418898482299,45.82497278252278,1600],[7.577472981637388,45.824973455984264,1602],[7.577653150945972,45.824935511601694,1604],[7.577803443168305,45.82487592072585,1606],[7.577839541247605,45.8249189213463,1608],[7.577831577108703,45.82496610044965,1610],[7.577854335041602,45.82500184267088,1612],[7.5777851072225095,45.82506480634887,1614],[7.5777945863916525,45.82509092743909,1616],[7.577979902018001,45.825249252817805,1618],[7.577533008351638,45.8262372630859,1620],[7.576523007881957,45.82685726443184,1622],[7.576043008126397,45.82730726460787,1624],[7.574203008317198,45.827417264440946,1626],[7.573583007513363,45.827637264678096,1628],[7.573193007844427,45.82818726490027,1630],[7.573140260885645,45.82915592980775,1632],[7.573151864117689,45.829291872813705,1634],[7.573162675243261,45.82930868828974,1636],[7.573232677789599,45.829568681481334,1638],[7.5732426872732255,45.830028670344326,1640],[7.573272692651862,45.83032866215201,1642],[7.573272693348819,45.830358661398805,1644],[7.573292693992259,45.83040865999985,1646],[7.573312694670509,45.83045865859738,1648],[7.573292696267798,45.83057865600658,1650],[7.573222700282194,45.830678654726185,1652],[7.5732127015942385,45.830738653427964,1654],[7.573182703483646,45.83078865221136,1656],[7.573122707676801,45.830938648784134,1658],[7.573122708901665,45.83097864837963,1660],[7.573172709191335,45.83103864581954,1662],[7.57317271171002,45.83117864257798,1664],[7.573172712965417,45.8312786397395,1666],[7.573142715722246,45.831388637885304,1668],[7.573172721759064,45.83167863021635,1670],[7.573202722293244,45.83173862895503,1672],[7.5731127285186455,45.83196862350349,1674],[7.573122728677387,45.83200862287469,1676],[7.572842739709694,45.832228619747774,1678],[7.572692743906595,45.83228861996116,1680],[7.572642745552659,45.83229862024863,1682],[7.572442752635976,45.83242861887073,1684],[7.572192759916942,45.832508619657276,1686],[7.572112762487545,45.8325686191026,1688],[7.572002765123944,45.832598619588694,1690],[7.571972767045469,45.83263861859837,1692],[7.571912768704819,45.83266861845444,1694],[7.571772773130957,45.83274861804483,1696],[7.5716232009625815,45.83270138600342,1698],[7.571572777890458,45.832768619443456,1700],[7.5714427822968675,45.83281861933237,1702],[7.571442782627346,45.832828618778656,1704],[7.571422784719814,45.832918616597055,1706],[7.571152795381957,45.83314861408227,1708],[7.571062801804182,45.833358609889025,1710],[7.570912807089411,45.83345860823518,1712],[7.5707028134619145,45.83353860838766,1714],[7.570342822219443,45.833568611397254,1716],[7.570172826667118,45.83361861147498,1718],[7.569822838203521,45.83381861062816,1720],[7.569753966040647,45.83386866184296,1722],[7.569664663537571,45.83395364787312,1724],[7.569582335045183,45.83400091858976,1726],[7.569457528195536,45.834064459273776,1728],[7.569411239982489,45.83411218116289,1730],[7.569290287547221,45.834259773327716,1732],[7.569183069671728,45.834340334125166,1734],[7.569144365082936,45.83444380393336,1736],[7.569026415477093,45.834591433421714,1738],[7.568971170028113,45.834636943138534,1740],[7.568872046168051,45.83475330689694,1742],[7.568773000750104,45.834895922102824,1744],[7.56868642765469,45.83499144141101,1746],[7.568563491263839,45.835099106479824,1748],[7.568510924900362,45.835157250092365,1750],[7.568494885595057,45.83519695056212,1752],[7.568498899503981,45.835274704866485,1754],[7.56849910409781,45.835383911917795,1756],[7.568489704762801,45.835516099936584,1758],[7.5684464962059375,45.835590111464384,1760],[7.568372636175323,45.835658488936076,1762],[7.568223472929193,45.835734323580986,1764],[7.5680639537229855,45.835862529323336,1766],[7.5679803283511,45.83596018572249,1768],[7.56791815758681,45.836041309973,1770],[7.567874534063372,45.83610219080309,1772],[7.567861495795348,45.83614192879911,1774],[7.567822491147861,45.83625694547431,1776],[7.567790409581854,45.836336346167585,1778],[7.567697556999503,45.83644228674028,1780],[7.567664909439359,45.83654373216253,1782],[7.567624427587902,45.83667238023757,1784],[7.567614038084029,45.83676990423167,1786],[7.567631734462774,45.83684861673501,1788],[7.567678349789832,45.83696391929435,1790],[7.567723579515324,45.837067390545954,1792],[7.5677387052357385,45.83711456942759,1794],[7.567760062612933,45.8371458138358,1796],[7.567802497016014,45.83717522178473,1798],[7.567850397258689,45.83719656098439,1800],[7.567907160070166,45.83722378591401,1802],[7.567948435884585,45.83725449244173,1804],[7.568016696878949,45.83740445488426,1806],[7.567722247908262,45.83743706494543,1808],[7.567605836374395,45.83740725416525,1810],[7.56746327043666,45.837230033601685,1812],[7.56739848602553,45.837178819019194,1814],[7.5673190528369485,45.837171522613275,1816],[7.567260664383763,45.83718466626223,1818],[7.567004890476005,45.83730018869465,1820],[7.566907770153695,45.83732147139515,1822],[7.566808124769008,45.837315721159946,1825],[7.566655042656655,45.83725979824257,1827],[7.566582701853824,45.83719363774252,1829],[7.56651749062571,45.83710056548046,1831],[7.5664904784889115,45.836965745371245,1833],[7.5665341790260126,45.836768285086094,1835],[7.566529360429316,45.83670522187453,1837],[7.5664922457617845,45.836646253609075,1839],[7.56615155437399,45.83650022188436,1841],[7.566016645763419,45.83636352265788,1843],[7.565989243751181,45.836302426042124,1845],[7.5660099570168935,45.83612267817247,1847],[7.566066530565216,45.83592537962369,1849],[7.566160621856676,45.83577130380498,1851],[7.56623654262749,45.83569800340948,1853],[7.5663174896185055,45.835429007458956,1855],[7.56607502200343,45.835304577795895,1857],[7.565992951551514,45.835218612710264,1859],[7.5658929514504765,45.835118616782125,1861],[7.565852951193994,45.83503861864641,1863],[7.56581295131636,45.8350286192753,1865],[7.565732953477372,45.83501861995424,1867],[7.5655052053409095,45.83520676499081,1869],[7.565943008760352,45.83544727175245,1871],[7.5654230080629965,45.83640727285787,1873],[7.565963007571634,45.83724727295158,1875],[7.565553007951662,45.83775727382548,1877],[7.566173007902587,45.83827727379178,1879],[7.566113008338447,45.84009727605101,1881],[7.5665430079337295,45.8412372763947,1883],[7.566223008557561,45.842047277192925,1885],[7.566653007884776,45.84243727746717,1887],[7.567233008742518,45.8422872776178,1889],[7.567383089492086,45.84269893914808,1891],[7.567325373683729,45.84281522035381,1893],[7.567279160913879,45.84285964272164,1895],[7.5670736284332065,45.84296506953314,1897],[7.56693735729497,45.84300611203651,1899],[7.56689476684938,45.843034829015615,1901],[7.566783441453871,45.843483451594324,1903],[7.566408737043185,45.84378251305672,1905],[7.5661577181009285,45.84402912341884,1907],[7.565915582096132,45.84443110130981,1909],[7.565834252358251,45.844463831776395,1911],[7.56546865315526,45.84453349469945,1913],[7.565311388790339,45.844639524406425,1915],[7.565257000776709,45.84475134613494,1917],[7.565254675432454,45.8448008631285,1919],[7.565211595622627,45.84571813406432,1921],[7.565103667991742,45.8463653521492,1923],[7.56504011972496,45.84634612478289,1925],[7.564978192738811,45.84633711967563,1927],[7.564913675148519,45.846333350813865,1929],[7.564832279135413,45.8463346288032,1931],[7.56452648991919,45.84635974653877,1933],[7.5643796508040735,45.84635658553115,1935],[7.564225940490096,45.846327667998814,1937],[7.564090926692101,45.846275760679454,1939],[7.563587564840453,45.84594316907939,1941],[7.563294640411594,45.845815730430694,1943],[7.563278478510466,45.84582611072452,1945],[7.563205222863441,45.84585837923032,1947],[7.563141022639971,45.84588752234558,1949],[7.563085051458687,45.84590327285912,1951],[7.563067653954522,45.84588396693065,1953],[7.56306648339242,45.84585630844153,1955],[7.563063896011211,45.845847060408865,1957],[7.5630464307563905,45.84583038623581,1959],[7.562995540533707,45.84583172080372,1961],[7.562900239590406,45.8458752791012,1963],[7.562852266437798,45.845909559288074,1965],[7.562805905717785,45.84595323543477,1967],[7.562795906259396,45.84595870787481,1969],[7.562695601927316,45.84605025068177,1971],[7.562674762971515,45.84609145414832,1973],[7.562606408090839,45.846149173097146,1975],[7.562581302872686,45.846173209546954,1977],[7.562559156562856,45.8461920188996,1979],[7.562517294934875,45.84622670525569,1981],[7.562462961265919,45.846288549008555,1983],[7.562425564821905,45.846332670811826,1985],[7.562265385854948,45.846445179498446,1987],[7.562153404467386,45.846532954914835,1989],[7.562154105367655,45.84654828598097,1991],[7.562155813805071,45.846585640153855,1993],[7.5621493506042095,45.846617151937274,1995],[7.562102447270273,45.846683038399085,1997],[7.562047814640706,45.846719867036036,1999],[7.562020274255593,45.84672873497299,2001],[7.561993878469832,45.8467297194787,2003],[7.561974547966227,45.84671236373794,2005],[7.561949534237299,45.84669625231045,2007],[7.5619291821975585,45.84669274878614,2009],[7.5619289052444785,45.84669270119801,2011],[7.561928515614894,45.846693177813655,2013],[7.561906055411375,45.84672055144733,2015],[7.561852576896235,45.84678569710871,2017],[7.561823179511716,45.84683008321506,2019],[7.561813925902041,45.84687850846261,2021],[7.561785137706436,45.84689920783196,2023],[7.5617614986762645,45.846902859599844,2025],[7.561728919404861,45.84688796873415,2027],[7.561718663576495,45.84688389115039,2029],[7.561683591445917,45.84689266418302,2031],[7.561656203095201,45.84696866866684,2033],[7.561650376412725,45.84704856546612,2035],[7.561635838448547,45.84710103733837,2037],[7.561635430834664,45.847189887536594,2039],[7.561633709447997,45.847220142234264,2041],[7.561621716413281,45.847429624430006,2043],[7.561615864195091,45.84751050734138,2045],[7.561600732652988,45.84754947926625,2047],[7.561622853545038,45.847641245717156,2049],[7.5616364846799,45.847733563200364,2051],[7.561635619589182,45.847767120114376,2053],[7.561630903826667,45.84780391908413,2055],[7.561554513407075,45.84797227595259,2057],[7.561471235304446,45.84806074149889,2059],[7.561376927880283,45.84812216416958,2061],[7.561347217060077,45.848195095391134,2063],[7.561332526135538,45.84832654719031,2065],[7.561353104210594,45.84847818995487,2067],[7.561368728125599,45.84852972484852,2069],[7.561387405401942,45.84860894284352,2071],[7.561423336731037,45.84867653000955,2073],[7.561476367367609,45.84881146807711,2075],[7.561499014412196,45.84888283730724,2077],[7.561527515924603,45.848946382418845,2079],[7.561534623569048,45.84910904388861,2081],[7.56157040200213,45.84925561276632,2083],[7.5616274884724115,45.84930635381083,2085],[7.56169631529375,45.84934012932461,2087],[7.561800749981751,45.84938093504325,2089],[7.56185157022476,45.849407523787264,2091],[7.561880671394285,45.84942274884317,2093],[7.561903403978468,45.84949082852532,2095],[7.561930293979947,45.84954382190576,2097],[7.561953179318178,45.84960597945317,2099],[7.561976303426196,45.84965892541783,2101],[7.562018326129594,45.849712296464865,2103],[7.562195873456294,45.849946684071384,2105],[7.562254998926155,45.85006458604348,2107],[7.56228036217667,45.85017679697897,2109],[7.562313224986809,45.85029041813962,2111],[7.562330598260559,45.85034724101841,2113],[7.562523605588877,45.85064256345606,2115],[7.562627929391231,45.85077472169235,2117],[7.562642106750821,45.8508321307346,2119],[7.562641441376213,45.85104076808964,2121],[7.562642520148099,45.8511085751637,2123],[7.562626906103226,45.85127588733172,2125],[7.562605386938823,45.85134340918015,2127],[7.562485274352686,45.85150874855578,2129],[7.5624060818753325,45.851584760128475,2131],[7.56237631701908,45.85162502854986,2133],[7.562401795438061,45.851696268489306,2135],[7.562495089200101,45.85173101021504,2137],[7.562566140999008,45.85175165014279,2139],[7.562613296243729,45.85178581033558,2141],[7.56261398983981,45.85178783424534,2143],[7.562633444319186,45.85184464274718,2145],[7.5626639030414,45.85190541485197,2147],[7.562742716662113,45.8519537960617,2149],[7.562782578486313,45.8519786498473,2151],[7.56289510815223,45.85201237858537,2153],[7.562992880732916,45.85204168421663,2155],[7.563086678230836,45.852053655455315,2157],[7.563175947909782,45.8520650485496,2159],[7.563241486071349,45.85208035349426,2161],[7.563269733284414,45.85209309684694,2163],[7.563394183562052,45.85214924372233,2165],[7.563533244667995,45.85223556970922,2167],[7.563613418050438,45.85230437125065,2169],[7.5637136299366405,45.85239975164655,2171],[7.563754704651854,45.85243235435692,2173],[7.563787602146061,45.85247160092943,2175],[7.563830875249237,45.85251031999914,2177],[7.563886344080265,45.852572470917316,2179],[7.563898397620785,45.85257665820361,2181],[7.564025491663388,45.852688831617215,2183],[7.564143103618392,45.85280351742031,2185],[7.56422265908409,45.85285980564749,2187],[7.564296259953677,45.85292786527249,2189],[7.564317639306949,45.852975523589315,2191],[7.56443862774136,45.85306886123729,2193],[7.564510700255759,45.853142727454916,2195],[7.564536867070086,45.85320436495415,2197],[7.56457574571805,45.853230851921325,2199],[7.564636043257468,45.85323029366812,2201],[7.564609087197266,45.853289074806376,2203],[7.564610954143901,45.85329020260853,2205],[7.564599142193976,45.85338318731029,2207],[7.564546296695741,45.853460189302126,2209],[7.564525330719397,45.853542857956896,2211],[7.564559812800299,45.853667030080274,2213],[7.564560836167051,45.85377366939573,2215],[7.564534376783552,45.85392340276598,2217],[7.564428819678764,45.85403561422841,2219],[7.564388289530254,45.8540732790809,2221],[7.564351491723724,45.85411230847548,2223],[7.564324041262604,45.85415408703217,2225],[7.564317477976372,45.85418954700214,2227],[7.564320160476712,45.854231704230806,2229],[7.5643334658057215,45.8543003228274,2231],[7.564332077167146,45.85435427697696,2233],[7.56429926834358,45.854457858510045,2235],[7.564274467549469,45.85454311062055,2237],[7.564179749164126,45.85463669949114,2239],[7.564166841189609,45.85469906460753,2241],[7.564193598949987,45.85475732185864,2243],[7.5642088206443,45.85482464779506,2245],[7.564207059268583,45.854893077043,2247],[7.564203550836795,45.854956219119295,2249],[7.564215649812499,45.854998494689774,2251],[7.564227172947758,45.85506314243137,2253],[7.564256276004002,45.8551767156854,2255],[7.564250277848666,45.85519536736481,2257],[7.564263829624001,45.85524921135557,2259],[7.56274300770599,45.85726629135204,2261],[7.561233007634196,45.85748629105646,2263],[7.561204315927898,45.857474463252004,2265],[7.560814008125844,45.857436291570764,2267],[7.559544007707845,45.85779629200734,2269],[7.5597640077298855,45.85719629070147,2271],[7.559444008319062,45.85694629058108,2273],[7.559544008317382,45.85681629108546,2275],[7.558994007933525,45.85681629068153,2278],[7.559184008378611,45.85666629022486,2280],[7.559054008650956,45.85653629012701,2282],[7.559244008120956,45.85649629020517,2284],[7.559054007560607,45.85642629036067,2286],[7.559074007680812,45.856086290134,2288],[7.558734007551748,45.855866289533346,2290],[7.558664007649693,45.85629628988228,2292],[7.557724008232124,45.85629629002398,2294],[7.5568440076024865,45.85649629044,2296],[7.556174008141144,45.856876290470026,2298],[7.556174007799991,45.85707629115232,2300],[7.55587400858421,45.85717629061688,2302],[7.555924007938376,45.85747629092473,2304],[7.555774008070492,45.8574162911324,2306],[7.5557040081676705,45.85769629132858,2308],[7.556094008309669,45.85874629278753,2310],[7.556264007820097,45.85900629260045,2312],[7.5565640087024,45.8591562924786,2314],[7.556484008286381,45.85921629331329,2316],[7.556634008086269,45.8592362927484,2318],[7.556604007510098,45.85951629293881,2320],[7.555534007719811,45.859496293413585,2322],[7.555024007684915,45.85966629333787,2324],[7.5550640085681176,45.85938629314139,2326],[7.55394400774788,45.85876629245508,2328],[7.553677268806573,45.85879007264474,2330],[7.553633160408666,45.858878771708845,2332],[7.553600935509036,45.85895707278485,2334],[7.553561297635348,45.8590076911882,2336],[7.5535426214031585,45.85905614038051,2338],[7.553521938919459,45.85909239297928,2340],[7.553462097841097,45.859115977671486,2342],[7.553446016750184,45.85915391218351,2344],[7.553403738171514,45.859172039092385,2346],[7.553374419366671,45.85918302809838,2348],[7.553332323861033,45.85923888951199,2350],[7.553294394147143,45.85926843260533,2352],[7.553264953269324,45.85932891662141,2354],[7.553236399008884,45.85939996118006,2356],[7.553227977485855,45.85941121478613,2358],[7.5530865867579795,45.85953418173627,2360],[7.553082577292884,45.85955441686814,2362],[7.553084436112699,45.85957229172532,2364],[7.553069091216472,45.859581834868486,2366],[7.552979991463465,45.85963649239188,2368],[7.552967202554978,45.859681770524844,2370],[7.552915067895351,45.85972168198905,2372],[7.552888070536157,45.859732699374334,2374],[7.552791499245511,45.85973959080054,2376],[7.552734334742093,45.85977193216478,2378],[7.552703201382558,45.859808052216984,2380],[7.552642388370796,45.859824322172585,2382],[7.552612014077399,45.859831240247644,2384],[7.552595023299529,45.85985942472123,2386],[7.552526041109102,45.8598772138804,2388],[7.552392503943871,45.85989885081213,2390],[7.552290888624427,45.859921094617576,2392],[7.552244325528768,45.85997000203479,2394],[7.552215704366705,45.85999885089704,2396],[7.5521222951388856,45.860040470116395,2398],[7.552064185876866,45.860086796530155,2400],[7.552015910364364,45.86013456610523,2402],[7.551997981650447,45.86017653345221,2404],[7.5519790390823305,45.86023512241025,2406],[7.551971760326576,45.86024709963513,2408],[7.552019808417642,45.860319926614515,2410],[7.5520138853169065,45.86036914561051,2412],[7.5519960294420665,45.86039014574174,2414],[7.5519551845872686,45.86043818497699,2416],[7.551920926307433,45.86046047035344,2418],[7.551852449964669,45.860458791439164,2420],[7.551759970316059,45.86044220151921,2422],[7.551658613975508,45.86038736266644,2424],[7.551644571001374,45.86038028765834,2426],[7.551628680376022,45.86037724568615,2428],[7.551615509309708,45.86038133857393,2430],[7.551603793603029,45.86039640424885,2432],[7.551599622634873,45.860406267964684,2434],[7.5515948935956025,45.860426112303756,2436],[7.551567317696542,45.860481751222636,2438],[7.551507179348198,45.86051669137119,2440],[7.551414281035253,45.86056095359198,2442],[7.55137093535382,45.860573576895625,2444],[7.551355621469995,45.86057803589775,2446],[7.551303780281936,45.86059313365307,2448],[7.5512807809773115,45.86060513289272,2450],[7.551265781323747,45.860623132407596,2452],[7.551250782500222,45.860643132710806,2454],[7.551236782673623,45.86066013236039,2456],[7.5512067837113275,45.86067013204363,2458],[7.551180783905779,45.86066513293537,2460],[7.551151784131185,45.860665133276285,2462],[7.551130784891927,45.86067313289005,2464],[7.551106785859206,45.860685132916295,2466],[7.55106578717448,45.8607001331633,2468],[7.551021788968323,45.86070013315524,2470],[7.550995788949565,45.86069613394206,2472],[7.550963788967,45.86069613398375,2474],[7.550935790496259,45.86070613376844,2476],[7.55091079092185,45.86071613378337,2478],[7.550858792093024,45.860726134233765,2480],[7.550830793400474,45.86073113429046,2482],[7.550785794939263,45.86075113470155,2484],[7.550763795538116,45.8607611340407,2486],[7.550715796697612,45.86077013482576,2488],[7.550688796612233,45.86076813443618,2490],[7.550655797945116,45.86077513480185,2492],[7.550620798800941,45.860793135218124,2494],[7.550596799943327,45.860815134538015,2496],[7.550570800563597,45.86083113403364,2498],[7.550543801732981,45.860846134403566,2500],[7.550526803314825,45.86086613444248,2502],[7.550515803438191,45.86088313336368,2504],[7.550501803779873,45.860915132922734,2506],[7.550503804730874,45.860936132746275,2508],[7.550505805616133,45.86096313220794,2510],[7.550501805927659,45.86098513143954,2512],[7.550491806855294,45.86100813099466,2514],[7.550478807400075,45.861043130459684,2516],[7.550465807641561,45.86106812962085,2518],[7.5504518090398305,45.8610951294871,2520],[7.550443810068341,45.86112012819389,2522],[7.550440810873916,45.861155127634525,2524],[7.550465229130647,45.861194613317814,2526],[7.550501221972018,45.86123969826886,2528],[7.550511810476999,45.8612731240379,2530],[7.550518811660854,45.861308123455714,2532],[7.550521811687696,45.86132612263356,2534],[7.5505308119459675,45.86134512227616,2536],[7.550541812428873,45.861360121435496,2538],[7.55056381171306,45.86138612087053,2540],[7.550564374385845,45.861389154829666,2542],[7.550564622787874,45.861392038095765,2544],[7.550556896894425,45.86142115163739,2546],[7.550512696363215,45.86146846464841,2548],[7.550475967381615,45.861496399266876,2550],[7.550453443755056,45.861513964795016,2552],[7.550436607169187,45.86151385287216,2554],[7.550400957481239,45.86150021410732,2556],[7.550393106246194,45.861534195240566,2558],[7.550284431350859,45.8615897984099,2560],[7.550250954372271,45.861663640045144,2562],[7.550235968670077,45.861704021688396,2564],[7.55014730876839,45.8617191250972,2566],[7.550060042055951,45.86168069219119,2568],[7.5499594352464525,45.8617086268438,2570],[7.549896698268956,45.86170945330166,2572],[7.549838943850495,45.86169735995567,2574],[7.549761557061288,45.86172558917634,2576],[7.549750709315472,45.861733056774135,2578],[7.549652760782455,45.86180048246903,2580],[7.549549832796918,45.86191764473736,2582],[7.549482537201401,45.86200442500565,2584],[7.5494334814189425,45.86214904811308,2586],[7.549410792400346,45.862210389070434,2588],[7.549378513134192,45.86229765438276,2590],[7.5493259092269325,45.86235540954407,2592],[7.549131406149139,45.86242109927135,2594],[7.549028686679114,45.86244089245009,2596],[7.548979797429289,45.86253439724375,2598],[7.548951171961734,45.862563245223086,2600],[7.548921470981448,45.862584164620976,2602],[7.548886102215152,45.86260907568056,2604],[7.54888697279906,45.86270408729986,2606],[7.548887917598924,45.86280708857645,2608],[7.548906325540868,45.862903070878005,2610],[7.548889057529821,45.86303105801282,2612],[7.548802844933013,45.863130580596845,2614],[7.548754008050392,45.86316629646616,2616],[7.548844008512121,45.863806297516874,2618],[7.548344008737297,45.86419629751205,2620],[7.5479340075172345,45.86481629841985,2622],[7.5475540080064665,45.86496629829551,2624],[7.5477259721954555,45.865302039311494,2626],[7.547680056587467,45.86536829404049,2628],[7.5476200562065126,45.86532829513851,2630],[7.547580057067129,45.86532829604492,2632],[7.547570056585837,45.86535829488543,2634],[7.547540059802917,45.86535829513611,2636],[7.547509961036897,45.86541829403194,2638],[7.547459962316654,45.865408294375634,2640],[7.547409962281352,45.865448293438426,2642],[7.547379963400827,45.86542829483738,2644],[7.547329966138303,45.86545829450885,2646],[7.5472799673697155,45.86544829657324,2648],[7.547219967684717,45.86547829501106,2650],[7.547119970884755,45.86543829664783,2652],[7.547079971670757,45.86543829737818,2654],[7.546999974658679,45.86554829572124,2656],[7.5468399771330485,45.86555829777361,2658],[7.546769978793629,45.865548297233154,2660],[7.546739981110579,45.86556829784518,2662],[7.546559982035899,45.86549830194922,2664],[7.546339989201599,45.865488304458765,2666],[7.546109991946375,45.86541830708191,2668],[7.546019993755441,45.86541830836006,2670],[7.545859996026626,45.86538831146984,2672],[7.545740000242508,45.86535831234291,2674],[7.5456599982682295,45.8652883152341,2676],[7.545570002102744,45.86525831620716,2678],[7.545470000839087,45.86514832059444,2680],[7.545210003116701,45.86497832712663,2682],[7.545160003368544,45.86491832948584,2684],[7.545020003404987,45.864828332307674,2686],[7.544940005405782,45.86479833410956,2688],[7.544820007341796,45.86478833456864,2690],[7.544690009283149,45.86474833714216,2692],[7.544660009476778,45.86475833779062,2694],[7.544620011526507,45.864748338282105,2696],[7.544550011735138,45.86470833998094,2698],[7.544400014774977,45.86466824224529,2700],[7.544280016025661,45.864608245161534,2702],[7.544220018937038,45.8645982462879,2704],[7.54414002087753,45.864608246900296,2706],[7.543980023047467,45.86458824856186,2708],[7.5438400247473405,45.864538251125545,2710],[7.543770025023629,45.864478253558104,2712],[7.543570028537955,45.86443825542078,2714],[7.543360033296822,45.86441825783904,2716],[7.543170035344128,45.864368261085104,2718],[7.542740045472546,45.864288266743685,2720],[7.542600047560376,45.864228270194346,2722],[7.54245004977194,45.86421827246838,2724],[7.542290051845104,45.8641482747872,2726],[7.542210052681924,45.86414827643982,2728],[7.542140055351557,45.86410827848718,2731],[7.5420000562397504,45.86408827876225,2733],[7.541639962628131,45.86399828544919,2735],[7.541499968810747,45.86405828573511,2737],[7.5414099702348425,45.86405828697379,2739],[7.541189973863948,45.86402828972103,2741],[7.541109974891917,45.864028290605326,2743],[7.541039977834728,45.864048290148475,2745],[7.540909981331421,45.86402829262032,2747],[7.540879980424605,45.86400829227902,2749],[7.540749982630675,45.86399829394675,2751],[7.54065998602211,45.86396829463502,2753],[7.540399989786796,45.86398829849243,2755],[7.540349991071854,45.86397829751912,2757],[7.54009999884084,45.86401829949509,2759],[7.5399799990981355,45.864018301438804,2761],[7.540020000651045,45.864078299594425,2763],[7.539810005741157,45.86408830087021,2765],[7.539650007451775,45.86405830246078,2767],[7.539570010252831,45.86407830287858,2769],[7.539260019576537,45.864208302795326,2771],[7.539170022446764,45.86422830287656,2773],[7.538880028757229,45.864188306741354,2775],[7.538590033274412,45.864118311661905,2777],[7.538500035337279,45.86412831181036,2779],[7.5385200347566075,45.8641683114266,2781],[7.538560036345038,45.864178311320195,2783],[7.538510037323618,45.864198311321864,2785],[7.53842003782121,45.86418831259781,2787],[7.538380040236395,45.864198311495876,2789],[7.538290042265582,45.86424831085715,2791],[7.538260044259595,45.86429831102736,2793],[7.538070048642101,45.86436831114877,2795],[7.537950053929449,45.86437831221885,2797],[7.537720058585391,45.86434831352418,2799],[7.5376700568124635,45.8643283155444,2801],[7.537529962982244,45.86434831570567,2803],[7.537319966065754,45.86434831838309,2805],[7.537189967634531,45.86432832019619,2807],[7.537139970095059,45.8643383202223,2809],[7.5370499705924905,45.86432832221876,2811],[7.536919976655475,45.86434832136065,2813],[7.536829976685665,45.864388321951026,2815],[7.536699983033497,45.86448832140244,2817],[7.5365399881778234,45.86453832103712,2819],[7.536449988829298,45.864538321957625,2821],[7.536249994367391,45.864568322984816,2823],[7.536119996089319,45.864558324777164,2825],[7.535989999936065,45.864528325859716,2827],[7.5357000056470556,45.86454832881044,2829],[7.535370016692699,45.86466832885583,2831],[7.535130022459851,45.864698331729215,2833],[7.535000024111687,45.864688332246004,2835],[7.534740029896412,45.86462833708957,2837],[7.534380037276232,45.86457824055666,2839],[7.533670050380535,45.86450824980152,2841],[7.533550052510975,45.86448825162386,2843],[7.533460054197773,45.864438253226595,2845],[7.533280058590982,45.86442825618661,2847],[7.532569970597144,45.864248267541925,2849],[7.532339974528045,45.86425826818131,2851],[7.532259976024779,45.864238269481454,2853],[7.53213997835987,45.86417827224095,2855],[7.531939982273839,45.86410827714568,2857],[7.5316599845995675,45.86394828316645,2859],[7.531519985532965,45.863908284398846,2861],[7.531449985077381,45.86378828827663,2863],[7.531399988101455,45.863778288805655,2865],[7.531379985583182,45.86374829089277,2867],[7.53133998762363,45.863748289725315,2869],[7.531289988378248,45.863688293194784,2871],[7.531259987924217,45.863678293324895,2873],[7.531199990409763,45.86368829359456,2875],[7.53100999423375,45.86365829701009,2877],[7.530750001089059,45.86371829632589,2879],[7.5307000034348395,45.863758297121926,2881],[7.5305400069999395,45.86374829736007,2883],[7.5305200072493355,45.863758298717634,2885],[7.530410008327364,45.86374829924052,2887],[7.5303700073679165,45.86371830130528,2889],[7.5302500113411135,45.86367830268578,2891],[7.529830019894589,45.86364830791788,2893],[7.529750019687914,45.86360831044103,2895],[7.529630022632564,45.86358830994932,2897],[7.529450024676804,45.86352831345385,2899],[7.5293600263550005,45.86347831721378,2901],[7.529280029593957,45.863518316427104,2903],[7.528824008273374,45.86376729720971,2905],[7.528324008454938,45.86464729794372,2907],[7.528754007921971,45.86524629818088,2909],[7.528904008781476,45.86631629912945,2911],[7.529204007835332,45.86648629928646,2913],[7.529674008166761,45.867436300731335,2915],[7.529874007905335,45.86741630078301,2917],[7.530004008720019,45.86758630087098,2919],[7.529954008543972,45.86820630098954,2921],[7.530154007704365,45.868466301436776,2923],[7.529914008758385,45.868826301903844,2925],[7.530154007923298,45.870006302519954,2927],[7.529824008268739,45.87116630429438,2929],[7.529914008396419,45.87260630528174,2931],[7.530254007771267,45.87324630569329,2933],[7.52991500834211,45.873936306014585,2935],[7.530605007680102,45.874476307284255,2937],[7.53090500785089,45.874476306985976,2939],[7.531315007978273,45.874706307120306,2941],[7.5320840087611485,45.87462630677984,2943],[7.5329840080131385,45.87481630703232,2945],[7.533004008320039,45.87509630792188,2947],[7.533474008182408,45.875206307743966,2949],[7.5336040084819595,45.87558630750244,2951],[7.534054007948542,45.875866308514205,2953],[7.5348540076858885,45.875846308230805,2955],[7.535514008586635,45.87608630875219,2957]]}}]}