{"type":"FeatureCollection","features":[{"type":"Feature","properties":{"slug":"67-s26","sct_code":"67_S26","source":"Catasto Sentieri VdA"},"geometry":{"type":"LineString","coordinates":[[7.553765482058835,45.810174060122165,1865],[7.553842076116914,45.810226294439346,1866],[7.553924191702301,45.810285836747575,1867],[7.554009582203785,45.81034317034094,1868],[7.554094972880694,45.810400503872025,1869],[7.554180305520032,45.810460086712325,1870],[7.554262480019228,45.81051737941193,1871],[7.554319388065897,45.810556351440454,1871],[7.554379512728489,45.810595364145165,1872],[7.554452270821004,45.81064353711338,1873],[7.554525029039141,45.810691710036366,1874],[7.554597787382885,45.8107398829141,1875],[7.554670487658335,45.81079030511845,1876],[7.554755937888489,45.81084538879555,1877],[7.554835071553,45.81089589228418,1878],[7.554917480102552,45.81094418703616,1879],[7.554996614053617,45.81099469041546,1880],[7.555066272993364,45.81103832357096,1881],[7.555139148607703,45.81108199736776,1882],[7.555244015504138,45.81113282603834,1882],[7.555294957078289,45.8111537212544,1883],[7.55534595685841,45.811172367075784,1884],[7.555409706632006,45.811195674321,1885],[7.555473514621867,45.811216732158684,1886],[7.555546972385883,45.81123791197569,1887],[7.55562043020657,45.81125909174605,1888],[7.555713362009451,45.811273767353484,1889],[7.555809452292256,45.811290732922686,1890],[7.555908933650224,45.81130099095436,1891],[7.555976542269253,45.81130712433679,1892],[7.556075965552197,45.811319631596675,1893],[7.55616979612074,45.8113331049343,1893],[7.556266119176402,45.81134107262945,1894],[7.5563208592015245,45.81133951431298,1895],[7.556408230045618,45.81132036745983,1896],[7.5564930235882874,45.8112764367864,1897],[7.556532319972154,45.8112499320348,1898],[7.556601495373216,45.81118780307047,1899],[7.5566738290760656,45.81112796407498,1900],[7.556742946056446,45.81106808439375,1901],[7.556829399738579,45.811003756963395,1902],[7.556898352318764,45.81094694065732,1903],[7.556951153639223,45.81089585517233,1904],[7.556986113375455,45.81086427234143,1904],[7.557077728748239,45.81077552874664,1905],[7.557113961293281,45.810737564445574,1906],[7.557140393776184,45.81067520128899,1907],[7.557148979355478,45.8106356430221,1908],[7.557151192158557,45.81058943214889,1909],[7.557206112725379,45.81061867876861,1910],[7.557335323807635,45.81071764757837,1911],[7.557412151186669,45.81083282696199,1912],[7.557496510280616,45.81094388379414,1913],[7.557521948738436,45.81098281236109,1914],[7.557650378482982,45.811015836478866,1915],[7.557774370481305,45.81101012957126,1915],[7.5579144401662095,45.81091841665184,1916],[7.557974648958795,45.810862286755956,1917],[7.558003483895882,45.81075931767693,1918],[7.558039643365466,45.8106572915838,1919],[7.558047640279444,45.810519294390524,1920],[7.558149636151689,45.810447295757236,1921],[7.5582596359532355,45.81051129287737,1922],[7.558372634747279,45.81059628974365,1923],[7.558505633219148,45.810659287093834,1924],[7.558620631458813,45.81074428374074,1925],[7.558685633167162,45.81085928065405,1926],[7.558737634893242,45.811016276038465,1926],[7.558792636402767,45.8111842708653,1927],[7.558789639437423,45.811334267545284,1928],[7.55879064235166,45.81146626431933,1929],[7.558762645879275,45.81158726122505,1930],[7.558707649926513,45.81171925892531,1931],[7.558569654178852,45.811839257626204,1932],[7.558529658617955,45.81198725376274,1933],[7.558550660352097,45.812082251891866,1934],[7.55855566384659,45.81226224712132,1935],[7.558542667431684,45.81244424282915,1936],[7.558625669148659,45.812607237545556,1937],[7.558724669010698,45.812717234301594,1937],[7.558797669857755,45.81285423007619,1938],[7.558895670310547,45.81296622656651,1939],[7.559045668252992,45.81305722292842,1940],[7.559190664954447,45.81307222119904,1941],[7.559339662845407,45.81309721881846,1942],[7.559482659651092,45.813139217083794,1943],[7.559605657813784,45.8131812141258,1944],[7.559747655124063,45.81321921226635,1945],[7.559869653755042,45.813256210184385,1946],[7.560015650754093,45.81328620752963,1947],[7.560154648955236,45.81334620490692,1948],[7.56024464930895,45.81343120251648,1948],[7.56035064747727,45.813512199362826,1949],[7.560469646787415,45.81360119571195,1950],[7.560569647291585,45.81369719249067,1951],[7.560655646751883,45.81380218871009,1952],[7.560704647293473,45.81390218610066,1953],[7.560725649406953,45.81400218353893,1954],[7.560757651076042,45.81411218041912,1955],[7.560775652888846,45.81422117737337,1956],[7.560854652725022,45.814332174036856,1957],[7.560954653523658,45.81444717036929,1958],[7.5610746525892605,45.814577165706794,1959],[7.561154653771918,45.814677162747124,1959],[7.561197653904984,45.81478715941112,1960],[7.5612176566766065,45.81491615612906,1961],[7.561199659537281,45.8150311538087,1962],[7.561207661369654,45.81514115068316,1963],[7.56116966456447,45.81525114873865,1964],[7.561167666352682,45.81537114603905,1965],[7.561155668439385,45.81548114302397,1966],[7.561067672237326,45.81557214141343,1967],[7.560989676431777,45.815689139225434,1968],[7.561072676758189,45.81579113617535,1969],[7.56116767628768,45.81589213303953,1970],[7.56125467669356,45.81597712983105,1970],[7.561362675125067,45.81603712770145,1971],[7.561477674488557,45.816116124417455,1972],[7.561579673740181,45.81620112171774,1973],[7.561590675609589,45.816301119045875,1974],[7.56150767941957,45.81639411761019,1975],[7.561384684197936,45.81647711696144,1976],[7.561190584908452,45.8166077959434,1977],[7.561030851624191,45.816780071813675,1978],[7.5609747797310805,45.81686464901358,1979],[7.5609293357410845,45.8170321657537,1980],[7.560880403288737,45.81711485094693,1981],[7.560848729706959,45.817201966640724,1981],[7.560835685692178,45.81728163245908,1982],[7.560834341217711,45.81740260009489,1983],[7.560861449062255,45.81749268840083,1984],[7.56090127464318,45.817598307829215,1985],[7.561014716641435,45.81775208877388,1986],[7.561104716418333,45.81782708616304,1987],[7.561204715561479,45.81789408383897,1988],[7.561314714035674,45.81795708066235,1989],[7.561432712628617,45.818029077738274,1990],[7.561535711655615,45.81810107573016,1991],[7.561647711200331,45.81816607301947,1992],[7.561765709384404,45.81823706979636,1992],[7.561892708090139,45.81830106672257,1993],[7.562005707299717,45.818377063955666,1994],[7.562077587300445,45.81845703652516,1995],[7.562212419991656,45.818508316900825,1996],[7.5625767138807305,45.81868148632691,1997],[7.562705995016226,45.81878651697397,1998],[7.562874697533066,45.8188510437899,1999],[7.563049693873281,45.8188810420095,2000],[7.563229689735664,45.81889703968388,2001],[7.563385686316934,45.8188990375345,2002],[7.5635376833424655,45.81889603645015,2003],[7.563685680056426,45.81890703452273,2003],[7.563832676728061,45.81892103317168,2004],[7.563975673535676,45.81891903170842,2005],[7.564057672635106,45.81892203083055,2006],[7.564140670782679,45.81892902963656,2007],[7.564304666807203,45.818944027976904,2008],[7.564387665022722,45.81895102660416,2009],[7.564562661874347,45.8189670250584,2010],[7.564732659417742,45.81901402178104,2011],[7.564904657037304,45.8190760191728,2012],[7.565070653903826,45.8191610153046,2013],[7.56521965193808,45.81922101234504,2014],[7.565282653020364,45.8193110094388,2014],[7.565267656176608,45.819439006854914,2015],[7.565214659806783,45.8195660040926,2016],[7.565115663892289,45.81967700222398,2017],[7.564944669814574,45.81977400114986,2018],[7.564854673377674,45.81988399965017,2019],[7.564865675326235,45.8200119959982,2020],[7.564947677008176,45.82016199203159,2021],[7.565119675135685,45.82028398767337,2022],[7.565299673696973,45.82041698213396,2023],[7.565445673314207,45.8205409773742,2024],[7.565510544490954,45.82061471875143,2025],[7.565619566731492,45.82066023652622,2025],[7.565804881761154,45.82080800901453,2026],[7.565891348895862,45.82097569582425,2027],[7.565953504843401,45.82104808969728,2028],[7.566001520881124,45.82110401349074,2029],[7.566195825349876,45.82119636380749,2030],[7.566354221222222,45.82121421854222,2031],[7.566462378167714,45.82123765202821,2032],[7.566587423084082,45.82126474537346,2033],[7.566674660179916,45.82128894761252,2034],[7.566729066387044,45.82134585671442,2035],[7.566723928611317,45.82139868139594,2036],[7.566657683030106,45.821474540080466,2036],[7.566603527460348,45.82152146108174,2037],[7.566580756160689,45.82153461928069,2038],[7.566558035777439,45.82154774931262,2039],[7.566593472147782,45.821618518696944,2040],[7.5666751617573205,45.82167772234427,2041],[7.566749969615605,45.82171039457476,2042],[7.566786558138811,45.821758454104554,2043],[7.566732334549803,45.82180801863332,2044],[7.566629567855534,45.821833173374465,2045],[7.566589410924526,45.8218456022104,2046],[7.566511972068369,45.821920288010176,2047],[7.5663757757240715,45.821995267852806,2047],[7.56627489894049,45.82202044689143,2048],[7.566205245311075,45.82204062017249,2049],[7.566057690072951,45.82204893500742,2050],[7.566035290252319,45.822095038376524,2051],[7.566002028850626,45.822119908429045,2052],[7.565957692097116,45.82213422686428,2053],[7.565847232544945,45.8221092159267,2054],[7.565575500890967,45.82196183816719,2055],[7.565506397967703,45.821895717460315,2056],[7.5651465529305275,45.82174719170368,2057],[7.565076698622595,45.82171339978811,2058],[7.565021544770384,45.82172762069171,2058],[7.5650105457182475,45.8217567437796,2059],[7.565044772937087,45.8217987502293,2060],[7.565190893687602,45.82194956132235,2061],[7.5655315855604846,45.82259676279122,2062],[7.565605316451679,45.82269253404378,2063],[7.565716702099622,45.82276929031642,2064],[7.565836569398901,45.82280522537864,2065],[7.565942601947794,45.82283048676426,2066],[7.56575703091725,45.82287831552536,2067],[7.5655654791393845,45.82290863598775,2068],[7.565361531733154,45.82292301463796,2069],[7.565203424422572,45.82292882514525,2069],[7.565134789680061,45.82292406502259,2070],[7.56508320685899,45.8229065269461,2071],[7.565023040124923,45.82286364386348,2072],[7.564999434888398,45.82286663700316,2073],[7.564966119912605,45.82287086273025,2074],[7.564947626876856,45.822928147567445,2075],[7.564960430322555,45.82298185816024,2076],[7.565004785039234,45.823022082843444,2077],[7.565017210955926,45.82302766707779,2078],[7.565100134085185,45.82306493082454,2079],[7.565194924184598,45.823129588706635,2080],[7.565202106137054,45.8231812458753,2080],[7.565161997387376,45.82319660894716,2081],[7.564869768680706,45.82311302623371,2082],[7.564779107670484,45.823097595513595,2083],[7.564636129424203,45.82309320072827,2084],[7.5644820458124205,45.82303435772246,2085],[7.564418051133635,45.82304099059601,2086],[7.564395540041703,45.82308904982868,2087],[7.564446655290153,45.82316964283398,2088],[7.5644666904221936,45.823268325813935,2089],[7.5644938658910865,45.82340218482176,2090],[7.5645430394799655,45.8234548638025,2091],[7.564592786528105,45.823485237044295,2091],[7.564751755353442,45.823611808171535,2092],[7.564822575523142,45.8237060771774,2093],[7.564839184317259,45.82372818383359,2094],[7.564811261459486,45.823779894126204,2095],[7.564706861224064,45.82380647207587,2096],[7.564566437495186,45.82378611466735,2097],[7.564459473902313,45.823808942111675,2098],[7.5643184290363585,45.82381274719963,2099],[7.564240057791985,45.82375784258791,2100],[7.564065550752212,45.8237184622474,2101],[7.563914779161416,45.823686818857695,2102],[7.563772154362708,45.823651958339134,2102],[7.563642776068964,45.82367591808187,2103],[7.563487777887415,45.82361192120579,2104],[7.563295780548408,45.82353592478424,2105],[7.562924154991177,45.82337687183618,2106],[7.562781551394881,45.823337890855356,2107],[7.562499339725358,45.82324695325442,2108],[7.562313195460586,45.823194873619855,2109],[7.562066911696482,45.82315458779541,2110],[7.561833729292416,45.823121903415625,2111],[7.561625695807032,45.82314531437183,2112],[7.561467359310693,45.82320095931023,2113],[7.561264821698061,45.823358949089744,2113],[7.5611348269903775,45.823428948842704,2114],[7.5609498319916,45.82349594882606,2115],[7.560819833943624,45.82346595088955,2116],[7.560712835428824,45.82339195334303,2117],[7.560589836072735,45.823303957352714,2118],[7.5604558380221185,45.82322196001467,2119],[7.560355837602261,45.823130963928755,2120],[7.56032535282961,45.82309035420655,2121],[7.560308133841289,45.823036217528525,2122],[7.560290027935715,45.822913274106874,2123],[7.560268091444553,45.82273264465191,2124],[7.560229747859079,45.822672663271085,2124],[7.560149012389157,45.82260657002734,2125],[7.560096695265241,45.822608795251526,2126],[7.5600478473995985,45.822610872472026,2127],[7.559985455714752,45.82265842815027,2128],[7.559889149841395,45.822783647466494,2129],[7.559841176658943,45.822821136053655,2130],[7.559812981143751,45.822824057653264,2131],[7.559735064473363,45.8228291173264,2132],[7.559687690519701,45.82280992699587,2133],[7.559609518341979,45.82274758466069,2134],[7.55954492638196,45.82267425659318,2135],[7.55950406872211,45.82260866571043,2135],[7.5593433671156545,45.8224467387677,2136],[7.559184848691683,45.8223589935469,2137],[7.559075849246924,45.82225399698587,2138],[7.558950850026614,45.82215400073326,2139],[7.558795850895267,45.82205100495501,2140],[7.558687852126459,45.822001006879695,2141],[7.558462856641344,45.82194401067022,2142],[7.558324859215636,45.82193101243075,2143],[7.55818986190755,45.82192701360278,2144],[7.558074866334572,45.82199701288369,2145],[7.558061671502508,45.822030815705595,2146],[7.557993999710161,45.822096911113384,2146],[7.557977099878773,45.82211341786187,2147],[7.557929336539147,45.82213512607109,2148],[7.5578662541899515,45.82210644016031,2149],[7.557719349467625,45.82202835384611,2150],[7.557546339644998,45.821931344666325,2151],[7.557417037045299,45.821892525818214,2152],[7.557334337370319,45.821902637490716,2153],[7.557306408584762,45.821954344992896,2154],[7.557274584551232,45.82205388100503,2155],[7.557265552033532,45.822094672020924,2156],[7.557279822262022,45.82215992794333,2157],[7.557296030922401,45.82225309882999,2157],[7.557272937849212,45.822323460447905,2158],[7.557243311752659,45.822337961281185,2159],[7.557180228251674,45.822309274977755,2160],[7.557104286108886,45.822263691756916,2161],[7.557098757063822,45.822261502324395,2162],[7.557012153002468,45.82222720140212,2163],[7.556988033857803,45.82223433378618,2164],[7.556978474059445,45.82229557066137,2165],[7.557016861909411,45.822353694213504,2166],[7.5570744358540205,45.82238974806012,2167],[7.5570837656763965,45.82240576333556,2168],[7.5571126317713935,45.82245530619765,2168],[7.557119117848492,45.82251302677611,2169],[7.557083645885246,45.82254790627452,2170],[7.557007863431063,45.82259900926396,2171],[7.556893213818512,45.822610576527005,2172],[7.556789676855115,45.82260369010776,2173],[7.556727091562425,45.82265867950439,2174],[7.556649130319163,45.82269116167234,2175],[7.556571938950384,45.82269390534416,2176],[7.556519634445574,45.82265977641438,2177],[7.556419651448437,45.822616746598804,2178],[7.55640391023994,45.82260997198097,2179],[7.556347553708359,45.82262971235252,2179],[7.556308701687963,45.8226924384805,2180],[7.556333748719681,45.82275225224944,2181],[7.556388904116419,45.822778980247456,2182],[7.5564336181480405,45.822798138335656,2183],[7.556559917688618,45.82289900610436,2184],[7.556635918641221,45.82303900206952,2185],[7.556692919645461,45.8231469981745,2186],[7.5566999221954845,45.82325599615279,2187],[7.5568159205764855,45.82335099212024,2188],[7.556927919903489,45.82342898967345,2189],[7.557083893833298,45.823567508706326,2190],[7.557106859612777,45.823604984884426,2190],[7.5570972688906535,45.82377034264334,2191],[7.557267047191837,45.82388962368309,2192],[7.557387851002643,45.82394878790059,2193],[7.557379939742907,45.82397192976247,2194],[7.55724315395933,45.824016684971035,2195],[7.557261091873085,45.82404294160546,2196],[7.557623630894997,45.82411259525695,2197],[7.5578902724435055,45.82418847516586,2198],[7.558239328566546,45.82426539369685,2199],[7.558362906655847,45.824388952036564,2200],[7.558360261738951,45.824422636902106,2201],[7.558258506838249,45.82465562627886,2201],[7.5582133003093555,45.824694101332106,2202],[7.558162251254633,45.82457260221649,2203],[7.558125655648874,45.824547968824206,2204],[7.55811135495817,45.82458683391259,2205],[7.558096958245743,45.824629416756984,2206],[7.5580432881374735,45.82454506970534,2207],[7.557988226190152,45.824514625625405,2208],[7.557990326561306,45.824639225935506,2209],[7.557922249174667,45.82480384545863,2210],[7.557844400119683,45.824934874451266,2211],[7.557804610788976,45.82495668326344,2212],[7.557769480467766,45.82495252169118,2212],[7.557793004876105,45.82486543098369,2213],[7.557784928651172,45.82483594628296,2214],[7.557736725464139,45.82477919226509,2215],[7.557685181801042,45.8248956773711,2216],[7.557631926163581,45.82493683979713,2217],[7.557587915265307,45.82494186166847,2218],[7.557590865306014,45.82484056688638,2219],[7.557522798577541,45.82479880237176,2220],[7.557503000736209,45.824883150852685,2221],[7.557459489933337,45.82488167259195,2222],[7.557419113401073,45.82479749311199,2223],[7.557352823614806,45.82468695718898,2223],[7.557302568880147,45.824779287796616,2224],[7.557260719631857,45.824777829543336,2225],[7.5572054500748,45.82472971915747,2226],[7.5571232264357855,45.82472124363723,2227],[7.557061231268397,45.82485619040716,2228],[7.556967172598378,45.82489404791209,2229],[7.556886846177037,45.82488931425691,2230],[7.556857442055837,45.82479225859001,2231],[7.556829782843467,45.82473055157259,2232],[7.556740656249321,45.824783346177945,2233],[7.556659762583085,45.82492920998037,2234],[7.556613900974215,45.82492863053895,2234],[7.556509953183318,45.8248603819766,2235],[7.556395089439408,45.82477712039767,2236],[7.556331236063933,45.82477817296998,2237],[7.5563041089316325,45.82487590853846,2238],[7.556154920626512,45.82483451307088,2239],[7.556058474584673,45.82491324382403,2240],[7.555932556749347,45.82488469236759,2241],[7.555847097317934,45.82493706730924,2242],[7.5556692128371274,45.824925521922744,2243],[7.555569171688799,45.824924722376196,2244],[7.555429867592714,45.82496386511195,2245],[7.555141528690132,45.82507131254116,2245],[7.554911542552637,45.825120464602556,2246],[7.554579471919264,45.82520922878275,2247],[7.554440408301226,45.8252390777287,2248],[7.554324500330452,45.82529896769635,2249],[7.5541550833672995,45.82537119672736,2250],[7.553942566343154,45.82542744874316,2251]]}}]}