{"type":"FeatureCollection","features":[{"type":"Feature","properties":{"slug":"67-s13","sct_code":"67_S13","source":"Catasto Sentieri VdA"},"geometry":{"type":"LineString","coordinates":[[7.569276597470714,45.801385344800266,1540],[7.568548943101557,45.801260279159536,1542],[7.568022008672429,45.80085824148279,1545],[7.567787471459994,45.80070254840526,1547],[7.567572008515601,45.80029824067512,1549],[7.56712200844532,45.800018241051795,1551],[7.566412008599749,45.79994824091808,1554],[7.566392007738697,45.799548240442824,1556],[7.566772008155231,45.798968239600676,1558],[7.566132008442567,45.79720823826572,1561],[7.5660125955492274,45.79702911904746,1563],[7.565192008596218,45.796218237767675,1565],[7.564960238047136,45.795862365613054,1567],[7.564876062208957,45.79528710170316,1570],[7.564780699467573,45.79503183970885,1572],[7.564705328708971,45.79486366340088,1574],[7.564620615773376,45.7947694992021,1576],[7.564531744067618,45.794710278250406,1579],[7.5644884089330695,45.79468538116792,1581],[7.564692007638678,45.793388234882144,1583],[7.5636820083132275,45.7926182345989,1586],[7.562832008670995,45.79220823426795,1588],[7.562592007597402,45.791608233938675,1590],[7.564742008093456,45.78986823247385,1592],[7.566222008496649,45.788838231378406,1595],[7.567912008164478,45.787978230822176,1597],[7.569332007617414,45.78748822994529,1599],[7.5696310926472625,45.78722461643711,1602],[7.570082007599388,45.78703822944451,1604],[7.570172008289219,45.786868230116795,1606],[7.570322008011618,45.786308229068794,1608],[7.570042007599745,45.78497822826903,1611],[7.570142008267884,45.78471822788617,1613],[7.569932007560413,45.7845282273705,1615],[7.572332008283696,45.783408227226374,1618],[7.5725320081869825,45.782938226137745,1620],[7.573212007779316,45.782488226501414,1622],[7.57364200801798,45.78196822529759,1624],[7.573812007522678,45.78117822513577,1627],[7.5743320082842125,45.78091822458766,1629],[7.574112008425203,45.78048822438625,1631],[7.5744420078821255,45.778108222857554,1634],[7.5742420082374045,45.777318221787965,1636],[7.574712007725605,45.77589822081043,1638],[7.574652007538175,45.77535821997218,1640],[7.574862008718318,45.77505821952361,1643],[7.57641200796615,45.77390821866825,1645],[7.577441008052308,45.7732982183457,1647],[7.5792210085987834,45.77280821811841,1649],[7.580571008422976,45.771968217434505,1652],[7.581151007813469,45.77175821679054,1654],[7.581711007989811,45.771158216759346,1656],[7.5822910078835735,45.770858216225015,1659],[7.5825510086753525,45.770488215828045,1661],[7.583431008475821,45.76973821509475,1663],[7.584911008216056,45.769058214921884,1665],[7.586321007719103,45.76877821475573,1668],[7.586229076730614,45.76844759334003,1670]]}}]}