{"type":"FeatureCollection","features":[{"type":"Feature","properties":{"slug":"67-s28","sct_code":"67_S28","source":"Catasto Sentieri VdA"},"geometry":{"type":"LineString","coordinates":[[7.5585366911615814,45.81669593285507,1884],[7.558540151802376,45.81658762312501,1886],[7.558502499082483,45.81648234798501,1888],[7.558399149290246,45.81638759963635,1890],[7.558184622862309,45.81619573396296,1892],[7.5577076213600405,45.8157643481093,1895],[7.557675636964226,45.81542164102854,1897],[7.557221782372063,45.814442286154765,1899],[7.557219865697006,45.81430794227789,1901],[7.557200235643491,45.81413378450424,1903],[7.5571962990702914,45.81399876077817,1905],[7.557206271922636,45.81382822152636,1907],[7.557239946056647,45.81367420487658,1909],[7.557311688722591,45.81348335590499,1912],[7.557381585144755,45.81329215955253,1914],[7.557441450323267,45.81313003747149,1916],[7.557552365172742,45.81293157179332,1918],[7.557681193198097,45.8127041302746,1920],[7.5577864049550625,45.81251078379902,1922],[7.557830169168222,45.81239712714792,1924],[7.557865989041568,45.81223178152497,1926],[7.557883263576451,45.81206587685922,1929],[7.5578811639972505,45.81193152433269,1931],[7.557803522999057,45.811632043096466,1933],[7.557777502964015,45.81156163094745,1935],[7.55772088387925,45.81138246458379,1937],[7.557638508407874,45.811194535985194,1939],[7.557572811980697,45.81107949730754,1941],[7.557521948738436,45.81098281236109,1943],[7.557496510280616,45.81094388379414,1946],[7.557412151186669,45.81083282696199,1948],[7.557335323807635,45.81071764757837,1950],[7.557206112725379,45.81061867876861,1952],[7.557151192158557,45.81058943214889,1954]]}}]}