{"type":"FeatureCollection","features":[{"type":"Feature","properties":{"slug":"67-s29","sct_code":"67_S29","source":"Catasto Sentieri VdA"},"geometry":{"type":"LineString","coordinates":[[7.563294640411594,45.845815730430694,1919],[7.563587564840453,45.84594316907939,1919],[7.564090926692101,45.846275760679454,1919],[7.564225940490096,45.846327667998814,1919],[7.5643796508040735,45.84635658553115,1919],[7.56452648991919,45.84635974653877,1919],[7.564832279135413,45.8463346288032,1919],[7.564913675148519,45.846333350813865,1919],[7.564978192738811,45.84633711967563,1919],[7.56504011972496,45.84634612478289,1919],[7.565103667991742,45.8463653521492,1919],[7.565194535039939,45.846431933365714,1919],[7.565340142068353,45.84665427126637,1919],[7.565439558921531,45.84679222464568,1919],[7.565537254849194,45.84687445478854,1919],[7.5657558141598935,45.847014454636934,1919],[7.566174414954662,45.84738872461533,1919],[7.566360179364539,45.84751403259068,1919],[7.566398189932913,45.84753754604676,1919],[7.566440338309883,45.84754663160695,1919],[7.566423864108735,45.84758295380992,1919],[7.566420849132507,45.84762701422168,1919],[7.566452534126217,45.847676776183626,1919],[7.566482876559641,45.84770545950891,1919],[7.566522977988842,45.84772093572147,1919],[7.566610650032248,45.84773602235205,1919],[7.566662184333551,45.84774637764192,1919],[7.5667160087875365,45.84775922954392,1919],[7.5668064994454305,45.84779294436362,1919],[7.566973829845168,45.84791516335169,1919],[7.567053262001499,45.848020777368994,1919],[7.567140093193344,45.848150121816644,1919],[7.567234848052317,45.84834706838579,1919],[7.5675394994322,45.84864565102772,1919],[7.567613457677203,45.84877483368939,1919],[7.56770079600583,45.8490099384517,1919],[7.567781192642129,45.849139201716426,1919],[7.568644702624981,45.850119814183515,1919],[7.56894163939817,45.85071980878963,1919],[7.568957779163711,45.850843766072394,1919],[7.5690122571107405,45.85097945403801,1919],[7.569093986504965,45.8510569808921,1919],[7.569259061230919,45.851149052061686,1919],[7.56936315045723,45.85123360902337,1919],[7.569394012754392,45.85128574763235,1919],[7.569398777769227,45.85135105999032,1919],[7.569357670473093,45.85144729920464,1919],[7.569197566697064,45.85166355313105,1919],[7.569189801942363,45.851715208012656,1919],[7.569233020841628,45.851787752250274,1919],[7.569226225104334,45.851927172876444,1919],[7.569158269327472,45.852065827515084,1919],[7.568803087367085,45.85262389256198,1919],[7.568777632937293,45.85264315397818,1919],[7.56868831094516,45.852673628025784,1919],[7.568547944729384,45.85267450285111,1919],[7.568481593878876,45.8526907838664,1919],[7.56841527674796,45.85270574941174,1919],[7.568360562160307,45.85270901313088,1919],[7.568319639164646,45.85268875438776,1919],[7.56821337722988,45.85264529915218,1919],[7.56812523845997,45.85262971379988,1919],[7.568046075461157,45.85263135418608,1919],[7.567977739403718,45.85265156028765,1919],[7.567937584244374,45.85267475131294,1919],[7.567896111499783,45.852749264811536,1919],[7.567882253456341,45.85277541807114,1919],[7.56789953178058,45.852836188246506,1919],[7.567887557446762,45.85286236601973,1919],[7.567799983250782,45.85289812649741,1919],[7.567757261793062,45.852901163162215,1919],[7.567722262401108,45.85289816287224,1919],[7.567595389033387,45.852869233559574,1919],[7.567591151786653,45.85286540927755,1919],[7.567584207247721,45.852865342905936,1919],[7.5675673854458045,45.852859338450635,1919],[7.567452266309371,45.85282916760088,1919],[7.567356239132845,45.85279218876641,1919],[7.56724626986253,45.85276517121582,1919],[7.567195241001352,45.85276203273598,1919],[7.567160994104981,45.85276604579854,1919],[7.567121053035897,45.852790061855394,1919],[7.567069416777048,45.85281097008701,1919],[7.567033635803302,45.852810521287644,1919],[7.566974463927738,45.85279480515882,1919],[7.5669304459477935,45.852785038427164,1919],[7.566901053335132,45.852792568445544,1919],[7.566879091737995,45.8528041401366,1919],[7.566827231669586,45.852842980486116,1919],[7.566766275232461,45.852869201581754,1919],[7.566732930380158,45.85288392187079,1919],[7.566692595966812,45.852886541666265,1919],[7.566602405710665,45.85287751227079,1919],[7.566571475865835,45.8528715295639,1919],[7.566524361330219,45.8528552039556,1919],[7.566500522562662,45.852846944008085,1919],[7.5664553253899145,45.85284637687471,1919],[7.566433031632512,45.852854329763815,1919],[7.566426807571216,45.85285655035601,1919],[7.566364120667212,45.85287682547963,1919],[7.566228157024493,45.85288959988716,1919],[7.566100268278571,45.8528814128203,1919],[7.565955395848209,45.85287432827669,1919],[7.56577033468099,45.85289175104487,1919],[7.565673309079621,45.85292870799139,1919],[7.5655548591602155,45.85299303958486,1919],[7.565457224113716,45.853053683065774,1919],[7.565380609648228,45.85310274324731,1919],[7.565175801237397,45.853155458628045,1919],[7.565073971059895,45.853159444874194,1919],[7.564985663130077,45.8531504378449,1919],[7.56481066028457,45.853142974276246,1919],[7.564711384253464,45.85315752271703,1919],[7.564636043257468,45.85323029366812,1919],[7.56457574571805,45.853230851921325,1919],[7.564536867070086,45.85320436495415,1919],[7.564510700255759,45.853142727454916,1919],[7.56443862774136,45.85306886123729,1919],[7.564317639306949,45.852975523589315,1919],[7.564296259953677,45.85292786527249,1919],[7.56422265908409,45.85285980564749,1919],[7.564143103618392,45.85280351742031,1919],[7.564025491663388,45.852688831617215,1919],[7.563898397620785,45.85257665820361,1919],[7.563886344080265,45.852572470917316,1919],[7.563830875249237,45.85251031999914,1919],[7.563787602146061,45.85247160092943,1919],[7.563754704651854,45.85243235435692,1919],[7.5637136299366405,45.85239975164655,1919],[7.563613418050438,45.85230437125065,1919],[7.563533244667995,45.85223556970922,1919],[7.563394183562052,45.85214924372233,1919],[7.563269733284414,45.85209309684694,1919],[7.563241486071349,45.85208035349426,1919],[7.563175947909782,45.8520650485496,1919],[7.563086678230836,45.852053655455315,1919],[7.562992880732916,45.85204168421663,1919],[7.56289510815223,45.85201237858537,1919],[7.562782578486313,45.8519786498473,1919],[7.562742716662113,45.8519537960617,1919],[7.5626639030414,45.85190541485197,1919],[7.562633444319186,45.85184464274718,1919],[7.56261398983981,45.85178783424534,1919],[7.562613296243729,45.85178581033558,1919],[7.562566140999008,45.85175165014279,1919],[7.562495089200101,45.85173101021504,1919],[7.562401795438061,45.851696268489306,1919],[7.56237631701908,45.85162502854986,1919],[7.5624060818753325,45.851584760128475,1919],[7.562485274352686,45.85150874855578,1919],[7.562605386938823,45.85134340918015,1919],[7.562626906103226,45.85127588733172,1919],[7.562642520148099,45.8511085751637,1919],[7.562641441376213,45.85104076808964,1919],[7.562642106750821,45.8508321307346,1919],[7.562627929391231,45.85077472169235,1919],[7.562523605588877,45.85064256345606,1919],[7.562330598260559,45.85034724101841,1919],[7.562313224986809,45.85029041813962,1919],[7.56228036217667,45.85017679697897,1919],[7.562254998926155,45.85006458604348,1919],[7.562195873456294,45.849946684071384,1919],[7.562018326129594,45.849712296464865,1919],[7.561976303426196,45.84965892541783,1919],[7.561953179318178,45.84960597945317,1919],[7.561930293979947,45.84954382190576,1919],[7.561903403978468,45.84949082852532,1919],[7.561880671394285,45.84942274884317,1919],[7.56185157022476,45.849407523787264,1919],[7.561800749981751,45.84938093504325,1919],[7.56169631529375,45.84934012932461,1919],[7.5616274884724115,45.84930635381083,1919],[7.56157040200213,45.84925561276632,1919],[7.561534623569048,45.84910904388861,1919],[7.561527515924603,45.848946382418845,1919],[7.561499014412196,45.84888283730724,1919],[7.561476367367609,45.84881146807711,1919],[7.561423336731037,45.84867653000955,1919],[7.561387405401942,45.84860894284352,1919],[7.561368728125599,45.84852972484852,1919],[7.561353104210594,45.84847818995487,1919],[7.561332526135538,45.84832654719031,1919],[7.561347217060077,45.848195095391134,1919],[7.561376927880283,45.84812216416958,1919],[7.561471235304446,45.84806074149889,1919],[7.561554513407075,45.84797227595259,1919],[7.561630903826667,45.84780391908413,1919],[7.561635619589182,45.847767120114376,1919],[7.5616364846799,45.847733563200364,1919],[7.561622853545038,45.847641245717156,1919],[7.561600732652988,45.84754947926625,1919],[7.561615864195091,45.84751050734138,1919],[7.561621716413281,45.847429624430006,1919],[7.561633709447997,45.847220142234264,1919],[7.561635430834664,45.847189887536594,1919],[7.561635838448547,45.84710103733837,1919],[7.561650376412725,45.84704856546612,1919],[7.561656203095201,45.84696866866684,1919],[7.561683591445917,45.84689266418302,1919],[7.561718663576495,45.84688389115039,1919],[7.561728919404861,45.84688796873415,1919],[7.5617614986762645,45.846902859599844,1919],[7.561785137706436,45.84689920783196,1919],[7.561813925902041,45.84687850846261,1919],[7.561823179511716,45.84683008321506,1919],[7.561852576896235,45.84678569710871,1919],[7.561906055411375,45.84672055144733,1919],[7.561928515614894,45.846693177813655,1919],[7.5619289052444785,45.84669270119801,1919],[7.5619291821975585,45.84669274878614,1919],[7.561949534237299,45.84669625231045,1919],[7.561974547966227,45.84671236373794,1919],[7.561993878469832,45.8467297194787,1919],[7.562020274255593,45.84672873497299,1919],[7.562047814640706,45.846719867036036,1919],[7.562102447270273,45.846683038399085,1919],[7.5621493506042095,45.846617151937274,1919],[7.562155813805071,45.846585640153855,1919],[7.562154105367655,45.84654828598097,1919],[7.562153404467386,45.846532954914835,1919],[7.562265385854948,45.846445179498446,1919],[7.562425564821905,45.846332670811826,1919],[7.562462961265919,45.846288549008555,1919],[7.562517294934875,45.84622670525569,1919],[7.562559156562856,45.8461920188996,1919],[7.562581302872686,45.846173209546954,1919],[7.562606408090839,45.846149173097146,1919],[7.562674762971515,45.84609145414832,1919],[7.562695601927316,45.84605025068177,1919],[7.562795906259396,45.84595870787481,1919],[7.562805905717785,45.84595323543477,1919],[7.562852266437798,45.845909559288074,1919],[7.562900239590406,45.8458752791012,1919],[7.562995540533707,45.84583172080372,1919],[7.5630464307563905,45.84583038623581,1919],[7.563063896011211,45.845847060408865,1919],[7.56306648339242,45.84585630844153,1919],[7.563067653954522,45.84588396693065,1919],[7.563085051458687,45.84590327285912,1919],[7.563141022639971,45.84588752234558,1919],[7.563205222863441,45.84585837923032,1919],[7.563278478510466,45.84582611072452,1919],[7.563294640411594,45.845815730430694,1919]]}}]}