{"type":"FeatureCollection","features":[{"type":"Feature","properties":{"slug":"67-s2","sct_code":"67_S2","source":"Catasto Sentieri VdA"},"geometry":{"type":"LineString","coordinates":[[7.564263829624001,45.85524921135557,1598],[7.564312475482174,45.855278407854996,1599],[7.564356038004675,45.85533745766849,1601],[7.564402717568034,45.85541583261666,1602],[7.56443916324001,45.85550688106748,1604],[7.564363166682956,45.85583218931318,1605],[7.564216197264596,45.85617099352724,1607],[7.56423198039045,45.85630844743676,1608],[7.564311452671643,45.85647370282537,1610],[7.564306728124903,45.85653214581637,1611],[7.564217702000777,45.856738035356116,1613],[7.564212548673145,45.856938228671766,1614],[7.564264032988823,45.85706488078418,1616],[7.564434513482602,45.85719752839776,1617],[7.564477209192287,45.85729031861251,1618],[7.564527327683407,45.85734495053712,1620],[7.564575153250008,45.857363552180075,1621],[7.564645976671798,45.85736444202468,1623],[7.56477561475323,45.8573323193598,1624],[7.5653247587992904,45.85714120886531,1626],[7.56540541323185,45.857135471424755,1627],[7.565472496483057,45.8571565646063,1629],[7.5656234911684415,45.85729571603291,1630],[7.565794206997503,45.85741936420143,1632],[7.566061212198943,45.85755547118697,1633],[7.566147438295682,45.8575835545125,1634],[7.566305066467081,45.85759003294563,1636],[7.566490009713385,45.85753610146611,1637],[7.566726651800507,45.857350062958204,1639],[7.567265281598393,45.8570665575127,1640],[7.5679868682292675,45.85642982863183,1642],[7.56863650675692,45.8559609505458,1643],[7.568727855647091,45.85591484311162,1645],[7.568864157286664,45.85587379892006,1646],[7.569005396664426,45.855891318781666,1648],[7.56929005633832,45.85596688693065,1649],[7.5693673741713,45.855965605088876,1651],[7.56953569412814,45.85593171131862,1652],[7.570188686541077,45.85570812630149,1653],[7.570510726781297,45.855581651043174,1655],[7.570667666953065,45.855489110843166,1656],[7.570864965251237,45.8553295725599,1658],[7.571165677879695,45.85515557673325,1659],[7.571339813136349,45.8548944938138,1661],[7.571410129075482,45.85466361370935,1662],[7.571427210810701,45.85449957063647,1664],[7.571371571549028,45.8544088712158,1665],[7.57125160847794,45.854315117249314,1667],[7.571165795531085,45.85414528715875,1668],[7.5710726883467006,45.85388311200534,1669],[7.570852145892518,45.85356759055056,1671],[7.57083318564235,45.85342784766767,1672],[7.570866133190358,45.853273003489804,1674],[7.570988183460458,45.85303377037715,1675],[7.57113954928107,45.85278140323085,1677],[7.571516312884877,45.85227759401783,1678],[7.571556329260106,45.85209808698499,1680],[7.5715585755395765,45.85201036146905,1681],[7.571454782908803,45.851662549412765,1683],[7.571418171843368,45.85158333836822,1684],[7.571223783499922,45.85137839909397,1686],[7.571190910338243,45.851278983886395,1687],[7.571202064903041,45.85122062098347,1688],[7.57145511090323,45.850895271918006,1690],[7.571500296996676,45.85076533155158,1691],[7.571437149067576,45.85033927436709,1693],[7.571368414792497,45.85013140629204,1694],[7.571348539421827,45.84990164824581,1696],[7.571361882323658,45.849757809138424,1697],[7.571444087258925,45.84956532908282,1699],[7.571496682450221,45.84952323497685,1700],[7.571672858936073,45.84943318394025,1702],[7.571755459502854,45.84935096317349,1703],[7.571797021703905,45.8492367280065,1704],[7.572131910839736,45.84873239298924,1706],[7.57216744214151,45.84847632639917,1707],[7.572207506161258,45.848420574779105,1709],[7.572381437720166,45.84829224298593,1710],[7.572704926033598,45.84810727707573,1712],[7.57361289876865,45.84772935100941,1713],[7.573972877717458,45.84750208531063,1715],[7.574091969776571,45.847377566542214,1716],[7.574115133330351,45.847227099351315,1718],[7.574110018119429,45.84717528334315,1719],[7.574003170257022,45.84707269546456,1721],[7.5734547951600515,45.84673508538641,1722],[7.573041033731622,45.846421655081166,1723],[7.572985572149609,45.846324208258466,1725],[7.573048859958002,45.84598973469258,1726],[7.573074044368493,45.84550852899924,1728],[7.5731345121444305,45.845284274766534,1729],[7.5732186572289555,45.845141319620154,1731],[7.573601843510569,45.84463533305917,1732],[7.5737511052391975,45.844337933951856,1734],[7.573932664545337,45.84416244294909,1735],[7.574039162824858,45.844026516489016,1737],[7.574063991446439,45.84393682258308,1738],[7.573846861664309,45.84348859334375,1739],[7.573838988406878,45.84341874209676,1741],[7.573852207967316,45.843279401201684,1742],[7.57402531519196,45.843056552503214,1744],[7.574033074078874,45.84300489714986,1745],[7.574014625686109,45.8429709154413,1747],[7.573963993041502,45.84293653199188,1748],[7.573698990807818,45.84284997023414,1750],[7.573603818053473,45.84279477967531,1751],[7.573360830301312,45.8426027374921,1753],[7.573283130521931,45.842493762561496,1754],[7.573280661785626,45.84233847511412,1756],[7.573303307542257,45.84220825236016,1757],[7.573488945122856,45.84174705073387,1758],[7.57355302621097,45.84163309597655,1760],[7.573635727199317,45.84154637481546,1761],[7.573902448834162,45.84131344454273,1763],[7.574607490858266,45.84093522693076,1764],[7.574721280754123,45.84089164469841,1766],[7.5748663344986,45.840884453906625,1767],[7.5752186856846135,45.84108010702912,1769],[7.575484313606675,45.84114192203226,1770],[7.5750193181386924,45.84081885933629,1772],[7.574900066786316,45.84069811669656,1773],[7.574807655190595,45.840660962335555,1774],[7.574558065268768,45.840727601366005,1776],[7.574280314527412,45.84076238706124,1777],[7.5739821040988495,45.84084191862516,1779],[7.573885899787046,45.84082721714109,1780],[7.573573150550404,45.84071980813631,1782],[7.573444648588464,45.840709203199175,1783],[7.573357467031458,45.840719364999245,1785],[7.573072071275378,45.84080130431232,1786],[7.572865751857567,45.84093823309285,1788],[7.572578513205345,45.841092151234115,1789],[7.572469086539264,45.84121678932235,1791],[7.572262007378257,45.84163496954376,1792],[7.572181544131645,45.841759969312974,1793],[7.572075966717896,45.841859904063575,1795],[7.571737567086233,45.84212568539545,1796],[7.571239101802931,45.84248171790926,1798],[7.570930005733193,45.84273436273053,1799],[7.57056039057982,45.842961498431784,1801],[7.570520905185388,45.842994755805236,1802],[7.57043991741734,45.84313999862144,1804],[7.570337840833902,45.84322872507529,1805],[7.569871032321269,45.84347939323227,1807],[7.5695828497860695,45.843669293501414,1808],[7.568794945088617,45.8443884564023,1809],[7.568570085833593,45.84461964909139,1811],[7.568238076176717,45.84501150534528,1812],[7.568074537727063,45.8452367152508,1814],[7.56798069533223,45.845631555686936,1815],[7.567957241645664,45.84566726321169,1817],[7.5678465976451275,45.84571312821224,1818],[7.567743603124316,45.84571183701606,1820],[7.567478424568804,45.84563200893902,1821],[7.5672938842713116,45.84554644126832,1823],[7.567171578673477,45.8455449073752,1824],[7.56705788901575,45.84558398312937,1826],[7.56692350126749,45.84567680140825,1827],[7.566593380593915,45.84599442339399,1828],[7.566478920735611,45.846188745441,1830],[7.566417176002584,45.84671224268559,1831],[7.566433909392014,45.84706346739511,1833],[7.566519900612091,45.847414627789746,1834],[7.566513381125777,45.84748962712872,1836],[7.5664728052004255,45.84752926776566,1837],[7.566440338309883,45.84754663160695,1839],[7.566398189932913,45.84753754604676,1840],[7.566360179364539,45.84751403259068,1842],[7.566174414954662,45.84738872461533,1843],[7.5657558141598935,45.847014454636934,1844],[7.565537254849194,45.84687445478854,1846],[7.565439558921531,45.84679222464568,1847],[7.565340142068353,45.84665427126637,1849],[7.565194535039939,45.846431933365714,1850],[7.565103667991742,45.8463653521492,1852],[7.565211595622627,45.84571813406432,1853],[7.565254675432454,45.8448008631285,1855],[7.565257000776709,45.84475134613494,1856],[7.565311388790339,45.844639524406425,1858],[7.56546865315526,45.84453349469945,1859],[7.565834252358251,45.844463831776395,1861],[7.565915582096132,45.84443110130981,1862],[7.5661577181009285,45.84402912341884,1863],[7.566408737043185,45.84378251305672,1865],[7.566783441453871,45.843483451594324,1866],[7.56689476684938,45.843034829015615,1868],[7.56693735729497,45.84300611203651,1869],[7.5670736284332065,45.84296506953314,1871],[7.567279160913879,45.84285964272164,1872],[7.567325373683729,45.84281522035381,1874],[7.567383089492086,45.84269893914808,1875],[7.567233008742518,45.8422872776178,1877],[7.566653007884776,45.84243727746717,1878],[7.566223008557561,45.842047277192925,1879],[7.5665430079337295,45.8412372763947,1881],[7.566113008338447,45.84009727605101,1882],[7.566173007902587,45.83827727379178,1884],[7.565553007951662,45.83775727382548,1885],[7.565963007571634,45.83724727295158,1887],[7.5654230080629965,45.83640727285787,1888],[7.565943008760352,45.83544727175245,1890],[7.5655052053409095,45.83520676499081,1891],[7.565732953477372,45.83501861995424,1893],[7.56581295131636,45.8350286192753,1894],[7.565852951193994,45.83503861864641,1896],[7.5658929514504765,45.835118616782125,1897],[7.565992951551514,45.835218612710264,1898],[7.56607502200343,45.835304577795895,1900],[7.5663174896185055,45.835429007458956,1901],[7.56623654262749,45.83569800340948,1903],[7.566160621856676,45.83577130380498,1904],[7.566066530565216,45.83592537962369,1906],[7.5660099570168935,45.83612267817247,1907],[7.565989243751181,45.836302426042124,1909],[7.566016645763419,45.83636352265788,1910],[7.56615155437399,45.83650022188436,1912],[7.5664922457617845,45.836646253609075,1913],[7.566529360429316,45.83670522187453,1914],[7.5665341790260126,45.836768285086094,1916],[7.5664904784889115,45.836965745371245,1917],[7.56651749062571,45.83710056548046,1919],[7.566582701853824,45.83719363774252,1920],[7.566655042656655,45.83725979824257,1922],[7.566808124769008,45.837315721159946,1923],[7.566907770153695,45.83732147139515,1925],[7.567004890476005,45.83730018869465,1926],[7.567260664383763,45.83718466626223,1928],[7.5673190528369485,45.837171522613275,1929],[7.56739848602553,45.837178819019194,1931],[7.56746327043666,45.837230033601685,1932],[7.567605836374395,45.83740725416525,1933],[7.567722247908262,45.83743706494543,1935],[7.568016696878949,45.83740445488426,1936],[7.567948435884585,45.83725449244173,1938],[7.567907160070166,45.83722378591401,1939],[7.567850397258689,45.83719656098439,1941],[7.567802497016014,45.83717522178473,1942],[7.567760062612933,45.8371458138358,1944],[7.5677387052357385,45.83711456942759,1945],[7.567723579515324,45.837067390545954,1947],[7.567678349789832,45.83696391929435,1948],[7.567631734462774,45.83684861673501,1949],[7.567614038084029,45.83676990423167,1951],[7.567624427587902,45.83667238023757,1952],[7.567664909439359,45.83654373216253,1954],[7.567697556999503,45.83644228674028,1955],[7.567790409581854,45.836336346167585,1957],[7.567822491147861,45.83625694547431,1958],[7.567861495795348,45.83614192879911,1960],[7.567874534063372,45.83610219080309,1961],[7.56791815758681,45.836041309973,1963],[7.5679803283511,45.83596018572249,1964],[7.5680639537229855,45.835862529323336,1966],[7.568223472929193,45.835734323580986,1967],[7.568372636175323,45.835658488936076,1968],[7.5684464962059375,45.835590111464384,1970],[7.568489704762801,45.835516099936584,1971],[7.56849910409781,45.835383911917795,1973],[7.568498899503981,45.835274704866485,1974],[7.568494885595057,45.83519695056212,1976],[7.568510924900362,45.835157250092365,1977],[7.568563491263839,45.835099106479824,1979],[7.56868642765469,45.83499144141101,1980],[7.568773000750104,45.834895922102824,1982],[7.568872046168051,45.83475330689694,1983],[7.568971170028113,45.834636943138534,1984],[7.569026415477093,45.834591433421714,1986],[7.569144365082936,45.83444380393336,1987],[7.569183069671728,45.834340334125166,1989],[7.569290287547221,45.834259773327716,1990],[7.569411239982489,45.83411218116289,1992],[7.569457528195536,45.834064459273776,1993],[7.569582335045183,45.83400091858976,1995],[7.569664663537571,45.83395364787312,1996],[7.569753966040647,45.83386866184296,1998],[7.569822838203521,45.83381861062816,1999],[7.570172826667118,45.83361861147498,2001],[7.570342822219443,45.833568611397254,2002],[7.5707028134619145,45.83353860838766,2003],[7.570912807089411,45.83345860823518,2005],[7.571062801804182,45.833358609889025,2006],[7.571152795381957,45.83314861408227,2008],[7.571422784719814,45.832918616597055,2009],[7.571442782627346,45.832828618778656,2011],[7.5714427822968675,45.83281861933237,2012],[7.571572777890458,45.832768619443456,2014],[7.5716232009625815,45.83270138600342,2015],[7.571772773130957,45.83274861804483,2017],[7.571912768704819,45.83266861845444,2018],[7.571972767045469,45.83263861859837,2019],[7.572002765123944,45.832598619588694,2021],[7.572112762487545,45.8325686191026,2022],[7.572192759916942,45.832508619657276,2024],[7.572442752635976,45.83242861887073,2025],[7.572642745552659,45.83229862024863,2027],[7.572692743906595,45.83228861996116,2028],[7.572842739709694,45.832228619747774,2030],[7.573122728677387,45.83200862287469,2031],[7.5731127285186455,45.83196862350349,2033],[7.573202722293244,45.83173862895503,2034],[7.573172721759064,45.83167863021635,2036],[7.573142715722246,45.831388637885304,2037],[7.573172712965417,45.8312786397395,2038],[7.57317271171002,45.83117864257798,2040],[7.573172709191335,45.83103864581954,2041],[7.573122708901665,45.83097864837963,2043],[7.573122707676801,45.830938648784134,2044],[7.573182703483646,45.83078865221136,2046],[7.5732127015942385,45.830738653427964,2047],[7.573222700282194,45.830678654726185,2049],[7.573292696267798,45.83057865600658,2050],[7.573312694670509,45.83045865859738,2052],[7.573292693992259,45.83040865999985,2053],[7.573272693348819,45.830358661398805,2054],[7.573272692651862,45.83032866215201,2056],[7.5732426872732255,45.830028670344326,2057],[7.573232677789599,45.829568681481334,2059],[7.573162675243261,45.82930868828974,2060],[7.573151864117689,45.829291872813705,2062],[7.573140260885645,45.82915592980775,2063],[7.573193007844427,45.82818726490027,2065],[7.573583007513363,45.827637264678096,2066],[7.574203008317198,45.827417264440946,2068],[7.576043008126397,45.82730726460787,2069],[7.576523007881957,45.82685726443184,2071],[7.577533008351638,45.8262372630859,2072],[7.577979902018001,45.825249252817805,2073],[7.5777945863916525,45.82509092743909,2075],[7.5777851072225095,45.82506480634887,2076],[7.577854335041602,45.82500184267088,2078],[7.577831577108703,45.82496610044965,2079],[7.577839541247605,45.8249189213463,2081],[7.577803443168305,45.82487592072585,2082],[7.577653150945972,45.824935511601694,2084],[7.577472981637388,45.824973455984264,2085],[7.577418898482299,45.82497278252278,2087],[7.577223938328907,45.82510596556222,2088]]}}]}