{"type":"FeatureCollection","features":[{"type":"Feature","properties":{"slug":"68-s34","sct_code":"68_S34","source":"Catasto Sentieri VdA"},"geometry":{"type":"LineString","coordinates":[[7.038090007977339,45.61407810032987,1744],[7.037240007748593,45.61436810066683,1749],[7.037090008187491,45.61450810003105,1754],[7.037240007798351,45.614748100657664,1759],[7.037630007468836,45.615158100801004,1765],[7.039340008038697,45.61556810151958,1770],[7.0391600075365135,45.615728101230026,1775],[7.03931000853252,45.61588710117824,1780],[7.0392700078948405,45.615907101742756,1785],[7.039400008364884,45.616207101740216,1790],[7.039400007509942,45.61685069180819,1795],[7.039400007665013,45.61736710188194,1800],[7.039670007472804,45.61776710216346,1806],[7.040360007886396,45.61818710273508,1811],[7.040540008140882,45.618567103062716,1816],[7.04073000789802,45.61850710299895,1821],[7.04107000746081,45.61863710329515,1826],[7.041190007920733,45.61859710296629,1831],[7.041320008495276,45.61861710302448,1836],[7.041280008516147,45.61910710356823,1841],[7.041590008445625,45.62004710386142,1847],[7.041750008582468,45.619837103836154,1852],[7.042210008470583,45.620127103833305,1857],[7.042290007816898,45.61958710367833,1862],[7.043010007695767,45.619857104198836,1867],[7.043180007528746,45.619857103844026,1872],[7.043420007894463,45.61955710374977,1877],[7.043700008385584,45.61962710415838,1882],[7.043890008708205,45.61984710362005,1888],[7.044170008227513,45.61975710437678,1893],[7.044450007587594,45.6201671040649,1898],[7.04477000773963,45.62134710467155,1903],[7.045110007465945,45.621777105329464,1908],[7.046530007946577,45.62198710522815,1913],[7.04651000830564,45.62187710503968,1918],[7.046720008206235,45.62188710574811,1923],[7.047820007802803,45.622177105755625,1929],[7.048430007868425,45.62208710519495,1934],[7.048030008042446,45.62185710558164,1939],[7.048920008699809,45.62211710511446,1944],[7.0484300080092455,45.62160710543969,1949],[7.049330007623757,45.62193710506372,1954],[7.049230008703951,45.621657105047575,1959],[7.050940007994438,45.62205710517286,1964],[7.0518500079935444,45.622457105958645,1970],[7.052430007823739,45.62299710598737,1975],[7.052690007711144,45.62341710668553,1980],[7.05290000778322,45.62412710651569,1985],[7.052930008603315,45.624347106891385,1990],[7.05268000872179,45.6248471069395,1995],[7.052920008527369,45.624897107607104,2000],[7.0529400074934365,45.625007107499684,2005],[7.052590007564848,45.6252171071613,2011],[7.052680007782528,45.6254671077594,2016],[7.052890008487823,45.62568710812267,2021],[7.0533400083326665,45.62574710765139,2026],[7.054320007560013,45.626327108657115,2031],[7.0548900075533805,45.62645710854767,2036],[7.055940008406548,45.62724710892421,2041],[7.056410008027046,45.6272271086787,2046],[7.057140008387057,45.62753710904593,2052],[7.057970008402809,45.62812710947414,2057],[7.058450008382505,45.62809710994232,2062],[7.05856000814032,45.62838710940131,2067],[7.058480008310805,45.62871711012552,2072],[7.058600007532517,45.62902710997328,2077],[7.0597500078728705,45.62920711012681,2082],[7.0598400074772245,45.629417110059215,2087],[7.06073000761856,45.629637110428355,2093],[7.060810008279382,45.62980711056875,2098],[7.061080008234006,45.62990711115949,2103],[7.061180008731373,45.62996711043569,2108],[7.061170007625259,45.63012711074279,2113],[7.061330008307491,45.63022711078262,2118],[7.061410008476213,45.63031711093562,2123],[7.0618300086318335,45.63063711135766,2128],[7.061710008719577,45.630687111561734,2134],[7.061820008725076,45.630737110947514,2139],[7.061890008470538,45.63102711132413,2144],[7.061780008026092,45.63102711114639,2149],[7.061750008499353,45.63117711155078,2154],[7.061980007528919,45.63136711176422,2159],[7.062310007938432,45.631357111555495,2164],[7.062110008318631,45.631257111906756,2169],[7.062100008469494,45.63108711163744,2175],[7.062210007748218,45.6311571111887,2180],[7.062400007771204,45.63076711139413,2185],[7.062530007728034,45.6311471116632,2190],[7.062620007503925,45.63105711177377,2195],[7.063040008206026,45.63119711169382,2200],[7.06291000787073,45.63098711179934,2205],[7.063250007730432,45.63095711141806,2210],[7.063000007990024,45.63066711104119,2216],[7.062970008536724,45.63018711080192,2221],[7.063420008194119,45.630347111105614,2226],[7.063540008141341,45.63024811083599,2231]]}}]}