{"type":"FeatureCollection","features":[{"type":"Feature","properties":{"slug":"68-s9","sct_code":"68_S9","source":"Catasto Sentieri VdA"},"geometry":{"type":"LineString","coordinates":[[7.061289530196639,45.588982651789124,1652],[7.06117848141852,45.58885765969807,1654],[7.061065267912927,45.58878629984302,1655],[7.060997451269876,45.588711854777536,1657],[7.060976202985592,45.58862204397376,1659],[7.060996709467253,45.58851436360565,1660],[7.060983006998237,45.588459941585235,1662],[7.06072780779763,45.588305943481075,1664],[7.060675489830809,45.588283254133344,1665],[7.060567276115372,45.588270396619755,1667],[7.060056543927519,45.58828881464041,1669],[7.059727257196044,45.588255198848,1670],[7.05942900777697,45.58870808376861,1672],[7.057879008372765,45.58921808373872,1674],[7.057539008134361,45.58956808455424,1675],[7.057399008072438,45.58994808419958,1677],[7.057069007789521,45.5902480850139,1679],[7.056909007878919,45.59049808446129,1680],[7.0557490083614685,45.5910480847762,1682],[7.0558390078312625,45.59107808480767,1683],[7.055569008486302,45.591318085412205,1685],[7.055089886612832,45.591568597496554,1687],[7.054669887394107,45.591628597492424,1688],[7.054668332934766,45.59167357502186,1690],[7.05464146391676,45.591709120501484,1692],[7.054443365425775,45.59187676082608,1693],[7.054103081043993,45.59207798119672,1695],[7.053949327410993,45.59207536107327,1697],[7.053822443526116,45.592037195476195,1698],[7.053569008579107,45.59211808563276,1700],[7.053220008474571,45.592058085658664,1702],[7.052670007668402,45.59211808603463,1703],[7.0522900082853415,45.59177808598296,1705],[7.052170007507911,45.59173808547159,1707],[7.051720008316331,45.591838085399225,1708],[7.051464847153991,45.59162795810002,1710],[7.051372667042338,45.59169839156616,1712],[7.05123519683543,45.59196606971401,1713],[7.051204276686555,45.592118555673565,1715],[7.051235551801076,45.59232610784084,1717],[7.0511821202543565,45.59238820160215,1718],[7.0509336921421335,45.59252797448588,1720],[7.050816818626575,45.592570983617776,1722],[7.050650562602595,45.59255914484307,1723],[7.050307107498613,45.592481274921575,1725],[7.0505800080854595,45.59277808650431,1727],[7.051090007727668,45.59280808668687,1728],[7.051360007881935,45.59324808651992,1730],[7.051890008504701,45.593648086373065,1732],[7.052170007886671,45.59447808749906,1733],[7.0524000084472815,45.59469808721373,1735],[7.052280008485221,45.59499808749334,1736],[7.052760007656443,45.59554808818735,1738],[7.053320008737105,45.595798087786264,1740],[7.053620008411613,45.59627808804125,1741],[7.0540800080452675,45.59660808857078,1743],[7.054710008638426,45.5968580886973,1745],[7.054870008487234,45.59713808905772,1746],[7.055290007914247,45.597288089484366,1748],[7.056230008378765,45.59803808953274,1750],[7.0567900085850095,45.59824808954322,1751],[7.056960008062214,45.598428089946836,1753],[7.057020008410316,45.59868808974433,1755],[7.057500008532989,45.59896809051251,1756],[7.057630008234241,45.59942809014005,1758],[7.057470008417087,45.5996080908861,1760],[7.05754000812817,45.5997380910263,1761],[7.058240008067723,45.60042809118792,1763],[7.058390007591256,45.60073809153807,1765],[7.059070007878814,45.601328091511895,1766],[7.059260008091167,45.60196809225195,1768],[7.059730008054034,45.60225809250707,1770],[7.060273034190271,45.60276788565429,1771],[7.060341477328185,45.602735295272,1773],[7.060420952625282,45.60275464674793,1775],[7.061124451458908,45.60299161304651,1776],[7.0613689266091315,45.603153277395435,1778],[7.061939249806025,45.60356555689358,1780],[7.062000848401972,45.603638608576325,1781],[7.062020999027954,45.603692236994966,1783],[7.06201582864079,45.603764053815375,1785],[7.062002368430777,45.603880907584774,1786],[7.061931519028315,45.60405946703806,1788],[7.061884803610366,45.60424174743563,1789],[7.061898786905262,45.604305374578225,1791],[7.062173111157591,45.604780131054035,1793],[7.062315690271526,45.60492206259003,1794],[7.062497646926741,45.60503765970747,1796],[7.062727402415642,45.60506855999812,1798],[7.062946200624268,45.60504526926698,1799],[7.063178743514105,45.60499520888854,1801],[7.063294085835763,45.60499716511144,1803],[7.063485394182297,45.60502741181964,1804],[7.06357603378314,45.60500194649967,1806],[7.0635691557569835,45.60498401461889,1808],[7.063705485824326,45.60512133805335,1809],[7.063753962933117,45.60520316706238,1811],[7.063759967899229,45.60540128608399,1813],[7.063730620965497,45.60550879786809,1814],[7.063611562208896,45.60561478844811,1816],[7.063586078356549,45.605733185536714,1818],[7.063598809252134,45.60579407028146,1819],[7.063696175422497,45.605961173634206,1821],[7.063708659347166,45.606127192298665,1823],[7.063729431700275,45.606209028581134,1824],[7.063722339120618,45.60637605641677,1826],[7.063790115768889,45.60676091516992,1828],[7.063742069319483,45.607039124691845,1829],[7.063871206667252,45.607385594039776,1831],[7.064015669522376,45.60803820099158,1833],[7.064030007877297,45.60847709608012,1834],[7.064450007603847,45.60819709621554,1836],[7.064620008599459,45.608217096094435,1838],[7.064820008345139,45.60837709634164,1839],[7.064781683096975,45.60889881507347,1841],[7.064539619017972,45.609084281625194,1843],[7.064497922514221,45.609224978016606,1844],[7.0644283230296105,45.609255679101565,1846],[7.064351222675653,45.60924538047657,1847],[7.064356924092867,45.60932357865381,1849],[7.064293725441683,45.60940487710616,1851],[7.064259928662743,45.60950537573338,1852],[7.064048231415485,45.609679274234225,1854],[7.064054032766273,45.60975407272262,1856],[7.064002535569188,45.6098445710577,1857],[7.0639810366943205,45.60994286857852,1859],[7.063907238145916,45.60999906845678,1861],[7.063848539881298,45.61007826746794,1862],[7.063762942605052,45.6102398652015,1864],[7.0636748489493515,45.61052675902696,1866],[7.063684954190048,45.61070105485762,1867],[7.063711056122338,45.61077575203106,1869],[7.063705760483062,45.610966846783334,1871],[7.063807369844763,45.61136413472719,1872],[7.063782571903364,45.61146793242952,1874],[7.063831874441758,45.61157682894036,1876],[7.0637979825934645,45.6118911211454,1877],[7.06387108575003,45.61200881619241,1879],[7.064006289781481,45.612137510775376,1881],[7.064085093852359,45.61230470486774,1882],[7.0642280977566045,45.61245229801851,1884],[7.064300603021247,45.6126784905469,1886],[7.064505012892316,45.613018677712674,1887],[7.064521414234227,45.613085076260745,1889],[7.064503315037983,45.613131375492365,1891],[7.06450461836783,45.61323967235564,1892],[7.064568218873232,45.61328266958713,1894],[7.064583620560971,45.613346368051154,1896],[7.064625121708423,45.61337066693439,1897],[7.064607221432612,45.61338766664309,1899],[7.064651822342591,45.613427064639275,1900],[7.064653924000041,45.61346386390446,1902],[7.064712724493613,45.613487662068465,1904],[7.0647268253584485,45.61351276116405,1905],[7.064858427182827,45.61355955775369,1907],[7.064891827025516,45.61354135713001,1909],[7.064922127575229,45.613579055466836,1910],[7.064883428231371,45.61360195560608,1912],[7.064770228352556,45.613605057940944,1914],[7.064819529913702,45.613659555115134,1915],[7.0648966297566735,45.613685553447226,1917],[7.0650635346005375,45.61382604658378,1919],[7.065177239165236,45.61398723995946,1920],[7.065450343441509,45.61411763189354,1922],[7.065478644717923,45.61414453038951,1924],[7.065697647194003,45.61420102517316,1925],[7.066096453617121,45.61440641221041,1927],[7.066187856031006,45.61451650754168,1929],[7.066378360356661,45.61463510076355,1930],[7.066528566654259,45.61487139218553,1932],[7.066596872256554,45.61511108431418,1934],[7.066569973426971,45.61516778377524,1935],[7.06658297588184,45.615239681530866,1937],[7.066569977318995,45.615304479401516,1939],[7.066594678539391,45.61536647726175,1940],[7.066678080868889,45.61544797360904,1942],[7.066667882127528,45.61549337273123,1944],[7.066700008241159,45.61550810092867,1945],[7.066675985267016,45.61553367134051,1947],[7.066675185625084,45.6156182704157,1949],[7.066741488315056,45.61570456715123,1950],[7.06673628979952,45.61575326510169,1952],[7.066683293443393,45.615878562250145,1954],[7.066625691252267,45.615887563493025,1955],[7.06659619460086,45.61594076267733,1957],[7.066595793524961,45.616009361531184,1958],[7.066564395400321,45.61603676111859,1960],[7.06658329806426,45.616124957439084,1962],[7.066428100360251,45.616243958892184,1963],[7.066405101150049,45.61630065772753,1965],[7.066422902374822,45.616378954380174,1967],[7.066390902509829,45.61642265311803,1968],[7.066216105334382,45.61653815414199,1970],[7.066184005414266,45.61658505359909,1972],[7.066182007781249,45.61662815324122,1973],[7.0660882088521015,45.616698651929745,1975],[7.065996712432632,45.616851150507294,1977],[7.066001013469552,45.61689704804621,1978],[7.065964914113251,45.616979747756055,1980],[7.065969716062522,45.61705374516729,1982],[7.065918614948385,45.617033146428504,1983],[7.065818415867453,45.61703894880379,1985],[7.065816117040256,45.61707274734487,1987],[7.065893717618474,45.61711614564576,1988],[7.065960519107733,45.6172035421553,1990],[7.065934819881666,45.61720834175277,1992],[7.065888520142366,45.61718634279273,1993],[7.065877119117477,45.617237842890134,1995],[7.065823521323319,45.61728364187084,1997],[7.065764521322137,45.61730124173587,1998],[7.065762423155875,45.61735404068768,2000],[7.0657417216848675,45.61736344147647,2002],[7.065645722309868,45.61735064364809,2003],[7.065643620130597,45.61727304484748,2005],[7.065563120785839,45.61729564668783,2007],[7.065561721055296,45.617330745762075,2008],[7.06554462149643,45.617338346171856,2010],[7.06552622150632,45.617327746604964,2011],[7.065525020264229,45.61726564797977,2013],[7.065485517883105,45.6172686475179,2015],[7.065413417481289,45.617228150357114,2016],[7.0654148171148075,45.61725465071875,2018],[7.065318720279645,45.617333649766486,2020],[7.065333021778979,45.617383448469205,2021],[7.065254220173447,45.61739405023163,2023],[7.065255522109496,45.617434348912056,2025],[7.06523952070842,45.61740204948912,2026],[7.06517601901733,45.61736565099773,2028],[7.0651243183801915,45.617345552990024,2030],[7.0650886196269145,45.61735095343577,2031],[7.065084320789848,45.61741595252749,2033],[7.064993622282594,45.617425527160826,2035],[7.064967221968622,45.61753095131202,2036],[7.064878825147115,45.61763744998662,2038],[7.064828125682771,45.617646250464574,2040],[7.064760226359142,45.61777744886301,2041],[7.064753328666422,45.61782954720464,2043],[7.064699029564111,45.617856547373876,2045],[7.064663429677895,45.617861747744804,2046],[7.064640027540968,45.6177978507432,2048],[7.064564524105692,45.617720053812754,2050],[7.064471624784092,45.617712054541464,2051],[7.064451324210783,45.6176923570185,2053],[7.064462022964337,45.61766055683779,2055],[7.064420224593048,45.61768225668381,2056],[7.064429723032747,45.61771305628064,2058],[7.064390328776506,45.61787925193237,2060],[7.06435302951296,45.61793315173991,2061],[7.0642177237658705,45.617815156978466,2063],[7.064176425780929,45.61783885798625,2064],[7.06425572625154,45.617877654418784,2066],[7.06425972822085,45.617935553966944,2068],[7.064229729415411,45.61799795179458,2069],[7.064264530348371,45.61801425164244,2071],[7.064282530393382,45.6179961519963,2073],[7.064391334219891,45.61815754559881,2074],[7.06434283461593,45.618145346562606,2076],[7.064266234990884,45.618192846695045,2078],[7.064134657584846,45.61822235655349,2079],[7.064145733370386,45.61823214812562,2081],[7.064199135649363,45.61822294733015,2083],[7.064209134910047,45.61825484632503,2084],[7.0641752366998345,45.61828564655927,2086],[7.0641468390623094,45.61836024413727,2088],[7.064168838598257,45.61836904358566,2089],[7.064214040684673,45.618465340336954,2091],[7.064214943664132,45.618555138259126,2093],[7.064262343762261,45.61857603685039,2094],[7.064276543563291,45.618614835019685,2096],[7.06433354504826,45.61864223286957,2098],[7.064347045805158,45.61867913262066,2099],[7.064320846868733,45.618756629748454,2101],[7.0642392465943455,45.61874533311794,2103],[7.064243349037403,45.61880933147884,2104],[7.064280549785887,45.61880653097632,2106],[7.064259249295061,45.61886162901534,2108],[7.064270349666455,45.61889142788687,2109],[7.064336352084333,45.61890752573673,2111],[7.064356751728472,45.61893322486393,2113],[7.064334057203785,45.619182119909134,2114],[7.0642855576742445,45.619204919417264,2116],[7.064279160258661,45.61924201832792,2118],[7.064350161794754,45.61928661631438,2119],[7.064405461582666,45.619281715747825,2121],[7.064418763615638,45.6193530130317,2122],[7.064394963700908,45.619435110617,2124],[7.064429166498567,45.61947350974413,2126],[7.064486165761405,45.619475807950764,2127],[7.064496466719624,45.619509908213374,2129],[7.064519866712701,45.619522007605724,2131],[7.064523068447317,45.61958110506918,2132],[7.064577470482685,45.619693301716154,2134],[7.0645534731727135,45.61977100001264,2136],[7.064569175629511,45.61983479891879,2137],[7.064595974131324,45.61986249660838,2139],[7.06459217651389,45.61995129316377,2141],[7.064723080516939,45.6200663884033,2142],[7.064751382874393,45.62012448730969,2144],[7.064741484379764,45.62015538658999,2146],[7.06479498609513,45.62022288268721,2147],[7.0647627862260265,45.62023278329833,2149],[7.0647475874075285,45.62028538179835,2151],[7.064705188060241,45.62033358239764,2152],[7.064707589088034,45.620382781643194,2154],[7.064679889072634,45.62041167988903,2156],[7.064649789810259,45.62040668200535,2157],[7.06457958986387,45.62046508090387,2159],[7.064614490537778,45.62049857918132,2161],[7.064587793957108,45.6206011764363,2162],[7.064471493779271,45.6206440777039,2164],[7.064441092507749,45.620639279863994,2166],[7.064411290896933,45.620590381253,2167],[7.064426989835012,45.62051268275496,2169],[7.064410390809491,45.620533581998636,2171],[7.064400188974181,45.62049108390407,2172],[7.064418387942149,45.620450384904395,2174],[7.064386075229748,45.620485021187,2175],[7.0643958930776005,45.62060038113171,2177],[7.06436699314544,45.620644380240044,2179],[7.064370894259096,45.620707079055244,2180],[7.064262495244025,45.62075697981361,2182],[7.064236496513144,45.620789579098954,2184],[7.064185495677281,45.620782680454894,2185],[7.064149995248997,45.62080147889901,2187],[7.064115594169842,45.62070958301638,2189],[7.064102291696762,45.62071788302947,2190],[7.064092495746652,45.62077388170936,2192],[7.064134999000882,45.62091657662518,2194],[7.064068297554629,45.62094947775392,2195],[7.064077900523335,45.62100757664107,2197],[7.064059299910577,45.62102587668368,2199],[7.064081101621179,45.62106377404791,2200],[7.064071501311357,45.62109717333154,2202],[7.0641171028810215,45.62109347300969,2204],[7.064130303958055,45.62110697291689,2205],[7.064116502219029,45.62113357201304,2207],[7.0641417051188915,45.621177969766386,2209],[7.064123707737555,45.62128306716962,2210],[7.0641472079131065,45.621386164211245,2212],[7.064191811465758,45.62146116218228,2214],[7.064158914879313,45.62156295936402,2215],[7.06404851353364,45.62159496126382,2217],[7.064003513243541,45.62155816293511,2219],[7.063978011466574,45.62150046416532,2220],[7.063937410169215,45.621508765786125,2222],[7.063941210871337,45.62148406553315,2224],[7.063909510281992,45.621475566013785,2225],[7.063874910219803,45.621443167114954,2227],[7.063877507947365,45.62142106928948,2229],[7.063793707726583,45.62136597155639,2230],[7.063763910187533,45.621457169671956,2232],[7.063794411042506,45.62150296783864,2233],[7.063774809629714,45.621547567285,2235],[7.063706209263129,45.621470570934974,2237],[7.063715907222951,45.621374373240684,2238],[7.063660809531688,45.62148747142841,2240],[7.0636101107914335,45.62153257143704,2242],[7.063642011754124,45.621599168937465,2243],[7.063632912563017,45.62164586719975,2245],[7.063665514010356,45.621675364640346,2247],[7.063677016409223,45.6217350636941,2248],[7.063734016788044,45.62176466159493,2250],[7.063737618246957,45.62184826050294,2252],[7.063725418291248,45.621861560184506,2253],[7.063654416923831,45.62186746148954,2255],[7.063647016216715,45.62185776099392,2257],[7.0635964178659165,45.62187416107672,2258],[7.0635190165688035,45.621846964194084,2260],[7.063514716809367,45.62182536506624,2262],[7.063499415806875,45.62183246461949,2263],[7.063541817788058,45.62187416230215,2265],[7.063546016986341,45.621916261651904,2267],[7.063663520202013,45.62197015789055,2268],[7.063681221458359,45.62200085719669,2270],[7.063644522067917,45.62206375506934,2272],[7.06369012309353,45.62211045375606,2273],[7.063667225507029,45.622166653272366,2275],[7.063715926506574,45.622169151382906,2277],[7.063721326892393,45.62219455128244,2278],[7.063742126259095,45.622199951572554,2280],[7.0637281288202125,45.62229114754146,2282],[7.063780528136627,45.62230604657072,2283],[7.063840030373231,45.622358444351654,2285],[7.063847331793924,45.622444042942796,2286],[7.0638663322813775,45.622459741980634,2288],[7.063936333117704,45.62246473970028,2290],[7.063969535454675,45.622498038356404,2291],[7.063924235945098,45.62255983823183,2293],[7.063941737771912,45.622615635426634,2295],[7.06386053670684,45.622659935783766,2296],[7.063827236393576,45.622636037627174,2298],[7.063709837062902,45.6226963377386,2300],[7.063657140075586,45.622682883652736,2301],[7.063639235092216,45.62261634077454,2303],[7.063611414903578,45.62261616336679,2305],[7.063621476335183,45.622648912216704,2306],[7.064166398672852,45.62345921918014,2308],[7.064569432697851,45.62400159467899,2310],[7.06457830331597,45.62404674969807,2311],[7.06452426920047,45.624090838587456,2313],[7.064504176892054,45.624137986035954,2315],[7.06458998014313,45.62428178000863,2316],[7.0645692818287165,45.62434287916816,2318],[7.064589283832403,45.6244056762045,2320],[7.064545183068528,45.62445617727547,2321],[7.064502282599085,45.62445727732668,2323],[7.064453884431682,45.62448057725053,2325],[7.064495786247183,45.62452577637673,2326],[7.064464086346156,45.62460797403568,2328],[7.064475787565148,45.62462907211305,2330],[7.064420988907293,45.62463707386648,2331],[7.064420089718664,45.624693671573304,2333],[7.064475592040022,45.62486696594611,2335],[7.064594499342416,45.62510795847192,2336],[7.06461000158156,45.62519445562702,2338],[7.06458520293771,45.62523275478517,2339],[7.064612402706295,45.62526295425558,2341],[7.064611404632164,45.625298952957166,2343],[7.0645913548431,45.625358790395765,2344],[7.064943067219679,45.62569825558716,2346],[7.064916627707272,45.62593363990296,2348],[7.064878363894932,45.62597229419967,2349],[7.0648456307410905,45.62638286599545,2351],[7.0648094515359325,45.62644316099756,2353],[7.06458329363695,45.62652851404476,2354],[7.064136542401929,45.626627530325024,2356],[7.063822052250494,45.62675706684158,2358],[7.063728676056758,45.62685772137898,2359],[7.063690428785374,45.62706807389166,2361],[7.063636857021345,45.62709326950411,2363],[7.0635735472376595,45.62708997370046,2364],[7.063323859699133,45.62701823387158,2366]]}}]}