{"type":"FeatureCollection","features":[{"type":"Feature","properties":{"slug":"68-s8","sct_code":"68_S8","source":"Catasto Sentieri VdA"},"geometry":{"type":"LineString","coordinates":[[7.1010190079519475,45.59535708765166,1652],[7.100529008518434,45.59553708816697,1654],[7.100569007881996,45.595667087665,1656],[7.100459008385446,45.59575708855383,1658],[7.099689008046923,45.595837088470844,1660],[7.0997490080605585,45.59596708804757,1662],[7.099459008037213,45.5960270883912,1664],[7.099519008604938,45.596427088419055,1666],[7.099309007640296,45.59662708859901,1668],[7.0993190078802595,45.59675708874452,1670],[7.098419007958771,45.59695708852021,1672],[7.097039008122673,45.59682708920432,1674],[7.094609007965197,45.59679708894481,1676],[7.093469008506949,45.5965970884784,1678],[7.092709007778265,45.59661708836236,1680],[7.091958423575858,45.596745478635306,1683],[7.091879008760213,45.59689708863965,1685],[7.091079008435242,45.596967089152265,1687],[7.0903090087265905,45.59689708881614,1689],[7.088339007920558,45.59706708900136,1691],[7.087389008548422,45.597048089125074,1693],[7.087169007503385,45.59713808893714,1695],[7.086059007535236,45.59722808949895,1697],[7.084559007579516,45.59674808876481,1699],[7.0836300081228805,45.59677808881005,1701],[7.083349008448236,45.596798089029726,1703],[7.080639008303691,45.596408088456805,1705],[7.079709008429789,45.59643808836947,1707],[7.078689007657677,45.59662808841208,1709],[7.076529008508789,45.59726808905336,1711],[7.075619007728706,45.59789808913561,1713],[7.073879008394649,45.5980080897113,1715],[7.073729007877683,45.59813808990477,1717],[7.072359008291188,45.59846809025327,1719],[7.072179008640877,45.59860809042778,1721],[7.070859008382112,45.599038090233286,1723],[7.071509007831758,45.599278090599356,1725],[7.072059008531844,45.59990809085724,1727],[7.071999008338215,45.60005809129453,1729],[7.072119007979786,45.60017809056983,1731],[7.0712590085481795,45.600538091291085,1733],[7.071269007734603,45.600998091510235,1735],[7.071409007722698,45.601228091302715,1737],[7.071128453377154,45.601286540117016,1740],[7.071066620183851,45.60131985257675,1742],[7.0709626887165395,45.60136351043237,1744],[7.070871154170163,45.60136007218377,1746],[7.070691556963162,45.60133054693849,1748],[7.070571749527916,45.60128689320554,1750],[7.0705716519935065,45.601286858254696,1752],[7.070409008080151,45.601268091419946,1754],[7.070237684285276,45.60136034369241,1756],[7.070226874626976,45.601360539954314,1758],[7.070126596595515,45.601412429701966,1760],[7.0701170996982965,45.60141734384934,1762],[7.070043710264596,45.60143502590565,1764],[7.0700195091023,45.60143315696267,1766],[7.069949611706137,45.60142775875385,1768],[7.069907688124603,45.601454799605825,1770],[7.069872425692114,45.60147754444421,1772],[7.069788065295615,45.601500717699956,1774],[7.069704027946113,45.60151443472698,1776],[7.069617557621033,45.60152054180296,1778],[7.069571998765076,45.60151977165436,1780],[7.069496323216798,45.60151849235864,1782],[7.069334287172833,45.60152710656164,1784],[7.069249926492797,45.601550279414774,1786],[7.06916108552119,45.6015468853363,1788],[7.069137228877526,45.60153165046274,1790],[7.069121516837458,45.60152161714111,1792],[7.069147905757842,45.60145961948015,1794],[7.069179876713136,45.60139204029814,1797],[7.069228466728629,45.601311495639386,1799],[7.069202499115886,45.60128267260221,1801],[7.069143359452074,45.601277888727445,1803],[7.069042704436504,45.60130456984607,1805],[7.0689745088484965,45.60132801583577,1807],[7.068865381799762,45.601365907128915,1809],[7.068716655016207,45.601458003704266,1811],[7.068575361069728,45.6015691481536,1813],[7.068469803064339,45.601660081662565,1815],[7.068443284731739,45.6017258618071,1817],[7.0684457833224785,45.60172737119786,1819],[7.068438241396885,45.601735356038255,1821],[7.06847197394206,45.60183243033785,1823],[7.068523990103824,45.601887711796095,1825],[7.0685838293507555,45.60191143017622,1827],[7.068621571848362,45.60193099087416,1829],[7.068697647938999,45.601952856021086,1831],[7.06875864693622,45.6019624023838,1833],[7.068822389642553,45.601970576589515,1835],[7.06885252031325,45.601976289486956,1837],[7.06888473555659,45.601980145662786,1839],[7.0689059161992445,45.601991383990374,1841],[7.068929019150071,45.60200549366876,1843],[7.068969569162105,45.60202179033791,1845],[7.0689894828109585,45.60203064181852,1847],[7.0689914461672725,45.602038220377324,1849],[7.068993052893986,45.60204442118581,1851],[7.068991462657496,45.6020514896149,1854],[7.06898857419799,45.60205711756744,1856],[7.068978982520743,45.602061686187,1858],[7.068969293502739,45.60206909110751,1860],[7.068964910857241,45.60207895116458,1862],[7.068970616752694,45.60208945525986,1864],[7.068989008055347,45.602098091981155,1866],[7.069036874037922,45.60211269057822,1868],[7.069115426560009,45.60214098337812,1870],[7.069173999264185,45.60216231552552,1872],[7.069252292361562,45.60219817260525,1874],[7.069278707398559,45.602233625069445,1876],[7.069315865049206,45.60227020603487,1878],[7.069326755794643,45.60228671038773,1880],[7.069361066078929,45.60230810477689,1882],[7.0693912533441186,45.60233179485739,1884],[7.069415623608405,45.60234829126827,1886],[7.0694356023217075,45.602355251805335,1888],[7.069478222374921,45.60237016386449,1890],[7.069526773010181,45.602388960994986,1892],[7.069597130035013,45.60242042630495,1894],[7.0696819071098895,45.60244409312273,1896],[7.0697307997954,45.60245296088116,1898],[7.069756819941348,45.60246061483322,1900],[7.069778362300615,45.602471149850025,1902],[7.0697995546784105,45.60249184983451,1904],[7.069813042054359,45.60251123687789,1906],[7.069801421305495,45.60251600709031,1908],[7.069794179511682,45.60252085221796,1910],[7.069793091851014,45.60253289668592,1913],[7.0698076425754355,45.60254094811281,1915],[7.069826910846991,45.602548960465555,1917],[7.069838929212841,45.60256205452905,1919],[7.0698482456898315,45.60257533964391,1921],[7.069863697329023,45.60259641512585,1923],[7.06987809400598,45.60260895803196,1925],[7.069887790850804,45.60262094895904,1927],[7.069863382099852,45.60262526631491,1929],[7.069862766931976,45.60263718105743,1931],[7.069859349776929,45.60270348968861,1933],[7.069859863663809,45.60271265667311,1935],[7.069861023091343,45.6027333204703,1937],[7.069851504095541,45.60275539331757,1939],[7.069839696757392,45.602765601354456,1941],[7.069801200113323,45.60278765694573,1943],[7.06973144527402,45.60281722636407,1945],[7.069686690927489,45.602844853835876,1947],[7.069656106821809,45.60285237904993,1949],[7.0696512499393664,45.602852554371935,1951],[7.069645727460133,45.60286024489874,1953],[7.069613630989846,45.60288725823772,1955],[7.069621348703074,45.60289803212788,1957],[7.0696305556817345,45.60291450888729,1959],[7.069627950779752,45.602931494338286,1961],[7.069617248223044,45.60294881724596,1963],[7.0696013988558075,45.60295895603029,1965],[7.069585057019282,45.60296763916124,1967],[7.069578102711632,45.60298720001709,1970],[7.069540973438775,45.603027884156646,1972],[7.069536128758056,45.60305423846188,1974],[7.069527348544879,45.603074431805325,1976],[7.069508415999399,45.60309587204481,1978],[7.069487755707937,45.60310876833077,1980],[7.069479346985851,45.60311525615557,1982],[7.069404103171345,45.60328990442894,1984],[7.069334970243351,45.60336814145628,1986],[7.069297504358073,45.60341907081642,1988],[7.0692507623798395,45.60348498174761,1990],[7.069226198863767,45.603552687071115,1992],[7.069203018148224,45.60359784450338,1994],[7.069161575293016,45.6036301739613,1996],[7.069142630457432,45.60366066871909,1998],[7.069112004994886,45.60372827061819,2000],[7.069102421884557,45.60375223518056,2002],[7.069090913836986,45.603773328346435,2004],[7.0690735724788905,45.60378769919912,2006],[7.069041975456386,45.60379348527053,2008],[7.069011638089758,45.6037955222052,2010],[7.068947804739836,45.60380958031165,2012],[7.068905001881515,45.603819618739294,2014],[7.068883432384645,45.60381972742776,2016],[7.068816896392858,45.60381434396898,2018],[7.068766217624747,45.60381821772773,2020],[7.068713095885329,45.60383434971874,2022],[7.068638258580917,45.603854844327245,2024],[7.068559063404304,45.603864858473905,2027],[7.068495278539575,45.60387749862373,2029],[7.068470097641201,45.60388464146809,2031],[7.0684527710239475,45.60389853993453,2033],[7.068445304745909,45.6039197013992,2035],[7.068433514431777,45.60392943613583,2037],[7.0683974257100335,45.603940179291364,2039],[7.068395266291722,45.60394144967867,2041],[7.0683802302038305,45.60395029513499,2043],[7.068362182020572,45.60396560080571,2045],[7.068342016275163,45.603970088615725,2047],[7.068323693669869,45.603992863888834,2049],[7.068331924473274,45.60401263112556,2051],[7.068338351958586,45.60402172803178,2053],[7.068339358013331,45.604031679214145,2055],[7.068336996119576,45.60404157342615,2057],[7.068330115389991,45.60404571530578,2059],[7.0683173176963185,45.60404549882539,2061],[7.068299951246394,45.60404094678897,2063],[7.06828535978031,45.604034077185574,2065],[7.068271373886747,45.604025666989195,2067],[7.068260267583791,45.604018988649194,2069],[7.06823695298357,45.60401102459509,2071],[7.068218702655637,45.60401260872962,2073],[7.068206366776027,45.6040185493842,2075],[7.068210911628834,45.60404322540835,2077],[7.068215009642899,45.60406127109698,2079],[7.068240417013523,45.604088991273514,2081],[7.06824099422387,45.604089621191726,2083],[7.0682449376141285,45.6040925258462,2086],[7.068272067081232,45.604107176307195,2088],[7.068331811138406,45.604133732046556,2090],[7.0683897733633145,45.60414346485376,2092],[7.06843377384947,45.60415745466587,2094],[7.0684770264712125,45.604193192104546,2096],[7.068501193617733,45.604235230392256,2098],[7.068514056081519,45.604272819198364,2100],[7.0685147462117275,45.60431162154525,2102],[7.068502126786575,45.60434546796322,2104],[7.068485077749765,45.60437096143664,2106],[7.068223154658413,45.60470954715109,2108],[7.068223064497622,45.60470996956272,2110],[7.068179273766582,45.60476836121011,2112],[7.068130557195654,45.60484263419599,2114],[7.068114886359904,45.604886836551394,2116],[7.068101472324298,45.60494385009365,2118],[7.068095864499803,45.60496977288354,2120],[7.068074828487246,45.60499354359966,2122],[7.067990030682855,45.60510777082794,2124],[7.067932444541272,45.60521465381075,2126],[7.067865604865548,45.60535544005466,2128],[7.067816554597653,45.60544922184835,2130],[7.067718580859284,45.60553693734831,2132],[7.067633523072205,45.60560414162345,2134],[7.067554262753267,45.605668540289265,2136],[7.067494734281781,45.60572526932525,2138],[7.067446958477736,45.605770796834406,2140],[7.067334218290321,45.60583511659572,2143],[7.067325727412854,45.60583527892041,2145],[7.0671779831259585,45.60590969992935,2147],[7.0671490619929145,45.60598667293749,2149],[7.067083551365398,45.606088690539785,2151],[7.067059729014453,45.60610750307658,2153],[7.066972708059171,45.60617622265876,2155],[7.066856915153053,45.60625089787304,2157],[7.066782463917041,45.606310012042364,2159],[7.06670352842696,45.60639967900031,2161],[7.066674391624002,45.60646304895305,2163],[7.066623260534142,45.60653881863361,2165],[7.066606135271549,45.60660570241458,2167],[7.066592920289959,45.60676724069006,2169],[7.066565662146445,45.60684201940398,2171],[7.066516803341076,45.60693012706968,2173],[7.066498652444049,45.60706606004494,2175],[7.066463425357503,45.60718893177904,2177],[7.066424418847153,45.607264906653285,2179],[7.066366998531986,45.60732756089412,2181],[7.0663423744328515,45.60737728727846,2183],[7.066327504275865,45.607417719002804,2185],[7.066321846336596,45.6074646918689,2187],[7.066201760004753,45.60762491721096,2189],[7.066160383834595,45.60769139114396,2191],[7.066128043980345,45.60784789806095,2193],[7.066092898773553,45.60792914245476,2195],[7.066004417016054,45.608032662353,2197],[7.065967178896414,45.608096367448034,2200],[7.065967761166826,45.608157875123815,2202],[7.0659736156904795,45.60826204666892,2204],[7.065969510110887,45.608282169480745,2206],[7.065882162472795,45.608377894011646,2208],[7.065805195748495,45.608455749544106,2210],[7.065740709707433,45.60856700859043,2212],[7.065699216218077,45.60867605493584,2214],[7.065639219184918,45.60877438023535,2216],[7.065574710402457,45.60884708487024,2218],[7.065512556522758,45.60889049942917,2220],[7.065511755247745,45.608893736936025,2222],[7.0655005725844156,45.60889108848727,2224],[7.065480093738745,45.60889373342687,2226],[7.06545347431551,45.60888382176281,2228],[7.06543985752899,45.60884858436331,2230],[7.065449014086243,45.60881751848748,2232],[7.0654613524887475,45.60877231408805,2234],[7.065450463583282,45.60873617691941,2236],[7.065447658167187,45.60870017668993,2238],[7.065418363630825,45.60863809889896,2240],[7.065316664181565,45.6085381000797,2242],[7.065284266268054,45.60855530072678,2244],[7.0652159655356295,45.608552602611994,2246],[7.06520203644068,45.608512469768456,2248],[7.065214665015998,45.60849220336329,2250],[7.065196763505042,45.608469804952506,2252],[7.065162663529174,45.60846900577519,2254],[7.065141253273272,45.608503283406435,2257],[7.065078690949844,45.60853214015431,2259],[7.065043938098877,45.6085627731947,2261],[7.0650117479060786,45.60859723357425,2263],[7.064951378505573,45.60866716915388,2265],[7.06490905679843,45.608761063670336,2267],[7.064830828630554,45.60887989480519,2269],[7.064828877085099,45.60888290579681,2271],[7.064781683096975,45.60889881507347,2273],[7.064539619017972,45.609084281625194,2275],[7.064497922514221,45.609224978016606,2277],[7.0644283230296105,45.609255679101565,2279],[7.064351222675653,45.60924538047657,2281],[7.064356924092867,45.60932357865381,2283],[7.064293725441683,45.60940487710616,2285],[7.064259928662743,45.60950537573338,2287],[7.064048231415485,45.609679274234225,2289],[7.064054032766273,45.60975407272262,2291],[7.064002535569188,45.6098445710577,2293],[7.0639810366943205,45.60994286857852,2295],[7.063907238145916,45.60999906845678,2297],[7.063848539881298,45.61007826746794,2299],[7.063762942605052,45.6102398652015,2301],[7.0636748489493515,45.61052675902696,2303],[7.063684954190048,45.61070105485762,2305],[7.063711056122338,45.61077575203106,2307],[7.063705760483062,45.610966846783334,2309],[7.063807369844763,45.61136413472719,2311],[7.063782571903364,45.61146793242952,2313],[7.063831874441758,45.61157682894036,2316],[7.0637979825934645,45.6118911211454,2318],[7.06387108575003,45.61200881619241,2320],[7.064006289781481,45.612137510775376,2322],[7.064085093852359,45.61230470486774,2324],[7.0642280977566045,45.61245229801851,2326],[7.064300603021247,45.6126784905469,2328],[7.064505012892316,45.613018677712674,2330],[7.064521414234227,45.613085076260745,2332],[7.064503315037983,45.613131375492365,2334],[7.06450461836783,45.61323967235564,2336],[7.064568218873232,45.61328266958713,2338],[7.064583620560971,45.613346368051154,2340],[7.064625121708423,45.61337066693439,2342],[7.064607221432612,45.61338766664309,2344],[7.064651822342591,45.613427064639275,2346],[7.064653924000041,45.61346386390446,2348],[7.064712724493613,45.613487662068465,2350],[7.0647268253584485,45.61351276116405,2352],[7.064858427182827,45.61355955775369,2354],[7.064891827025516,45.61354135713001,2356],[7.064922127575229,45.613579055466836,2358],[7.064883428231371,45.61360195560608,2360],[7.064770228352556,45.613605057940944,2362],[7.064819529913702,45.613659555115134,2364],[7.0648966297566735,45.613685553447226,2366],[7.0650635346005375,45.61382604658378,2368],[7.065177239165236,45.61398723995946,2370],[7.065450343441509,45.61411763189354,2373],[7.065478644717923,45.61414453038951,2375],[7.065697647194003,45.61420102517316,2377],[7.066096453617121,45.61440641221041,2379],[7.066187856031006,45.61451650754168,2381],[7.066378360356661,45.61463510076355,2383],[7.066528566654259,45.61487139218553,2385],[7.066596872256554,45.61511108431418,2387],[7.066569973426971,45.61516778377524,2389],[7.06658297588184,45.615239681530866,2391],[7.066569977318995,45.615304479401516,2393],[7.066594678539391,45.61536647726175,2395],[7.066678080868889,45.61544797360904,2397],[7.066667882127528,45.61549337273123,2399],[7.066700008241159,45.61550810092867,2401],[7.066675985267016,45.61553367134051,2403],[7.066675185625084,45.6156182704157,2405],[7.066741488315056,45.61570456715123,2407],[7.06673628979952,45.61575326510169,2409],[7.066683293443393,45.615878562250145,2411],[7.066625691252267,45.615887563493025,2413],[7.06659619460086,45.61594076267733,2415],[7.066595793524961,45.616009361531184,2417],[7.066564395400321,45.61603676111859,2419],[7.06658329806426,45.616124957439084,2421],[7.066428100360251,45.616243958892184,2423],[7.066405101150049,45.61630065772753,2425],[7.066422902374822,45.616378954380174,2427],[7.066390902509829,45.61642265311803,2430],[7.066216105334382,45.61653815414199,2432],[7.066184005414266,45.61658505359909,2434],[7.066182007781249,45.61662815324122,2436],[7.0660882088521015,45.616698651929745,2438],[7.065996712432632,45.616851150507294,2440],[7.066001013469552,45.61689704804621,2442],[7.065964914113251,45.616979747756055,2444],[7.065969716062522,45.61705374516729,2446],[7.065918614948385,45.617033146428504,2448],[7.065818415867453,45.61703894880379,2450],[7.065816117040256,45.61707274734487,2452],[7.065893717618474,45.61711614564576,2454],[7.065960519107733,45.6172035421553,2456],[7.065934819881666,45.61720834175277,2458],[7.065888520142366,45.61718634279273,2460],[7.065877119117477,45.617237842890134,2462],[7.065823521323319,45.61728364187084,2464],[7.065764521322137,45.61730124173587,2466],[7.065762423155875,45.61735404068768,2468],[7.0657417216848675,45.61736344147647,2470],[7.065645722309868,45.61735064364809,2472],[7.065643620130597,45.61727304484748,2474],[7.065563120785839,45.61729564668783,2476],[7.065561721055296,45.617330745762075,2478],[7.06554462149643,45.617338346171856,2480],[7.06552622150632,45.617327746604964,2482],[7.065525020264229,45.61726564797977,2484],[7.065485517883105,45.6172686475179,2487],[7.065413417481289,45.617228150357114,2489],[7.0654148171148075,45.61725465071875,2491],[7.065318720279645,45.617333649766486,2493],[7.065333021778979,45.617383448469205,2495],[7.065254220173447,45.61739405023163,2497],[7.065255522109496,45.617434348912056,2499],[7.06523952070842,45.61740204948912,2501],[7.06517601901733,45.61736565099773,2503],[7.0651243183801915,45.617345552990024,2505],[7.0650886196269145,45.61735095343577,2507],[7.065084320789848,45.61741595252749,2509],[7.064993622282594,45.617425527160826,2511],[7.064967221968622,45.61753095131202,2513],[7.064878825147115,45.61763744998662,2515],[7.064828125682771,45.617646250464574,2517],[7.064760226359142,45.61777744886301,2519],[7.064753328666422,45.61782954720464,2521],[7.064699029564111,45.617856547373876,2523],[7.064663429677895,45.617861747744804,2525],[7.064640027540968,45.6177978507432,2527],[7.064564524105692,45.617720053812754,2529],[7.064471624784092,45.617712054541464,2531],[7.064451324210783,45.6176923570185,2533],[7.064462022964337,45.61766055683779,2535],[7.064420224593048,45.61768225668381,2537],[7.064429723032747,45.61771305628064,2539],[7.064390328776506,45.61787925193237,2541],[7.06435302951296,45.61793315173991,2543],[7.0642177237658705,45.617815156978466,2546],[7.064176425780929,45.61783885798625,2548],[7.06425572625154,45.617877654418784,2550],[7.06425972822085,45.617935553966944,2552],[7.064229729415411,45.61799795179458,2554],[7.064264530348371,45.61801425164244,2556],[7.064282530393382,45.6179961519963,2558],[7.064391334219891,45.61815754559881,2560],[7.06434283461593,45.618145346562606,2562],[7.064266234990884,45.618192846695045,2564],[7.064134657584846,45.61822235655349,2566],[7.064145733370386,45.61823214812562,2568],[7.064199135649363,45.61822294733015,2570],[7.064209134910047,45.61825484632503,2572],[7.0641752366998345,45.61828564655927,2574],[7.0641468390623094,45.61836024413727,2576],[7.064168838598257,45.61836904358566,2578],[7.064214040684673,45.618465340336954,2580],[7.064214943664132,45.618555138259126,2582],[7.064262343762261,45.61857603685039,2584],[7.064276543563291,45.618614835019685,2586],[7.06433354504826,45.61864223286957,2588],[7.064347045805158,45.61867913262066,2590],[7.064320846868733,45.618756629748454,2592],[7.0642392465943455,45.61874533311794,2594],[7.064243349037403,45.61880933147884,2596],[7.064280549785887,45.61880653097632,2598],[7.064259249295061,45.61886162901534,2600],[7.064270349666455,45.61889142788687,2603],[7.064336352084333,45.61890752573673,2605],[7.064356751728472,45.61893322486393,2607],[7.064334057203785,45.619182119909134,2609],[7.0642855576742445,45.619204919417264,2611],[7.064279160258661,45.61924201832792,2613],[7.064350161794754,45.61928661631438,2615],[7.064405461582666,45.619281715747825,2617],[7.064418763615638,45.6193530130317,2619],[7.064394963700908,45.619435110617,2621],[7.064429166498567,45.61947350974413,2623],[7.064486165761405,45.619475807950764,2625],[7.064496466719624,45.619509908213374,2627],[7.064519866712701,45.619522007605724,2629],[7.064523068447317,45.61958110506918,2631],[7.064577470482685,45.619693301716154,2633],[7.0645534731727135,45.61977100001264,2635],[7.064569175629511,45.61983479891879,2637],[7.064595974131324,45.61986249660838,2639],[7.06459217651389,45.61995129316377,2641],[7.064723080516939,45.6200663884033,2643],[7.064751382874393,45.62012448730969,2645],[7.064741484379764,45.62015538658999,2647],[7.06479498609513,45.62022288268721,2649],[7.0647627862260265,45.62023278329833,2651],[7.0647475874075285,45.62028538179835,2653],[7.064705188060241,45.62033358239764,2655],[7.064707589088034,45.620382781643194,2657],[7.064679889072634,45.62041167988903,2660],[7.064649789810259,45.62040668200535,2662],[7.06457958986387,45.62046508090387,2664],[7.064614490537778,45.62049857918132,2666],[7.064587793957108,45.6206011764363,2668],[7.064471493779271,45.6206440777039,2670],[7.064441092507749,45.620639279863994,2672],[7.064411290896933,45.620590381253,2674],[7.064426989835012,45.62051268275496,2676],[7.064410390809491,45.620533581998636,2678],[7.064400188974181,45.62049108390407,2680],[7.064418387942149,45.620450384904395,2682],[7.064386075229748,45.620485021187,2684],[7.0643958930776005,45.62060038113171,2686],[7.06436699314544,45.620644380240044,2688],[7.064370894259096,45.620707079055244,2690],[7.064262495244025,45.62075697981361,2692],[7.064236496513144,45.620789579098954,2694],[7.064185495677281,45.620782680454894,2696],[7.064149995248997,45.62080147889901,2698],[7.064115594169842,45.62070958301638,2700],[7.064102291696762,45.62071788302947,2702],[7.064092495746652,45.62077388170936,2704],[7.064134999000882,45.62091657662518,2706],[7.064068297554629,45.62094947775392,2708],[7.064077900523335,45.62100757664107,2710],[7.064059299910577,45.62102587668368,2712],[7.064081101621179,45.62106377404791,2714],[7.064071501311357,45.62109717333154,2716],[7.0641171028810215,45.62109347300969,2719],[7.064130303958055,45.62110697291689,2721],[7.064116502219029,45.62113357201304,2723],[7.0641417051188915,45.621177969766386,2725],[7.064123707737555,45.62128306716962,2727],[7.0641472079131065,45.621386164211245,2729],[7.064191811465758,45.62146116218228,2731],[7.064158914879313,45.62156295936402,2733],[7.06404851353364,45.62159496126382,2735],[7.064003513243541,45.62155816293511,2737],[7.063978011466574,45.62150046416532,2739],[7.063937410169215,45.621508765786125,2741],[7.063941210871337,45.62148406553315,2743],[7.063909510281992,45.621475566013785,2745],[7.063874910219803,45.621443167114954,2747],[7.063877507947365,45.62142106928948,2749],[7.063793707726583,45.62136597155639,2751],[7.063763910187533,45.621457169671956,2753],[7.063794411042506,45.62150296783864,2755],[7.063774809629714,45.621547567285,2757],[7.063706209263129,45.621470570934974,2759],[7.063715907222951,45.621374373240684,2761],[7.063660809531688,45.62148747142841,2763],[7.0636101107914335,45.62153257143704,2765],[7.063642011754124,45.621599168937465,2767],[7.063632912563017,45.62164586719975,2769],[7.063665514010356,45.621675364640346,2771],[7.063677016409223,45.6217350636941,2773],[7.063734016788044,45.62176466159493,2776],[7.063737618246957,45.62184826050294,2778],[7.063725418291248,45.621861560184506,2780],[7.063654416923831,45.62186746148954,2782],[7.063647016216715,45.62185776099392,2784],[7.0635964178659165,45.62187416107672,2786],[7.0635190165688035,45.621846964194084,2788],[7.063514716809367,45.62182536506624,2790],[7.063499415806875,45.62183246461949,2792],[7.063541817788058,45.62187416230215,2794],[7.063546016986341,45.621916261651904,2796],[7.063663520202013,45.62197015789055,2798],[7.063681221458359,45.62200085719669,2800],[7.063644522067917,45.62206375506934,2802],[7.06369012309353,45.62211045375606,2804],[7.063667225507029,45.622166653272366,2806],[7.063715926506574,45.622169151382906,2808],[7.063721326892393,45.62219455128244,2810],[7.063742126259095,45.622199951572554,2812],[7.0637281288202125,45.62229114754146,2814],[7.063780528136627,45.62230604657072,2816],[7.063840030373231,45.622358444351654,2818],[7.063847331793924,45.622444042942796,2820],[7.0638663322813775,45.622459741980634,2822],[7.063936333117704,45.62246473970028,2824],[7.063969535454675,45.622498038356404,2826],[7.063924235945098,45.62255983823183,2828],[7.063941737771912,45.622615635426634,2830],[7.06386053670684,45.622659935783766,2833],[7.063827236393576,45.622636037627174,2835],[7.063709837062902,45.6226963377386,2837],[7.063657140075586,45.622682883652736,2839],[7.063639235092216,45.62261634077454,2841],[7.063611414903578,45.62261616336679,2843],[7.063621476335183,45.622648912216704,2845],[7.064166398672852,45.62345921918014,2847],[7.064569432697851,45.62400159467899,2849],[7.06457830331597,45.62404674969807,2851],[7.06452426920047,45.624090838587456,2853],[7.064504176892054,45.624137986035954,2855],[7.06458998014313,45.62428178000863,2857],[7.0645692818287165,45.62434287916816,2859],[7.064589283832403,45.6244056762045,2861],[7.064545183068528,45.62445617727547,2863],[7.064502282599085,45.62445727732668,2865],[7.064453884431682,45.62448057725053,2867],[7.064495786247183,45.62452577637673,2869],[7.064464086346156,45.62460797403568,2871],[7.064475787565148,45.62462907211305,2873],[7.064420988907293,45.62463707386648,2875],[7.064420089718664,45.624693671573304,2877],[7.064475592040022,45.62486696594611,2879],[7.064594499342416,45.62510795847192,2881],[7.06461000158156,45.62519445562702,2883],[7.06458520293771,45.62523275478517,2885],[7.064612402706295,45.62526295425558,2887],[7.064611404632164,45.625298952957166,2890],[7.0645913548431,45.625358790395765,2892],[7.064943067219679,45.62569825558716,2894],[7.064916627707272,45.62593363990296,2896],[7.064878363894932,45.62597229419967,2898],[7.0648456307410905,45.62638286599545,2900],[7.0648094515359325,45.62644316099756,2902],[7.06458329363695,45.62652851404476,2904],[7.064136542401929,45.626627530325024,2906],[7.063822052250494,45.62675706684158,2908],[7.063728676056758,45.62685772137898,2910],[7.063690428785374,45.62706807389166,2912],[7.063636857021345,45.62709326950411,2914],[7.0635735472376595,45.62708997370046,2916],[7.063323859699133,45.62701823387158,2918]]}}]}