{"type":"FeatureCollection","features":[{"type":"Feature","properties":{"slug":"69-s7","sct_code":"69_S7","source":"Catasto Sentieri VdA"},"geometry":{"type":"LineString","coordinates":[[7.382587008472561,45.80857924857418,953],[7.382097007832728,45.80868924794598,964],[7.3817070085261856,45.8079792479828,974],[7.380747008335435,45.80799924785842,985],[7.380187008058769,45.80816924824847,995],[7.378087008672325,45.80767924732443,1006],[7.377567007643668,45.80761924709369,1017],[7.37722700823321,45.80771924765611,1027],[7.376427007702039,45.807399247073356,1038],[7.373277007775856,45.8075092473687,1048],[7.3722670081476736,45.807119247264296,1059],[7.372337007906104,45.80685924670551,1070],[7.371797008534263,45.80688924672545,1080],[7.369224698923431,45.80750519143667,1091],[7.368800008049435,45.80742824726292,1101],[7.368277007872137,45.8074892468507,1112],[7.368300585440675,45.8079558037757,1123],[7.368307669203783,45.808153915031355,1133],[7.368257648244048,45.80843446480213,1144],[7.368128268113087,45.808898390218886,1154],[7.367827179467389,45.8094026143078,1165],[7.367701284257332,45.80952682177566,1176],[7.367464004575061,45.809608935245855,1186],[7.367175720156036,45.80978482394773,1197],[7.36699114182353,45.80993519315384,1207],[7.366580230715963,45.810343339065504,1218],[7.366471990267985,45.81041379488565,1229],[7.366335855721943,45.810447849861944,1239],[7.3660389087457805,45.81047960451843,1250],[7.365802148996516,45.81054372105547,1260],[7.365737955625481,45.810538302451306,1271],[7.365727327793817,45.81046164653877,1282],[7.365748467594733,45.81039894579758,1292],[7.365797763927812,45.81036364923164,1303],[7.365017008172267,45.81050924955314,1313],[7.3633670078125615,45.81108925012725,1324],[7.363147008520206,45.811479250301154,1335],[7.362787008418113,45.81149925102461,1345],[7.3622270077939955,45.81209925082974,1356],[7.362037008732928,45.81198925107938,1367],[7.36200700831117,45.81215925166761,1377],[7.361687007548959,45.8122892517823,1388],[7.361667008610251,45.812589251537766,1398],[7.361427008667212,45.812719251628806,1409],[7.361325284365203,45.81255869141922,1420],[7.3611168125700885,45.812974221641184,1430],[7.360951373760845,45.813129355847124,1441],[7.360876406802311,45.81316203184517,1451],[7.360831443327176,45.813159136532,1462],[7.360787469913006,45.81312250371637,1473],[7.360646729086795,45.81276496616093,1483],[7.360525383563809,45.81262371763138,1494],[7.360449115158284,45.812591121395215,1504],[7.360357604710153,45.81263931039647,1515],[7.3602942491017425,45.812714904827565,1526],[7.360090003624837,45.81331500308586,1536],[7.359907818532924,45.8134923964883,1547],[7.359832830789315,45.81363532702279,1557],[7.359731933018599,45.8136743802785,1568],[7.359680602415695,45.8136691429726,1579],[7.3596363651717285,45.8136415063785,1589],[7.359620851732284,45.81340277165633,1600],[7.359576878937726,45.813366138384325,1610],[7.359097007602355,45.813559252349556,1621],[7.358987007771939,45.81374925306291,1632],[7.358797008778374,45.81376925225966,1642],[7.358687008535005,45.813389252328925,1653],[7.358367008045297,45.813319252203584,1663],[7.358367008383157,45.81398925296497,1674],[7.357887007895627,45.814179253020896,1685],[7.357717007607411,45.81456925298479,1695],[7.357957007803557,45.814609253113474,1706],[7.357720007527632,45.81484825334072,1716],[7.357677008492433,45.814869253320424,1727],[7.357037008588029,45.814949253550445,1738],[7.356927007626512,45.81473925336892,1748],[7.356107007893294,45.8150392537728,1759],[7.355727007900448,45.815639254649824,1769],[7.355897008044079,45.816559254880694,1780],[7.355637008742386,45.816859255042225,1791],[7.3549070078728445,45.816779255447194,1801],[7.354287008512153,45.81715925575852,1812],[7.353237008157363,45.816909255239366,1822],[7.352977008659454,45.81698925502339,1833],[7.35251871246671,45.81756677518301,1844],[7.352641672320091,45.817762058071324,1854],[7.352580853579299,45.81786018587052,1865],[7.352415344785659,45.8179073012618,1875],[7.351929497858138,45.817904792948866,1886],[7.3516117436092605,45.81798571233009,1897],[7.351387271551611,45.818067977138774,1907],[7.351207433715629,45.8181643864255,1918],[7.350952018002386,45.818313707074346,1928],[7.350722068683729,45.81847239528302,1939],[7.3503585342015585,45.81879566218563,1950],[7.349980400855584,45.819177219928655,1960],[7.3500145886515424,45.81921821574882,1971],[7.350088041681454,45.819237277588634,1981],[7.350351414418938,45.81925458200985,1992],[7.350405301516483,45.81928236152922,2003],[7.350396742103304,45.81935424147207,2013],[7.35034407851714,45.81939398294449,2024],[7.350063718305415,45.81951594001689,2034],[7.3501670078228125,45.8197792574577,2045],[7.350017008301227,45.81977925823266,2056],[7.350127008190403,45.819949257930624,2066],[7.349887008421251,45.820079257957524,2077],[7.350017007908595,45.820279258012945,2088],[7.349567007837807,45.820399258432,2098],[7.349327007863572,45.820699258516726,2109],[7.348877008044794,45.82065925896383,2119],[7.349047008217101,45.821179259438296,2130],[7.348858008604482,45.82125925887663,2141],[7.348818007949525,45.82166925918604,2151],[7.34864800847998,45.821579258981004,2162],[7.348748008430702,45.82179925954964,2172],[7.348298008260222,45.821859259814175,2183],[7.346838008108898,45.82155925949019,2194],[7.346798008566066,45.82175925992643,2204],[7.346028007939391,45.821779259588524,2215],[7.346238008720563,45.821929260120136,2225],[7.346088008173704,45.821969259979596,2236],[7.345038008408367,45.822079259521566,2247],[7.343898008484608,45.82198925991812,2257],[7.343498007868242,45.82209925975197,2268],[7.342048572940155,45.821969515521836,2278],[7.340768007876742,45.82265926046951,2289],[7.340128007606046,45.82288926082886,2300],[7.338980537215249,45.82286999105455,2310],[7.338731362685698,45.82291586998802,2321],[7.33854538380777,45.822892914146976,2331],[7.338223554387787,45.82278472772824,2342],[7.337896698325935,45.8226292149486,2353],[7.337545852727574,45.82252285452316,2363],[7.336611881316913,45.82243725468086,2374],[7.3359265507257625,45.82243177331957,2384],[7.335712092033821,45.82239264720081,2395],[7.335623493227507,45.82244985919171,2406],[7.335732866575829,45.82255945802872,2416],[7.335908186126353,45.822832025394675,2427],[7.336068008327946,45.823039260256834,2437],[7.335872194833896,45.82328377318349,2448]]}}]}