{"type":"FeatureCollection","features":[{"type":"Feature","properties":{"slug":"69-s8","sct_code":"69_S8","source":"Catasto Sentieri VdA"},"geometry":{"type":"LineString","coordinates":[[7.32913800768763,45.81300025199335,953],[7.3291380086452325,45.81313025188288,958],[7.330618008697045,45.813750252519,963],[7.3310080087034475,45.81403025284685,968],[7.331158008137986,45.814270253447035,973],[7.331628007539621,45.81433025312317,977],[7.331868008001712,45.81455025327003,982],[7.332092492793739,45.81453227309924,987],[7.3337639737230775,45.8147701205462,992],[7.334027986529841,45.81487297628738,997],[7.33433394835082,45.81497194288511,1002],[7.334603524296332,45.81510412987813,1007],[7.334689631084421,45.815130136467,1012],[7.335295196353958,45.81521771709119,1017],[7.335819279536108,45.8153401092479,1021],[7.336697444770205,45.815350649465344,1026],[7.336930506490869,45.81541254576721,1031],[7.33713106907318,45.81548521906429,1036],[7.337364935282742,45.81552012483631,1041],[7.33760027453682,45.81550554908769,1046],[7.337784953095804,45.81546323432616,1051],[7.337875215510717,45.815457797402345,1056],[7.3419680079748515,45.81704025548341,1061],[7.342468008201635,45.81699025543967,1065],[7.3424180081509185,45.81719025519333,1070],[7.342678008644084,45.81758925626746,1075],[7.342868007728417,45.817659255962795,1080],[7.342960148773782,45.8179942058618,1085],[7.343068499138877,45.81807362151058,1090],[7.34297213324981,45.81806772344625,1095],[7.3428943998946234,45.81808459671368,1100],[7.342789998966205,45.81813258461127,1105],[7.342514326965623,45.81831309409134,1109],[7.342378159222192,45.818347120001704,1114],[7.34219575629736,45.81842097676465,1119],[7.341981586857118,45.81848087149148,1124],[7.341781218585879,45.81850946460032,1129],[7.341091515582103,45.818544452737186,1134],[7.340777083906165,45.81851288464911,1139],[7.340649486469657,45.81847502941545,1144],[7.340293639907284,45.81842935771255,1149],[7.3400369755490456,45.818403127119865,1153],[7.339988391394629,45.81841367165755,1158],[7.3400034719038905,45.818447642481196,1163],[7.340366161107068,45.818587919186285,1168],[7.340650983585137,45.818749564759564,1173],[7.341022391100823,45.81892146757351,1178],[7.341416985804177,45.819071204730875,1183],[7.341447950475879,45.81911215632342,1188],[7.341389114654972,45.819142803609736,1193],[7.341282963424841,45.8191412622625,1197],[7.341058729542874,45.819106504438295,1202],[7.340579298640886,45.81899603566897,1207],[7.339779679264157,45.818939414629945,1212],[7.339609997155254,45.81890994701933,1217],[7.339360968162883,45.81884332388826,1222],[7.338971080562403,45.81886015630654,1227],[7.337859042015376,45.81870447380965,1232],[7.337470494183567,45.818676318367736,1237],[7.337402676266125,45.81868433176073,1241],[7.337439937190635,45.81872987630858,1246],[7.337805972104574,45.818865709615984,1251],[7.338118801594987,45.81905927059573,1256],[7.338587913610496,45.81930010607307,1261],[7.3394000152927745,45.819586428251625,1266],[7.339463413542049,45.81961885142573,1271],[7.339477892144531,45.81967306456241,1276],[7.339416372972259,45.81968567093514,1280],[7.339156219034716,45.81966838808792,1285],[7.3383240185513925,45.81951677848299,1290],[7.337249765890588,45.819388641064855,1295],[7.336869524180106,45.81940560671425,1300],[7.336480436099432,45.81939544093411,1305],[7.3362651845275995,45.819383305615574,1310],[7.335877303148001,45.819332653351054,1315],[7.335170296843798,45.81940785564995,1320],[7.334662995869982,45.81936895940832,1324],[7.334369738992188,45.819382684606225,1329],[7.334090556492009,45.81935611230433,1334],[7.334021529594753,45.81940460806231,1339],[7.334033457088607,45.81943628357562,1344],[7.334125869460128,45.81946688275134,1349],[7.334420264056739,45.81952292821966,1354],[7.335227120143053,45.819768701597674,1359],[7.335789109171614,45.819916397418396,1364],[7.33643715093819,45.820308355690784,1368],[7.336669428995514,45.82039724237896,1373],[7.336893531097921,45.82043650711807,1378],[7.337179288001286,45.82045866803577,1383],[7.337464241634823,45.82050781787744,1388],[7.337968606213996,45.82053765848809,1393],[7.3381382253774365,45.820569377722386,1398],[7.339212442138769,45.82080776164038,1403],[7.339669234261775,45.82092240727925,1408],[7.3400264408807825,45.82103110375899,1412],[7.340254575131625,45.821151424466926,1417],[7.3403514889975465,45.821247337200475,1422],[7.340316513201174,45.821341333676244,1427],[7.340105562911841,45.82161728223749,1432],[7.340067235888958,45.82171573015566,1437],[7.340072065006669,45.82176980297721,1442],[7.340153831268363,45.821833994208596,1447],[7.340255834791158,45.82186697788017,1452],[7.340629266596364,45.82197140797732,1456],[7.340861692064359,45.82205578802294,1461],[7.340974282553078,45.82205742327707,1466],[7.341273441618401,45.8219537624074,1471],[7.341605847575681,45.82192258695987,1476],[7.3418534125936175,45.82193068103285,1481],[7.342048572940155,45.821969515521836,1486],[7.340768007876742,45.82265926046951,1491],[7.340128007606046,45.82288926082886,1496],[7.338980537215249,45.82286999105455,1500],[7.338731362685698,45.82291586998802,1505],[7.33854538380777,45.822892914146976,1510],[7.338223554387787,45.82278472772824,1515],[7.337896698325935,45.8226292149486,1520],[7.337545852727574,45.82252285452316,1525],[7.336611881316913,45.82243725468086,1530],[7.3359265507257625,45.82243177331957,1535],[7.335712092033821,45.82239264720081,1540],[7.335623493227507,45.82244985919171,1544],[7.335732866575829,45.82255945802872,1549],[7.335908186126353,45.822832025394675,1554],[7.336068008327946,45.823039260256834,1559],[7.335872194833896,45.82328377318349,1564]]}}]}