{"type":"FeatureCollection","features":[{"type":"Feature","properties":{"slug":"70-s22","sct_code":"70_S22","source":"Catasto Sentieri VdA"},"geometry":{"type":"LineString","coordinates":[[7.23176400871337,45.512668038087334,2719],[7.230994007959916,45.51273803766895,2719],[7.230854008434148,45.51267803804818,2719],[7.230904007798737,45.51257803770357,2719],[7.230634008397818,45.51257803815656,2719],[7.229740008427437,45.512928037622366,2719],[7.229564008555539,45.51309803810738,2720],[7.229574008672451,45.51333803824196,2720],[7.229674008435157,45.513368038598,2720],[7.229574007588987,45.5136280381051,2720],[7.2292040084545235,45.51377803825617,2720],[7.228954008125841,45.514058038695815,2720],[7.228134008080931,45.51414803918967,2720],[7.2279840081914575,45.5143580391688,2720],[7.227454008427151,45.514378038611284,2720],[7.226394007624187,45.51473803891465,2720],[7.226384007594655,45.51493803919371,2721],[7.226894008013456,45.51538803901055,2721],[7.2272840081329965,45.5158880395687,2721],[7.226844008086712,45.51688804000391,2721],[7.226184008030955,45.517578040332914,2721],[7.224764007736347,45.51863804134434,2721],[7.223864008624041,45.519618041753034,2721],[7.222714008085224,45.520318042040614,2721],[7.222254008251575,45.520948042873066,2721],[7.220974007668757,45.52133804262104,2721],[7.220764008297867,45.52164804307982,2721],[7.220824008371915,45.52200804302416,2722],[7.220704008733828,45.52233804315309,2722],[7.220104007831507,45.522868043749284,2722],[7.219224008036764,45.52311804376864,2722],[7.218535008054494,45.523138044249905,2722],[7.2170750084783135,45.5237480439478,2722],[7.21652500869244,45.52421804404116,2722],[7.215785008738999,45.52459804435062,2722],[7.2158550078637775,45.52522804489203,2722],[7.2165150080926965,45.525708044915184,2722],[7.217255008413764,45.525918045826195,2722],[7.217695008335312,45.526188045743766,2723],[7.218395007585484,45.526348045991355,2723],[7.219515007898605,45.52724804578719,2723],[7.221015008174093,45.527428045916274,2723],[7.221495008383614,45.52773804657801,2723],[7.221605008357748,45.52790804638831,2723],[7.222195007586272,45.52819804696619,2723],[7.222475008496709,45.52850804666413,2723],[7.2224750081471285,45.52880804673135,2723],[7.22317500782307,45.52945804768062,2723],[7.223435008449721,45.529578047544085,2724],[7.224555008669998,45.52973804726849,2724],[7.2248740076699045,45.52943804785213,2724],[7.225314008582824,45.52939804703551,2724],[7.225744007571455,45.52911804732904,2724],[7.226204008515525,45.52901804706234,2724],[7.226544007953506,45.52877804674942,2724],[7.226914008259082,45.52898804732589,2724],[7.226834008710452,45.52915804769272,2724],[7.227014008748782,45.529278047387216,2724],[7.227534007898462,45.52919804702803,2724],[7.228124007878851,45.52935804786715,2725],[7.228284008133915,45.52943804767818,2725],[7.228804008096087,45.52971804768323,2725],[7.229104007585112,45.52969804786545,2725],[7.229264007933377,45.52984804788823,2725],[7.229584008294935,45.529868048094535,2725],[7.23062400862845,45.53044804816949,2725],[7.231114007855027,45.53047804788195,2725],[7.231624008175902,45.53072804849577,2725],[7.2318640081167915,45.53095804847582,2725],[7.2317140076589155,45.5315280489258,2725],[7.2324540076252966,45.5315680487885,2726],[7.232734008663444,45.53191804908126,2726],[7.23289400776892,45.53252804955531,2726],[7.232794007723896,45.53326804941119,2726],[7.233474008487036,45.533518049448865,2726],[7.23379400827283,45.53395804977675,2726],[7.234724008378134,45.53412805029555,2726],[7.234514008463001,45.534828050510676,2726],[7.234624007855872,45.53549805088574,2726],[7.234284008812582,45.535858051141076,2726],[7.234244008082294,45.53608805096865,2727],[7.235364008046215,45.53688805152406,2727],[7.235304008599127,45.53725805168485,2727],[7.236654007763598,45.53765805240528,2727],[7.23725400856733,45.537958052473236,2727],[7.238324007641523,45.53795805200462,2727],[7.239824008148295,45.53877705269276,2727],[7.240184008253199,45.53921705357735,2727],[7.241074007775649,45.539397053536334,2727],[7.2419540083554095,45.53939705366874,2727],[7.241934008274102,45.539547053797904,2727],[7.241644007611901,45.53977705309191,2728],[7.240814008548121,45.53994705407757,2728],[7.239664008758378,45.53998705335739,2728],[7.23929400876281,45.540057053631365,2728],[7.23918400779333,45.54017705365329,2728],[7.240014008506369,45.54029705417092,2728]]}}]}