{"type":"FeatureCollection","features":[{"type":"Feature","properties":{"slug":"70-s13","sct_code":"70_S13","source":"Catasto Sentieri VdA"},"geometry":{"type":"LineString","coordinates":[[7.144752334967983,45.48597819036096,2541],[7.14508716637147,45.48631753973169,2542],[7.14516721921244,45.486510110124115,2543],[7.145228213431342,45.486601110293385,2543],[7.145497771494745,45.48696552609163,2544],[7.145891687209785,45.48743997181645,2545],[7.14847765677557,45.48975016818255,2546],[7.149714079104186,45.49146238546859,2547],[7.150226541520729,45.49222676656654,2547],[7.15050983253079,45.49256438983753,2548],[7.1510174754223605,45.49308566402516,2549],[7.151103184663178,45.49320406393769,2550],[7.15186195304424,45.493873415041975,2551],[7.1523856484474155,45.494295932601574,2551],[7.153182232725708,45.49498388852142,2552],[7.154105282840477,45.49571888785602,2553],[7.154455806619072,45.495958577736815,2554],[7.154922635045423,45.49616414213993,2555],[7.155374324468144,45.496441467482725,2555],[7.1559789338267725,45.49673926245288,2556],[7.15620507659626,45.49686892713061,2557],[7.15646783439766,45.49705318804968,2558],[7.15734935580906,45.49788650056606,2559],[7.158041951597763,45.49862674956942,2559],[7.158263705796246,45.49889135317802,2560],[7.158598247668394,45.499229782573906,2561],[7.159373680496095,45.50017838029372,2562],[7.159571327313675,45.50039758809679,2563],[7.160407240173417,45.50145516439013,2563],[7.161270821092352,45.50245017346868,2564],[7.161701011964675,45.502997154784744,2565],[7.161736170403192,45.50309673086552,2566],[7.162051814517159,45.50362386490396,2566],[7.162315997031121,45.50415917076811,2567],[7.162475580577213,45.504368759909816,2568],[7.16266133827132,45.5045607681408,2569],[7.162924152620575,45.50474501485056,2570],[7.163214604987202,45.5048666991196,2570],[7.163390206705191,45.504977534559565,2571],[7.163662600706348,45.50526094368006,2572],[7.164340233859883,45.506072920184984,2573],[7.164496320499727,45.506390461159484,2574],[7.164791098444139,45.506773237339836,2574],[7.1648387663559525,45.506882014357366,2575],[7.165205052621458,45.507427955014634,2576],[7.165687958137243,45.50793076328152,2577],[7.165996423354325,45.508286753385775,2578],[7.1660190900384855,45.5083771265201,2578],[7.166103684337326,45.508531500580354,2579],[7.166210361766464,45.5087942401095,2580],[7.166244362601499,45.50892979974677,2581],[7.166240855915139,45.50903775433003,2582],[7.166284437346698,45.509272477786254,2582],[7.166330941259549,45.50941723907276,2583],[7.166451585011886,45.50964419897963,2584],[7.166647830846778,45.50990837620549,2585],[7.166755681842414,45.510135130381656,2586],[7.167037991046053,45.51050869943141,2586],[7.167073747429447,45.51059028152916,2587],[7.167184230196749,45.51073606936945,2588],[7.167668295447085,45.511598923761376,2589],[7.1677639421914545,45.51180747928018,2590],[7.167849422144741,45.51193486345721,2590],[7.16789739202915,45.51203464304468,2591],[7.167942442224694,45.51222438480084,2592],[7.168014251718572,45.51237855222797,2593],[7.168485595568477,45.51284515913261,2594],[7.168608006283031,45.51301813955658,2594],[7.168690863021817,45.513226489122616,2595],[7.1687766390024645,45.5133448764202,2596],[7.1689144740631185,45.513437095738894,2597],[7.169000834486206,45.51353749043267,2598],[7.169250623216733,45.51373051431958,2598],[7.16949924663088,45.513959522575625,2599],[7.169758334284749,45.514260705202574,2600],[7.169725007999877,45.514469038735704,2601],[7.16987500825975,45.5146890387136,2602],[7.169926202650714,45.514747355131625,2602],[7.1700650080902655,45.51490903952831,2603],[7.1706150075786255,45.516059039934625,2604],[7.170865008426825,45.51629904018333,2605],[7.170956503754088,45.51652871267437,2606],[7.171492546346961,45.517017062267044,2606],[7.171563985822873,45.51716293158538,2607],[7.171797863934254,45.517399827302675,2608],[7.17236932961457,45.51801786035275,2609],[7.172765008730561,45.518609040883234,2609],[7.172965008399009,45.519279041569554,2610],[7.173049497095282,45.51941938961684,2611],[7.173046917560308,45.519606602914365,2612],[7.17295250279422,45.51972656387856,2613],[7.172925722571726,45.51985464383433,2613],[7.172762084562134,45.520028877729374,2614],[7.17263113309277,45.52020179827799,2615],[7.172458502355414,45.52026390143136,2616],[7.172380263132015,45.52031435937647,2617],[7.172413718630152,45.52035650684098,2617],[7.172451168810143,45.52038280735152,2618],[7.17242439375289,45.52040318529598,2619],[7.172289853151684,45.52036431553771,2620],[7.172203838109205,45.520332341153626,2621],[7.172165556029529,45.52033172839105,2621],[7.172164723948991,45.52035741711754,2622],[7.172206402075983,45.52044130827986,2623],[7.172288678716871,45.52050810397961,2624],[7.172440520278553,45.5204966125154,2625],[7.1724588690784294,45.52052138319639,2625],[7.172398156212117,45.52062199468124,2626],[7.172345150583221,45.52064593028628,2627],[7.17234582132961,45.520678985992454,2628],[7.172378091197167,45.520703980392966,2629],[7.172393730286452,45.520731768018,2629],[7.172375814517131,45.520747392155215,2630],[7.172414667288965,45.52081104361824,2631],[7.1724550087535235,45.52096904282495,2632],[7.17238211385323,45.52125173545839,2633],[7.172323771629991,45.521386653022255,2633],[7.172336292173403,45.52148384700511,2634],[7.172455641009355,45.52166934018565,2635],[7.172726408021671,45.521950578409836,2636],[7.172804426615629,45.52201455131207,2637],[7.172933987632781,45.52204599785318,2637],[7.173055440823228,45.522112806836084,2638],[7.173255008805344,45.5223190433678,2639],[7.173735007771715,45.522939044164076,2640],[7.173962742523264,45.52308837803929,2641],[7.174090013223183,45.523136921625756,2641],[7.174194620421501,45.523240176436545,2642],[7.174425007871699,45.52338904414438,2643],[7.174585008461731,45.523568044518875,2644],[7.174295008516911,45.523488043949754,2645],[7.174175008255669,45.52347904432711,2645],[7.174095007952002,45.523509044153144,2646],[7.174066007823837,45.523718044577194,2647],[7.174276008264327,45.52396804457248,2648],[7.174426008319815,45.52403804475042,2649],[7.174676008746022,45.52436804426876,2649],[7.1749160081856305,45.52455804472959,2650],[7.1749760086601535,45.5246380449455,2651],[7.174976008372062,45.52470804482351,2652],[7.174926008799492,45.52478804486299,2652],[7.174836007732431,45.524848044630716,2653],[7.174776008086986,45.52486804508737,2654],[7.174716008328237,45.5248580446618,2655],[7.174716007867976,45.52484804467145,2656],[7.174706008591007,45.52490804495317,2656],[7.174636008105,45.524928044794294,2657],[7.1745760078958405,45.52496804510229,2658],[7.174556007708172,45.52505804476353,2659],[7.174596007888131,45.525138044984416,2660],[7.174466008273725,45.52517804505871,2660],[7.174266008586224,45.5252680454521,2661],[7.174026008760298,45.52531804501987,2662],[7.174016008598728,45.525338045294006,2663],[7.173616008062269,45.52549804506622,2664],[7.1734760076109625,45.52565804495725,2664],[7.173276007973669,45.52578804533817,2665],[7.173196008450586,45.525858045363876,2666],[7.173156007850038,45.52595804522134,2667],[7.1731660078394395,45.52597804584716,2668],[7.173116008300833,45.525978045229785,2668],[7.172986007838674,45.52607804528858,2669],[7.172936008460534,45.526098045457424,2670]]}}]}