{"type":"FeatureCollection","features":[{"type":"Feature","properties":{"slug":"70-s17","sct_code":"70_S17","source":"Catasto Sentieri VdA"},"geometry":{"type":"LineString","coordinates":[[7.23176400871337,45.512668038087334,1955],[7.230994007959916,45.51273803766895,1960],[7.230854008434148,45.51267803804818,1965],[7.230904007798737,45.51257803770357,1971],[7.230634008397818,45.51257803815656,1976],[7.229740008427437,45.512928037622366,1981],[7.229684007881625,45.512728038123065,1986],[7.229344007891528,45.512588037649685,1991],[7.228494008725335,45.51252803826386,1997],[7.228314008034127,45.5125880378036,2002],[7.228184007842396,45.512468037940586,2007],[7.227474007819282,45.51261803831361,2012],[7.227094008708447,45.512618037582165,2017],[7.226854008155603,45.51281803843446,2022],[7.226914008320169,45.512688037616144,2028],[7.226024007946391,45.51308803856134,2033],[7.224234008420779,45.51338803799939,2038],[7.223544008069546,45.5137780385932,2043],[7.223154007567669,45.51369803840764,2048],[7.222524008390179,45.51381803854243,2054],[7.222704007976209,45.513608038280914,2059],[7.22202400858887,45.51373803872229,2064],[7.222154008498541,45.513518038507186,2069],[7.221080885366852,45.51379269524476,2074],[7.220094008264294,45.51373803827916,2080],[7.2208140085864425,45.51335803809567,2085],[7.220014007911657,45.51348803801565,2090],[7.219144008482261,45.513868038730784,2095],[7.218684008521793,45.51415803856353,2100],[7.218854008449384,45.513838038748546,2105],[7.219284007677897,45.51344803847318,2111],[7.2176540082948035,45.51407803885731,2116],[7.217794008280044,45.51361803866099,2121],[7.217544007747518,45.51358803854766,2126],[7.217194007772084,45.5139480382426,2131],[7.216426718677061,45.514384179745335,2137],[7.2159240078278035,45.51411803892917,2142],[7.215954008373691,45.51421803864616,2147],[7.2157740087482924,45.514338039094056,2152],[7.215824008179823,45.51443803898376,2157],[7.215104007794686,45.51429803848175,2163],[7.214604007833487,45.51407803860954,2168],[7.214674008421947,45.51441803929314,2173],[7.214294008481443,45.514168038338894,2178],[7.214284007584169,45.51447803933783,2183],[7.213944008326468,45.51409803901744,2188],[7.213794008391887,45.51451803918768,2194],[7.213514008184264,45.51398803823478,2199],[7.21348400820937,45.51428803863407,2204],[7.213174008277553,45.51404803903632,2209],[7.213134008143235,45.51385803875798,2214],[7.212994008747351,45.51381803882758,2220],[7.212974007994062,45.51430803889188,2225],[7.212524008481766,45.513738038393484,2230],[7.212474008390284,45.514338038596605,2235],[7.2126640080553885,45.51452803862946,2240],[7.212664008722218,45.514688039469874,2246],[7.2120240084547165,45.51416803868811,2251],[7.211954008619441,45.514538038810485,2256],[7.212174008805763,45.51475803953987,2261],[7.2117840076068225,45.514718039181,2266],[7.2121240078841655,45.51501803966061,2271],[7.211955008807646,45.51516803977359,2277],[7.21203500855992,45.51537803934945,2282],[7.211785007898999,45.51522803929471,2287],[7.211695008644323,45.51533803939208,2292],[7.211525007624495,45.515068039596876,2297],[7.211235008463831,45.51495803921479,2303],[7.211215007753416,45.515108039071656,2308],[7.210955007916492,45.515178039764294,2313],[7.210865008610455,45.514728039479614,2318],[7.21074500789395,45.51463803871649,2323],[7.210645008645579,45.51474803882524,2329],[7.210565008422883,45.51461803911046,2334],[7.210505008284683,45.51480803938829,2339],[7.2103450080143565,45.51482803868806,2344],[7.210295008596048,45.51465803912977,2349],[7.210215008370615,45.51481803904368,2354],[7.210315008161264,45.514458038524054,2360],[7.210055008163684,45.514608038937475,2365],[7.209905008589356,45.51394803890927,2370],[7.209515007764951,45.514788039470126,2375],[7.209215007956632,45.515038038997595,2380],[7.208945007545118,45.514028038928025,2386],[7.208665007992337,45.51415803843995,2391],[7.207975008433182,45.51483803931633,2396],[7.206915007608943,45.51540803954742,2401],[7.206867394577281,45.515617280994775,2406],[7.206788436342969,45.515809091411526,2412],[7.206806758935855,45.515843739152,2417],[7.206800065275014,45.51592877350408,2422],[7.2067660500917405,45.51606449489404,2427],[7.20673368714077,45.51621683266583,2432],[7.2067092330074,45.51632462858821,2437],[7.2067014015870035,45.51635339127273,2443],[7.206686168019153,45.516413966583436,2448],[7.2066524307248185,45.51657424583176,2453],[7.206602527353715,45.516700818458546,2458],[7.206566873854383,45.51681767697345,2463],[7.206569780193796,45.51693560821939,2469],[7.206620677739992,45.517051018639975,2474],[7.2066428302417345,45.51714960498563,2479],[7.206642644139518,45.51728516271109,2484],[7.206557857777391,45.51753585613861,2489],[7.206578591731411,45.51768919694057,2495],[7.206510318176592,45.51782313805623,2500],[7.2065091745872785,45.5178591236635,2505],[7.206545850420155,45.517913705031155,2510],[7.20638771085865,45.51805523554071,2515],[7.206240080083347,45.5182689380341,2520],[7.20618517407885,45.51838508713931,2526],[7.206182600483131,45.51846605473285,2531],[7.206101527772665,45.51859979453079,2536],[7.20609809612364,45.5187077513129,2541],[7.205990284328583,45.518877074532845,2546],[7.205986566441519,45.51899402770056,2552],[7.20595925583215,45.51904760398128,2557],[7.205762433456486,45.519197526756344,2562],[7.205681644699163,45.51932226981314,2567],[7.205575546810746,45.51943761421776,2572],[7.205541942079685,45.519689111061574,2578],[7.205462296437723,45.519777868359746,2583],[7.205403381958091,45.52001996651747,2588],[7.205258889447499,45.52013470722189,2593],[7.204953957163135,45.5204629471706,2598],[7.204792944348026,45.52069443913509,2603],[7.204596113055831,45.520844359723995,2609],[7.204456207779637,45.5209732012055,2614],[7.204426279239543,45.52103541549619,2619],[7.204381696212138,45.52117645864251,2624],[7.204346737044977,45.521276485742526,2629],[7.20422102654247,45.521394733768794,2635],[7.204133997271933,45.52149825517142,2640],[7.2040703743277685,45.52167317512027,2645],[7.204000496601466,45.52180012364045,2650],[7.203966747580937,45.522024137955626,2655],[7.203954985416228,45.522142773658715,2661],[7.203980662139661,45.52233965424137,2666],[7.203944895137954,45.522459784574544,2671],[7.2038851942612,45.52266280653958,2676],[7.203862670981267,45.52278501643072,2681],[7.203835949128288,45.523039079945455,2686],[7.203807989426308,45.5234156872161,2692],[7.2038086290466135,45.52373005945475,2697],[7.2037812229423785,45.52400563146846,2702],[7.203756406560467,45.52419984561285,2707],[7.203673549094565,45.52456354875716,2712],[7.203326495348508,45.52462726517565,2718],[7.2027245336923444,45.52463877994302,2723],[7.202458958524475,45.52466079685786,2728]]}}]}