{"type":"FeatureCollection","features":[{"type":"Feature","properties":{"slug":"70-s2","sct_code":"70_S2","source":"Catasto Sentieri VdA"},"geometry":{"type":"LineString","coordinates":[[7.1922802797338425,45.57997508516454,1562],[7.19249934552226,45.58006559497518,1567],[7.192712686021493,45.58026103334187,1572],[7.192911951274859,45.5805172740264,1577],[7.193050016712199,45.580812281855984,1582],[7.193061646806094,45.58092670857515,1587],[7.193156533076541,45.581061850229645,1592],[7.193174667078951,45.58133651042103,1597],[7.1932175865764405,45.581594534124235,1602],[7.193281811395018,45.58186046274556,1607],[7.193286311331646,45.58197217628532,1612],[7.193303020081175,45.582291281426926,1617],[7.193325182992283,45.58252437747561,1622],[7.1933153064410895,45.58266424668409,1627],[7.19330488186378,45.582695672771735,1632],[7.193362007941783,45.582936079734004,1637],[7.193787008045038,45.58322908016056,1642],[7.195155008122324,45.58370807995824,1647],[7.195309008442962,45.58397708050481,1652],[7.194831008554884,45.584503081267776,1657],[7.194563008473153,45.58524208096862,1662],[7.194393008432219,45.585468081858004,1667],[7.194169007887668,45.58653208206149,1672],[7.194130007987911,45.58691208286703,1677],[7.19492400765477,45.58585808216282,1682],[7.194948008565463,45.58595308149786,1687],[7.194860008587035,45.58616208232118,1692],[7.194828007824682,45.58629408169439,1697],[7.194726008097767,45.586960082586735,1702],[7.195267007565525,45.58614908230352,1707],[7.195936008441874,45.58558808159147,1712],[7.195736007748282,45.58592808174968,1716],[7.195644007572906,45.58708908267036,1721],[7.195695008688623,45.587185082682126,1726],[7.196009007842763,45.58671308222606,1731],[7.19613600879734,45.586144081528104,1736],[7.196417008210921,45.585824081606795,1741],[7.196296008416625,45.58622208220937,1746],[7.196418008572015,45.586663082254134,1751],[7.196318007717547,45.58723308301676,1756],[7.196791007847323,45.58771708261213,1761],[7.196671008061121,45.58807708353556,1766],[7.19673900827849,45.58849708390002,1771],[7.1971630086612235,45.58880908334871,1776],[7.196897007983392,45.589491084274215,1781],[7.196238008445902,45.5897280839027,1786],[7.1963050075895785,45.59020508410852,1791],[7.196364008247035,45.59003508466354,1796],[7.196775008412742,45.58990808444031,1801],[7.1971540087204655,45.589952084021405,1806],[7.196739007603573,45.59021208470875,1811],[7.196487008292908,45.590456085099696,1816],[7.1975200082407875,45.59039608465918,1821],[7.197930008632915,45.5903070847389,1826],[7.1980940079442775,45.59025308457075,1831],[7.1987660084943155,45.58961508438748,1836],[7.199088007968153,45.58889608331095,1841],[7.199044007619035,45.588572083684504,1846],[7.199086008348076,45.588096082984855,1851],[7.199346007643312,45.58930108378832,1856],[7.199726007691709,45.59014508442793,1861],[7.198443008314278,45.59124908528163,1866],[7.198355007720565,45.59143808526124,1871],[7.197792008678238,45.59205808596035,1876],[7.197920008198039,45.592308085655425,1881],[7.198114008782925,45.59217808550601,1886],[7.198526008326138,45.5920320860194,1891],[7.1988880084070255,45.59175208573021,1896],[7.198620008733172,45.59249108600493,1901],[7.198769008689053,45.59291208618725,1906],[7.19878800826459,45.59317908633596,1911],[7.199098007634368,45.5928220861854,1916],[7.19908300757642,45.59329808659903,1921],[7.199610008810461,45.592925085959195,1926],[7.199471008140313,45.59303808654507,1931],[7.199400008325854,45.59316808604684,1936],[7.2001560080660525,45.59285808588068,1941],[7.200588007801247,45.59290308662371,1946],[7.2001400080932765,45.59335308662444,1951],[7.200412007926642,45.59333808630499,1956],[7.200852008290202,45.593155086321495,1961],[7.201078007764702,45.59287208587633,1966],[7.201274008578077,45.59266608584114,1971],[7.201425008411038,45.59304908661366,1976],[7.201298008687298,45.593619087158736,1981],[7.2010480087522,45.59382508716308,1986],[7.200387007845218,45.5941000866901,1991],[7.2001260081780085,45.59463008713858,1996],[7.201280007587843,45.59419008699839,2001],[7.201688008190385,45.59417808702832,2006],[7.201684008179707,45.59429208736997,2011],[7.2015710076152555,45.594443087182555,2016],[7.201540007819632,45.59455708715387,2020],[7.201756007571537,45.59457908690498,2025],[7.202084008453075,45.59450808755539,2030],[7.201526008400648,45.59499508779907,2035],[7.201495008175801,45.595109087741676,2040],[7.202655008742567,45.59447908700663,2045],[7.202447008042421,45.595047087464856,2050],[7.202075007836851,45.59565108841473,2055],[7.201988008326002,45.595840087919804,2060],[7.2024310078905325,45.59554308833042,2065],[7.2025880084950025,45.595736088036126,2070],[7.203098008738003,45.59507708752683,2075],[7.202941007816516,45.59574108804802,2080],[7.203209008624723,45.59584108862032,2085],[7.203457008255035,45.59573008812947,2090],[7.203679008111524,45.59558108817219,2095],[7.2036800080891705,45.595543088200685,2100],[7.203903007716996,45.59535608782824,2105],[7.203933008435331,45.59526108747126,2110],[7.204100008433507,45.595150087946905,2115],[7.204355008409368,45.59564908765308,2120],[7.2044170082909815,45.596279088371894,2125],[7.204577008208586,45.596358088086504,2130],[7.2052120083453834,45.59602508856475,2135],[7.20526100828406,45.59533908823965,2140],[7.204982008782543,45.594706087694085,2145],[7.205411007869026,45.59404608706848,2150],[7.205714007664429,45.59389808683577,2155],[7.206853417444295,45.59316554382465,2160],[7.2068860076153065,45.59288808610736,2165],[7.207304891117173,45.59252007406671,2170]]}}]}