{"type":"FeatureCollection","features":[{"type":"Feature","properties":{"slug":"71-s30","sct_code":"71_S30","source":"Catasto Sentieri VdA"},"geometry":{"type":"LineString","coordinates":[[7.643562693388944,45.867758791995335,2034],[7.643527415124188,45.86768637043282,2037],[7.643384191245869,45.86754966475723,2040],[7.643372431284508,45.86733801715523,2044],[7.6432829581650665,45.86719294925274,2047],[7.643310092516651,45.866954761585646,2050],[7.643280854397055,45.86693191443069,2053],[7.643148062146436,45.86691406119793,2056],[7.64306542257517,45.866899794304906,2059],[7.6430020537993055,45.866946145824464,2063],[7.642954040621623,45.866929874436266,2066],[7.642952288203764,45.86685980037778,2069],[7.6429399900986645,45.86679684812832,2072],[7.642907137752102,45.86676143127335,2075],[7.642921350031721,45.866710268455364,2079],[7.642959112606639,45.866685957073265,2082],[7.642964072873905,45.866659745799524,2085],[7.6429915930453,45.866632475839324,2088],[7.643121497355274,45.86650781327348,2091],[7.64319045876848,45.8664416346513,2094],[7.6431929589182435,45.86643868973076,2098],[7.643194628336492,45.866435470334366,2101],[7.6431954088827405,45.86643208917597,2104],[7.64319527057629,45.8664286665041,2107],[7.643194220808962,45.86642532211112,2110],[7.643193502194693,45.8664241462327,2113],[7.643192295395044,45.86642217252664,2117],[7.643189562457003,45.866419330163914,2120],[7.643157734014331,45.8663921347491,2123],[7.643153695637809,45.866389360584826,2126],[7.643148896229985,45.86638725960787,2129],[7.643143562703088,45.86638593081671,2133],[7.643137943496017,45.866385435664085,2136],[7.643074350968343,45.86638468038895,2139],[7.643069637551668,45.86638492231854,2142],[7.643065063080599,45.86638575452047,2145],[7.642984676355025,45.86640594692655,2148],[7.64298434557303,45.866405616285235,2152],[7.6433446969557925,45.86607955372139,2155],[7.643347499783982,45.86607639908341,2158],[7.643349332812927,45.8660729143173,2161],[7.643350117861276,45.86606924160006,2164],[7.643349822851023,45.86606553445669,2168],[7.6433484608040265,45.86606194604759,2171],[7.643346087397442,45.8660586237394,2174],[7.643342801051357,45.86605570550601,2177],[7.643292159061557,45.86601910277191,2180],[7.643288927206798,45.86601712211949,2183],[7.643285274734739,45.866015537887286,2187],[7.643020397378082,45.86592083433293,2190],[7.643011395458343,45.865905767045,2193],[7.643029059411663,45.865891635706056,2196],[7.643260319712308,45.86584199127438,2199],[7.643261488371984,45.86584171984191,2203],[7.643411439570684,45.86580630656995,2206],[7.643532282256441,45.865742519534834,2209],[7.64381424514847,45.86570284172019,2212],[7.644110863863939,45.86525349309096,2215],[7.644414515802255,45.865054532033795,2218],[7.644672553082977,45.8648235845458,2222],[7.644720801614459,45.8647900996166,2225],[7.644782857340231,45.86472080498114,2228],[7.644793149740507,45.86462542983446,2231],[7.644826426619884,45.86456852657907,2234],[7.644833147410683,45.86447947590346,2237],[7.644803559051084,45.86447832930117,2241],[7.644698669872124,45.86447759358178,2244],[7.644525534633499,45.86446825289154,2247],[7.644414339658627,45.8644390469141,2250],[7.644288158119038,45.8643942157026,2253],[7.644074944063515,45.86430628744891,2257],[7.644035041345313,45.86429896460176,2260],[7.643964371806909,45.86429027572589,2263],[7.643893089538015,45.86429788365516,2266],[7.643458732749643,45.864391819924904,2269],[7.643324406075771,45.864380834828985,2272],[7.64341486185603,45.864350936065804,2276],[7.643490749442826,45.86432284973281,2279],[7.643629353190979,45.86424871786247,2282],[7.643735245389227,45.86396952248293,2285],[7.643802743101407,45.86389752356799,2288],[7.643845340688706,45.863807424561216,2292],[7.643939138674302,45.86372972552461,2295],[7.6440375368035305,45.863723124325006,2298],[7.64408893425013,45.863669624263444,2301],[7.644150333745487,45.86364372453126,2304],[7.644228731318866,45.86356432502878,2307],[7.644301428841047,45.86354652459299,2311],[7.644399227226014,45.86347422425084,2314],[7.644643621718107,45.86339632236105,2317],[7.644766718341646,45.863292523604514,2320],[7.6452329066316755,45.86301312249634,2323],[7.645276004116443,45.86295312332694,2327],[7.645272438965862,45.86285997518017,2330],[7.64534943525567,45.86273457731858,2333],[7.6454092340776985,45.86269707718252,2336],[7.645484930314611,45.86261377822991,2339],[7.645681326404924,45.86252547755449,2342],[7.64579642050595,45.862327780304994,2346],[7.645864018572737,45.86228837969858,2349],[7.646039114943304,45.862231479260686,2352],[7.646134412724752,45.86215437940136,2355],[7.646166011681977,45.862105980078354,2358],[7.646246108877296,45.86206487958825,2361],[7.646350205521694,45.861978879860935,2365],[7.6465703992973175,45.86178048116062,2368],[7.6466443956315135,45.86166428302346,2371],[7.646713693692663,45.861592884214026,2374],[7.6470315868702246,45.86147118176257,2377],[7.647430478803248,45.86136247806199,2381],[7.647533376072822,45.861310877677404,2384],[7.647575474990611,45.86125837839475,2387],[7.647656172468667,45.86120857888129,2390],[7.647736368154202,45.86104888092581,2393],[7.647768766840921,45.861026281114356,2396],[7.647858065141109,45.86102227982205,2400],[7.64788556476697,45.861006480260706,2403],[7.647845064735698,45.86094858231573,2406],[7.647886359310511,45.86074018646674,2409],[7.647986154577317,45.8605253897416,2412],[7.648163147551233,45.8602820932573,2416],[7.648260744991357,45.86025739184431,2419],[7.648358844237013,45.86029388965674,2422],[7.648457742457456,45.86026568882859,2425],[7.648669339557669,45.86026178538124,2428],[7.648918235133294,45.860218883110434,2431],[7.6490481341971055,45.860238280413114,2435],[7.649212830293231,45.860172979893676,2438],[7.649273129555182,45.86016687865619,2441],[7.649320128357443,45.86018077732484,2444],[7.649485025601807,45.86013587628154,2447],[7.6496844194249745,45.85995787785148,2451],[7.649862187638547,45.859655142371054,2454],[7.649492008159606,45.85863529265302,2457],[7.649132007951173,45.85840629235491,2460],[7.649062008752782,45.85822629195159,2463],[7.648122008326697,45.85775629164818,2466],[7.648592008040868,45.8566162907963,2470],[7.648032007494183,45.85546628981185,2473],[7.6477320080189255,45.85528628909701,2476],[7.647052007529236,45.855246288822855,2479],[7.6463020082356365,45.85483628926731,2482],[7.645822008448295,45.85423628823727,2485],[7.645272007915407,45.85398628816331,2489],[7.645222007786249,45.85387628779109,2492],[7.6447720079638195,45.85372628784135,2495],[7.644262007866231,45.8538962884094,2498],[7.643872007635517,45.85380628766759,2501],[7.64353200860582,45.85404628791509,2505],[7.643272008119946,45.853936288011006,2508],[7.643362008628901,45.85352628787384,2511],[7.643492007708298,45.853526287941925,2514],[7.643662008486117,45.85320628786643,2517],[7.6441520085505354,45.852926286913466,2520],[7.644522008581159,45.852546286410266,2524],[7.646191008279011,45.85194628613825,2527],[7.647637789773452,45.8512776405313,2530]]}}]}