{"type":"FeatureCollection","features":[{"type":"Feature","properties":{"slug":"71-s21","sct_code":"71_S21","source":"Catasto Sentieri VdA"},"geometry":{"type":"LineString","coordinates":[[7.630283925708886,45.88847146113744,1659],[7.630212416579351,45.888494821840794,1664],[7.630095396617789,45.888509930750914,1669],[7.629954738609454,45.88852475608484,1674],[7.629259324549285,45.88859800261688,1679],[7.629261721610688,45.888629441553476,1684],[7.629265418771737,45.88865680814784,1689],[7.629274104122923,45.88868793101506,1694],[7.629322045937464,45.888818289739575,1698],[7.629373898924633,45.8889284536691,1703],[7.62934933251919,45.88895673402888,1708],[7.629290674577279,45.88898460627719,1713],[7.629204043380276,45.88904071704816,1718],[7.629092737356966,45.8892679902433,1723],[7.629059301742275,45.88937951236481,1728],[7.629040440548528,45.889453106561476,1733],[7.629110743390424,45.88950634003707,1738],[7.6291063382392155,45.889546770562035,1743],[7.6290941797580025,45.88962520995412,1748],[7.629061094174481,45.88972244558222,1753],[7.629028596770531,45.88979587884521,1758],[7.6290752820169985,45.88997742081555,1763],[7.629106912533962,45.8900778153628,1768],[7.629273035120125,45.890256027351285,1772],[7.629372965321804,45.89035248006812,1777],[7.629543788589167,45.89047835816573,1782],[7.629609396805343,45.89058392489087,1787],[7.62966859384355,45.89067274431413,1792],[7.629782337440778,45.89076221610113,1797],[7.629825310236244,45.89081750282898,1802],[7.629967151681873,45.890873975165334,1807],[7.630051008779973,45.89089192468073,1812],[7.6300640957718695,45.89127341642268,1817],[7.630021027874537,45.89130211319189,1822],[7.629993523555757,45.891358791313124,1827],[7.6300107905396635,45.89140031876253,1832],[7.630036395164326,45.8914875102258,1837],[7.630071682669162,45.891519276908134,1842],[7.630096663026348,45.89167316482453,1846],[7.630025002311407,45.891770392678325,1851],[7.630093648137022,45.89177265493635,1856],[7.630161502486008,45.891759929357725,1861],[7.629996419510806,45.89196452310296,1866],[7.629815509106532,45.892083365405064,1871],[7.629647422211542,45.892194471562284,1876],[7.62932035751763,45.892385316553344,1881],[7.628925181817122,45.892548320742144,1886],[7.628703490887147,45.892717680192106,1891],[7.62861355628641,45.89302321671727,1896],[7.62865637741325,45.89312416507599,1901],[7.628593094986541,45.89352126202299,1906],[7.628671038920394,45.89369044202791,1911],[7.628650883467693,45.89376306654245,1916],[7.628713494037792,45.89390367371536,1921],[7.628712637223195,45.89399084034524,1925],[7.628581053556898,45.894117701536615,1930],[7.628521229794739,45.894309538549436,1935],[7.62852763935301,45.894358613124886,1940],[7.628533261373028,45.894461140028625,1945],[7.62849713966098,45.89449117243381,1950],[7.628429052356183,45.89452210723091,1955],[7.628342678059523,45.89457561300085,1960],[7.628314530701116,45.89463073311759,1965],[7.628275054923793,45.894678349570285,1970],[7.628251810805521,45.89476340593493,1975],[7.628144833939587,45.89489171318554,1980],[7.628131818986149,45.894949131824674,1985],[7.628172103513379,45.89534643962105,1990],[7.628237743502389,45.895656954125094,1995],[7.628099440030008,45.8958108843475,1999],[7.6280830078409005,45.89608532752292,2004],[7.627393008513711,45.89678532738105,2009],[7.626993008327122,45.89704532782734,2014],[7.626683007803559,45.897045328115944,2019],[7.626833008592509,45.89743532822274,2024],[7.627183007485277,45.897585328255914,2029],[7.626793007908145,45.89771532906699,2034],[7.6271430075087805,45.8979453292462,2039],[7.626793007777017,45.89798532892178,2044],[7.6268330079243984,45.89811532932781,2049],[7.626233007654281,45.898055328822046,2054],[7.626323008755477,45.89837532921078,2059],[7.626993008615415,45.8983553289299,2064],[7.627293008236636,45.8985053289452,2069],[7.627263008501232,45.89912532994664,2073],[7.626663008624973,45.899725330403854,2078],[7.626683008327965,45.900545330884846,2083],[7.626943008181062,45.900545330913474,2088],[7.627613007819641,45.9012953324412,2093],[7.627913007822237,45.901205331716326,2098],[7.62821300851933,45.90133533240071,2103],[7.628553008094989,45.9015953320022,2108]]}}]}