{"type":"FeatureCollection","features":[{"type":"Feature","properties":{"slug":"71-s11","sct_code":"71_S11","source":"Catasto Sentieri VdA"},"geometry":{"type":"LineString","coordinates":[[7.630181882889416,45.938692407384416,2014],[7.630273900188922,45.93877001342223,2018],[7.630364435478485,45.93892410180574,2023],[7.630414560959125,45.93908220675032,2027],[7.630612711711939,45.9392541848789,2032],[7.630859169200341,45.939433355797036,2036],[7.631324898464661,45.939717549562076,2041],[7.631665458421831,45.93988713025031,2045],[7.631688758233468,45.939911222097926,2050],[7.631638870987247,45.93992729398246,2054],[7.631557329956759,45.93991202953926,2059],[7.631250489773207,45.93982858059337,2063],[7.631209543608764,45.93982809007024,2067],[7.631186544060569,45.939861152295855,2072],[7.631203048129544,45.93988397299834,2076],[7.631421083315073,45.939969930588056,2081],[7.631710052749403,45.94015556249939,2085],[7.6318236659959355,45.94025455663024,2090],[7.631987947420844,45.94047227094517,2094],[7.632123863634034,45.940608205044995,2099],[7.6321255633278575,45.94065013586862,2103],[7.632110174317776,45.9406651926235,2108],[7.632067769377853,45.940668494741836,2112],[7.631981002229062,45.94064364309042,2116],[7.631771052992944,45.940520157944974,2121],[7.631723446712222,45.940512920480494,2125],[7.63168184274863,45.940539092634495,2130],[7.631690671535284,45.94056872722348,2134],[7.631908674112906,45.94075327020772,2139],[7.6322707471472455,45.94113099486519,2143],[7.632558703376768,45.941580223783745,2148],[7.632538493613921,45.94162475085151,2152],[7.632470225217731,45.94162488600384,2157],[7.632431063699966,45.941607271842884,2161],[7.631979706263583,45.94125133933239,2165],[7.631936544158981,45.941229866403496,2170],[7.631887196677528,45.94123784824978,2174],[7.631881128397387,45.94126254152128,2179],[7.632004480968148,45.94140975469837,2183],[7.632113114008454,45.94165585524291,2188],[7.632067603284943,45.94167436026719,2192],[7.632021454154058,45.94166333057749,2197],[7.631809866159673,45.94143981085482,2201],[7.631752042235447,45.94140387442172,2206],[7.63168367909717,45.941407818666455,2210],[7.631659849394895,45.94148849845279,2214],[7.631685659741903,45.94166026192501,2219],[7.631724404947093,45.941750262900484,2223],[7.631805861967657,45.94182458301561,2228],[7.63193092561552,45.94190228277833,2232],[7.631920200283486,45.94194978086928,2237],[7.63187765250343,45.94195879635211,2241],[7.631418609424458,45.94191519817539,2246],[7.631209160388029,45.94188220812144,2250],[7.631114441618232,45.94190298172226,2255],[7.631084793751041,45.9419426325348,2259],[7.631070188835533,45.94203675745227,2264],[7.631087305802424,45.94211792768933,2268],[7.631148216951239,45.94219485878139,2272],[7.631213857161895,45.942246129240175,2277],[7.631439949837079,45.94232408757493,2281],[7.631641069196548,45.94236269259046,2286],[7.631938572741219,45.94231291347327,2290],[7.632161625943027,45.94234796949737,2295],[7.63224131436654,45.94238321433038,2299],[7.632496561460237,45.94260820798473,2304],[7.632561219962116,45.94269947192722,2308],[7.632616350333025,45.94301160798818,2313],[7.6328098584100355,45.943599836601905,2317],[7.632865380138654,45.943745644000174,2321],[7.632982271946687,45.94389548421739,2326],[7.633375505921387,45.9441321421282,2330],[7.633617259628532,45.94422611843556,2335],[7.633695668134727,45.9442996860936,2339],[7.633694761473215,45.94433658607527,2344],[7.633670172100274,45.944364867746266,2348],[7.633552183509167,45.944408701776936,2353],[7.633461791651171,45.944475487814074,2357],[7.633422298972649,45.94458931832734,2362],[7.63341711279072,45.944730945035964,2366],[7.633486591959473,45.944834623385184,2370],[7.633581888607729,45.945040094273494,2375],[7.6335659207813436,45.94513815425854,2379],[7.633553365107142,45.945451684400965,2384],[7.633599630123564,45.945832579921785,2388],[7.633483470667832,45.94608014228919,2393],[7.6334192754233445,45.94621695640478,2397],[7.633624008554166,45.94639337561632,2402],[7.634044008467177,45.94813337813266,2406],[7.634075808812426,45.94881892516839,2411],[7.634085908217427,45.94903663158,2415],[7.633552048739196,45.94884520558595,2419],[7.633104007466092,45.94875337867325,2424],[7.632974008393266,45.94860337829024,2428],[7.6328440078229205,45.94865337790341,2433],[7.632714008659047,45.94843337801589,2437],[7.632164007532865,45.94828337746075,2442],[7.631714008030517,45.94830337816814,2446],[7.632034008704399,45.94854337829142,2451],[7.63203400836375,45.94873337830973,2455],[7.631264007519763,45.94860337841363,2460],[7.631324008284073,45.948753378395885,2464],[7.630804008743676,45.94918337896378,2468],[7.6317940074784625,45.94944337863113,2473],[7.631104007731851,45.95019337966797,2477],[7.631814008073649,45.95058338040139,2482],[7.632524007792859,45.95058338023402,2486],[7.63237400870441,45.951763381564085,2491],[7.63218400818293,45.951413381203565,2495],[7.631494008544062,45.95167338120891,2500],[7.630954008120854,45.95137338102469,2504],[7.63012400768931,45.95176338093201,2509],[7.6300740087392,45.95184338109384,2513]]}}]}