{"type":"FeatureCollection","features":[{"type":"Feature","properties":{"slug":"71-s20","sct_code":"71_S20","source":"Catasto Sentieri VdA"},"geometry":{"type":"LineString","coordinates":[[7.65059313246946,45.893785462975735,2286],[7.650632178550992,45.89390163467433,2291],[7.650722121133952,45.89417945607651,2296],[7.650750250812013,45.89427186762462,2301],[7.650824983731924,45.89443466821248,2306],[7.650961113695401,45.89462710717107,2311],[7.651201531871027,45.894894879328255,2316],[7.651667801136125,45.89520189285697,2321],[7.651867365960681,45.89533643608172,2326],[7.652230211408428,45.895486370551716,2331],[7.652340796789267,45.89553682833319,2336],[7.652414185386137,45.89558431819846,2341],[7.652450359655071,45.895629560936165,2345],[7.6524863591510925,45.89568203063815,2350],[7.652503344349154,45.89575017869551,2355],[7.652491107300984,45.895828102032375,2360],[7.6524554793837005,45.89593141022721,2365],[7.6523738863068225,45.8960518861297,2370],[7.652298336141096,45.89618225527517,2375],[7.652090562296754,45.896380330776786,2380],[7.651912169499969,45.89647942442445,2385],[7.6518274921855625,45.8965561311052,2390],[7.651769925454172,45.89662484497235,2395],[7.651741100408542,45.89670365700592,2400],[7.651709678949266,45.89688978039661,2405],[7.651733830455193,45.89708957131716,2410],[7.651708324748717,45.89723674193454,2415],[7.651620373343509,45.89741423649958,2420],[7.651520178096075,45.89755403186057,2425],[7.651389065990264,45.89773172694215,2430],[7.651320656841704,45.897820552446,2435],[7.651254708079961,45.89797880100661,2440],[7.651269122636912,45.898102126667695,2445],[7.6512808656332405,45.89814951682494,2450],[7.65135857636297,45.89826743795041,2454],[7.651596892755244,45.89854025955629,2459],[7.652239734592034,45.8995423766704,2464],[7.6524589730070485,45.899852172257134,2469],[7.6528150374678034,45.900406439233954,2474],[7.653041633924038,45.900760432625276,2479],[7.653254911762371,45.90101738855847,2484],[7.653486151205173,45.90121672802234,2489],[7.653862046814472,45.90146077302815,2494],[7.6544484272849385,45.90186819307145,2499],[7.655232225299521,45.90224193272524,2504],[7.655575744355896,45.902430481313594,2509],[7.6556834452646525,45.90250825101315,2514],[7.655848083347485,45.902675862595515,2519],[7.656036446371336,45.90315059340673,2524],[7.656130896073083,45.9033268922104,2529],[7.656341757561764,45.90356016828714,2534],[7.656921039702292,45.90403568442862,2539],[7.657152212472955,45.90441558282949,2544],[7.657184834794503,45.904532969908715,2549],[7.657266114270861,45.9046374283959,2554],[7.657551656865809,45.90482528958209,2559],[7.657774602372359,45.90493591229631,2563],[7.658334246390121,45.90511799099504,2568],[7.658397713530853,45.905159237529695,2573],[7.658783691023775,45.90532577421108,2578],[7.659419374387204,45.90556274185444,2583],[7.660173825327807,45.90595410352236,2588],[7.6605610879326225,45.90620165174921,2593],[7.660977763209056,45.90656654698324,2598],[7.661125313199686,45.90673028114375,2603],[7.661236662220912,45.90692509190308,2608],[7.661383294557754,45.9071270661463,2613],[7.6615141091907555,45.90718260038396,2618],[7.661722636804718,45.90722329428056,2623],[7.661832518012116,45.90721108087322,2628],[7.662010607150351,45.90717716544895,2633],[7.66213091167042,45.907133572847385,2638],[7.662281405226946,45.90704083205956,2643],[7.6624051476436605,45.906988279142844,2648],[7.662557403742663,45.90695631049845,2653],[7.663022109329303,45.90693249844954,2658],[7.663482026483426,45.90697388050817,2663],[7.6639142231843245,45.90709593904974,2668],[7.664450613343695,45.90717421256532,2672],[7.66462600302511,45.90741856897174,2677],[7.665240940539461,45.907824233707615,2682],[7.665892605406695,45.908345605784476,2687],[7.665946548071016,45.90849159278541,2692],[7.665811448918809,45.90864618172883,2697],[7.6662870929193705,45.908919033269484,2702],[7.666512008706405,45.90942434003556,2707],[7.666212007696024,45.909894339928776,2712],[7.665542007701714,45.9101743406962,2717],[7.665202008363024,45.9105243407991,2722],[7.66312200840404,45.91144434204179,2727],[7.6617920083494875,45.911674341796044,2732],[7.661152008550054,45.91206434272581,2737],[7.660592008583349,45.91217434259621,2742],[7.660592007553678,45.9124043426808,2747],[7.659992008074292,45.912624342691984,2752],[7.659862008127362,45.912534342592245,2757],[7.6594920081474465,45.91288434271195,2762],[7.658832008464888,45.913244343742754,2767],[7.657582008515298,45.91339434358033,2772],[7.657412007950593,45.913544343487715,2777],[7.656662007916458,45.913074343306235,2781],[7.655182007619073,45.91281434304772,2786],[7.654213008188687,45.91285434297178,2791],[7.653963008416209,45.91298434366467,2796],[7.653910008278746,45.913128343684576,2801],[7.653533007960264,45.91335434341651,2806],[7.6519430076418535,45.91328434333874,2811],[7.651193008525386,45.913414343481115,2816],[7.650922130789106,45.913027207363676,2821],[7.650163007865737,45.91255434312001,2826],[7.649433008269264,45.9124043427663,2831],[7.648853008224364,45.91245434267724,2836]]}}]}