{"type":"FeatureCollection","features":[{"type":"Feature","properties":{"slug":"71-s42","sct_code":"71_S42","source":"Catasto Sentieri VdA"},"geometry":{"type":"LineString","coordinates":[[7.657993770946326,45.94191775653415,2543],[7.658333008284989,45.94174337131241,2549],[7.658613007668473,45.94157337117308,2556],[7.660033008080068,45.94008336980501,2562],[7.660723008438636,45.93963336967665,2569],[7.662333008665601,45.937853367428694,2575],[7.662693007527255,45.93775336693794,2581],[7.663103008572225,45.9373433667786,2588],[7.663813008566242,45.93697336619133,2594],[7.664063008491015,45.936873366474465,2600],[7.664213008612916,45.93691336670928,2607],[7.664153007530948,45.93708336633331,2613],[7.66445300791223,45.937023366852294,2620],[7.665393007458619,45.937233367251196,2626],[7.666083007595801,45.936933366659986,2632],[7.666173008300119,45.93697336675243,2639],[7.667693008017668,45.936723366415826,2645],[7.668183008077779,45.93642336630874,2652],[7.66803300836465,45.93620336572683,2658],[7.66826000816584,45.93549836477732,2664],[7.668253007697196,45.93519336513612,2671],[7.6685930075945965,45.93463336470628,2677],[7.669153008402599,45.93446336450952,2684],[7.670033008643109,45.933823363887726,2690],[7.670053008593456,45.932753362253614,2696],[7.670653007903023,45.931803361813046,2703],[7.6704230076488455,45.93071336026027,2709],[7.670782008067888,45.930433360051595,2715],[7.671272008292803,45.93039335981785,2722],[7.67147200833869,45.9297933595979,2728],[7.672172008270109,45.92953335968975,2735],[7.672842008205997,45.92895335888008,2741],[7.672972008056898,45.92841335834514,2747],[7.672652007548247,45.928244358089074,2754],[7.672542008694227,45.9277943576399,2760],[7.672282008027376,45.92779435799108,2767],[7.6722420084169505,45.92764435769124,2773],[7.67155200784413,45.92706435719811,2779],[7.671452007474075,45.92654435632719,2786],[7.670632008024836,45.92532435543683,2792],[7.669282007734593,45.92496435463232,2799],[7.669172007499812,45.92455435406669,2805],[7.66939200748376,45.92376435334032,2811],[7.669140007919028,45.92370835373592,2818],[7.669812008204739,45.92318435343674,2824],[7.669883146330526,45.92317942325382,2830],[7.670822008296187,45.923114352851755,2837],[7.671382008565679,45.92283435299137,2843],[7.67250200865092,45.92294435264377,2850],[7.672992007797278,45.92273435274201,2856],[7.673982007935687,45.92288435241378,2862],[7.677112007757783,45.92174435162789,2869],[7.678532007745219,45.92135435135622,2875],[7.6793420081238075,45.92137435151188,2882],[7.680292008500916,45.92120435125564,2888],[7.680612007827163,45.920974350827535,2894],[7.682432008650683,45.92112435095929,2901],[7.68430200868174,45.921034350759484,2907],[7.684832008036009,45.9207543507568,2914],[7.684902007971209,45.92049435070176,2920],[7.685222007724478,45.920194350466815,2926],[7.685522007697089,45.920114350087296,2933],[7.685562008013541,45.91994434993055,2939],[7.68625200786779,45.91981434969419,2945],[7.6862720082492775,45.91970434992868,2952],[7.686743226702796,45.919382589757895,2958],[7.686950007687909,45.918978349110425,2965],[7.687107142192732,45.91880662536162,2971]]}}]}