{"type":"FeatureCollection","features":[{"type":"Feature","properties":{"slug":"71-s29","sct_code":"71_S29","source":"Catasto Sentieri VdA"},"geometry":{"type":"LineString","coordinates":[[7.644833147410683,45.86447947590346,2097],[7.644803559051084,45.86447832930117,2104],[7.644698669872124,45.86447759358178,2111],[7.644525534633499,45.86446825289154,2118],[7.644414339658627,45.8644390469141,2125],[7.644288158119038,45.8643942157026,2132],[7.644074944063515,45.86430628744891,2139],[7.644035041345313,45.86429896460176,2146],[7.643964371806909,45.86429027572589,2153],[7.643893089538015,45.86429788365516,2160],[7.643458732749643,45.864391819924904,2167],[7.643324406075771,45.864380834828985,2174],[7.64341486185603,45.864350936065804,2181],[7.643490749442826,45.86432284973281,2188],[7.643629353190979,45.86424871786247,2195],[7.643735245389227,45.86396952248293,2202],[7.643802743101407,45.86389752356799,2209],[7.643845340688706,45.863807424561216,2216],[7.643939138674302,45.86372972552461,2223],[7.6440375368035305,45.863723124325006,2230],[7.64408893425013,45.863669624263444,2237],[7.644150333745487,45.86364372453126,2244],[7.644228731318866,45.86356432502878,2251],[7.644301428841047,45.86354652459299,2259],[7.644399227226014,45.86347422425084,2266],[7.644643621718107,45.86339632236105,2273],[7.644766718341646,45.863292523604514,2280],[7.6452329066316755,45.86301312249634,2287],[7.645276004116443,45.86295312332694,2294],[7.645272438965862,45.86285997518017,2301],[7.64534943525567,45.86273457731858,2308],[7.6454092340776985,45.86269707718252,2315],[7.645484930314611,45.86261377822991,2322],[7.645681326404924,45.86252547755449,2329],[7.64579642050595,45.862327780304994,2336],[7.645864018572737,45.86228837969858,2343],[7.646039114943304,45.862231479260686,2350],[7.646134412724752,45.86215437940136,2357],[7.646166011681977,45.862105980078354,2364],[7.646246108877296,45.86206487958825,2371],[7.646350205521694,45.861978879860935,2378],[7.6465703992973175,45.86178048116062,2385],[7.6466443956315135,45.86166428302346,2392],[7.646713693692663,45.861592884214026,2399],[7.6470315868702246,45.86147118176257,2406],[7.647430478803248,45.86136247806199,2413],[7.647533376072822,45.861310877677404,2420],[7.647575474990611,45.86125837839475,2427],[7.647656172468667,45.86120857888129,2434],[7.647736368154202,45.86104888092581,2441],[7.647768766840921,45.861026281114356,2448],[7.647858065141109,45.86102227982205,2455],[7.64788556476697,45.861006480260706,2462],[7.647845064735698,45.86094858231573,2469],[7.647886359310511,45.86074018646674,2476],[7.647986154577317,45.8605253897416,2483],[7.648163147551233,45.8602820932573,2490],[7.648260744991357,45.86025739184431,2497],[7.648358844237013,45.86029388965674,2504],[7.648457742457456,45.86026568882859,2511],[7.648669339557669,45.86026178538124,2518],[7.648918235133294,45.860218883110434,2525],[7.6490481341971055,45.860238280413114,2532],[7.649212830293231,45.860172979893676,2539],[7.649273129555182,45.86016687865619,2546],[7.649320128357443,45.86018077732484,2553],[7.649485025601807,45.86013587628154,2560],[7.6496844194249745,45.85995787785148,2567],[7.649862187638547,45.859655142371054,2575],[7.649982403924764,45.85938918599882,2582],[7.650067000995072,45.85929978700768,2589],[7.650109799616781,45.85928298683225,2596],[7.650189495231812,45.859122889685814,2603],[7.650389987456788,45.85886369281098,2610],[7.650375587169292,45.85883319331575,2617],[7.650440585581907,45.85876479434303,2624],[7.650475483646018,45.85868809517031,2631],[7.65052867920241,45.85854539833228,2638],[7.650531278051916,45.85848339950875,2645],[7.6505862773258695,45.85844289953423,2652],[7.650623277286016,45.85846059832352,2659],[7.650688277830762,45.85855389504269,2666],[7.650748779471884,45.8586752916894,2673],[7.650764480906902,45.85876718889782,2680],[7.650824880784667,45.858820386840364,2687],[7.651015779664787,45.85890078210925,2694],[7.651196077661333,45.85892577895076,2701],[7.651319476335386,45.85891377751161,2708],[7.651406573478739,45.8588886767403,2715],[7.651559370531064,45.858813575891006,2722],[7.651622569672179,45.85882577475144,2729],[7.651685871737194,45.85898137017662,2736],[7.6519051717811815,45.8591107640298,2743],[7.651943018555672,45.85918219907149,2750],[7.653291008054496,45.85962529293016,2757],[7.654191008408673,45.86011529380177,2764],[7.656271008409863,45.86071529421682,2771],[7.6570533473244655,45.86083801716966,2778],[7.6578010085067145,45.86095529436912,2785],[7.658961008050397,45.86129529504199,2792],[7.661421008411084,45.861255295065554,2799],[7.662371007841636,45.861425294979895,2806],[7.662631008000988,45.86129529480003,2813],[7.664241008120123,45.8614252950162,2820],[7.665091008243587,45.86157529505625,2827],[7.665421008444199,45.861765295553354,2834],[7.666101007761121,45.861815295525815,2841],[7.66722100763212,45.86258529552932,2848],[7.668211008733506,45.86290529644136,2855],[7.668291008348721,45.86320529685438,2862],[7.668551008639948,45.863245296109056,2869],[7.669241008087891,45.86402529730422,2876],[7.669941008011159,45.86447529796872,2883],[7.669881007717105,45.865505298522564,2891],[7.6702910086805645,45.866365299490276,2898],[7.670011008447394,45.86659529933422,2905],[7.670091008073213,45.86736530035582,2912],[7.670421007864815,45.867645300340904,2919],[7.672171008029606,45.867565300797665,2926],[7.674301008080375,45.86771530035406,2933],[7.674751008123966,45.86760530061113,2940],[7.675351008089073,45.86775530027073,2947],[7.675521008473008,45.867605300547005,2954],[7.675741007888877,45.86764530027034,2961],[7.6758010082518116,45.86745530022016,2968],[7.676321008710835,45.867735300796404,2975],[7.67606100858576,45.86661529970147,2982],[7.676361008405065,45.86661529984485,2989],[7.676721007667756,45.86706529993302,2996],[7.676831008524755,45.867115299976305,3003],[7.676851008465445,45.86691530023333,3010],[7.677021007544986,45.86711529970657,3017],[7.677501008581506,45.86614529887252,3024],[7.677731007880301,45.86687529981628,3031],[7.6778010076288075,45.866945300026075,3038],[7.677991008516803,45.866665299512434,3045],[7.678121007711539,45.867115300337275,3052],[7.6784810083620405,45.86745530085255,3059],[7.678661007942121,45.867395300260775,3066],[7.678871008597811,45.867545300111786,3073],[7.679511008593117,45.867265300337316,3080],[7.679301008007192,45.867625300239595,3087],[7.679791007552946,45.86762530049838,3094],[7.679691007644755,45.86779530065988,3101],[7.680011008024269,45.86792530086359,3108],[7.6803110080495,45.86784530105969,3115],[7.680481007706066,45.86803530137785,3122],[7.680801008430989,45.86790530042092,3129],[7.681511007519371,45.868145300864455,3136],[7.681811008330794,45.86837530101862,3143],[7.681491008616824,45.86839530093537,3150],[7.682001008101825,45.86874530155696,3157],[7.682501008240219,45.86880530186403,3164],[7.684191007720186,45.86846530123554,3171],[7.684861008107644,45.86816530149382,3178],[7.685241007609438,45.86754530035041,3185],[7.6855010079169315,45.86756530092754,3192],[7.6856110075334625,45.86730530027969,3199],[7.685651008546685,45.86743530048038,3207],[7.68578100780037,45.867435300094876,3214],[7.685741007875643,45.86732530049555,3221],[7.685891007698863,45.867395300650735,3228],[7.686101008288083,45.86721529983888,3235],[7.686191007831562,45.8673953001751,3242],[7.68632100839738,45.86724530051811,3249],[7.68638100853665,45.867365300639385,3256],[7.6869210086368245,45.86773530080545,3263],[7.686571007611619,45.86839530154534,3270],[7.686771008227886,45.868375301389534,3277],[7.68657100778643,45.8687853012511,3284],[7.686891007661258,45.86900530165558,3291],[7.686701007762527,45.86919530183928,3298],[7.6869210077627255,45.869255302151,3305],[7.686831007753853,45.86942530193079,3312],[7.687071008100778,45.86951530222547,3319],[7.686871007559886,45.86964530225019,3326],[7.687021008559404,45.8698553028449,3333],[7.686811008639022,45.869985303046754,3340],[7.686961007882143,45.87005530265354,3347],[7.686891008169344,45.87069530361731,3354],[7.687550008239743,45.87092830347379,3361]]}}]}