{"type":"FeatureCollection","features":[{"type":"Feature","properties":{"slug":"73-s2","sct_code":"73_S2","source":"Catasto Sentieri VdA"},"geometry":{"type":"LineString","coordinates":[[7.69127900760248,45.67322114126418,379],[7.691317007886229,45.67331014098401,383],[7.6913570079383025,45.67330014143172,386],[7.691857007923413,45.673480141443186,390],[7.691947007603209,45.67345014155569,394],[7.692027007799935,45.673660141242436,398],[7.691977007507257,45.67373014168063,401],[7.692036008469383,45.67380614171673,405],[7.691987008594092,45.673820141832756,409],[7.692037007647173,45.67394014183972,413],[7.6920270078824915,45.67410014122281,416],[7.6920870080895725,45.67419014143808,420],[7.692077007558486,45.674470141612034,424],[7.6921770087878585,45.6746201416092,428],[7.692047008518201,45.67471014172994,431],[7.692087007939425,45.674810142120386,435],[7.692058008436432,45.67506614237705,439],[7.691917008115473,45.67524014249646,443],[7.691857007701162,45.675240142120515,446],[7.691927007990957,45.67527014267515,450],[7.691727008440418,45.675630142482554,454],[7.69149700807669,45.675740142639725,458],[7.691447008260858,45.675590142454084,461],[7.691587008095407,45.67541014245044,465],[7.691587008414252,45.67535014251256,469],[7.691397008483681,45.675390142892056,472],[7.691367007844956,45.675360142145614,476],[7.691477008567345,45.67525014293797,480],[7.691547007901066,45.675090142393465,484],[7.6914170080277335,45.67511014216089,487],[7.691327008284869,45.67517014249515,491],[7.690957007758231,45.67524014267021,495],[7.690827008085987,45.675220142105836,499],[7.690887008155756,45.67513014220308,502],[7.690827007691099,45.67507014224059,506],[7.6908770075997905,45.67499014262491,510],[7.691029937346106,45.674882192042645,514],[7.691097008144546,45.674700141781955,517],[7.6910670083584645,45.674600142222054,521],[7.690937007592579,45.6747701422058,525],[7.690857008018748,45.67474014254782,529],[7.690827008028672,45.674570142381654,532],[7.6907670081804556,45.674480141513286,536],[7.69068700826834,45.67452014227344,540],[7.690497007649779,45.67452014238505,544],[7.690078008053518,45.67407214206062,547],[7.690037007851341,45.67401014180812,551],[7.689487007778425,45.67383014164223,555],[7.689307007861016,45.67373014147125,558],[7.689217008338758,45.67358014119983,562],[7.689067007720503,45.67357014101337,566],[7.689047008150742,45.673360141131575,570],[7.688857007819429,45.67338014150358,573],[7.688827008186844,45.67334014129627,577],[7.688727007877098,45.67334014094893,581],[7.688657008727122,45.673260140864116,585],[7.688537008313656,45.6732701408517,588],[7.688527007590615,45.67316014100215,592],[7.688487008314985,45.673150141084065,596],[7.688267007954104,45.67292014118026,600],[7.688287008075037,45.672870141064614,603],[7.688407008684157,45.67277014048846,607],[7.688337008274703,45.672770140444506,611],[7.688307008004673,45.672710140698975,615],[7.6880070083910335,45.67257014050977,618],[7.687777008512511,45.6726501404481,622],[7.687747008652352,45.67262014054427,626],[7.687777008649081,45.672470140534514,630],[7.687907008420059,45.672290140773846,633],[7.6880070082284195,45.67227014064294,637],[7.688157007882718,45.67217014016072,641],[7.688487008373216,45.67207013980944,644],[7.688577008270977,45.67195013990818,648],[7.688536008369546,45.67193014052125,652],[7.688547008046699,45.67187013992524,656],[7.688347007877848,45.67202014039914,659],[7.688257008573854,45.67203013986845,663],[7.688027007878556,45.67197014006102,667],[7.687687008630639,45.67178014012534,671],[7.687527008068705,45.67177014003073,674],[7.687477007776331,45.67174013975656,678],[7.687387008740636,45.671750140343654,682],[7.686947007858348,45.67163013984966,686],[7.6867070078216955,45.671520140055094,689],[7.6864370077690936,45.67154014005277,693],[7.686237008761913,45.67164014017043,697],[7.686097008580037,45.67163013948817,701],[7.686077008339588,45.67161013955121,704],[7.6862070084967575,45.6713701399187,708],[7.686207008419581,45.67130013933551,712],[7.686157007757333,45.67124013938346,716],[7.686387007655705,45.67109013940659,719],[7.686384042083887,45.67087916207741,723]]}}]}