{"type":"FeatureCollection","features":[{"type":"Feature","properties":{"slug":"73-s4","sct_code":"73_S4","source":"Catasto Sentieri VdA"},"geometry":{"type":"LineString","coordinates":[[7.69276636076309,45.668827701282964,399],[7.692986442652905,45.66899470179245,403],[7.6931056811486265,45.66908517775048,407],[7.693033168158308,45.66916391905371,410],[7.693071742656663,45.669201233299525,414],[7.693070562825814,45.669251919451135,418],[7.6931733588556055,45.669354489463664,422],[7.693159568998606,45.66938198523228,426],[7.693406308055047,45.669513858014554,429],[7.69354767899201,45.66965374270646,433],[7.6935670079747895,45.66978013820594,437],[7.693687008268348,45.669880138622105,441],[7.693747008160953,45.67010013861222,445],[7.693997008266288,45.67035013924145,449],[7.694177008178798,45.67070013892782,452],[7.693977008155981,45.670590139140614,456],[7.693957008331491,45.670660138768056,460],[7.69394087630446,45.67065879413397,464],[7.693837008551252,45.670650139537614,468],[7.693817008529707,45.67072013913769,471],[7.693737008714026,45.67071013906788,475],[7.693557007909938,45.670590138936625,479],[7.693327007801387,45.67059013898494,483],[7.693188008323883,45.670615139383656,487],[7.693037007612878,45.67067013909971,490],[7.693007008117267,45.6706501393709,494],[7.692807008555311,45.67064013901884,498],[7.692757008051497,45.67074013892316,502],[7.693177008648258,45.67089013933864,506],[7.693057008683751,45.671000139257146,510],[7.692877007782462,45.67098013953398,513],[7.692657007678099,45.671100139227406,517],[7.6924770081349125,45.6711001391843,521],[7.692487007863659,45.67115013962765,525],[7.692637007888691,45.671210139207595,529],[7.692747007559483,45.67122013955997,532],[7.692857008556681,45.67140014006899,536],[7.6930470076555,45.6714601395988,540],[7.693137008195028,45.67163013990564,544],[7.6934070082009445,45.671700140234044,548],[7.6934970083268865,45.67185013995296,551],[7.693657007957558,45.67189013975917,555],[7.693747008137231,45.67194014051947,559],[7.693677008611881,45.67207013980238,563],[7.693607008732748,45.672120140572325,567],[7.693967007888661,45.672420140266695,571],[7.694047008118389,45.67267014095008,574],[7.694107008228897,45.6727301410402,578],[7.693947007519919,45.67292014112879,582],[7.69388700799003,45.67321014105159,586],[7.693767007838691,45.67316014117534,590],[7.693687008132013,45.67320014134627,593],[7.693877007525537,45.67336014091205,597],[7.693917008294405,45.67345014100497,601],[7.694027008496883,45.67352014098351,605],[7.694007008108651,45.67357014119359,609],[7.693917007657902,45.673520141550156,612],[7.69387700834977,45.67356014108648,616],[7.693847008157519,45.67377014171827,620],[7.693747008575332,45.67389014118737,624],[7.693747008700644,45.673970141428654,628],[7.693687007824686,45.674230142105564,632],[7.693847007568291,45.674460142070764,635],[7.693917008119096,45.674670142157254,639],[7.6937170080029675,45.67442014181129,643],[7.693397008144951,45.67425014134932,647],[7.69331700781764,45.67409014200594,651],[7.693137008346709,45.6742601413748,654],[7.693137007708115,45.67443014152885,658],[7.693037008478069,45.67436014172674,662],[7.692867008742232,45.674090141726396,666],[7.692867007560204,45.6740601417359,670],[7.692747008258217,45.67416014158969,673],[7.692717008078281,45.67404014126624,677],[7.6926270085311526,45.67398014182773,681],[7.692517008253624,45.673830141163144,685],[7.692427008078872,45.6735301408239,689],[7.6920970084897755,45.67391014124875,693],[7.692036008469383,45.67380614171673,696],[7.691977007507257,45.67373014168063,700],[7.692027007799935,45.673660141242436,704],[7.691947007603209,45.67345014155569,708],[7.691857007923413,45.673480141443186,712],[7.6913570079383025,45.67330014143172,715],[7.691317007886229,45.67331014098401,719],[7.69127900760248,45.67322114126418,723]]}}]}