{"type":"FeatureCollection","features":[{"type":"Feature","properties":{"slug":"74-s5","sct_code":"74_S5","source":"Catasto Sentieri VdA"},"geometry":{"type":"LineString","coordinates":[[7.21462143458462,45.667372265813626,677],[7.214438937374,45.66745941952152,680],[7.214398440987439,45.66752179112619,682],[7.214354797002708,45.66768312095695,685],[7.214288065603273,45.66776308368689,687],[7.214216469260362,45.66799598182038,690],[7.214239842551909,45.66806835270498,692],[7.2141813631063245,45.668292455224424,695],[7.214252295895618,45.66888760897962,697],[7.214295406180512,45.669045794865475,700],[7.214472582034928,45.66942884349984,702],[7.214533356046683,45.66973806673571,705],[7.214496913267845,45.669874757289875,707],[7.214398171575598,45.669951969443744,710],[7.213994377376134,45.67013466971706,712],[7.213821064579136,45.67023546704352,715],[7.213550354539893,45.67047200092954,717],[7.213058005636934,45.670714067214135,720],[7.212933525066104,45.67079312553877,722],[7.212880192577506,45.670855295721665,725],[7.212807726825769,45.671115181278,727],[7.212585800581982,45.67163374724324,730],[7.212614013680134,45.67175569786042,732],[7.212597040851518,45.67228872201951,735],[7.212690275021114,45.67238468817727,737],[7.21319021910843,45.672509519705365,740],[7.213576951998864,45.67266183045027,742],[7.214036054120638,45.672759017405625,745],[7.214203650232592,45.672838143807056,747],[7.214213978268443,45.672917061162515,750],[7.21406518908288,45.67295298741654,752],[7.212679289055331,45.67293130699198,755],[7.212602351573999,45.67302911029396,757],[7.212586481685552,45.67332588403074,760],[7.21226322887399,45.673901367692054,762],[7.212233480442043,45.67402916155842,765],[7.211951814917298,45.67440728056127,768],[7.211832562051873,45.67472493719085,770],[7.211874952954364,45.67490561425156,773],[7.212187878240667,45.67525928904224,775],[7.212191715664515,45.675340355115075,778],[7.2121219068294655,45.67541576798261,780],[7.2118282534394735,45.67536391711024,783],[7.211592707149583,45.675301724569096,785],[7.2114123293668255,45.67532140153537,788],[7.21120641159242,45.67543743536818,790],[7.211152785915885,45.67550860077712,793],[7.21111271145668,45.67596025657195,795],[7.211113071319106,45.676351791171335,798],[7.2110736585943505,45.67668194828046,800],[7.211142971570403,45.67742783894332,803],[7.21123916996408,45.677733118063735,805],[7.211186152173505,45.67798655641704,808],[7.211293069484101,45.67815699340768,810],[7.211257186231858,45.678275690191754,813],[7.211277333769527,45.67844926849709,815],[7.211416032554935,45.67873046122297,818],[7.211630963783089,45.678936341871335,820],[7.211793916331609,45.6791616597611,823],[7.211989313138029,45.67937623452155,825],[7.21241513344918,45.679713674481704,828],[7.212926657474636,45.68008170604662,830],[7.2129424706736325,45.68018996139964,833],[7.212925052741037,45.68033369941198,835],[7.21288483146153,45.68038707400498,838],[7.212765313239879,45.68051121298647,840],[7.212661494026773,45.68054559093322,843],[7.212584489184688,45.68054438580565,845],[7.212520891606415,45.68052538914412,848],[7.212192363153107,45.68035823502706,850],[7.212155293952486,45.68031265144856,853],[7.212138765703673,45.68022688644375,856],[7.2121071104780645,45.680212889910045,858],[7.211864409994024,45.68017308764581,861],[7.2117551772344255,45.68017587770174,863],[7.2117352094542495,45.68019806670184,866],[7.2117603042073615,45.6802164609478,868],[7.212077429565046,45.680338434502495,871],[7.212177522765883,45.68042100733524,873],[7.212176376309948,45.68045699202702,876],[7.212136440855468,45.68050137017058,878],[7.211848643410727,45.680667877073,881],[7.211738008435082,45.680614146219895,883],[7.211688008282711,45.68073414676523,886],[7.211578008428877,45.6807241464049,888],[7.211448008163641,45.6808941465324,891],[7.21143702110168,45.68109346327419,893],[7.210592579801141,45.680796715096946,896],[7.210936485164749,45.6810856235808,898],[7.210608007701268,45.68120414662848,901],[7.210638007815419,45.68131414657072,903],[7.210918008420184,45.68155414694214,906],[7.210978007660806,45.681534146780095,908],[7.211128008647492,45.681674147023706,911],[7.211173597923259,45.682106412015,913],[7.211141081510627,45.682119403701584,916],[7.211696590804761,45.68261863908224,918],[7.2121286034739,45.683165442131006,921],[7.212391827600178,45.68336757684247,923],[7.212428325731358,45.68343115269295,926],[7.212538008709221,45.68365414866954,928],[7.212914843180781,45.683879798564504,931],[7.213093672358291,45.68390959860263,933],[7.213271069365348,45.683984379227155,936],[7.213711986326583,45.68425229518042,938],[7.213886235086711,45.684426032795024,941],[7.213946401084235,45.684552982859486,944],[7.2142438486969285,45.684890658237,946],[7.214473449883176,45.6849392512591,949],[7.214803729180881,45.68505242211684,951],[7.214840231106937,45.68511599723571,954],[7.214826250961341,45.68515178132815,956],[7.214760643682034,45.68519575908754,959],[7.214657103144185,45.68522114253267,961],[7.214425782835631,45.685226526921326,964],[7.214373296703489,45.68526170894269,966],[7.214424065025073,45.68528050397955,969],[7.214888092151766,45.685629782496775,971],[7.2149873401196984,45.68573934153085,974],[7.215022697832896,45.68583890130714,976],[7.214991588971319,45.68600942748243,979],[7.214750362442428,45.686076016043785,981],[7.214291057342803,45.68627303155602,984],[7.214498362157478,45.686387384780936,986],[7.214837000404716,45.68644867322967,989],[7.215319705463461,45.686651162237474,991],[7.215878008247991,45.68694415081304,994],[7.216280760243976,45.687365845033796,996],[7.21662567987045,45.68781956454496,999],[7.216817334047357,45.68813601181203,1001],[7.21693800799921,45.68827415215934,1004],[7.217168008224819,45.68832415185473,1006],[7.217674766785777,45.68840234823194,1009],[7.217899030702748,45.68849930961828,1011],[7.218202670831875,45.6885654027302,1014],[7.218321018624353,45.68861468962637,1016],[7.218338008451038,45.688674152822635,1019],[7.2185480078319175,45.68888415274336,1021],[7.218558008072876,45.688964152563884,1024],[7.218728008741753,45.68917415288459,1026],[7.218608007713518,45.68934415307784,1029],[7.218688007814603,45.68934415335815,1032],[7.218948007657543,45.68944415330208,1034],[7.218768008717955,45.68944415257282,1037],[7.218708007562332,45.68950415294924,1039],[7.218818007684094,45.68990415339043,1042],[7.218728008096537,45.689884153523465,1044],[7.218628008402486,45.689814152937096,1047],[7.2184980077600365,45.689944152974945,1049],[7.218528007785793,45.689994153274746,1052],[7.218538008370868,45.690104153138364,1054],[7.218438007731359,45.690124153424186,1057],[7.218428008715475,45.690184153260766,1059],[7.218598008600018,45.69039415371996,1062],[7.218518008177893,45.69050415385037,1064],[7.218538007510723,45.69063415428797,1067],[7.218778008074262,45.69084415363691,1069],[7.2189080085783655,45.6908141540517,1072],[7.2191980082318485,45.69099415452371,1074],[7.219328008036644,45.690944154119315,1077],[7.219378007916846,45.69101415401329,1079],[7.219508007756014,45.69102415439574,1082],[7.2201280080665,45.691384154774,1084],[7.220318007705268,45.69138415437885,1087],[7.220368008080005,45.691404154369025,1089],[7.220478008143618,45.691684154711844,1092],[7.220598007557431,45.691704154358206,1094],[7.220728007901982,45.691704154542826,1097],[7.220828008242293,45.69174415503299,1099],[7.220948008520839,45.69185415444776,1102],[7.221058008789861,45.69187415446449,1104],[7.221128008396916,45.69194415457025,1107],[7.221128008770059,45.69198415522984,1109],[7.22166800781099,45.692224154734234,1112],[7.221839518149432,45.692323024882,1114],[7.222344648162439,45.69253820175406,1117],[7.222658008291778,45.69266415529366,1120],[7.222818008695616,45.692884155480314,1122],[7.222978007869856,45.69292415520743,1125],[7.222689710068272,45.69314437467382,1127],[7.222668007959053,45.69318415550517,1130],[7.2225780077246915,45.693114155621856,1132],[7.2221380081929345,45.693084155783204,1135],[7.222128007981417,45.693214155674326,1137],[7.222058007639238,45.69327415603383,1140],[7.222178008264919,45.69333415557482,1142],[7.222218007927972,45.693424156362404,1145],[7.222268008509039,45.69345415612621,1147],[7.2225280081489185,45.693524155897315,1150],[7.22296800816762,45.69369415648353,1152],[7.223078546554682,45.69375483500604,1155],[7.223078007662537,45.69377415639489,1157],[7.222738008640155,45.69366415626831,1160],[7.222418008286738,45.693714155735144,1162],[7.221998008254184,45.693644156369004,1165],[7.2220380076007205,45.69372415659979,1167],[7.22222800858527,45.69385415647598,1170],[7.222244069525342,45.69389698759849,1172],[7.222308007547841,45.69407415681935,1175],[7.222218008354667,45.69407415644888,1177],[7.221968007674268,45.69399415622182,1180],[7.221818008563904,45.69400415632115,1182],[7.221708007756397,45.69405415680897,1185],[7.221447557034386,45.6940172129005,1187],[7.22135411106581,45.694002255815526,1190],[7.22114538074011,45.69392700168547,1192],[7.221043369821746,45.69391641126467,1195],[7.220952019518138,45.69392398989076,1197],[7.220765112095721,45.69397058092539,1200],[7.22067069504924,45.69397361123148,1202],[7.220473119526161,45.69393902893171,1205],[7.2202543596734685,45.69386361599946,1207],[7.220154897466471,45.693848565081005,1210],[7.220095160508759,45.69389713855198,1213],[7.220116198340644,45.693942468708315,1215],[7.220180729797254,45.69397047627752,1218],[7.220261223033636,45.69397623184371,1220],[7.22041131977807,45.694014571444725,1223],[7.220535003527731,45.6940885045803,1225],[7.220689914671446,45.69412692152476,1228],[7.221036317791169,45.69410081272559,1230],[7.221103942684131,45.69411986911641,1233],[7.22126221699727,45.69421684181975,1235],[7.220928008614345,45.69424415653528,1238],[7.220528008771486,45.69438415659431,1240],[7.220408008221755,45.69450415640353,1243],[7.220118007598218,45.694574156346484,1245],[7.219858008107871,45.69445415705335,1248],[7.219708007733485,45.69444415674133,1250],[7.219538007661221,45.69447415651481,1253],[7.21947800864376,45.69457415702276,1255],[7.219298007658223,45.69461415684691,1258],[7.219128008739074,45.69457415716115,1260],[7.219048007746678,45.694524156832614,1263],[7.218578008546957,45.69457415649068,1265],[7.2184880076197695,45.69456415704331,1268],[7.218428008278184,45.694494156530666,1270],[7.218268008340153,45.69456415713207,1273],[7.21816800806491,45.69465415694563,1275],[7.218168008350445,45.69473415732585,1278],[7.218238008252656,45.69482415679524,1280],[7.218058008115861,45.69486415737691,1283],[7.217998007939729,45.69492415734842,1285],[7.217658007526846,45.69506415731553,1288],[7.217518008775568,45.69514415727838,1290],[7.217378007539869,45.695194157003804,1293],[7.216938008306029,45.6952841570504,1295],[7.21684800767443,45.695314156950985,1298],[7.216768008713269,45.69530415749629,1301],[7.2166682503562045,45.69535128702723,1303],[7.216238107707914,45.69538507268517,1306],[7.215992880254896,45.695435247155,1308],[7.215752925783963,45.69558450868842,1311],[7.215151779599691,45.6960476492331,1313],[7.214738460118536,45.69641021538629,1316],[7.214179474714805,45.69678400251951,1318],[7.214115600993281,45.696823507525146,1321],[7.213957018574016,45.696875033324964,1323],[7.213726969684444,45.69688943503958,1326],[7.213650403501823,45.69692424005441,1328],[7.2136141785203955,45.69697767727704,1331],[7.213619827122743,45.69709027357397,1333],[7.213751414690134,45.6972813450104,1336],[7.2137980085312305,45.69741415894596,1338],[7.213778008601596,45.69743415878925,1341],[7.213298007548317,45.69753415881781,1343],[7.213198008260771,45.69757415933239,1346],[7.213168008452408,45.69762415925012,1348],[7.21321801380273,45.69766030236688,1351],[7.213268008569347,45.69769415913464,1353],[7.213018008632375,45.69773415923039,1356],[7.21298800810894,45.69770415874625,1358],[7.2129080086579185,45.69772415930042,1361],[7.212558007862121,45.697894159482814,1363],[7.212418008279906,45.697934159731865,1366],[7.212078008405709,45.69794415947798,1368],[7.212068008428333,45.69796415895365,1371],[7.211988008266342,45.6979841597516,1373],[7.2116980079492885,45.69799415895915,1376],[7.211278008509564,45.6980841596008,1378],[7.2109480079409725,45.698074159264706,1381],[7.210548007665191,45.69810415904228,1383],[7.210078007870916,45.698114159070606,1386],[7.209888008388336,45.69819415987996,1389],[7.209668007897724,45.698154159864714,1391],[7.209358008574599,45.698044159088816,1394],[7.209078008665094,45.69798415928172,1396],[7.20896800832038,45.697934159427476,1399],[7.208968007621209,45.69797415913832,1401],[7.20902000757337,45.69804815964074,1404],[7.20850800783801,45.69794415948633,1406],[7.20775800757029,45.69796415949805,1409],[7.207618008186793,45.69794415923156,1411],[7.207278008005607,45.697994159698766,1414],[7.207102122119047,45.69804897761714,1416],[7.206558008241765,45.6981941592945,1419],[7.206465687786882,45.698147008834745,1421],[7.206328877924056,45.69814194142497,1424],[7.206241406165231,45.69815604424768,1426],[7.206228373056707,45.6982474741173,1429],[7.20620702611876,45.69833318491358,1431],[7.206192728847099,45.6983848643203,1434],[7.206278008722395,45.69846415999855,1436],[7.206388007689785,45.69850416001535,1439],[7.206578008771925,45.69861415944911,1441],[7.206748007828535,45.69877415985428,1444],[7.206978007950689,45.698904159607366,1446],[7.207658008367936,45.699174160202155,1449],[7.207918008671573,45.699254160495876,1451],[7.208158008299165,45.69943416026479,1454],[7.208838007881892,45.69967416097745,1456],[7.2093780080328465,45.69998416044771,1459],[7.20949800754884,45.70008416124539,1461],[7.209558007600146,45.70042416105018,1464],[7.209658007992119,45.700694161694074,1466],[7.2099780080331275,45.70098416173993,1469],[7.210258008731964,45.70114416171506,1471],[7.210388007858898,45.7012541622427,1474],[7.2104480075985755,45.701354161514274,1477],[7.210238007873926,45.70130416211509,1479],[7.209978008250411,45.70127416205215,1482],[7.209798008216832,45.70120416188677,1484],[7.209848008041788,45.70130416224261,1487],[7.209498007847016,45.70117416197621,1489],[7.20934800831473,45.70119416158639,1492],[7.209408008689636,45.70129416141694,1494],[7.209658007578448,45.70147416172,1497],[7.2098070337186,45.70156132054476,1499],[7.20980184527411,45.70159335436584,1502],[7.209754527598745,45.70160721080001,1504],[7.209614832612769,45.70157801462881,1507],[7.209390705046142,45.7015832594838,1509],[7.209207819365446,45.70153659858647,1512],[7.209258008498434,45.70164416179317,1514],[7.209268008527794,45.701694162271835,1517],[7.209388008615996,45.70181416256313,1519],[7.209140702317411,45.701730062404906,1522],[7.2090576891502725,45.70172000219782,1524],[7.209105630457594,45.70181710029107,1527],[7.209188007834142,45.70191416227807,1529],[7.209158008743506,45.701944162624805,1532],[7.2089880082887765,45.70191416196983,1534],[7.208929826217772,45.7019074045613,1537],[7.20884648787264,45.70190755751608,1539],[7.208810412375407,45.701928158525945,1542],[7.208756932491995,45.70197184319568,1544],[7.208918008457959,45.70206416230548,1547],[7.208858008090445,45.7021441622113,1549],[7.208888008701548,45.70220416285735,1552],[7.208768378780795,45.70229833151836,1554],[7.208657417179005,45.70248214906248,1557],[7.208582148192245,45.7025519213405,1559],[7.20851414097443,45.702569375213685,1562]]}}]}