{"type":"FeatureCollection","features":[{"type":"Feature","properties":{"slug":"av1-s13","sct_code":"AV1_S13","source":"Catasto Sentieri VdA"},"geometry":{"type":"LineString","coordinates":[[7.305694252670544,45.85404727365908,1379],[7.305695765435543,45.853865853448035,1381],[7.305638996770428,45.85379643020364,1383],[7.305456094940098,45.85361002802955,1385],[7.305430478709964,45.853519039210404,1387],[7.3054201560622545,45.85345104736698,1390],[7.305393657556896,45.85337375575873,1392],[7.305362557921358,45.853350657499085,1394],[7.305225877801016,45.85333361172445,1396],[7.305213128716557,45.853282324605885,1398],[7.3050732613731215,45.85317086666429,1400],[7.305072457676799,45.85295447430865,1402],[7.305032456166159,45.85287807760872,1404],[7.304968357599297,45.85282917957834,1406],[7.3049922559802525,45.85276558183753,1409],[7.304951553895117,45.85263688598077,1411],[7.30497045201354,45.85255438880698,1413],[7.3049367499422075,45.852463092672096,1415],[7.304993745840483,45.85232659676743,1417],[7.305078642210712,45.85227419693915,1419],[7.305165236898135,45.852136900752946,1421],[7.305235133518649,45.8520665024673,1423],[7.305246031932039,45.8519479065496,1425],[7.305322425308778,45.85175251160113,1428],[7.305318822572446,45.85161371694835,1430],[7.305284123318289,45.851594117717674,1432],[7.305259223964164,45.851598018110685,1434],[7.305264023944393,45.851614817470335,1436],[7.30519162635712,45.851628717347445,1438],[7.305102930276258,45.851683617001875,1440],[7.304998935172458,45.85178671444617,1442],[7.3049793346214384,45.85175801564055,1444],[7.305080728593822,45.851586820374884,1447],[7.305108625212767,45.85149152309917,1449],[7.305211119786624,45.85133642776114,1451],[7.305251016171246,45.85122663061964,1453],[7.3053642088196264,45.85104063526045,1455],[7.305411206884469,45.85099323700361,1457],[7.305542198577403,45.85075944334284,1459],[7.305531097525518,45.850703645380555,1461],[7.305578495251313,45.85063374657068,1463],[7.3056035905745444,45.85049125089119,1466],[7.305839075843779,45.85007306289279,1468],[7.305852173853972,45.850003864923316,1470],[7.3058129743059315,45.84995486678581,1472],[7.305722877727756,45.84999886647371,1474],[7.305638879808986,45.85000956684653,1476],[7.305665179434137,45.849988967987244,1478],[7.305676286421611,45.849932450877546,1480],[7.305682074903406,45.84978927458422,1482],[7.305758369818328,45.84968097654339,1485],[7.305680869960588,45.849554581941845,1487],[7.305696167948299,45.84952808303769,1489],[7.30564969975353,45.84951220292897,1491],[7.3055764719770515,45.8495216841402,1493],[7.305415344226684,45.84959114155445,1495],[7.3053800795411545,45.849625683097706,1497],[7.305391479506212,45.84964958268167,1499],[7.305350105017724,45.84963277266924,1501],[7.305254280634455,45.8495365876045,1504],[7.305199781930321,45.849514189784614,1506],[7.3051780824936525,45.84948749035386,1508],[7.305110784596893,45.8495530894706,1510],[7.3050584874021345,45.84957518895136,1512],[7.304984991014264,45.84967268616399,1514],[7.304913993548549,45.84967288732449,1516],[7.304928793380925,45.849694586403196,1518],[7.30488649395257,45.849704786215334,1520],[7.304873893400725,45.84966148819208,1523],[7.304787596204005,45.84963559057192,1525],[7.304818093612674,45.849580991266,1527],[7.304622896534964,45.849485197654026,1529],[7.304641296121288,45.84944289880787,1531],[7.304600495667969,45.84941340016964,1533],[7.304494997999175,45.84935730271083,1535],[7.304453299919247,45.84940230235772,1537],[7.304421201322217,45.84940300227152,1539],[7.304432300477557,45.849371103070915,1542],[7.304364401618825,45.84935030513265,1544],[7.30431620225461,45.84930440673024,1546],[7.3042455047875015,45.84935110622569,1548],[7.30423080604988,45.84939960452448,1550],[7.3041833078009555,45.84944440366504,1552],[7.3041171115157555,45.849485802959045,1554],[7.304089912747784,45.84951940270177,1556],[7.304107812004918,45.84954810161539,1558],[7.3040283150102505,45.84957340147904,1561],[7.30391661876398,45.84958220248955,1563],[7.303923517579431,45.84953270368345,1565],[7.303880918356766,45.849492905917764,1567],[7.303761919707762,45.84941520975497,1569],[7.303620222430155,45.84935311341029,1571],[7.303501525938734,45.84936621485856,1573],[7.303189836250996,45.849458115725966,1575],[7.3030239394514025,45.849431618503516,1577],[7.30283264668868,45.84949611855648,1580],[7.302698149030021,45.84942922191098,1582],[7.302518453987155,45.84940622530267,1584],[7.302319052500148,45.849104237958315,1586],[7.302218554265777,45.84902594208351,1588],[7.302016146451915,45.848916170804635,1590],[7.301930535274874,45.84890335880832,1592],[7.301818439248535,45.848912760251025,1594],[7.301732401354737,45.84893833659887,1596],[7.3016437994900265,45.84895332448504,1599],[7.3015880582977895,45.848953402081946,1601],[7.301564873362831,45.84894852746212,1603],[7.301542516122512,45.848959065740466,1605],[7.301539235523173,45.84898166378731,1607],[7.301554453272031,45.848992759841096,1609],[7.301577333712463,45.84900759428626,1611],[7.301596631677812,45.849054985737176,1613],[7.30163189040649,45.849089027469255,1615],[7.301674758097127,45.84912861675999,1618],[7.301699871719835,45.849155260513456,1620],[7.301717239938269,45.849180882771,1622],[7.3017218990807615,45.84919816351515,1624],[7.30172738470948,45.849230856241874,1626],[7.3017252213888115,45.84925935806923,1628],[7.301746228065184,45.849293187882125,1630],[7.301729604454879,45.84932826914034,1632],[7.301709204540965,45.84935967159055,1634],[7.301704908832192,45.84936556689572,1637],[7.30169026510181,45.84938565950451,1639],[7.301646681297259,45.84941218736028,1641],[7.301612855463536,45.84945878987826,1643],[7.301625591630772,45.84950880188412,1645],[7.301643042633538,45.849531707259615,1647],[7.301655200460382,45.84955815840044,1649],[7.301668322612792,45.849595493667124,1651],[7.301679570019774,45.84960924879752,1653],[7.301693436436155,45.84962213742281,1656],[7.301707730499376,45.84970614191136,1658],[7.301711382936218,45.849756323072064,1660],[7.3016941876739425,45.84996391649937,1662],[7.301663788434551,45.84998201618536,1664],[7.30162009229849,45.850055114056616,1666],[7.301602694226327,45.85016131038078,1668],[7.301616394229161,45.85019840943009,1670],[7.301563798695713,45.85030050657478,1672],[7.301518800894414,45.8503333055381,1675],[7.30149390266455,45.85042770239879,1677],[7.30128891160388,45.850586800144974,1679],[7.301202516779118,45.85073709568744,1681],[7.3010456231876475,45.85081469495913,1683],[7.300939628391191,45.85092959271577,1685],[7.300832831608978,45.85094099359626,1687],[7.30074973498247,45.85098029266245,1689],[7.300777734156243,45.8510098920646,1691],[7.300743737114151,45.85107229017705,1694],[7.300694539207696,45.85111498888159,1696],[7.300721439310212,45.85116468695011,1698],[7.300721642802462,45.851350680621216,1700],[7.300651044910526,45.85132708260877,1702],[7.3005591480810335,45.851343383295585,1704],[7.300429452718053,45.851403482735144,1706],[7.30036585497317,45.85145048165602,1708],[7.300332455145687,45.85143048263334,1710],[7.300359652999502,45.85131268680331,1713],[7.30032905332345,45.851288587455834,1715],[7.300275654736079,45.85128398845798,1717],[7.299962464502856,45.85135608968539,1719],[7.299853068466769,45.851402789252006,1721],[7.299807469044873,45.851404089770355,1723],[7.299729872767543,45.851446489592306,1725],[7.2996743738188945,45.85144589033204,1727],[7.299633275474409,45.85147918940984,1729],[7.299559477674864,45.85148359014965,1732],[7.299509879731524,45.85151908926457,1734],[7.299424781830669,45.85148299179369,1736],[7.299401283013528,45.85148889184788,1738],[7.299353483834573,45.851523391627225,1740],[7.299272987131216,45.85153079219086,1742],[7.299224789401325,45.85161659008252,1744],[7.29908349296615,45.851604692048205,1746],[7.298948697655143,45.851639192323304,1748],[7.298872599978139,45.85163609343705,1751],[7.298779902162396,45.851604295207906,1753],[7.298434609700122,45.85153340176585,1755],[7.298272714004405,45.85151680459176,1757],[7.298205215827634,45.85149700621158,1759],[7.2981882153176665,45.85147050686696,1761],[7.298067619075377,45.85146610908061,1763],[7.297959821011819,45.851444210662706,1765],[7.2977419251272275,45.85131881758967,1767],[7.2976613270073045,45.85130341928237,1770],[7.297339033528975,45.85118922679619,1772],[7.297248734542755,45.851176828345174,1774],[7.297260234764164,45.851140629131926,1776],[7.29728623262643,45.851129529432484,1778],[7.297232333955503,45.851096431676474,1780],[7.297277731353171,45.851049632130625,1782],[7.297419327065353,45.85102183157829,1784],[7.297511923054618,45.85091283426959,1786],[7.2975815202167365,45.85090193336175,1789],[7.297438221671593,45.85079023936336,1791],[7.2973044250660495,45.85074614214923,1793],[7.297329023120822,45.85072684290671,1795],[7.297372222017318,45.85072214234766,1797],[7.297387821442429,45.850694642805784,1799],[7.297442719853486,45.85070164251612,1801],[7.297462417964394,45.85064564396634,1803],[7.297453517807285,45.85059944544394,1805],[7.297414117879144,45.85056234717117,1808],[7.297336819072239,45.850522949623596,1810],[7.2973346184357,45.85050175056954,1812],[7.297242620035661,45.85046105290786,1814],[7.297315718493949,45.85043585230548,1816],[7.297334216781428,45.850411653225,1818],[7.297322516285992,45.85034445550658,1820],[7.29727791663206,45.850331256762026,1822],[7.297214218719706,45.85033815743683,1824],[7.29720661854057,45.8503070584501,1827],[7.297151519168386,45.85028825969815,1829],[7.296920225935386,45.85026086334348,1831],[7.296881426105721,45.85023686492136,1833],[7.296980521371643,45.85011856760495,1835],[7.296959719469873,45.85004217075011,1837],[7.296984217419418,45.84996117320363,1839],[7.2969664166211485,45.849920674207496,1841],[7.29693681781198,45.849902675839665,1843],[7.2969043183467095,45.84992037483154,1846],[7.296860419539603,45.849916675499834,1848],[7.296780020941169,45.849882878209115,1850],[7.296710120924076,45.84974888377133,1852],[7.29666102170874,45.84975378411293,1854],[7.29666912122356,45.84971258491903,1856],[7.296636720685146,45.84967098703169,1858],[7.296604821873314,45.849650288360365,1860],[7.296554222997988,45.849665288150995,1862],[7.296540922335848,45.84962188965834,1865],[7.296482124523106,45.849608290766206,1867],[7.296458225415533,45.84965628994917,1869],[7.2963199300290436,45.84969078983506,1871],[7.29628803001725,45.84965689196088,1873],[7.296237930824993,45.84963659316855,1875],[7.296130433816987,45.849627494281904,1877],[7.296109434848768,45.849647494082554,1879],[7.296046335573932,45.84958109742224,1881],[7.295951336659487,45.849522800461216,1884],[7.29583874116072,45.84954970067464,1886],[7.295753341136477,45.849465404164924,1888],[7.295670243794587,45.849497304799435,1890],[7.295601245143434,45.84946450659696,1892],[7.295603344104893,45.84942830767563,1894],[7.295542845347103,45.84935641068405,1896],[7.295397546183123,45.84923331672439,1898],[7.295341544152053,45.849055623030196,1901],[7.295346142914502,45.84899342503525,1903],[7.2953125425763625,45.84894072755985,1905],[7.29531774141258,45.848894929162626,1907],[7.295258241315103,45.84878983361044,1909],[7.295250840267099,45.84871213604318,1911],[7.2951591407134995,45.848648739417264,1913],[7.295097872730256,45.84850036682963,1915],[7.295061379363817,45.84842237095122,1917],[7.295049406863513,45.84840378822383,1920],[7.294973523678433,45.848342621997716,1922],[7.294918947451397,45.84830236939381,1924],[7.294880824587433,45.84827769995615,1926],[7.294858837329615,45.84825852940045,1928],[7.294848772489764,45.848239098487085,1930],[7.2948379321976935,45.8482244757165,1932],[7.294800342636029,45.84820288155163,1934],[7.294775634841027,45.84819068078753,1936],[7.29474316424892,45.84818625209431,1939],[7.294712076098025,45.84818778969941,1941],[7.294610660824968,45.8481875456647,1943],[7.294577111674939,45.848206055465496,1945],[7.294486839281924,45.848209478835706,1947],[7.29448363985732,45.84820982438555,1949],[7.294469094092395,45.84821113458287,1951],[7.294436597696867,45.84819642875016,1953],[7.29436354008201,45.84816031914033,1955],[7.294216284907782,45.84815812034118,1958],[7.29408388024051,45.84811271975207,1960],[7.2940268133494115,45.84811081717004,1962],[7.293877549238341,45.84807602085113,1964],[7.293602616998057,45.84787388455752,1966],[7.2934612838293065,45.84790749137167,1968],[7.293290761343515,45.847896014475275,1970],[7.293211847433191,45.847903940236954,1972],[7.2931433071043354,45.84789626302891,1974],[7.293069573480979,45.847898662440706,1977],[7.293019625952426,45.84789336367708,1979],[7.292939662939278,45.84789462047107,1981],[7.292609239099518,45.8478726102514,1983],[7.292365050241691,45.8478244864663,1985],[7.2923437099769925,45.84783003302082,1987],[7.292327092380915,45.84784904548104,1989],[7.29215989783449,45.84803582096725,1991],[7.2920614272740485,45.848162867382214,1993],[7.29202702082508,45.848198246584445,1996],[7.29200661984031,45.84821807726864,1998],[7.291987839488713,45.84824230998003,2000],[7.291951090652463,45.848264172422454,2002],[7.291928028766334,45.84826452782184,2004],[7.291883772118685,45.84825624811562,2006],[7.291866687485569,45.848226315598694,2008],[7.291868867911576,45.84818782735083,2010],[7.29181225872744,45.8481372841931,2012],[7.291754527391357,45.84799439082389,2015],[7.291674558320354,45.847878494607606,2017],[7.291688919479135,45.84778311062107,2019],[7.291647319239279,45.847728513035946,2021],[7.291536819745319,45.84763541718964,2023],[7.291281825249209,45.84754182410868,2025],[7.291232825574472,45.84750622535854,2027],[7.291165824023728,45.84728973345262,2029],[7.2912134202143575,45.84718453671287,2031],[7.291264817755002,45.847148437166716,2034],[7.2912827153122155,45.84706223973573,2036],[7.291319812697958,45.84699664162015,2038],[7.291283113199416,45.846964643428784,2040],[7.291304110962578,45.846859847113464,2042],[7.291286911253122,45.84683394766559,2044],[7.291188213967546,45.846865848412456,2046],[7.291016920367963,45.846959547087216,2048],[7.290975122081269,45.84697014706559,2050],[7.2909208260776435,45.84696258892448,2053],[7.290764071146639,45.84702991302254,2055],[7.290682687503626,45.8471055722782,2057],[7.2904383370816745,45.847226840481525,2059],[7.2904027992702956,45.84726474668453,2061],[7.290154717366785,45.847395568172146,2063],[7.290054958597136,45.84751763976433,2065],[7.2899209652608725,45.84762153726955,2067],[7.289835746654493,45.847662245714865,2069],[7.289793170012981,45.84769913640657,2072],[7.289663160796935,45.8477916816342,2074],[7.289615414759748,45.8478126784396,2076],[7.28958049666205,45.8478401702877,2078],[7.289536350145156,45.84787452806249,2080],[7.289495915194965,45.84788582834351,2082],[7.289449981718463,45.84784123563038,2084],[7.2894133824176395,45.84781123733339,2086],[7.289348482206633,45.8476902422869,2088],[7.289351679349399,45.84758244544576,2091],[7.289332978649459,45.847538947226475,2093],[7.289363077124455,45.84746794909667,2095],[7.289302861497845,45.84731003338003,2097],[7.289245076515865,45.84728025688064,2099],[7.289187819838584,45.847275840621926,2101],[7.289162331206645,45.84737894741157,2103],[7.2890143168269885,45.84756186898037,2105],[7.288893118117774,45.84761218126585,2107],[7.28878013601077,45.84768907051541,2110],[7.288654488979351,45.847796338010426,2112],[7.288550959757671,45.84791628800365,2114],[7.288522597985045,45.848107123593635,2116],[7.288538435774994,45.84832675937011,2118],[7.288519292842522,45.848536562822105,2120],[7.2884708538454115,45.84874165033461,2122],[7.288418515975577,45.84882420093859,2124],[7.288083904190364,45.84918285196895,2126],[7.28797649972194,45.84932524886326,2129],[7.287716441503042,45.84982537387319,2131],[7.287341896677722,45.85027877981175,2133],[7.287297199245059,45.8504761186175,2135],[7.287270347036811,45.85051171764301,2137],[7.286912259205603,45.85084836359342,2139],[7.286678420330956,45.85103800081043,2141],[7.286540009687023,45.85117179669947,2143],[7.286462884630827,45.85120285677101,2145],[7.286354433499205,45.85120963448765,2148],[7.286242406140571,45.85120235111804,2150],[7.286140783102796,45.851182616868876,2152],[7.286034593268137,45.85118102362944,2154],[7.285845526685385,45.85120199906223,2156],[7.28572492482324,45.8512127961382,2158],[7.285612718164735,45.85122488553369,2160],[7.285250314813665,45.85128244890423,2162],[7.284626837086885,45.851453096278455,2164],[7.284378359604257,45.851575370428854,2167],[7.284246576652182,45.85167239561,2169],[7.284154104247735,45.85163826948004,2171],[7.284002709569413,45.85168346977636,2173],[7.2839103122865305,45.85169547075516,2175],[7.283758016381849,45.85168367292125,2177],[7.283545821653613,45.85164147693426,2179],[7.283347125155127,45.85153458327515,2181],[7.283285026032416,45.85154078377347,2183],[7.282924735158551,45.85146179035181,2186],[7.282803237472719,45.85145709197841,2188],[7.282567443247962,45.85139159737437,2190],[7.282041657331902,45.85136180403603,2192],[7.281926400027334,45.851359536884395,2194],[7.281776325381227,45.85135097665795,2196],[7.281591053560896,45.851358489815226,2198],[7.281403268126142,45.851341862667404,2200],[7.281101581911124,45.85132321714725,2202],[7.280936669688932,45.85131102949582,2205],[7.280836960552107,45.85130622849962,2207],[7.280523669832221,45.85129423271544,2209],[7.280413707711127,45.85126564014928,2211],[7.280329600832614,45.851193630829144,2213],[7.280263002875387,45.85120643125914,2215],[7.280167760784136,45.85123843118765,2217],[7.280101561578765,45.851213732832655,2219],[7.280012664102176,45.85120483400498,2221],[7.279925466047227,45.85116003737418,2224],[7.279845967777254,45.85114693815009,2226],[7.279710471087167,45.85109804159334,2228],[7.27972131436285,45.85105344316426,2230],[7.279770912414828,45.85098354497919,2232],[7.279762112007927,45.850956345529305,2234],[7.279435522147748,45.85100954794045,2236],[7.279208127551122,45.85097315151399,2238],[7.2791551289664085,45.85098475209419,2240],[7.279100230708637,45.85102695151653,2243],[7.279006634565035,45.85103385243757,2245],[7.278959334945866,45.85099845405634,2247],[7.278920134274465,45.850921557095305,2249],[7.278611639636654,45.85078356501594,2251],[7.278432243862964,45.85073656872192,2253],[7.2779464518183214,45.85048208353729,2255],[7.2777294526906005,45.85023139444572,2257],[7.277653853723156,45.850173197432106,2259],[7.277603640198785,45.85017253212665,2262],[7.277492259175034,45.85016669447797,2264],[7.277404602218381,45.850149263734046,2266],[7.277331487270421,45.85011524396012,2268],[7.277256589759822,45.850065964064555,2270],[7.277171799661332,45.85002056170453,2272],[7.2770845105790345,45.84999123052166,2274],[7.276998825365102,45.84995859601238,2276],[7.276863667683149,45.8499215385143,2278],[7.276652225056396,45.849888233441895,2281],[7.276572323019266,45.849879323632784,2283],[7.276415436974848,45.84984001169645,2285],[7.276222912418709,45.84977827546508,2287],[7.276073363612627,45.84975290650617,2289],[7.275984640018647,45.84973756016842,2291],[7.275896498383269,45.849719596225704,2293],[7.2757054611967105,45.849674690733174,2295],[7.275541844069323,45.84965050918354,2297],[7.275420956538716,45.84963817801219,2300],[7.27524546127782,45.84961731877019,2302],[7.275099423010919,45.84960811047172,2304],[7.274925356627966,45.849597777591526,2306],[7.274802487884132,45.849584716513874,2308],[7.27470962757277,45.84957350810043,2310],[7.274503307708264,45.849552883288915,2312],[7.274339713158872,45.84952800012438,2314],[7.2741663618845465,45.84949456473685,2316],[7.274038755308053,45.84947267565797,2319],[7.273958767685518,45.849466564552735,2321],[7.273862296592966,45.84947491188402,2323],[7.273764368998941,45.849497945593555,2325],[7.273658600983996,45.8495152570751,2327],[7.273600347968821,45.849519279229554,2329],[7.273472543611242,45.84951997395747,2331],[7.273352225058538,45.84952165743247,2333],[7.273274722049287,45.849532392569245,2335],[7.2732045561948295,45.84953273238772,2338],[7.273105708680347,45.849520732831266,2340],[7.272995973982909,45.849520474335336,2342],[7.272873023818107,45.84954242784471,2344],[7.272758525236169,45.84958271864339,2346],[7.27271595391933,45.84959818387071,2348],[7.272638922618087,45.8496017469816,2350],[7.2724544498228445,45.84960385984662,2352],[7.27227566110973,45.84961656366227,2354],[7.272165754866135,45.849638013462844,2357],[7.272070836369679,45.84969330820176,2359],[7.272001723370956,45.84975669667746,2361],[7.271969762105435,45.84981784619769,2363],[7.271941428171517,45.84984280593171,2365],[7.2719074924681815,45.849860546290905,2367],[7.271846476866612,45.84988903837406,2369],[7.27178397728483,45.84990069970846,2371],[7.271709586586147,45.84990797880951,2373],[7.271655449003348,45.84990856017739,2376],[7.271560629098409,45.84989591999047,2378],[7.271483099834551,45.84987513587921,2380],[7.271402517561741,45.849823489913085,2382],[7.271298241452774,45.84976027891663,2384],[7.2712353007827,45.8497215066791,2386],[7.271220422617345,45.849699391617676,2388],[7.271079723874706,45.84956769770041,2390],[7.2710234242784955,45.849540599485785,2392],[7.270781430660474,45.84951110261535,2395],[7.270670433341706,45.84952440348992,2397],[7.270666234060032,45.84954270345504,2399],[7.270628534326808,45.849518704652,2401],[7.270489539382203,45.849518806305085,2403],[7.270433841342616,45.84955020607366,2405],[7.270432542020968,45.84963440323954,2407],[7.270375246532602,45.84975129978896,2409],[7.2705147449192875,45.84985819466959,2411],[7.2704977461201405,45.84991429247042,2414],[7.270396241650533,45.850085561685674,2416],[7.270351533789515,45.85014564201255,2418],[7.270304196655279,45.85016120878607,2420],[7.270248034124284,45.850170513523295,2422]]}}]}