{"type":"FeatureCollection","features":[{"type":"Feature","properties":{"slug":"av1-s4","sct_code":"AV1_S4","source":"Catasto Sentieri VdA"},"geometry":{"type":"LineString","coordinates":[[7.928101008587207,45.64526612154078,2054],[7.92807102774567,45.64532649558473,2054],[7.928061007708333,45.645378121090815,2053],[7.927641007738065,45.64614812143341,2053],[7.927721008698383,45.64647812155743,2053],[7.9276610080203165,45.646538121873135,2053],[7.927661008185449,45.64667812245457,2052],[7.927261008180423,45.64698812209886,2052],[7.927261007951628,45.64714812210451,2052],[7.927181008659225,45.64720812246481,2051],[7.927221008158985,45.64753812251526,2051],[7.927071008224889,45.647538122303956,2051],[7.926961008063803,45.64772812326961,2050],[7.92675100761481,45.647808122880434,2050],[7.926511008734202,45.64814812357355,2050],[7.926141008053183,45.648298123049855,2050],[7.92593100801804,45.64855812325564,2049],[7.925653695593523,45.648717125610936,2049],[7.92543100768057,45.64890812361513,2049],[7.925204423359017,45.64897621041966,2048],[7.924901008184728,45.64916812370561,2048],[7.924511007825809,45.649288124013005,2048],[7.924431008309148,45.649378124272204,2047],[7.922821008357242,45.64980812435508,2047],[7.922691007842637,45.64986812436096,2047],[7.922811008621273,45.649988124830074,2047],[7.922761008351955,45.650188124637644,2046],[7.922971008212563,45.651008125510316,2046],[7.9227610084400855,45.65104812520259,2046],[7.922851008083863,45.651268125121675,2045],[7.922781008428371,45.65127812538646,2045],[7.922781008282118,45.65140812524504,2045],[7.922661007568803,45.651548125392004,2045],[7.92267100853726,45.6516781259614,2044],[7.922621007656914,45.65165812569033,2044],[7.922541007725203,45.65191812598353,2044],[7.9223510082172215,45.65191812570668,2043],[7.922291008307401,45.6520281262139,2043],[7.922221007543563,45.652398126515216,2043],[7.921901008037387,45.652438126273616,2042],[7.921811008540795,45.652508126258944,2042],[7.921801007937503,45.652738126006675,2042],[7.921371008000458,45.652858126801696,2042],[7.9213010080655275,45.65310812638587,2041],[7.9207910077349455,45.6532681270924,2041],[7.920661007532654,45.65336812719569,2041],[7.9194636314991715,45.65356416382566,2040],[7.918903530094804,45.65393488392323,2040],[7.91881912193668,45.654057878901526,2040],[7.918787265001547,45.654276047136364,2039],[7.9187755547573335,45.654631153621,2039],[7.918766146870411,45.654922575375146,2039],[7.918601361071737,45.65525374289178,2039],[7.918292008686399,45.65562812860947,2038],[7.918172008160614,45.655758128744495,2038],[7.918132008436526,45.655978128652336,2038],[7.918392008635715,45.65603812825858,2037],[7.918322008316378,45.65614812912449,2037],[7.918172007955765,45.65623812897048,2037],[7.918449035580487,45.65627716071432,2037],[7.918302008208036,45.65637812914816,2036],[7.918542008464776,45.65643812893121,2036],[7.918492008676594,45.65650812871548,2036],[7.9183523138680085,45.65664886662683,2035],[7.91827075828169,45.65659072160979,2035],[7.918222039671702,45.65661622887508,2035],[7.918229904021285,45.65673331338421,2034],[7.918261690829834,45.65679325169857,2034],[7.918361445493189,45.65684553052247,2034],[7.9184752544768156,45.656838756862676,2034],[7.918494222146188,45.65688241940371,2033],[7.91846450386408,45.65690508694792,2033],[7.918447380344187,45.65694463291281,2033],[7.918341448132379,45.65698952770607,2032],[7.918271716465811,45.65707764422944,2032],[7.918258600502906,45.65716614565326,2032],[7.918132764813156,45.657339035173315,2032],[7.918083440250273,45.6573512508043,2031],[7.917983767956337,45.65747350738205,2031],[7.917824123774477,45.657490112456415,2031],[7.917647557313409,45.657569214867046,2030],[7.917572007524029,45.65769812969512,2030],[7.917476759353282,45.65776236197119,2030],[7.9173740424531776,45.658020170167326,2029],[7.91723301317024,45.658098551157025,2029],[7.916902008710489,45.65818813045431,2029],[7.916667207590083,45.65833203904464,2029],[7.916366049591716,45.658396067128024,2028],[7.916321517540993,45.65842765271419,2028],[7.916291296503817,45.658479217743356,2028],[7.916313195605958,45.658496217075445,2027],[7.9163575977162015,45.658631712565324,2027],[7.916318930582036,45.65872620428792,2027],[7.916313802211154,45.65877140900478,2026],[7.9161738595010265,45.65887179652596,2026],[7.915973419320791,45.65894707586299,2026],[7.915910923712981,45.6590190746542,2026],[7.915656019244971,45.6592186680666,2025],[7.915486649980694,45.65932769412453,2025],[7.915305156568774,45.65940469577235,2025],[7.915234147461086,45.659430612030526,2024],[7.915149997249568,45.659477325406456,2024],[7.915027154713558,45.6594974145876,2024],[7.91487930329319,45.659514438972415,2024],[7.914823062293368,45.65952601774977,2023],[7.914777964073158,45.659538318002575,2023],[7.914695466614386,45.65957831877432,2023],[7.914673267882697,45.659626517745245,2022],[7.914611471276148,45.65965291807268,2022],[7.914476976931603,45.65976221818971,2022],[7.914483577529432,45.65978231721421,2021],[7.914590375079339,45.65981901413891,2021],[7.914551076963207,45.659850313936886,2021],[7.914566676791807,45.6598694129932,2021],[7.914542879960965,45.65995101158465,2020],[7.914591579368237,45.65999740903998,2020],[7.914604881844133,45.660141904616694,2020],[7.914637481501442,45.66018850279792,2019],[7.914756680665001,45.66026219837112,2019],[7.914828981214939,45.660384692534954,2019],[7.914883579393869,45.66040989091675,2018],[7.914896080392172,45.66045658971626,2018],[7.9149284805891,45.6604878875502,2018],[7.914990778297464,45.66048588711566,2018],[7.915008479687307,45.66054578431442,2017],[7.915080476992813,45.66055258316691,2017],[7.91508197861357,45.66061798068729,2017],[7.915160378188704,45.66070547691622,2016],[7.915249475673627,45.660713275118034,2016],[7.915303475951295,45.660765072573845,2016],[7.915274977696924,45.66085167061336,2016],[7.915231981494266,45.660910469341715,2015],[7.9153303803909445,45.66102766392221,2015],[7.915113589046009,45.66112916550046,2015],[7.915162389047913,45.66116026349268,2014],[7.915210388943354,45.661242160602484,2014],[7.915206290272319,45.661319258848316,2014],[7.915233292768364,45.66142875497629,2013],[7.915239795224416,45.66157485008391,2013],[7.91517569862473,45.66161895019988,2013],[7.9151667994418275,45.66165954941515,2013],[7.915278797804494,45.66174904504155,2012],[7.915332297551537,45.66181704154759,2012],[7.915338899252348,45.66187173983071,2012],[7.915274903789759,45.66197033884759,2011],[7.915172208138027,45.66208023691578,2011],[7.915178309567299,45.66212693609953,2011],[7.915125113016307,45.66218903474065,2010],[7.914812634751084,45.662366425661794,2010],[7.914666231424494,45.66244953710878,2010],[7.9146585390320645,45.662456357599744,2010],[7.914662808791466,45.662471481414784,2009],[7.914511380277728,45.66264155755348,2009],[7.914364047862118,45.66277785167025,2009],[7.9142300731168955,45.662936014467554,2008],[7.914078688744008,45.66310367377224,2008],[7.914037074974828,45.66319531224597,2008],[7.91404373649215,45.66330826499567,2008],[7.91404021715452,45.6633987913105,2007],[7.914029453144586,45.66349793255163,2007],[7.9140582538314135,45.66356395500215,2007],[7.913963733697517,45.66360275455063,2006],[7.913787452711786,45.66375242481898,2006],[7.913665221655106,45.663851746320454,2006],[7.913566250568701,45.66393764397043,2005],[7.913520851683653,45.66399799878318,2005],[7.9135512286310705,45.66407396043447,2005],[7.913613519616994,45.664146504740415,2005],[7.9136671812650325,45.664207801675325,2004],[7.913671935155755,45.664236379756645,2004],[7.91366994862259,45.664254996652765,2004],[7.913665453801381,45.664297104720035,2003],[7.913632699979642,45.664343933984426,2003],[7.91357350953833,45.66438554976625,2003],[7.913464595235047,45.66443661665311,2002],[7.91324428494763,45.66448414313424,2002],[7.912922304203604,45.6645741197884,2002],[7.912666649831107,45.66464495793053,2002],[7.912662596037183,45.66464608132375,2001],[7.912655278217629,45.664646588606814,2001],[7.912573868183951,45.664652236493424,2001],[7.9125368072864415,45.66465480798676,2000],[7.9123550379984815,45.664630747781594,2000],[7.912210872063247,45.66458347455139,2000],[7.91211638712797,45.66453985510845,2000],[7.911780402361295,45.66445452057437,1999],[7.911686562320879,45.66442594065699,1999],[7.9115309659562145,45.66436994496946,1999],[7.911438565693976,45.66427974950737,1998],[7.911360267968103,45.66428015182317,1998],[7.911292971178945,45.66433095170918,1998],[7.911257173119414,45.66433765170761,1997],[7.911202774084647,45.66433365267314,1997],[7.91114217461094,45.66429325539813,1997],[7.911019577946303,45.6642651586701,1997],[7.910950280520804,45.664290559327746,1996],[7.91074408999897,45.6642608039502,1996],[7.910699487747596,45.664282565167596,1996],[7.910628490218036,45.664269866885384,1995],[7.910578591410746,45.6642913669299,1995],[7.910526994038802,45.664341066802834,1995],[7.910519594806618,45.66438646557524,1995],[7.910422899170223,45.664400966762905,1994],[7.910293702330308,45.66438337033107,1994],[7.910226402708963,45.664355672436145,1994],[7.910061908017646,45.66434347598812,1993],[7.909985008600265,45.66427407917721,1993],[7.9099304093591005,45.66424998103675,1993],[7.909815213808626,45.66426658322727,1992],[7.9097605141272656,45.66424098454326,1992],[7.909687216304454,45.664249786009336,1992],[7.909605518401369,45.66423278796717,1992],[7.909525520895339,45.66423869018122,1991],[7.909528121215877,45.664268988597534,1991],[7.909628722688486,45.66442118276984,1991],[7.909707220173926,45.66446557964345,1990],[7.909764522168982,45.66459227477173,1990],[7.909858722146101,45.66470146927044,1990],[7.909896521887097,45.66476486675195,1989],[7.909858323631331,45.664770867459865,1989],[7.909869123529344,45.66480206677328,1989],[7.909964723003165,45.664888061933844,1989],[7.909998023680151,45.66495965921668,1988],[7.910050822421182,45.66499765690236,1988],[7.91003982559336,45.66509055449156,1988],[7.909989728786895,45.66516195362945,1987],[7.909921330815272,45.66521705349026,1987],[7.909893033865805,45.665298351581285,1987],[7.909763539060491,45.665375351832864,1987],[7.909732041913724,45.66543395127615,1986],[7.9095934459690005,45.665469853141026,1986],[7.90949235145531,45.6655360534153,1986],[7.909499350069097,45.665509353282516,1985],[7.9094610504967005,45.665476055281054,1985],[7.909376249964544,45.66533146166362,1985],[7.90935855068893,45.66537605996477,1984],[7.909372252014022,45.6654085588116,1984],[7.909299758487257,45.66561955494314,1984],[7.909309059338299,45.665651853368615,1984],[7.909287061326113,45.66572385170196,1983],[7.909246562023475,45.66571405304654,1983],[7.909186966122686,45.66580835140493,1983],[7.909197767673269,45.665904948396005,1982],[7.9091551695603775,45.66594734766248,1982],[7.9091308723888964,45.666044046008416,1982],[7.909097074361382,45.666084244932684,1981],[7.909033276829814,45.66609994567307,1981],[7.909041276978464,45.666137145133526,1981],[7.908968380299637,45.66619064434341,1981],[7.90894368339297,45.66629514236469,1980],[7.908900384961719,45.666298042827734,1980],[7.908872887271035,45.66633724248984,1980],[7.908764789625422,45.66629374587621,1979],[7.908707191168899,45.6662858475252,1979],[7.908609693198854,45.666300948851415,1979],[7.908460598737567,45.66634015036562,1979],[7.90835310292682,45.66639045186549,1978],[7.908170309687126,45.66644685335879,1978],[7.908062315217499,45.666531753597646,1978],[7.907904820151518,45.666571955057584,1977],[7.907697526367126,45.66656035949604,1977],[7.907497633187959,45.666591463068826,1977],[7.907382236023727,45.66657446606275,1976],[7.9072839384412985,45.6665845677653,1976],[7.907273539449637,45.66661706673115,1976],[7.9073783385724274,45.66672166180587,1976],[7.907304040849006,45.666734163131196,1975],[7.907308141719091,45.66675326206872,1975],[7.907216440260589,45.66680145892278,1975],[7.907283438671521,45.66684015715405,1974],[7.907350139321542,45.666910854196374,1974],[7.907247842332098,45.66692715594069,1974],[7.907251744037211,45.66696915504771,1973],[7.907166946977443,45.66700655506233,1973],[7.907195747627721,45.66702205423625,1973],[7.907199547636302,45.66704645346275,1973],[7.907156048989421,45.66706455429318,1972],[7.907397145829162,45.667179047005376,1972],[7.907397246889655,45.6671936460743,1972],[7.907351648455757,45.66721264675779,1971],[7.907215352957867,45.66723214880542,1971],[7.907228853518773,45.66725684784358,1971],[7.907404450641212,45.667318043211566,1971],[7.907251757121179,45.66737484452842,1970],[7.90716606146782,45.667437145153265,1970],[7.9071920610048885,45.66745674431213,1970],[7.907297758333176,45.667459442146985,1969],[7.907354757195896,45.6674886399333,1969],[7.907225862931613,45.66757504057135,1969],[7.907233464263308,45.667602139441804,1968],[7.9073125630447,45.667627837705645,1968],[7.90726196565158,45.667683036919776,1968],[7.907300265432867,45.66768763628025,1968],[7.907254367764793,45.66773663581828,1967],[7.9072797669947565,45.66775463520422,1967],[7.907407663501896,45.66775753268836,1967],[7.907480662373447,45.66778553065239,1966],[7.907431666440658,45.66785052982746,1966],[7.907399367739873,45.667863630019916,1966],[7.907204873832627,45.66788473372942,1965],[7.907119475852048,45.667872135828375,1965],[7.906902483155666,45.66788503932146,1965],[7.906896084137364,45.667946738520975,1965],[7.906982283667724,45.668006535392365,1964],[7.907027686575012,45.668107432002735,1964],[7.907055585388182,45.668128530864216,1964],[7.907001288163564,45.668155731443726,1963],[7.907066787354952,45.668188029510254,1963],[7.907054488668151,45.6682047285909,1963],[7.906846093726193,45.66819433333687,1963],[7.9067968957354156,45.668205034083364,1962],[7.906715297553469,45.668173236127714,1962],[7.906596299870593,45.668161138911366,1962],[7.906148117376814,45.668275645434164,1961],[7.906320015759004,45.668396338915784,1961],[7.906055727117811,45.66850484164126,1961],[7.906049743792961,45.66851042592749,1960],[7.906084267242505,45.66857775532588,1960],[7.906021646810458,45.66860855968394,1960],[7.905977477286112,45.66862081853714,1960],[7.905907826837005,45.66865880279998,1959],[7.905845655667144,45.66871074841023,1959],[7.905765140483265,45.668775804977045,1959],[7.905853519848857,45.66883764781129,1958],[7.905855411769473,45.66891738348415,1958],[7.9058033612166785,45.66893621103642,1958],[7.905707779740584,45.66897877741504,1958],[7.905611749616647,45.66904428918397,1957],[7.905540492292693,45.66907621841295,1957],[7.905460717758851,45.66910323445734,1957],[7.905419096185375,45.669117329331485,1956],[7.90538756620227,45.66912834007536,1956],[7.905398067688758,45.669217038259106,1956],[7.905458666517229,45.66922413626634,1955],[7.905547965930503,45.669295833020485,1955],[7.9057353629449,45.66937402733935,1955],[7.905725563905934,45.66938732728508,1955],[7.905535169954926,45.66941803057641,1954],[7.9055155720421615,45.669457129587585,1954],[7.905553472251601,45.669505927721865,1954],[7.905432176053504,45.66950143079487,1953],[7.905414378011213,45.66953202975304,1953],[7.9054284788208635,45.669587828268945,1953],[7.9052791851957185,45.66963273009361,1952],[7.905257086724486,45.66966152999398,1952],[7.9051983888052435,45.66968353108388,1952],[7.905117293853896,45.66978972973547,1952],[7.905090697099171,45.66986222857215,1951],[7.905036399708629,45.66988192889737,1951],[7.905052700561011,45.6699144279542,1951],[7.905042400941035,45.66993942744032,1950],[7.905110401833348,45.67003552444794,1950],[7.905134206060595,45.67016042100545,1950],[7.905111507276059,45.67020182048066,1950],[7.905155107622074,45.670245818444755,1949],[7.905071610228435,45.67027351948029,1949],[7.905047012888369,45.67030581912504,1949],[7.905066313133137,45.67032401795144,1948],[7.904953819363513,45.67044591769708,1948],[7.904943721465577,45.67048011683239,1948],[7.904970821325945,45.670530615338514,1947],[7.905050620779699,45.67058071173272,1947],[7.905036522629208,45.670598711931014,1947],[7.905098524346179,45.67072130773748,1947],[7.905157423697702,45.67077080500003,1946],[7.90526792256297,45.67081490224386,1946],[7.905280622323604,45.67084360089564,1946],[7.905258824939158,45.67090230011045,1945],[7.905303925349062,45.67093859886336,1945],[7.905301205944955,45.6709889186282,1945],[7.905271084972196,45.67099549473703,1944],[7.905148799187469,45.6709634992577,1944],[7.905168611463521,45.671062373659964,1944],[7.905223913427166,45.671164570092806,1944],[7.905326347303354,45.671212658259634,1943],[7.905338182307658,45.671268332450644,1943],[7.905320136202055,45.67132768866303,1943],[7.9053625365725715,45.67136078699975,1942],[7.905340037945932,45.67137708752422,1942],[7.905343139357094,45.671418786476316,1942],[7.905420737923696,45.67144738425371,1942],[7.9055764335701655,45.67145208025842,1941],[7.905656032229754,45.67151487776036,1941],[7.905326143567082,45.67156788254939,1941],[7.905227747031545,45.67156178492881,1940],[7.905157946237285,45.67149428821024,1940],[7.90506275094861,45.67154668910191,1940],[7.904993052250406,45.67152709091534,1939],[7.9049757536999685,45.67154059072108,1939],[7.905017654580098,45.671605288243434,1939],[7.905021155635671,45.67165768646006,1939],[7.904827360061029,45.671614691352794,1938],[7.904806361167354,45.67163169199652,1938],[7.904795962786897,45.67169069031565,1938],[7.904729665019489,45.67167319201594,1937],[7.904731666538201,45.67172709066602,1937],[7.90462866884985,45.67171959292086,1937],[7.9046141709127955,45.671750692319954,1936],[7.904635869855594,45.67176829227379,1936],[7.904633772914346,45.671846490177046,1936],[7.904613576579116,45.671936188314746,1936],[7.904653576661374,45.67200058602018,1935],[7.904777174854488,45.67203398250056,1935],[7.9048795717776565,45.67203578056533,1935],[7.9048957719953,45.67206457941675,1934],[7.9049734693535125,45.67206477791476,1934],[7.905185664854979,45.67212097210305,1934],[7.905196565604801,45.67214667161343,1934],[7.905047674391796,45.672270771546806,1933],[7.904905380374166,45.672342472671765,1933],[7.904701587357851,45.67237767602383,1933],[7.904553591198905,45.6723725792321,1932],[7.904472494688352,45.67240148012459,1932],[7.904495796713295,45.67245957842159,1932],[7.904566495993105,45.67250407589034,1931],[7.904683393197886,45.67254367263362,1931],[7.904654295311413,45.67256837211593,1931],[7.90467849621059,45.67262167086726,1931],[7.904785993162774,45.67265146751107,1930],[7.904908592004816,45.67272676290253,1930],[7.9049606922501665,45.672767261063434,1930],[7.904971894164951,45.67282135950258,1929],[7.9049492948145605,45.67285015992736,1929],[7.904841500049233,45.67288556099855,1929],[7.9047317038327565,45.67294306177527,1929],[7.90470400692737,45.672986360959705,1928],[7.904669014372385,45.673195457006955,1928],[7.90457312073845,45.67332545583035,1928],[7.904563422847841,45.67336385483536,1927],[7.904656623830499,45.6734752499302,1927],[7.9046426274982755,45.67359004809158,1927],[7.904667732029153,45.67375814295759,1926],[7.904630235105692,45.673812543104994,1926],[7.904508239963078,45.6738696440633,1926],[7.904448843497077,45.67392134366151,1926],[7.90434404727635,45.67393994547907,1925],[7.904223449552713,45.67391614857109,1925],[7.904175550910535,45.673920248797764,1925],[7.904193753891821,45.674011746284904,1924],[7.904109756949604,45.6740385480496,1924],[7.903947662810921,45.67405655029401,1924],[7.903763168505985,45.67410045350838,1923],[7.903694273204418,45.674150752867234,1923],[7.903601075731016,45.67415735500002,1923],[7.903468883245971,45.674259355507914,1923],[7.903425385678683,45.6743165544471,1922],[7.903232693980092,45.674380156945986,1922],[7.9031566979091075,45.6744486563345,1922],[7.903152200044023,45.67450045574346,1921],[7.903119399647915,45.674451457407024,1921],[7.903084999123955,45.67444065847365,1921],[7.902944207546156,45.67454195835492,1921],[7.902826611960116,45.674584260462716,1920],[7.902817511205922,45.67456096048592,1920],[7.902767613515274,45.67456496171595,1920],[7.902714415661386,45.67460656186142,1919],[7.90274841221518,45.674526162875324,1919],[7.902695513434583,45.67452566374528,1919],[7.902439124481015,45.67462996669958,1918],[7.902152934563478,45.6746815712389,1918],[7.9019564428917155,45.67476477258509,1918],[7.90185344644911,45.674784774609165,1918],[7.901793247813322,45.67475437687433,1917],[7.901672453375832,45.67483857726594,1917],[7.901584357275922,45.67486037842316,1917],[7.901538957858814,45.67485467921341,1916],[7.901296767319857,45.6749239822632,1916],[7.901240869357803,45.6749159840094,1916],[7.901096073755161,45.6749463858177,1915],[7.901051875741092,45.674976185563395,1915],[7.9009364797247645,45.67498628831237,1915],[7.900887283472577,45.675043687067195,1915],[7.900742188249548,45.67507388933029,1914],[7.9006639915210375,45.675110190509145,1914],[7.900576993982395,45.67511119205902,1914],[7.900596892958103,45.67508119194079,1913],[7.900549894823612,45.6750916933441,1913],[7.900432497667654,45.675081695970434,1913],[7.900311202635961,45.67513769660091,1913],[7.90010100992241,45.67517600013682,1912],[7.899990413143569,45.675171202633116,1912],[7.899926316177672,45.67519320300874,1912],[7.899855318262661,45.67519750469913,1911],[7.899604328560469,45.6753045066587,1911],[7.899523531607732,45.67531430762492,1911],[7.899295337430194,45.67529981331125,1910],[7.899179743795697,45.67537101389537,1910],[7.899077742142072,45.67535995470948,1910],[7.8987422521303445,45.67535786216903,1910],[7.898555956569209,45.6753410656142,1909],[7.898498959326736,45.6753584668308,1909],[7.898264466241562,45.67537747027889,1909],[7.898130271692321,45.67542377203365,1908],[7.89808117293288,45.675408273709024,1908],[7.898003175242654,45.67542307433716,1908],[7.897836484433245,45.67551827576285,1907],[7.8977801857784895,45.67553427656596,1907],[7.897688694277607,45.675576837854265,1907],[7.897519301464465,45.675667639346884,1907],[7.897445004459657,45.675683440174495,1906],[7.897295011324108,45.67578064079338,1906],[7.897208295678089,45.67581684296678,1906],[7.89706012274377,45.675919841936285,1905],[7.897082623534639,45.675966840731746,1905],[7.897080327628629,45.67608663732114,1905],[7.8970595672380615,45.676166116531874,1905],[7.89705427048902,45.676240114266975,1904],[7.896961077371768,45.6763629133307,1904],[7.896913579419785,45.67639941385676,1904],[7.896917281256628,45.6764531121084,1903],[7.896808350806515,45.676564831440515,1903],[7.896786352946593,45.67660533052823,1903],[7.896592863257506,45.67673683175836,1902],[7.896588163807443,45.676761530825466,1902],[7.896412872435818,45.67685663177675,1902],[7.8963698785709076,45.67704832799607,1902],[7.896304582315835,45.67707432901603,1901],[7.896240385834991,45.67712392940701,1901],[7.896221088768351,45.67720112743745,1901],[7.896246088983404,45.67726152543519,1900],[7.896270586802831,45.6772113263589,1900],[7.896349783916362,45.67716982561445,1900],[7.896423881237481,45.67716462448408,1899],[7.8964248826677546,45.67720492356009,1899],[7.89639448486636,45.67725102259829,1899],[7.896402585906167,45.67729312197978,1899],[7.896418486254774,45.67730202147855,1898],[7.896423685032855,45.677279621498364,1898],[7.896533082549204,45.67732641848377,1898],[7.896561781410502,45.67729371839741,1897],[7.896643277581635,45.6772630178806,1897],[7.896682777136918,45.67727081679392,1897],[7.896615996256844,45.67730773848458,1897],[7.896578182862339,45.67735511693278,1896],[7.896578184049976,45.67739901558611,1896],[7.896601284293545,45.67741611485113,1896],[7.89663490471691,45.677353819699015,1895],[7.896666178861939,45.67732211562631,1895],[7.896750075227566,45.67729511496264,1895],[7.896810192167386,45.67728968495228,1894],[7.896822828074124,45.6773043015538,1894],[7.896787555311822,45.677345630999966,1894],[7.896751587244799,45.67737849945317,1894],[7.89678147739526,45.677384612417704,1893],[7.896772879623152,45.67743101119726,1893],[7.896792580501307,45.67747290935682,1893],[7.896863980314952,45.67754690609681,1892],[7.896852181905615,45.677599105463116,1892],[7.896800286113184,45.677654505232994,1892],[7.896804386509212,45.677695304062034,1892],[7.896747491866927,45.677806502469295,1891],[7.896780692219035,45.677828301251225,1891],[7.8967500941372775,45.67787420043172,1891],[7.896788995486069,45.67794799854707,1890],[7.896840994741175,45.67797809650544,1890],[7.896954690931273,45.67797369416536,1890],[7.896854795691966,45.67801079486176,1889],[7.896839596898176,45.678030994846395,1889],[7.896867701046634,45.67821209014486,1889],[7.896785005425945,45.678279190268164,1889],[7.896732007447931,45.67828859078179,1888],[7.896697009853879,45.67831399088586,1888],[7.8967320103153495,45.678354489615096,1888],[7.89671001101663,45.67837228914493,1887],[7.896654412516756,45.67836629057804,1887],[7.896638713214606,45.678380590306425,1887],[7.896548114335186,45.67834539318627,1886],[7.8965231158096145,45.678368993398095,1886],[7.896480518269442,45.678376293615166,1886],[7.89649421787497,45.67840199306608,1886],[7.896481819853408,45.678425492676624,1885],[7.896489920447225,45.67845319197677,1885],[7.896534218915798,45.67844859126635,1885],[7.896567817634931,45.67846548952807,1884],[7.896561218864799,45.6784839895272,1884],[7.896619817696425,45.67851058799452,1884],[7.896567920486879,45.67853778785285,1884],[7.896579721332703,45.67858398672242,1883],[7.89663702056675,45.678622684736155,1883],[7.89666932237785,45.67867408324606,1883],[7.896587724393453,45.67869248437008,1882],[7.896576326778377,45.678733282907764,1882],[7.896595328134504,45.67881078071258,1882],[7.8966206273939585,45.67880468055986,1881],[7.896621528805087,45.67883368020244,1881],[7.8967071247811775,45.6788200780865,1881],[7.896714025142702,45.678834378282716,1881],[7.896703027342326,45.67888867709459,1880],[7.896622731934707,45.67896627697461,1880],[7.896674331848801,45.67900667413369,1880],[7.896685332636501,45.67904387366115,1879],[7.896665134610557,45.67907277301755,1879],[7.896683234975086,45.67909637190527,1879],[7.896716833886235,45.67909107194182,1878],[7.89670273498114,45.67911657128057,1878],[7.896719734810353,45.679145469887196,1878],[7.89676433406195,45.679134869492415,1878],[7.896840832235467,45.679174367559675,1877],[7.89692883066014,45.679189665105305,1877],[7.896952829903287,45.67921496442116,1877],[7.896994429097835,45.67921746324317,1876],[7.897011130313102,45.67925196179619,1876],[7.896962333854085,45.67934226077608,1876],[7.897003832864682,45.67933685970048,1876],[7.897045230240644,45.67930225968145,1875],[7.897081333264806,45.67942195622176,1875],[7.897161830545424,45.679401655794436,1875],[7.897183730715514,45.67942505457022,1874],[7.897174831912906,45.679457954058215,1874],[7.897178671450937,45.67951688475148,1874],[7.897111562007504,45.679556095999644,1873],[7.896956070116113,45.67966419675462,1873],[7.896951597114569,45.67967802078642,1873],[7.89695509677643,45.67968941963695,1873],[7.896973824081414,45.67970661430283,1872],[7.8969917655408395,45.67971433634705,1872],[7.897005649636724,45.679705519312556,1872],[7.897017770653209,45.67967612518302,1871],[7.897029724566262,45.67967065483264,1871],[7.897036579450674,45.67968355407486,1871],[7.897046636593925,45.679744420528905,1870],[7.89706115103106,45.67975939455824,1870],[7.8970843686719014,45.6797314990546,1870],[7.897156414474066,45.67984120269674,1870],[7.897173543332995,45.679890285421756,1869],[7.897224286236421,45.67990763881801,1869],[7.897227357842246,45.67995768930094,1869],[7.897193004396073,45.67999600892828,1868],[7.897237863661942,45.680036905087746,1868],[7.897190487352015,45.68005255519401,1868],[7.897113094001586,45.680155254588996,1868],[7.897102957210984,45.68018403784183,1867],[7.897083757278969,45.680199837531035,1867],[7.897108158706249,45.6802323357715,1867],[7.897152256755501,45.68024473501827,1866],[7.89697326606971,45.680356835596,1866],[7.896990066298427,45.680368735498384,1866],[7.897117261066402,45.680345133650114,1865],[7.897109662344318,45.680372632719944,1865],[7.897136961957769,45.68037363253812,1865],[7.897094964826209,45.68042643140441,1865],[7.897169061796056,45.68042643033403,1864],[7.897183361879752,45.68044212952496,1864],[7.897073966835977,45.68049413008306,1864],[7.897050169367651,45.680534330101054,1863],[7.897081569173109,45.6805415295305,1863],[7.897043670172985,45.68057382947891,1863],[7.8969990724183905,45.680582729782124,1862],[7.8969844742502024,45.68061022966182,1862],[7.8970822705601895,45.680613327774445,1862],[7.896960875737804,45.68067002858398,1862],[7.89696357633313,45.680690728134984,1861],[7.897091272866914,45.680692925075796,1861],[7.897113073322667,45.68071802401011,1861],[7.897205271288393,45.68072962213475,1860],[7.897135574170767,45.680753222972776,1860],[7.89703637893109,45.68082012345,1860],[7.897062079135637,45.68085332188275,1860],[7.8970317814233875,45.6808924213642,1859],[7.897025482896937,45.68094731999871,1859],[7.897142078454273,45.68090551918114,1859],[7.89709268529294,45.68108061606148,1858],[7.897171881587457,45.68103731554467,1858],[7.897124086440894,45.68112481424739,1858],[7.89707648837701,45.68115431408233,1857],[7.897042892449196,45.68124591280625,1857],[7.897089592612419,45.681324710302945,1857],[7.897125490551056,45.68128670984672,1857],[7.897163491106468,45.6813148084627,1856],[7.8972550868329625,45.68129410748881,1856],[7.897267690969993,45.681417703853434,1856],[7.897246492459104,45.68144560357753,1855],[7.897231597093503,45.68156390133685,1855],[7.897121504477618,45.68172009960464,1855],[7.897121608425478,45.6818390965937,1855],[7.897060712631469,45.68190279630679,1854],[7.8970091136610865,45.68189859705055,1854],[7.896899923654335,45.682099094844595,1854],[7.8968797252782785,45.682147494012106,1853],[7.896833027102198,45.682148995276734,1853],[7.89680332947944,45.68220919428094,1853],[7.896775531088114,45.68221059452585,1852],[7.896761830221487,45.68219359508941,1852],[7.896756230901722,45.68220839469525,1852],[7.896727029273382,45.68214589694676,1852],[7.89671713067916,45.682169196593236,1851],[7.89670073081245,45.68215029715768,1851],[7.896681332827399,45.682179396842066,1851],[7.896672232194048,45.68216569734172,1850],[7.896562841251405,45.68234249519624,1850],[7.896497845245819,45.68239869530435,1850],[7.896484146225098,45.68244769451969,1849],[7.896462546886283,45.68244369481153,1849],[7.896536846866092,45.68250789195816,1849],[7.896595944860677,45.68251519076281,1849],[7.896640545882859,45.68258928784031,1848],[7.896714044001778,45.68259768603556,1848],[7.896567850993034,45.682659687666884,1848],[7.896570051221266,45.6826823868195,1847],[7.8966349518885295,45.68274378392732,1847],[7.896689850245959,45.68275498257933,1847],[7.896727051827382,45.68283748041243,1847],[7.896793851694585,45.68289647731108,1846],[7.8968383523269186,45.682980674704176,1846],[7.896926952609516,45.68303987125066,1846],[7.896989652126097,45.68310706848218,1845],[7.8969819534884875,45.683147468018085,1845],[7.896938455373806,45.6831499686893,1845],[7.8969307566801135,45.683201867380205,1844],[7.896837361091659,45.68321806841114,1844],[7.896854760752922,45.683239168223196,1844],[7.896846062836142,45.68329296628416,1844],[7.896867062139046,45.68331666602537,1843],[7.896942960890901,45.68334396330041,1843],[7.896908062428963,45.68335756372712,1843],[7.896902763350676,45.68337766308619,1842],[7.897037259634847,45.68339936072861,1842],[7.897090059595759,45.68343255887886,1842],[7.897007762249692,45.68343236011188,1841],[7.896997464203082,45.683475259214106,1841],[7.896952865664456,45.68347695991327,1841],[7.89695086539361,45.68349725943896,1841],[7.89686076837956,45.683488561595134,1840],[7.896832170523479,45.68354066077881,1840],[7.896802171720611,45.68355356144043,1840],[7.896773472718176,45.683534961768345,1839],[7.896691877110825,45.68358776234686,1839],[7.8965788796485334,45.68359856429695,1839],[7.8966281808048855,45.68366596172098,1839],[7.896645380872832,45.6836660612506,1838],[7.896614782011157,45.68368446173,1838],[7.896570782669267,45.68367246286384,1838],[7.896481886137006,45.68371006367009,1837],[7.89640108834829,45.683707965426,1837],[7.89634078959247,45.68367246686239,1837],[7.896307789905101,45.68366876830797,1836],[7.896272392325265,45.683685268209054,1836],[7.896234795350314,45.6837468677231,1836],[7.8961077023735555,45.68385836755721,1836],[7.896173002049775,45.68390846492576,1835],[7.896189704122837,45.68397606326087,1835],[7.896166005306653,45.68398946295902,1835],[7.896081506624851,45.683973964646455,1834],[7.896019909407735,45.68400616572952,1834],[7.8959234129815625,45.68400516741265,1834],[7.895807617116808,45.68403446927318,1833],[7.895704522025075,45.684084869678344,1833],[7.895676823924343,45.68411916959286,1833],[7.895601024544322,45.68408817139703,1833],[7.8955350277379,45.684109072641185,1832],[7.895506429234871,45.68414827183204,1832],[7.895423633700416,45.68418977225446,1832],[7.895337635479496,45.68417627502504,1831],[7.895294136754278,45.68419337492577,1831],[7.895315938952779,45.68426577322022,1831],[7.895297942383455,45.68435727112024,1831],[7.8953899406219366,45.684409767462135,1830],[7.895482636663374,45.68436026766113,1830],[7.895508134907101,45.68432226798283,1830],[7.895748127114398,45.6842847641431,1829],[7.895717029478043,45.68432926307765,1829],[7.895736828846236,45.68434326228487,1829],[7.895650431537763,45.68436386377905,1828],[7.895609434814906,45.68443196284341,1828],[7.895588535955032,45.6844247637327,1828],[7.89554623783366,45.684457063836135,1828],[7.895540540028722,45.68450796290089,1827],[7.895575139662846,45.68452676123767,1827],[7.895503241683597,45.68452476280494,1827],[7.895465242905551,45.684538263507484,1826],[7.895510943508026,45.684597860877936,1826],[7.895484844314883,45.68460486120523,1826],[7.895522143334096,45.684624960141875,1825],[7.895502644598608,45.68463045998772,1825],[7.895519844968051,45.68466735861078,1825],[7.895629643583447,45.68473015522761,1825],[7.895662444768875,45.684774053202275,1824],[7.8957361432743465,45.68479035197926,1824],[7.895795344967832,45.684895548034305,1824],[7.895830744648885,45.68491814687513,1823],[7.895987539912985,45.68494994303528,1823],[7.896047639375598,45.684988841174864,1823],[7.896193936857052,45.68501953743382,1823],[7.896256736480554,45.68506473496617,1822],[7.89634493675604,45.68517653023333,1822],[7.8963853361794625,45.685184429736836,1822],[7.896440633582684,45.685168728690755,1821],[7.896534533245274,45.685223326108186,1821],[7.896649732184306,45.68531632138327,1821],[7.8966605336091975,45.68535882029544,1820],[7.896692032795154,45.6853827186813,1820],[7.89669653561523,45.68546361627974,1820],[7.896780533614049,45.685483214466366,1820],[7.896768434620841,45.685516314298354,1819],[7.896793634857979,45.68552631341338,1819],[7.896944331202852,45.68556980952689,1819],[7.89698232963957,45.68555150921618,1818],[7.897022931360064,45.685632306230445,1818],[7.897308029149651,45.68584209562181,1818],[7.897358227413731,45.685829994650184,1818],[7.897454324742104,45.68583349276536,1817],[7.897549722281284,45.685851890823606,1817],[7.897577020954557,45.6858354905844,1817],[7.897615721698965,45.68588138905092,1816],[7.897592422906921,45.68589858845014,1816],[7.897614922218429,45.68591358814737,1816],[7.8975947239648505,45.68593768761857,1815],[7.897597225381263,45.68599018609847,1815],[7.897634626435524,45.686038384266226,1815],[7.897677625039636,45.68605678328007,1815],[7.897668126031275,45.6860820822804,1814],[7.897700427577061,45.68613918050255,1814],[7.897797327157247,45.6862315767939,1814],[7.897969222469875,45.68623317313194,1813],[7.898077120126538,45.68627117041472,1813],[7.89807752048128,45.68628576963264,1813],[7.897986624991371,45.68634097006618,1812],[7.897913126856406,45.6863429719783,1812],[7.897886128711551,45.686379370905385,1812],[7.897762431943327,45.68634587430257,1812],[7.897687934399704,45.686353775313414,1811],[7.897641234919769,45.68633777705027,1811],[7.897644335651825,45.68636787614181,1811],[7.897596036927561,45.68636647758453,1810],[7.897602337606014,45.686392076661384,1810],[7.897797235189784,45.68646437075212,1810],[7.897814234039152,45.686480969844126,1810],[7.897801836439472,45.68651176994835,1809],[7.897824736049034,45.68652176913735,1809],[7.897847534817664,45.68650976900879,1809],[7.89789063449219,45.68653886701621,1808],[7.897941135594168,45.686636263577654,1808],[7.8980815328683605,45.68666916053345,1808],[7.898124432093821,45.68670435891746,1807],[7.898148033622914,45.68676095725996,1807],[7.898223231361912,45.68677255527787,1807],[7.898240631998249,45.686788454334625,1807],[7.898270832796401,45.68686155227452,1806],[7.898247834664022,45.68687945225004,1806],[7.89822723725585,45.686963250683256,1806],[7.89835713937217,45.687124443964855,1805],[7.898456636162151,45.68715284174376,1805],[7.8985051372406865,45.68721023904682,1805],[7.898517939955932,45.687301736466075,1804],[7.898494840291725,45.68731603707599,1804],[7.898560339322283,45.687318735173974,1804],[7.898664235139427,45.68729183417161,1804],[7.89872963225077,45.68725143367451,1803],[7.898760731424323,45.68726283300877,1803],[7.898800332151526,45.68731833076452,1803],[7.898771133668116,45.68735633058956,1802],[7.89888303017577,45.68735762795293,1802],[7.898921532488125,45.68747382494192,1802],[7.899047627104376,45.68741112350913,1802],[7.899084026900947,45.68745522167276,1801],[7.899115627313579,45.687466020901084,1801],[7.899098228859149,45.6875185201662,1801],[7.899130335078285,45.687721514707924,1800],[7.899157733988177,45.687740613378004,1800],[7.899192932739836,45.687717513246746,1800],[7.899179836287842,45.6878373108656,1799],[7.899265238052642,45.68794000696108,1799],[7.899322336475139,45.68796470481388,1799],[7.899325137746551,45.687989104494285,1799],[7.899261040193755,45.68803210461856,1798],[7.899267341307233,45.6880773032778,1798],[7.899227045219112,45.68814780270445,1798],[7.899236446247172,45.68820080054214,1797],[7.899304647071164,45.688290897440105,1797],[7.899588040949079,45.68835949042419,1797],[7.899702040312859,45.68844488621678,1796],[7.899760039420934,45.68846658452787,1796],[7.899996737772133,45.688659374950255,1796],[7.900152135807057,45.6887137703845,1796],[7.900186635318791,45.68874266950244,1795],[7.900244233994524,45.6887459683142,1795],[7.900349731791389,45.688794164992075,1795],[7.900313434137752,45.688838464776694,1794],[7.900347133602941,45.68885046384491,1794],[7.9003569355245915,45.68892166192617,1794],[7.90039193621974,45.68896765971709,1794],[7.900379038190045,45.68902285855735,1793],[7.9002751441791474,45.6891118588671,1793],[7.900272246620835,45.68917595744034,1793],[7.900205951699989,45.68928005630402,1792],[7.9001837305867095,45.68936672861047,1792],[7.900280453919897,45.68944115047643,1792],[7.900315453245115,45.68944974994473,1791],[7.9003841513347925,45.689437048988815,1791],[7.9003975518198555,45.68945634832678,1791],[7.90038565270295,45.68950034745082,1791],[7.900484550350783,45.68952334453183,1790],[7.900554950271261,45.68958404161816,1790],[7.900633653713632,45.68974413641864,1790],[7.900672252828489,45.689757335517086,1789],[7.900790748465246,45.68975183337023,1789],[7.900890847835781,45.68979553040408,1789],[7.900916246920892,45.68982422922748,1788],[7.90092445227157,45.689986025263714,1788],[7.900949453356319,45.69003452333356,1788],[7.900988453336981,45.6900679216906,1788],[7.901064051367107,45.69009231961017,1787],[7.9011029520798735,45.69012921819974,1787],[7.901164350931908,45.69015311583564,1787],[7.9011633530165,45.69022551412952,1786],[7.901228052760552,45.69027491243313,1786],[7.901227653393997,45.69030101118314,1786],[7.901300852338655,45.69033500929232,1786],[7.901348852690476,45.69039950649873,1785],[7.901412451927274,45.69041920478901,1785],[7.901528451483697,45.6905472996255,1785],[7.901739147601771,45.690605394619396,1784],[7.901770147914779,45.690630893389034,1784],[7.9018325470411925,45.69069139034822,1784],[7.901845449632429,45.690780787562176,1783],[7.9019054496549295,45.69084018494706,1783],[7.901922151564861,45.690893083508406,1783],[7.902022447407508,45.690887381733894,1783],[7.90208734582913,45.69090078002544,1782],[7.902113646882789,45.69092327954409,1782],[7.902107247805207,45.690949178422194,1782],[7.902165647636094,45.69102697547998,1781],[7.90234354613335,45.69114096998325,1781],[7.902345448057097,45.69121646803744,1781],[7.902374948109259,45.69124686654182,1781],[7.902377151188877,45.69132896491408,1780],[7.902401251601738,45.691376263223205,1780],[7.902679045809626,45.69142575665965,1780],[7.902709744022817,45.69140915654929,1779],[7.902732841780977,45.691361757240045,1779],[7.902871639695726,45.691450852343465,1779],[7.902909741007692,45.69150594990638,1778],[7.903029139072959,45.69155654662616,1778],[7.90312033391554,45.691475247015525,1778],[7.9031245324792945,45.69142504788558,1778],[7.903181430144926,45.691422047075754,1777],[7.903248328647817,45.69145294483883,1777],[7.903419730698179,45.69167983617588,1777],[7.903377834649603,45.69174243535534,1776],[7.903349838401533,45.69185563331458,1776],[7.903359539713866,45.691909331205466,1776],[7.903336544022978,45.69202852924726,1775],[7.903395944900814,45.692109725789344,1775],[7.903477944072644,45.692144824035516,1775],[7.903499445820995,45.69223302099913,1775],[7.903539646928471,45.69228541942429,1774],[7.9035168503016795,45.692391617167736,1774],[7.90353835132652,45.692446015136284,1774],[7.903500953501612,45.69248661510896,1773],[7.9035159554443695,45.69254951294912,1773],[7.903530855510725,45.69256091299281,1773],[7.903618952136558,45.692535611867704,1773],[7.9036328563547515,45.692685907383705,1772],[7.903745556185404,45.69277540346381,1772],[7.903853353306026,45.692809000192796,1772],[7.903903556117062,45.692918397017685,1771],[7.904000754482228,45.692959794417206,1771],[7.904034555671131,45.69304479165855,1771],[7.904128355178538,45.6931060881212,1770],[7.904136555575775,45.69313988745731,1770],[7.904330048285765,45.693098184299124,1770],[7.904340947089516,45.69306188509329,1770],[7.904386744859542,45.69305058399252,1769],[7.904419742276438,45.69300518472499,1769],[7.90443624382707,45.69305718361872,1769],[7.9044876423239865,45.69306878236042,1768],[7.904491143459994,45.693093181403256,1768],[7.9045428415741705,45.69310108015529,1768],[7.9045858394596715,45.69306268018422,1767],[7.904631738693834,45.69306597979699,1767],[7.904651740977102,45.693157477063956,1767],[7.904809438649976,45.693227571670946,1767],[7.9049495343418394,45.69325406863638,1766],[7.905415140467054,45.69323413943847,1766],[7.905487038346716,45.69324423754333,1766],[7.905544137945336,45.69327093579987,1765],[7.905702634076952,45.69330313178606,1765],[7.905806201452817,45.69330571425924,1765],[7.905976027760914,45.69335782596421,1765],[7.906053725523574,45.693361623949365,1764],[7.9060841246206195,45.693377822680205,1764],[7.906345240862822,45.69342388025572,1764],[7.906544533232859,45.69344193150732,1763],[7.906793904673071,45.693426108266905,1763],[7.9069285505647375,45.693437534984824,1763],[7.9070544921199115,45.69347640833244,1762],[7.907184899556567,45.69348303739057,1762],[7.907234693863297,45.69350879815866,1762],[7.907274593201348,45.69350899711814,1762],[7.907268593664581,45.69352589681708,1761],[7.907307492857162,45.69353359538004,1761],[7.907585083358116,45.69351629062277,1761],[7.9076688809084095,45.69352568929663,1760],[7.90774907971671,45.69355428683428,1760],[7.907953174780037,45.69357638230477,1760],[7.907995673284796,45.69357528187464,1759],[7.908140967652645,45.693527479846324,1759],[7.9081842668333175,45.693539878865074,1759],[7.908164567436577,45.69355697889199,1759],[7.9080142748667255,45.69364737970851,1758],[7.907857780213904,45.693687481607036,1758],[7.907644885672561,45.69362818704052,1758],[7.907613386576513,45.69363078761433,1757],[7.90775328695088,45.69380168093547,1757],[7.90774988932814,45.693864179060334,1757],[7.907599502155262,45.69412247608708,1757],[7.9074619095387995,45.69420627688514,1756],[7.907397712329047,45.694266676892845,1756],[7.907374846953059,45.69435609403549,1756],[7.907301653925956,45.69449469225811,1755],[7.9073042568653324,45.694602989589036,1755],[7.907402355818232,45.69464148640789,1755],[7.907446455632326,45.69467948469953,1754],[7.907463355903273,45.69473828328812,1754],[7.907442559347633,45.69479058204712,1754],[7.907216174184131,45.69504868087931,1754],[7.9070578878457685,45.69533187727444,1753],[7.907044896477476,45.695547371652076,1753],[7.907062896689471,45.69559117055675,1753],[7.907132395789624,45.695644268317025,1752],[7.90715069759525,45.69568966679436,1752],[7.907091205106856,45.69586836387094,1752],[7.907153205399016,45.69594945996339,1751],[7.9070756105534254,45.696017059868446,1751],[7.907053815787613,45.696143358014915,1751],[7.907067518924473,45.69627745456047,1751],[7.907134221010711,45.69638325001264,1750],[7.907113727370658,45.69655694682874,1750],[7.9070621724772465,45.696618975170225,1750],[7.906974336334685,45.69670389132387,1749],[7.906891669369897,45.69683410635299,1749],[7.906832242202133,45.696919641658575,1749],[7.90680374754466,45.69706363825333,1749],[7.906759284127816,45.69712548410079,1748],[7.906704832978756,45.697254743134195,1748],[7.906705531073594,45.697263013240764,1748],[7.9067078880663395,45.6972641959724,1747],[7.906737165955934,45.69735385635747,1747],[7.906754522737921,45.6974361553864,1747],[7.9067422289290095,45.697536287901265,1746],[7.906696127547453,45.69760227810776,1746],[7.906624650990105,45.69773204108872,1746],[7.906619134051598,45.697838277832254,1746],[7.906625155406652,45.697883026001506,1745],[7.906623783404596,45.69804184414874,1745],[7.906591403091793,45.69819976065786,1745],[7.906572332838818,45.69829378979709,1744],[7.90651882620736,45.6983859799075,1744],[7.906457424990197,45.698440952664726,1744],[7.906403576568946,45.698462178050356,1744],[7.906372203176037,45.69847999494859,1743],[7.906331553366884,45.69853154357023,1743],[7.906315383295335,45.69856520840143,1743],[7.906224861410074,45.69861084315236,1742],[7.906141174193083,45.69865956296847,1742],[7.906091977572457,45.69870740603313,1742],[7.906088913019918,45.69877622294703,1741],[7.906073665392984,45.69885096347624,1741],[7.906062034512554,45.69889351209738,1741],[7.906063837285592,45.698928910600856,1741],[7.906087337233961,45.69896720894923,1740],[7.906061739652862,45.69900840874631,1740],[7.906059214362767,45.69900788323176,1740],[7.906064412659269,45.69901604702542,1739],[7.906029073817349,45.69906039823527,1739],[7.906002680541775,45.69908792663397,1739],[7.905959501719151,45.699092343718064,1738],[7.905712182754219,45.69904649308995,1738],[7.905519588637981,45.699022907133276,1738],[7.905391704894388,45.69903979905483,1738],[7.90532614496836,45.69904279446261,1737],[7.905288867054829,45.69900982546995,1737],[7.905295262924594,45.698947078985995,1737],[7.905331120775791,45.69887615969322,1736],[7.9053315042108,45.69885651242336,1736],[7.905332157751171,45.69882302486519,1736],[7.905346224960006,45.69872049376337,1736],[7.9053162651742115,45.698665853126336,1735],[7.905269168389604,45.698694389934865,1735],[7.9052343712153315,45.69871096673279,1735],[7.905184346056698,45.698712903059004,1734],[7.905118409355329,45.698735219860616,1734],[7.905036892332906,45.69876101091383,1734],[7.904988449095591,45.698770209576296,1733],[7.904960165658366,45.698779267548574,1733],[7.904955493118697,45.6987807636556,1733],[7.904879476313657,45.69878969795003,1733],[7.9047385257356915,45.69881371113234,1732],[7.904652877683014,45.69887448982152,1732],[7.904602545769269,45.69889212534579,1732],[7.904517746528897,45.69890942941934,1731],[7.9044762439760525,45.698916278670794,1731],[7.904406269960351,45.69888058007153,1731],[7.904352939307777,45.69887523707249,1730],[7.904294013746301,45.69889158216054,1730],[7.904250882136049,45.698893583298656,1730],[7.904187188586835,45.69888934959629,1730],[7.9041389102645825,45.698890094344954,1729],[7.904094715848959,45.69885826648701,1729],[7.904081438771065,45.69883405178756,1729],[7.9039898396928026,45.69886035200812,1728],[7.903755377956006,45.69888569349716,1728],[7.903726180022059,45.69890229386601,1728],[7.903714881653217,45.6989678922987,1728],[7.903616485765413,45.6989882937223,1727],[7.903533091319956,45.69908799366207,1727],[7.903382898605937,45.69919099366486,1727],[7.903239403890065,45.69923329493185,1726],[7.9032184042482445,45.699219095627626,1726],[7.902829621675218,45.69938179983813,1726],[7.902716926296025,45.69944669966756,1725],[7.9026457319555385,45.69953399904913,1725],[7.902612632770259,45.69954499930404,1725],[7.902602934247601,45.699594798989395,1725],[7.902560535731277,45.6995959991806,1724],[7.902544237498782,45.699622099063674,1724],[7.902276715603819,45.69965906545542,1724],[7.902179619071809,45.69965236751195,1723],[7.902115322122087,45.699688768024814,1723],[7.902114622258458,45.699709167388214,1723],[7.902078523787591,45.699706968130194,1722],[7.901937531303098,45.69980386855652,1722],[7.901895734906115,45.69987796719386,1722],[7.901930432514163,45.69986846670569,1722],[7.901934434402777,45.69990976557977,1721],[7.9019638337054205,45.69993496444698,1721],[7.901951234484423,45.69994636406869,1721],[7.901999233377776,45.6999627627416,1720],[7.902021434451949,45.699987961709844,1720],[7.902101132299399,45.7000035606438,1720],[7.902138431358915,45.6999972595954,1720],[7.9021167315901275,45.700014759663965,1719],[7.902134432495608,45.70005895786211,1719],[7.902328025956458,45.70003795500881,1719],[7.902350526703077,45.700070953984486,1718],[7.9022842286183135,45.700080355258386,1718],[7.902427027557848,45.70014885090618,1718],[7.902421628080937,45.7001684499679,1717],[7.902697220889158,45.70019894441886,1717],[7.902766318963881,45.70022534255712,1717],[7.902910012346804,45.700143941730424,1717],[7.903023509295776,45.70017603863685,1716],[7.903062609223502,45.70020743725833,1716],[7.903084711185662,45.70027753529995,1716],[7.903138110798795,45.70032263325961,1715],[7.903366905291861,45.70037132771044,1715],[7.903424703811916,45.70037172594196,1715],[7.9034773022024645,45.70035322614018,1714],[7.90365829712204,45.70038312161855,1714],[7.903769995616257,45.70044221842495,1714],[7.903812296042383,45.70048451658634,1714],[7.903746098241035,45.70051821670253,1713],[7.9039638951071165,45.700594111237166,1713],[7.904081292686662,45.70065220755052,1713],[7.904122391906211,45.70065160636876,1712],[7.904222189382419,45.70069320396472,1712],[7.904299889887442,45.70077949965814,1712],[7.904460585097215,45.70075539736305,1712],[7.9045954814709365,45.70079499378649,1711],[7.904847979874275,45.700969785487636,1711],[7.904895879223821,45.70098538363499,1711],[7.905067277216165,45.701095777748336,1710],[7.90521977588712,45.70122497177442,1710],[7.905370174971967,45.701305466813146,1710],[7.90538217647875,45.7013872646518,1709],[7.905516174344121,45.70144596137453,1709],[7.905536075238852,45.70147566039862,1709],[7.905503077368872,45.70153185969995,1709],[7.905502578289238,45.70157895847909,1708],[7.905645578760255,45.70171915231813,1708],[7.905712376914584,45.70171915047569,1708],[7.9057411772250425,45.701738250141,1707],[7.905726678791391,45.70178834881517,1707],[7.905648681594807,45.70181904961668,1707],[7.9056323842287375,45.70186844880191,1707],[7.905587085867808,45.70188124926669,1706],[7.905539788921012,45.70193774901087,1706],[7.905568691787566,45.70205744541711,1706],[7.905609492447246,45.70210254390829,1705],[7.90555639461661,45.70211354423159,1705],[7.905502397740538,45.70216554428999,1705],[7.905550198501201,45.70225524106414,1704],[7.905524700614045,45.70227754138819,1704],[7.905527100959662,45.70230034031453,1704],[7.90546980329814,45.70233394037926,1704],[7.9055134036552825,45.702387238240156,1703],[7.905492705544776,45.7024115385658,1703],[7.905521405296908,45.70245673715738,1703],[7.9054948069886555,45.70247953636288,1702],[7.90554420747232,45.70251873459512,1702],[7.905524208585914,45.702538535042486,1702],[7.905571309291464,45.70259553234565,1701],[7.905409712123786,45.70256483662113,1701],[7.905429114648253,45.70262943417051,1701],[7.905405014929889,45.70261753491905,1701],[7.9053807160287635,45.70266013486987,1700],[7.905324917453258,45.70262243685513,1700],[7.905284718776587,45.70262223704921,1700],[7.9052874191716285,45.70267243567175,1699],[7.905225520231536,45.70264013799074,1699],[7.905244722220413,45.70271473597568,1699],[7.905178923046034,45.70268883719557,1699],[7.905121023372297,45.70264223988805,1698],[7.905081628537298,45.70273653833678,1698],[7.905035228492484,45.7027266394,1698],[7.904959229100576,45.702674342173474,1697],[7.904941928904501,45.70262874328713,1697],[7.9048808321134825,45.70267484352197,1697],[7.9048150367168395,45.702778942414916,1696],[7.904672736856426,45.70263204885875,1696],[7.904642739161348,45.70265984838615,1696],[7.904584441509063,45.70267034926935,1696],[7.90454344419533,45.70271734860292,1695],[7.904495444758465,45.70269135010134,1695],[7.904466444006262,45.70263825217185,1695],[7.904391038210848,45.70240955909705,1694],[7.904302940405803,45.70237996182718,1694],[7.90423524284591,45.70240176258632,1694],[7.904169245417047,45.7024042635027,1693],[7.904099649210432,45.70245446345042,1693],[7.90403865152732,45.70246976425554,1693],[7.903994052270692,45.70245016516234,1693],[7.903962351743611,45.70241206674236,1692],[7.903807556336102,45.70241166960594,1692],[7.903724957301912,45.70238217235892,1692],[7.903683657814721,45.702350174131034,1691],[7.903632761313715,45.70241767322905,1691],[7.9035777632470925,45.702418473856056,1691],[7.903544162689708,45.70236837643163,1691],[7.903504263833563,45.70235107690374,1690],[7.903362567979696,45.70237237925443,1690],[7.903334169931828,45.70239697969428,1690],[7.903341573564001,45.70250907629627,1689],[7.903311874944285,45.70254677626679,1689],[7.903303577542139,45.70259797462435,1689],[7.903275378694783,45.702612775346594,1688],[7.903211779929379,45.702603877022206,1688],[7.903149181071068,45.702555478485756,1688],[7.903028482346469,45.70250648240696,1688],[7.903000281901652,45.70246278387714,1687],[7.9029562829730935,45.70244948513834,1687],[7.902769389195319,45.70245348833207,1687],[7.902692292707212,45.702489889520635,1686],[7.902682492834543,45.702509588526866,1686],[7.902709492769196,45.70252468801047,1686],[7.902797790323068,45.702519486845055,1685],[7.902886488937106,45.70256588339875,1685],[7.902894892637449,45.70269228072745,1685],[7.902874796525433,45.702805778349585,1685],[7.902904597669576,45.70286457632586,1684],[7.902883600182566,45.7029240754075,1684],[7.902895402355793,45.702988773201135,1684],[7.902814004921469,45.70301287439498,1683],[7.902805005643085,45.70303347395533,1683],[7.9029347045622185,45.70311446909834,1683],[7.902895406927354,45.70313956958846,1683],[7.902952906452322,45.7031705680018,1682],[7.90312430199378,45.70320136398312,1682],[7.903134602069357,45.703213163615665,1682],[7.903097403821829,45.70323916368789,1681],[7.903135402362657,45.7032464625838,1681],[7.903126503505616,45.703275461558476,1681],[7.9031481048476975,45.703306260985116,1680],[7.903259001883232,45.70332725838086,1680],[7.9033159028787505,45.70343125443138,1680],[7.903316403861288,45.703471653767814,1680],[7.903256308920832,45.70355725271575,1679],[7.903115210264592,45.703459457840815,1679],[7.903065010979944,45.70345135863945,1679],[7.902883518922225,45.70353326065971,1678],[7.9028287209839325,45.70353336170454,1678],[7.9027726234571265,45.70356036192364,1678],[7.902682126064134,45.703560063295555,1678],[7.902615031602034,45.703658862398626,1677],[7.902582337750305,45.70383965854554,1677],[7.902388839543834,45.70370226543648,1677],[7.902158443738599,45.703618771895016,1676],[7.902062248089909,45.70365737244917,1676],[7.902013049774413,45.70364617361183,1676],[7.901930349162698,45.703572877357985,1675],[7.901821354587817,45.703623778157684,1675],[7.901791756245183,45.70365607745273,1675],[7.901788457606703,45.7036760773935,1675],[7.9018855559299235,45.70373217436773,1674],[7.901906057307831,45.70378527224798,1674],[7.901738962256124,45.70379267547262,1674],[7.90175336650379,45.703945171876754,1673],[7.901835966878005,45.704015468303055,1673],[7.901778569831867,45.70406036845853,1673],[7.90170037127686,45.7040343700769,1672],[7.9017280731093535,45.70413506738268,1672],[7.901697474439825,45.70414476742267,1672],[7.901628676158522,45.70413976947599,1672],[7.901356879792131,45.70397937777017,1671],[7.901227083006564,45.70396758073003,1671],[7.901190982814556,45.703914782715806,1671],[7.901104983752551,45.70387408567958,1670],[7.9010523846006375,45.70382528716591,1670],[7.900972586227581,45.70382438896436,1670],[7.900895787947238,45.70377489133226,1670],[7.900890388889571,45.70380989117675,1669],[7.90083059113479,45.70385069140439,1669],[7.900588400354945,45.70390849444487,1669],[7.900430207480125,45.70398649543673,1668],[7.900265611942744,45.70395659883268,1668],[7.900214514063801,45.703971000135084,1668],[7.900175616108139,45.70400719942772,1667],[7.900106618925161,45.7040212006363,1667],[7.9000752189882135,45.70400880154671,1667],[7.8999606231758674,45.70400910397762,1667],[7.899914422660792,45.703973505578,1666],[7.89987922418341,45.70397250596897,1666],[7.899819426506828,45.70398280726136,1666],[7.89982552626258,45.70400150617194,1665],[7.899713630488284,45.70401510838797,1665],[7.899618335497503,45.70406110861897,1665],[7.899597835352995,45.70405230930958,1664],[7.899553338453353,45.704087409491066,1664],[7.899506338982856,45.704068510974196,1664],[7.899437840367513,45.704076011875266,1664],[7.899749034925541,45.70417100430859,1663],[7.8999063353578025,45.70434609687429,1663],[7.900204128985323,45.704404789351685,1663],[7.900235628386071,45.70444258894772,1662],[7.900330826974779,45.70449748537357,1662],[7.900395027632128,45.704585182008366,1662],[7.900521129136262,45.7047004760841,1662],[7.900558326771046,45.704676977206546,1661],[7.900641624254256,45.704712674039286,1661],[7.900716223441786,45.70471857265473,1661],[7.900977314654249,45.70466866916823,1660],[7.901218206773738,45.704667263836264,1660],[7.901325404828146,45.70470026127521,1660],[7.901351904610974,45.70473876132299,1659],[7.9013506055245175,45.704773860018285,1659],[7.901320408145055,45.70483255927017,1659],[7.901251912413107,45.70485685903344,1659],[7.901154613735565,45.70482226284504,1658],[7.90117711397149,45.704860461643904,1658],[7.901209512283703,45.704872360599744,1658],[7.901133715302443,45.70489505996802,1657],[7.901065120342455,45.70495116124654,1657],[7.900982023384612,45.70497586221745,1657],[7.900900829636739,45.70507426002994,1656],[7.900847230303652,45.70507926166152,1656],[7.9008184310440095,45.70506266293891,1656],[7.900810532837518,45.705162959393824,1656],[7.900722043703854,45.70539665710648,1655],[7.9007238474593855,45.70545995380247,1655],[7.9007583457090655,45.70549895217765,1655],[7.900753447674726,45.70555235217132,1654],[7.90067945212095,45.70564745107343,1654],[7.900694754361565,45.70568454922904,1654],[7.900656155899789,45.705723249212646,1654],[7.9006162591204365,45.70581794897104,1653],[7.900618364213104,45.70594764569146,1653],[7.900578166678476,45.706000144316334,1653],[7.900557571516323,45.70613394102826,1652],[7.900578877590862,45.706287438204846,1652],[7.900510980841108,45.7063387377595,1652],[7.900485282325013,45.70638253734866,1651],[7.900533987872963,45.70663112992801,1651],[7.900483691988129,45.706709728346,1651],[7.900493894676361,45.706812326703364,1651],[7.900461899788695,45.7069095253959,1650],[7.900474199921672,45.70695442336239,1650],[7.900382206520048,45.70705162235882,1650],[7.900357309599284,45.70712632134418,1649],[7.90048310652283,45.70712141903245,1649],[7.900372914671902,45.70730861584162,1649],[7.900292020344414,45.70735011634369,1648],[7.900268620856341,45.707389716747535,1648],[7.900271723239988,45.707452014268654,1648],[7.900226427411001,45.70751561356638,1648],[7.900291927504453,45.707639009931036,1647],[7.900307830485269,45.70775920704889,1647],[7.900285532885924,45.70778440636961,1647],[7.900203834442082,45.70777660841688,1646],[7.900103737963221,45.70778840928785,1646],[7.899959345780102,45.70793210971218,1646],[7.899994146206974,45.70796570727729,1646],[7.9000534498880715,45.70811080204659,1645],[7.900041853255773,45.70819940166569,1645],[7.899984957013528,45.7082949005377,1645],[7.899991159524507,45.70832069825337,1644],[7.900022558109634,45.708356797606505,1644],[7.900111856459561,45.708404994951856,1644],[7.90016575852178,45.70847799179652,1643],[7.900126762600299,45.70856918979763,1643],[7.900106467162965,45.70871418774758,1643],[7.900059268225974,45.70873288827388,1643],[7.89994057271955,45.708720989663576,1642],[7.899790178861757,45.708783990684324,1642],[7.899746281951786,45.70882859047855,1642],[7.899706184724997,45.708888790613194,1641],[7.899727092927851,45.70913398349693,1641],[7.89967408948689,45.70919771173387,1641],[7.899623009709971,45.709307168691,1641],[7.8994930091390785,45.709347167723465,1640],[7.899353009262834,45.70942716773512,1640],[7.89932300931038,45.70949716761255,1640],[7.898843148610392,45.709843435066134,1639],[7.898369886299051,45.71009445365955,1639],[7.898233009913319,45.71028716933545,1639],[7.898243009932442,45.710667170110696,1638],[7.898483009141608,45.71083717024361,1638],[7.89883300750381,45.711437169532346,1638],[7.8989393903526315,45.71148884105368,1638],[7.898933491830027,45.711503440698046,1637],[7.899022791429456,45.71158553855473,1637],[7.899048189631521,45.71159123766765,1637],[7.899047191107215,45.711634236276744,1636],[7.899145389234723,45.7116777336279,1636],[7.899244892383308,45.71188602554963,1636],[7.899336093863384,45.711975223114706,1635],[7.899388993873501,45.7119919211847,1635],[7.899359994679549,45.71200472138646,1635],[7.899371695370691,45.71204312066045,1635],[7.899317297125319,45.712067920484614,1634],[7.899330497798086,45.71213121893596,1634],[7.899459297616544,45.71223231375968,1634],[7.899470599108209,45.71232391142621,1633],[7.899516299343222,45.712364710150716,1633],[7.89959889912236,45.71239080818571,1633],[7.899908495126806,45.71260209693235,1633],[7.89997129512802,45.71263169424843,1632],[7.90000479296745,45.712626794690514,1632],[7.900113292671076,45.712702889579084,1632],[7.900161795225182,45.712827087109424,1631],[7.9001253998435494,45.712927285429004,1631],[7.900150699744485,45.712974182460684,1631],[7.900261199940343,45.713061779364295,1630],[7.90020880012477,45.713060779874034,1630],[7.900153004463898,45.713086180476246,1630],[7.900171204311064,45.71314527869131,1630],[7.900130308130699,45.71318227862682,1629],[7.900145708450048,45.713239475976785,1629],[7.90010611058224,45.71328167631913,1629],[7.900108114150285,45.7133466759681,1628],[7.900065516168054,45.71337047549092,1628],[7.900022819335602,45.71342707564345,1628],[7.900026218167883,45.713467974459064,1627],[7.900063519794615,45.71351597172912,1627],[7.9000190214521755,45.71353787182159,1627],[7.900015424334847,45.713559071277416,1627],[7.900011424943085,45.71362486997423,1626],[7.900042525814534,45.71366646935636,1626],[7.900027724905471,45.7136719683835,1626],[7.900017524932099,45.71365696886129,1625],[7.899986627170056,45.71366657014389,1625],[7.899970029703375,45.71370076901143,1625],[7.899911130469198,45.71372806932469,1625],[7.899888031912872,45.71375466851596,1624],[7.8999143334855955,45.713784967429305,1624],[7.899930734878645,45.71386146621613,1624],[7.899901236299155,45.71387806537399,1623],[7.899829737876754,45.713860066965466,1623],[7.89980004162799,45.7139105674554,1623],[7.899806540168292,45.713932566176204,1622],[7.899759241728437,45.71394916667807,1622],[7.8997269457834145,45.71402816484391,1622],[7.899672848581432,45.71401776658942,1622],[7.899554454850628,45.71409216774626,1621],[7.899475956799471,45.7140843695129,1621],[7.899453156048273,45.714099969215,1621],[7.8994537597843255,45.71414696688755,1620],[7.899343260870646,45.714113970150606,1620],[7.899329463685268,45.71416086867334,1620],[7.899309764120603,45.71415227055428,1619],[7.899246760138026,45.71401887480726,1619],[7.899164563799732,45.71400077649971,1619],[7.8991605641430365,45.71401497682268,1619],[7.899115864832356,45.71402927636318,1618],[7.899057265934895,45.713983278672494,1618],[7.898981169049737,45.71399048015062,1618],[7.898991067142879,45.71392768152434,1617],[7.898977566283114,45.71392088199637,1617],[7.898812371903848,45.713972882570175,1617],[7.898687476362868,45.71392888635856,1617],[7.8986204779432905,45.71394108781018,1616],[7.898506282309296,45.71399178851324,1616],[7.898441686427936,45.714041388698426,1616],[7.898354489825914,45.71403689002093,1615],[7.898259491757996,45.714003892308085,1615],[7.898257391556416,45.71403139212627,1615],[7.898212194354531,45.714056892192566,1614],[7.898205696202474,45.71410799222933,1614],[7.898163596308727,45.71411239246477,1614],[7.898150100923062,45.71418559155486,1614],[7.898264002563223,45.71435948442237,1613],[7.89831240289489,45.71440558217521,1613],[7.898416099192895,45.71445587816477,1613],[7.898511900399006,45.714543776021614,1612],[7.8984836019517495,45.71455457563089,1612],[7.898431801138849,45.71452197658304,1612],[7.898422902613816,45.714533476278504,1611],[7.898496403712331,45.71465947263098,1611],[7.8984872051425254,45.714686372972956,1611],[7.898438806768542,45.7146971731689,1611],[7.898506306667442,45.714778769552254,1610],[7.8984951096496685,45.714880567569715,1610],[7.898589212246667,45.71495726309806,1610],[7.898530914278316,45.71498616338845,1609],[7.898536813802125,45.7149958634565,1609],[7.898728009425391,45.715049260127785,1609],[7.8987693097879745,45.71508925706938,1609],[7.898895506310521,45.71514185404224,1608],[7.898931506600372,45.71513025371356,1608],[7.898939303379344,45.71504375441449,1608],[7.899028901763612,45.71508305209993,1607],[7.89901340235874,45.71510695217851,1607],[7.899011912154168,45.715414545854685,1607],[7.898815817057501,45.71532197706388,1606],[7.898793734175185,45.71534894043926,1606],[7.898773217137144,45.71532255107196,1606],[7.898739916577262,45.71531915186615,1606],[7.8987129197530646,45.71534255224145,1605],[7.898684919237578,45.71534065320203,1605],[7.898634119771464,45.71530975420675,1605],[7.898582422794434,45.71532715426213,1604],[7.898539226301073,45.71540955358814,1604],[7.89848212706002,45.71539625465304,1604],[7.898469147365522,45.71540738107765,1604],[7.898309034458644,45.71547005595439,1603],[7.89830013688533,45.71551915542462,1603],[7.89844513614768,45.71562695005472,1603],[7.89854823731749,45.7157817436983,1602],[7.898608336368186,45.715802142349375,1602],[7.898652534085691,45.71579684142005,1602],[7.898704730796583,45.71574454203981,1601],[7.898784624525633,45.71558774419122,1601],[7.898838822763239,45.71559084349508,1601],[7.899053222866607,45.7158222339461,1601],[7.899101722135176,45.715833033070375,1600],[7.899158419184069,45.71579343251877,1600],[7.899238717004248,45.715815630279415,1600],[7.899306514618899,45.71580562960121,1599],[7.89933601398083,45.71582222911779,1599],[7.899392312390011,45.715799128007625,1599],[7.899581410483537,45.7159471212552,1598],[7.899688609102143,45.71599461824049,1598],[7.899767609006171,45.71606601540199,1598],[7.899805507848027,45.71607331442613,1598],[7.900058708314485,45.7163526031133,1597],[7.900103607632845,45.71634980242889,1597],[7.900160606790935,45.71638889964518,1597],[7.900190105049229,45.71636760033987,1596],[7.900254504831844,45.716418697178696,1596],[7.9003150998419915,45.716325198724746,1596],[7.900359698794266,45.7163251978175,1596],[7.900427996565652,45.71630039719452,1595],[7.900450194519634,45.716270297925746,1595],[7.900508291767646,45.716258396757006,1595],[7.900510591576795,45.71623789765224,1594],[7.900545689819845,45.716220096660734,1594],[7.90059118919694,45.71626039526329,1594],[7.900672086975314,45.716242693877305,1593],[7.900730387208023,45.716314591410885,1593],[7.900781286131563,45.716325190598575,1593],[7.900784584161574,45.71626649198577,1593],[7.900801383123454,45.71625689163935,1592],[7.900836782905588,45.7163052897586,1592],[7.900883882038153,45.71630188889616,1592],[7.90089737991291,45.71623719054811,1591],[7.900951677523945,45.716243188879844,1591],[7.9009912745354045,45.716184789977895,1591],[7.901054372303805,45.71616108922279,1590],[7.901202373328354,45.716324282358734,1590],[7.901235572378777,45.71632208243125,1590],[7.901260869911685,45.71629908184492,1590],[7.901323069736776,45.71633398024503,1589],[7.901428666589133,45.71635317778001,1589],[7.901469765576042,45.71634327728553,1589],[7.901595762594711,45.71639557412485,1588],[7.901594861751303,45.716366074282334,1588],[7.90167966187788,45.716427571284605,1588],[7.901741661959118,45.716507967981904,1588],[7.901767560439351,45.716463468963525,1587],[7.901788654650168,45.71632427223794,1587],[7.901804954753078,45.71632537129472,1587],[7.901841652327173,45.71627497181061,1586],[7.901895950346082,45.716282071363786,1586],[7.901942449592971,45.71632286866803,1586],[7.902032853374632,45.716525662997704,1585],[7.9020643536550175,45.71653666199943,1585],[7.9020809513724055,45.71651686191567,1585],[7.902128251266447,45.7165601599879,1585],[7.9021921491157805,45.716529259559984,1584],[7.902235547519547,45.716537558384545,1584],[7.902250847936069,45.71656805794588,1584],[7.902312047329283,45.71658145649507,1583],[7.902357044129251,45.716548155721,1583],[7.902406844071985,45.716589053853006,1583],[7.902474141450208,45.71658165304652,1582],[7.902792140464764,45.71682834167324,1582],[7.902814739735651,45.7168297414017,1582],[7.902847937317732,45.716798940866944,1582],[7.902905731792157,45.71668204333959,1581],[7.902929530858436,45.71668424211541,1581],[7.903005131089237,45.7167464391253,1581],[7.9030486254876475,45.716630741683105,1580],[7.9030815250677335,45.716624940826414,1580],[7.9031774230305665,45.71665033859195,1580],[7.903189520096553,45.71658893962817,1580],[7.903238218916154,45.71659453929607,1579],[7.903247516964515,45.71656343988267,1579],[7.903291816173859,45.71654993863826,1579],[7.90333981634513,45.71659643722368,1578],[7.903386214384693,45.71659183602703,1578],[7.903438113887384,45.71661733503328,1578],[7.903476713873033,45.716660233115526,1577],[7.903698710334311,45.71677342597879,1577],[7.903721208503841,45.71674162695581,1577],[7.903765006195068,45.71672282659613,1577],[7.903786707277856,45.71674262542323,1576],[7.903790204811885,45.716703526425555,1576],[7.903817804304615,45.71669752598828,1576],[7.903867603457032,45.71671572500534,1575],[7.90388920243775,45.71670342419754,1575],[7.903939501499679,45.71670762313534,1575],[7.904023498642133,45.71673832163143,1574],[7.9041096959975405,45.7167118202221,1574],[7.9041265938363345,45.71666592114682,1574],[7.904209587603861,45.71656542156772,1574],[7.904252489559906,45.71664001916327,1573],[7.904303886463173,45.71658791927441,1573],[7.90437628632575,45.71666141636427,1573],[7.90440738486874,45.71666091627301,1572],[7.90450168567508,45.7167534119556,1572],[7.904547884636468,45.71677491085187,1572],[7.90454768315306,45.716719011949365,1572],[7.904588084134458,45.716793209211254,1571],[7.904614382874993,45.71679110954464,1571],[7.904659978503054,45.716683110902395,1571],[7.904709176149071,45.716664310654075,1570],[7.904794473046437,45.7166717087393,1570],[7.9049193730236835,45.7167647044446,1570],[7.904945372842981,45.71681000229392,1569],[7.904992472712212,45.71683400099617,1569],[7.905016970532346,45.71681530137464,1569],[7.905028868233687,45.71673230260548,1569],[7.905073965674208,45.71670640287344,1568],[7.905207264199044,45.71677669838733,1568],[7.90531116058453,45.716768797001194,1568],[7.9053770575254925,45.716742696838104,1567],[7.905504750776208,45.71662839656717,1567],[7.905663648887057,45.71673459156458,1567],[7.9057292462309405,45.71672159041817,1567],[7.905736347329869,45.71674398968567,1566],[7.905764444982437,45.716710090067615,1566],[7.905907438807672,45.71665398850553,1566],[7.906030132035744,45.7165738886243,1565],[7.906087628422816,45.71651378905757,1565],[7.906136826376627,45.71650448827006,1565],[7.90613842377575,45.716409590139406,1564],[7.906298515321388,45.716272691015284,1564],[7.906355812270251,45.716260190574936,1564],[7.906371114008098,45.71630798864153,1564],[7.906338218211493,45.716419586466614,1563],[7.906344318869569,45.7164598854,1563],[7.906320721677803,45.716530184141675,1563],[7.906289423250854,45.716544884796804,1562],[7.906299631267706,45.71678427905763,1562],[7.906259132229656,45.71679947935231,1562],[7.906204831049008,45.716717881653274,1561],[7.906203133238836,45.716773680461756,1561],[7.906054437256685,45.716744183931986,1561],[7.905946143675616,45.71685698300727,1561],[7.905941045195139,45.71690478196197,1560],[7.905893447218457,45.716916483132316,1560],[7.905872048975673,45.71695268268103,1560],[7.9058804515551575,45.71704407995969,1559],[7.905836753503576,45.7170487809344,1559],[7.905821557043636,45.71713567872342,1559],[7.905699859790219,45.71711558128019,1559],[7.905709763748727,45.71723957851295,1558],[7.905663766344497,45.717305777898915,1558],[7.9057172265484885,45.71739108321501,1558],[7.905834844326579,45.717479996608034,1557],[7.905938362126934,45.717526971827176,1557],[7.906033500911322,45.71754460415218,1557],[7.906067615674751,45.71756793262448,1556],[7.906107089952526,45.71765544666443,1556],[7.906106827852175,45.71774861145611,1556],[7.906002095378643,45.717818159264574,1556],[7.905860859505319,45.71784250496328,1555],[7.905763008625995,45.71790717446501,1555],[7.905532508532178,45.71802242520174,1555],[7.905358822269466,45.71805509719581,1554],[7.9052287806804,45.71810774267126,1554],[7.905118781121357,45.718147742618385,1554],[7.904981186730699,45.718234441871644,1553],[7.904833008356127,45.71833717476029,1553],[7.90469257769981,45.71839406368525,1553],[7.904538879883699,45.71840815905335,1553],[7.90417325913477,45.71871083185343,1552],[7.9040837462676095,45.718752970535725,1552]]}}]}