{"type":"FeatureCollection","features":[{"type":"Feature","properties":{"slug":"av1-s14","sct_code":"AV1_S14","source":"Catasto Sentieri VdA"},"geometry":{"type":"LineString","coordinates":[[7.185455011756348,45.835002590044006,2422],[7.185918856385442,45.83470844356969,2421],[7.186000202002749,45.83471873496991,2421],[7.186094053077468,45.83466622269645,2420],[7.1866065066897455,45.834039827994715,2419],[7.186921025867529,45.833734305366306,2418],[7.187068433291542,45.83365564102294,2418],[7.187434804660755,45.83351402077809,2417],[7.187729442269053,45.833398698234326,2416],[7.187833224127327,45.83337046237289,2415],[7.187930189286008,45.83335670889923,2415],[7.188155034644772,45.83332338906829,2414],[7.188268204605549,45.83329401736047,2413],[7.188337699811007,45.83325275810152,2412],[7.188370958604953,45.83323051266489,2412],[7.188432863193726,45.83320628060804,2411],[7.188508970547262,45.83320748760346,2410],[7.188556356049279,45.83322925060866,2410],[7.188586515061311,45.83326474690817,2409],[7.188723063793526,45.83316325680687,2408],[7.188924250371322,45.833076798794586,2407],[7.189106628181175,45.833029613599855,2407],[7.189261874131663,45.83293857536975,2406],[7.189515390290456,45.83265964237433,2405],[7.189690961278193,45.83235616866801,2404],[7.189826359494969,45.83215130417869,2404],[7.189901788829285,45.83181048253635,2403],[7.189952321509294,45.831046245280525,2402],[7.190033873785507,45.83051651110202,2401],[7.190119250992282,45.830265851348706,2401],[7.190393532125294,45.82974817087555,2400],[7.190467204687554,45.829461323604605,2399],[7.190565446307502,45.82921086727227,2399],[7.190699958675802,45.829032988973374,2398],[7.190909013731165,45.828541275345884,2397],[7.191046438332495,45.828273438230454,2396],[7.191096118638808,45.82793220781968,2396],[7.191182944144123,45.82763656784925,2395],[7.191248988075029,45.8271875910269,2394],[7.19125802311681,45.8269087200431,2393],[7.191521941624629,45.82643707994796,2393],[7.191597475128722,45.82633199394453,2392],[7.191640070592178,45.82628504239765,2391],[7.191740182704286,45.82620205720698,2390],[7.191928653738815,45.82608194954562,2390],[7.192111016167544,45.82593390468195,2389],[7.192293802392417,45.8257815676139,2388],[7.192523503319649,45.825670963399276,2388],[7.192627835829177,45.82563549460615,2387],[7.1927956967197515,45.825594902431156,2386],[7.193533086619334,45.825487840661395,2385],[7.193587440063671,45.8254782507147,2385],[7.193636616698163,45.82548323071719,2384],[7.193652793400125,45.82550187086418,2383],[7.193648178089392,45.82552841222409,2382],[7.193579842497215,45.82556405790858,2382],[7.1932923131188735,45.82564968327314,2381],[7.192891475713841,45.82586238478952,2380],[7.192864482748719,45.82590709502402,2379],[7.1928636092024645,45.82593408256791,2379],[7.192888470407781,45.825961477252406,2378],[7.192965092336979,45.82598069033672,2377],[7.193098180464048,45.825929388799196,2377],[7.193197072147985,45.825868354032984,2376],[7.193364743397098,45.82581839394962,2375],[7.1935883191390015,45.82578200837183,2374],[7.193759399205886,45.82577735950393,2374],[7.194267996626397,45.825706262483024,2373],[7.194962832514493,45.825717244657845,2372],[7.195034857710577,45.82572538245814,2371],[7.1950990101877315,45.825739703333575,2371],[7.195125127935679,45.82576848185472,2370],[7.195109647939884,45.82579800265825,2369],[7.1950594604113,45.825803293036714,2368],[7.19491971357543,45.82580095423064,2368],[7.194667458887258,45.82582971038657,2367],[7.19450594671348,45.82586716009842,2366],[7.193763932691321,45.82613444322004,2366],[7.193580464131999,45.82621051369281,2365],[7.1933833065410795,45.82634692331739,2364],[7.1932428537304025,45.82647376830995,2363],[7.193171282032339,45.82661131069821,2363],[7.1930308636539735,45.82710005249448,2362],[7.193033445395349,45.82714120650478,2361],[7.19309720133008,45.82716021596422,2360],[7.193134459402613,45.827149316254186,2360],[7.193284283147716,45.82694647669461,2359],[7.193413337409933,45.82686692337236,2358],[7.193720050331783,45.826745881870735,2357],[7.194023392160373,45.826612879544946,2357],[7.194363669035773,45.8265923449112,2356],[7.194783283378955,45.82658065681772,2355],[7.195112128297458,45.82655794928244,2355],[7.195475578911609,45.82657979971879,2354],[7.195860975902591,45.82665102290074,2353],[7.1960034431464415,45.82666517880938,2352],[7.196154636664343,45.82666634158397,2352],[7.19618868281108,45.82667031020574,2351],[7.196197080992257,45.82669404651469,2350],[7.1961888501285785,45.82671976043736,2349],[7.196102993724872,45.82674151685677,2349],[7.195775422277645,45.82680287820576,2348],[7.1952468728784655,45.82686040993327,2347],[7.195176997838595,45.82686775192044,2346],[7.19513771229392,45.82688989332877,2346],[7.195137331970495,45.826912648564864,2345],[7.195168483126416,45.82694464235997,2344],[7.195331115383861,45.8269541512733,2344],[7.195497522183745,45.82698378159326,2343],[7.195850942392605,45.827021581383306,2342],[7.196108365486633,45.82708901556825,2341],[7.196578657048173,45.827276450641314,2341],[7.19680462847816,45.82737443374184,2340],[7.197558306397099,45.8275573375598,2339],[7.198572148858044,45.82771951282697,2338],[7.1993249670650465,45.82792939275655,2338],[7.199679564118404,45.82804981346974,2337],[7.199845106430046,45.82810642516879,2336],[7.20015190633733,45.82817426294346,2335],[7.20041473662467,45.82820156668452,2335],[7.200729513989069,45.82822836502654,2334],[7.201099496053431,45.82833319726838,2333],[7.201340779688824,45.82842398893584,2333],[7.201595222770358,45.82853357680637,2332],[7.202020614784102,45.82890341821558,2331],[7.20213149372166,45.829069481048926,2330],[7.202254670977024,45.82924242826013,2330],[7.202379876774605,45.82935240411782,2329],[7.202468506004364,45.82939880111381,2328],[7.202647213119674,45.829446615451076,2327],[7.203000299933676,45.82957075522905,2327],[7.203517766889387,45.82989391046663,2326],[7.203829238426137,45.830046518609365,2325],[7.204089866265177,45.83013712708628,2324],[7.204473314671989,45.83022415917327,2324],[7.204745306388437,45.8302626485814,2323],[7.204795912283583,45.830290445263316,2322],[7.204957705959556,45.830463996410145,2322],[7.205198447334535,45.830584785146996,2321],[7.205386847886408,45.830731752398115,2320],[7.205551247359695,45.830824339615425,2319],[7.206170822886854,45.83117608810756,2319],[7.206421232206296,45.83134381578716,2318],[7.2067880670488265,45.83154758498923,2317],[7.206924199200212,45.83161565746111,2316],[7.207258460601851,45.83178719264802,2316],[7.207414290319462,45.83196933478856,2315],[7.207772945225551,45.831907726647124,2314],[7.208125409787164,45.83192971540089,2313],[7.208444149761665,45.83198794274253,2313],[7.20903683704967,45.832139105603964,2312],[7.209512698405725,45.832155566072494,2311],[7.209768057204831,45.83222257158975,2311],[7.209870720211695,45.8322331809796,2310],[7.210152554170072,45.8322328920074,2309],[7.21109572636007,45.83231490287141,2308],[7.212011787842993,45.83240624976183,2308],[7.212203958412197,45.83243625895622,2307],[7.212548540824765,45.832531655998274,2306],[7.212621333677683,45.83256675642206,2305],[7.212680917299365,45.832614614351876,2305],[7.212824275353313,45.83290926375709,2304],[7.212878113816713,45.83298014302796,2303],[7.212944640693754,45.83303021014868,2302],[7.213096058829452,45.83312525109101,2302],[7.213265988381379,45.833171635184904,2301],[7.213454092138818,45.833202854918206,2300],[7.213671766060867,45.83331482701074,2300],[7.214200992636976,45.83361791055816,2299],[7.214442919143454,45.833702696476045,2298],[7.214587148414935,45.83381772733704,2297],[7.2147589535738135,45.833943853616546,2297],[7.214846449672474,45.83402622500473,2296],[7.2149088763804485,45.83408066860933,2295],[7.21497392670628,45.83410413046188,2294],[7.215290371282474,45.83404915915069,2294],[7.21567177504166,45.83399761021404,2293],[7.216385628602767,45.83381974971568,2292],[7.216646153750421,45.83375223150415,2291],[7.216987653604613,45.83354155201767,2291],[7.217156965845138,45.83348119165337,2290],[7.217313983094975,45.83340263827604,2289],[7.21765605283211,45.83317396479431,2289],[7.217737289584515,45.833049226164555,2288],[7.217820536592097,45.83286151574963,2287],[7.217951293771408,45.83239553278252,2286],[7.217991624075416,45.83234215931116,2286],[7.218123186095564,45.83225420725038,2285],[7.218374588465217,45.83204211807727,2284],[7.2184023362872285,45.83197954776398,2283],[7.218549062561453,45.83181982818182,2283],[7.218680622466377,45.83173187544011,2282],[7.218837632638967,45.83165331984091,2281],[7.219151364664092,45.83150520394092,2280],[7.219311747522215,45.83142388223053,2280],[7.219301941412564,45.83135439264814,2279],[7.219221815724656,45.831290810065084,2278],[7.219146960371422,45.83125042183072,2278],[7.218846558479931,45.83111967062967,2277],[7.2186489602971085,45.83103254495513,2276],[7.21846926355815,45.83088686583305,2275],[7.218369409605583,45.83075083639399,2275],[7.218397642152071,45.8306196065392,2274],[7.218473227723121,45.83051152722552,2273],[7.218608715121354,45.830409984830844,2272],[7.218838930517679,45.830393915171186,2272],[7.218856190466143,45.830393882791675,2271],[7.218948853975064,45.83037851842403,2270],[7.219029588791021,45.830360167057584,2269],[7.219217467545506,45.83018660198437,2269],[7.219253611082083,45.830137088773945,2268],[7.2192849478271715,45.83009695558523,2267],[7.219309183474997,45.83005550742921,2267],[7.219323095439205,45.83003171471471,2266],[7.219346242806625,45.82999705662206,2265],[7.219401700596129,45.82995449847511,2264],[7.21948902350112,45.82991803887846,2264],[7.219502083054399,45.829916688965966,2263],[7.219541694440078,45.82991259466185,2262],[7.219571448530815,45.82990951855944,2261],[7.21973740787038,45.829920509817434,2261],[7.219851742723202,45.8299166889228,2260],[7.219992048133059,45.829883856461514,2259],[7.220086221775324,45.829883923465225,2258],[7.220170157997576,45.82989083412402,2258],[7.220317155229665,45.829930944334954,2257],[7.2205273868718685,45.82998735641902,2256],[7.220527749412214,45.82998745387136,2256],[7.220673211920865,45.83002859096626,2255],[7.2209028525043095,45.83011621221796,2254],[7.221054714364273,45.830145191689766,2253],[7.221130951465745,45.83014217665255,2253],[7.221208037468206,45.830112561368615,2252],[7.221338086810742,45.83005575506532,2251],[7.221367120547724,45.8300510417978,2250],[7.22142469622371,45.830041694887434,2250],[7.221521228078847,45.83003059097169,2249],[7.221699427857295,45.83003476670895,2248],[7.2218930246777475,45.8300587911145,2247],[7.222064056901267,45.83009927410897,2247],[7.22208249015638,45.83010528980208,2246],[7.222212790927248,45.830147813524185,2245],[7.222324588806045,45.83016075899863,2245],[7.222409461996251,45.83013826733861,2244],[7.222515967312101,45.83006568544207,2243],[7.222516220865928,45.83006540497353,2242],[7.222574241992056,45.83005192871082,2242],[7.222575865935532,45.83005155166017,2241],[7.222828869085832,45.83013697283666,2240],[7.222968869707653,45.830176972574606,2239],[7.223258869594703,45.83032697230552,2239],[7.223408869436824,45.8303769726195,2238],[7.223698868932159,45.830396972407094,2237],[7.224209294299973,45.83046248090658,2236],[7.224532789524792,45.830449508645835,2236],[7.224693898679644,45.830428118314366,2235],[7.224882714805542,45.830382026390964,2234],[7.225347069471174,45.830179558262174,2234],[7.225546745887622,45.83001834367502,2233],[7.225707627770074,45.82986114337565,2232],[7.226039142972901,45.82972228519709,2231],[7.2262294079289,45.82954883924879,2231],[7.226524561596626,45.82939701420038,2230],[7.226830250763672,45.82924241868606,2229],[7.226932159359078,45.82922599969239,2228],[7.22740723789946,45.82929187588911,2228],[7.227700252420857,45.82930092276273,2227],[7.227944055708065,45.829297404078,2226],[7.228164352226133,45.82923778769457,2225],[7.228499120833344,45.82902242584415,2225],[7.228792614275465,45.8288514693333,2224],[7.2292323020498115,45.82849826753875,2223],[7.2292872779675275,45.82844898098391,2223],[7.229378251945208,45.8283919098947,2222],[7.229427208004109,45.828368506146596,2221],[7.229427420989554,45.82839337228054,2220],[7.22941057859553,45.828419025299766,2220],[7.229353672232485,45.82847592426895,2219],[7.229366524191552,45.82849713502848,2218],[7.229757570036339,45.82843543428096,2217],[7.229803006088822,45.82853489131147,2217],[7.22989190041309,45.82852760145354,2216],[7.2299766933181795,45.82850746643926,2215],[7.230220977901792,45.82851265288347,2214],[7.230425746708243,45.82856345023616,2214],[7.2306687004150145,45.82861063728553,2213],[7.2308588038197055,45.82865000114401,2212],[7.2310582322679675,45.8286797040092,2211],[7.23139710154614,45.828798411792256,2211],[7.231647934628065,45.82884992105943,2210],[7.2318257072252425,45.82883586377889,2209],[7.231942884195583,45.828805460453914,2209],[7.2322741657927905,45.828720939637684,2208],[7.232300759014641,45.82871449193782,2207],[7.232423332517977,45.82862939762151,2206],[7.23271404503776,45.82852883988533,2206],[7.232798202680869,45.82852874054005,2205],[7.232873995253482,45.828539719078286,2204],[7.232989221212462,45.82857091684676,2203],[7.233106459111352,45.82866518023861,2203],[7.233214859628318,45.82873794426229,2202],[7.233327240733773,45.82879571290227,2201],[7.233501131987729,45.82887264148482,2200],[7.23369883386935,45.82895694213318,2200],[7.233870146695438,45.82905204088022,2199],[7.2341114227308,45.82915242238419,2198],[7.234117150234427,45.82915569258474,2198],[7.234324470301912,45.82913386988752,2197],[7.234384175366052,45.82911286588028,2196],[7.234462856998443,45.82909587233429,2195],[7.23459384181645,45.82913571666607,2195],[7.234660738281379,45.82917457040816,2194],[7.234799138863455,45.82924919882196,2193],[7.234921848075895,45.829297319504626,2192],[7.235093164096385,45.82939241555792,2192],[7.2351743899327365,45.829421686212086,2191],[7.235298482579714,45.829489438029135,2190],[7.235388970577608,45.82954266409441,2189],[7.2354931249752,45.82960730674888,2189],[7.235595143227784,45.829676118618906,2188],[7.235639790122635,45.82972163225079,2187],[7.235660138303391,45.82977517426852,2187],[7.235685080127013,45.82987361214116,2186],[7.235688365136497,45.82989465281354,2185],[7.235831848109287,45.83003425705863,2184],[7.235882594995025,45.83005123079334,2184],[7.236002191481935,45.83010280430617,2183],[7.236077124195,45.830141081977885,2182],[7.2361264401689525,45.83016565598234,2181],[7.236233035444171,45.83018481140598,2181],[7.236371666971683,45.83022056945194,2180],[7.236483740428102,45.83023280597729,2179],[7.236546892851255,45.83023167933946,2178],[7.2366423561597655,45.830222647746915,2178],[7.236715878033712,45.830210475539204,2177],[7.236755838419123,45.83018237736999,2176],[7.236801541829463,45.830162771548274,2176],[7.2368612421793035,45.83014408289,2175],[7.236928999857302,45.83010818371033,2174],[7.236984114274139,45.830076117050666,2173],[7.237098955972515,45.830056177713175,2173],[7.237177173949211,45.83005388276635,2172],[7.23735631058343,45.83006014922355,2171],[7.237472618738682,45.83002552451555,2170],[7.237478621811525,45.83002456139032,2170],[7.237549545995406,45.829968930427626,2169],[7.237757509400503,45.82991891033578,2168],[7.237909832725565,45.82993067465254,2167],[7.237956533195431,45.829850542269725,2167],[7.238190802433082,45.8298517355709,2166],[7.2385708016373185,45.82993173614946,2165],[7.238687657364869,45.8299850844742,2165],[7.238849832715852,45.83010067464434,2164],[7.239059832470218,45.83031067485469,2163],[7.239177417642282,45.830434571282844,2162],[7.239237632950784,45.830431297177675,2162],[7.239262164960489,45.830288798705254,2161],[7.239306756019309,45.83027267680757,2160],[7.239395543627652,45.83044353625457,2159],[7.2395068916892065,45.830597934108326,2159],[7.239811108020289,45.830752152044006,2158],[7.240340076761084,45.831134301742246,2157],[7.240447257192178,45.831293887114136,2156],[7.240739833120134,45.83206067588936,2156],[7.241691044317382,45.8331723582134,2155],[7.241809205295046,45.83330164478953,2154],[7.241870957457363,45.83344056925839,2154],[7.241935536467248,45.8334897137354,2153],[7.242013530242743,45.83354239119196,2152],[7.241998603605833,45.83363461125814,2151],[7.24194675406206,45.83372205985547,2151],[7.241851563153385,45.83388133086561,2150],[7.241775219370205,45.834157542047265,2149],[7.241581100100789,45.834369261174054,2148],[7.241505233010375,45.83451253585807,2148],[7.241470977471241,45.83461594283736,2147],[7.241464239708026,45.83478353072505,2146],[7.241318371403119,45.8352299224981,2145],[7.241264286635663,45.8353485039567,2145],[7.241287074015669,45.83557927762517,2144],[7.241278851113927,45.8356963933779,2143],[7.2412438545896105,45.83587239086224,2143],[7.241209836619944,45.83596535459629,2142],[7.2411320634905945,45.83604684137593,2141],[7.241107567141122,45.83610373124358,2140],[7.241269059649087,45.83626221419683,2140],[7.241357252867595,45.836325205200325,2139],[7.241775547487157,45.83670319667155,2138],[7.243133239020815,45.837660056516356,2137],[7.243165428066952,45.83782551508379,2137],[7.243194508578526,45.83784912404419,2136],[7.243223363415498,45.83788738852784,2135],[7.243220523379501,45.83791395912335,2134],[7.24320086498634,45.83796548396679,2134],[7.243195384021416,45.83797949344593,2133],[7.243181251907981,45.838015609036376,2132],[7.243205578317899,45.83803189952953,2132],[7.24322835492784,45.838047150033944,2131],[7.2432229379930355,45.83809189066867,2130],[7.243219627678821,45.838104111844864,2129],[7.243250008349386,45.838260273921556,2129],[7.242970008387904,45.83914027492354,2128],[7.242240008354178,45.83954027541715,2127],[7.241120008591779,45.84055027582879,2126],[7.24097000803593,45.84049027601698,2126],[7.240260008540099,45.841690276752075,2125],[7.240370008221475,45.84240027773429,2124],[7.24005760139098,45.84290480700821,2123],[7.240306516390662,45.84352777101113,2123],[7.240348114131279,45.8438610890381,2122],[7.240483784187542,45.844134924135425,2121],[7.2404358186819255,45.84422593380175,2121],[7.240296274542792,45.84437681569418,2120],[7.240171617434963,45.8445163702224,2119],[7.240031243147338,45.84464587829558,2118],[7.239917942173351,45.84480661899147,2118],[7.239870910321797,45.8448997443963,2117],[7.239866240233026,45.84493833464541,2116],[7.239861056861389,45.844993562363726,2115],[7.239908824785693,45.84515123693542,2115],[7.240004675457797,45.845257769401684,2114],[7.240238535043464,45.84546766468084,2113],[7.240298923779564,45.845594600860515,2112],[7.240214880375668,45.84580931622992,2112],[7.239979609598026,45.846168301301304,2111],[7.239913544953626,45.846221285895986,2110],[7.23981244496238,45.84625072192175,2110],[7.239565031110873,45.846336913414,2109],[7.239212485173483,45.846553197803125,2108],[7.238973682141495,45.8467745270218,2107],[7.238913130705251,45.846816285201974,2107],[7.238808446725697,45.8468686737526,2106],[7.238704118220762,45.846905064044,2105],[7.238250170950801,45.847006068829245,2104],[7.238118108183548,45.847051932201715,2104],[7.237830352428956,45.84714979856156,2103],[7.237636094349525,45.84718579689093,2102],[7.237171104257198,45.847367547071855,2101],[7.2371896543220045,45.84740074696789,2101],[7.237179719681124,45.847448878197184,2100],[7.236993627357215,45.847594075710596,2099],[7.23693683116819,45.84769457261939,2099],[7.236883232507709,45.84773317167841,2098],[7.236864836086227,45.84786736746922,2097],[7.236914435655247,45.847914765085676,2096],[7.23689883679221,45.847950864408745,2096],[7.23691053634004,45.84799776255144,2095],[7.236873139186292,45.84804606120328,2094],[7.236894739854813,45.848171456297834,2093],[7.237037538234028,45.84827635140696,2093],[7.237067838059073,45.84832014973814,2092],[7.237079238385897,45.84836164749299,2091],[7.237030842415124,45.84848664360486,2090],[7.237059743461578,45.848562441129744,2090],[7.237250741693982,45.8487810314532,2089],[7.237319542240375,45.848923825377916,2088],[7.237311344113536,45.84902362238773,2088],[7.237346844544958,45.849116518052305,2087],[7.237419545023755,45.84919761483757,2086],[7.237451144852198,45.84927501186819,2085],[7.2374527456612245,45.84930041053878,2085],[7.237283653658111,45.84947450651648,2084],[7.237208358004151,45.849636402403355,2083],[7.237188462593011,45.84984819464783,2082],[7.237217064536529,45.84998968962407,2082],[7.237183767050664,45.85008628664779,2081],[7.237231971025612,45.850370376154935,2080],[7.237289469395621,45.850370375994906,2079],[7.237386967180729,45.850400073352354,2079],[7.237506664888045,45.85047006959243,2078],[7.2375641650613245,45.850530266787004,2077],[7.237586364783566,45.850594664340484,2077],[7.23767106251583,45.85054036471865,2076],[7.237671359601653,45.85042626926059,2075],[7.237714357587904,45.85036387031947,2074],[7.2377011565518625,45.85028007351846,2074],[7.237738554886603,45.850241874894465,2073],[7.237847751407939,45.85020127459726,2072],[7.237901050642931,45.850232473189656,2071],[7.238000249188117,45.850344967663716,2071],[7.238005450142879,45.850405065345704,2070],[7.238024150195282,45.8504105650297,2069],[7.238008552639424,45.85053176161881,2068],[7.238046653630342,45.85062055786486,2068],[7.238108050037242,45.85055835885907,2067],[7.238165749123063,45.85054935913998,2066],[7.23817334888996,45.85055895828992,2066],[7.238167051233019,45.85066945463563,2065],[7.238235553946494,45.85095774404113,2064],[7.238208257547219,45.85110223959266,2063],[7.238287054317059,45.85104124040389,2063],[7.238303254684981,45.85109053889948,2062],[7.238391350378268,45.851005440437454,2061],[7.238529743101591,45.85078184602419,2060],[7.238605839892431,45.850753546680714,2060],[7.238634944866641,45.85102073709683,2059],[7.238696443225217,45.85107343411715,2058],[7.238724743504513,45.851146831413644,2057],[7.238811742190141,45.851191428757254,2057],[7.238826026137167,45.851214305721285,2056],[7.238817128401736,45.85124213911956,2055],[7.238806368702833,45.85125755654233,2055],[7.238797417617853,45.851271251268955,2054],[7.238781956194369,45.851292724579025,2053],[7.238776495343954,45.85132111048677,2052],[7.238776036300215,45.85132349301859,2052],[7.238778440825986,45.85133263490871,2051],[7.2387843045773,45.85133937932106,2050],[7.238791767874403,45.851341069462386,2049],[7.238802447075469,45.8513361569811,2049],[7.238816955741404,45.851336905397126,2048],[7.238828371239864,45.85133987962606,2047],[7.238839818696225,45.85134286154689,2046],[7.238852682648209,45.85134813700934,2046],[7.238853239116308,45.85137016419664,2045],[7.238844872822263,45.85138911968314,2044],[7.238837497300314,45.85141512246612,2044],[7.238834511923123,45.851425642022384,2043],[7.238833054880055,45.851432098054794,2042],[7.23883458171828,45.85143930032353,2041],[7.2388405726592815,45.851447972782,2041],[7.238846254955775,45.851450511201115,2040],[7.238860953876991,45.85145318953295,2039],[7.238878394323906,45.85144838038506,2038],[7.238893052187852,45.85144440407527,2038],[7.238899073908029,45.85144414679648,2037],[7.238906939800559,45.851448995981336,2036],[7.238908782714361,45.851454101525796,2035],[7.238915212383741,45.85146470683231,2035],[7.2389229101499915,45.85146692620382,2034],[7.238930696302217,45.85146634600928,2033],[7.238945052278944,45.85145606205026,2033],[7.238972453283107,45.85144527806537,2032],[7.239017348811036,45.85142005619767,2031],[7.239074037518064,45.85137050348868,2030],[7.239137361380829,45.8513329596771,2030],[7.239162398421624,45.85130182887622,2029],[7.239212625807689,45.851234667096186,2028],[7.239289975150822,45.851197338491325,2027],[7.239338075148975,45.851165862900544,2027],[7.239373968486253,45.85110828516312,2026],[7.239375872404406,45.85110427692302,2025],[7.239411824252366,45.85107732577821,2024],[7.239558408533826,45.85079981609846,2024],[7.239606078586209,45.85075607340488,2023],[7.239654725993156,45.850715151181326,2022],[7.239668168464771,45.85070205122438,2022],[7.239705204015224,45.85067180543409,2021],[7.239742149867553,45.85064436007805,2020],[7.239800553100818,45.8506039373414,2019],[7.239851524409322,45.85057670806929,2019],[7.239904520848883,45.8505488097459,2018],[7.239952441959692,45.85052293389462,2017],[7.240009158652557,45.85050419766139,2016],[7.240073969635286,45.85045126753173,2016],[7.240076171653041,45.850448055008634,2015],[7.240172717166155,45.85040531168916,2014],[7.240175027377097,45.85040099648026,2013],[7.240184351752596,45.85039133507989,2013],[7.2402016689855415,45.85038249704629,2012],[7.240227316812337,45.85039549904352,2011],[7.24021411872173,45.85043307135487,2011],[7.240215019720483,45.85043831537536,2010],[7.240209012896026,45.850507101198396,2009],[7.240224497204797,45.850556365891904,2008],[7.240224239971441,45.85059628326083,2008],[7.240224142855599,45.85063112506322,2007],[7.240235708063104,45.850677527550125,2006],[7.240255750738176,45.85070935305808,2005],[7.2402521498319246,45.8507282074527,2005],[7.240229072576925,45.85076077005021,2004],[7.240221199146865,45.85078796320904,2003],[7.2402282502213975,45.85085040509155,2002],[7.240233355402625,45.85087919865502,2002],[7.240253296506631,45.850882482289556,2001],[7.2404125430986825,45.85075886842236,2000],[7.240534885912001,45.85068042601645,2000],[7.240684279691656,45.850562528275944,1999],[7.240757105664192,45.850527100098745,1998],[7.240809476517263,45.85053490985985,1997],[7.2408324750968225,45.850524227736614,1997],[7.240861905462271,45.850509103049106,1996],[7.240885354623844,45.85049650716594,1995],[7.240914510574125,45.85055718871726,1994],[7.240940662307684,45.85053833055155,1994],[7.240950981738002,45.85056466626263,1993],[7.240935962460363,45.85067544427012,1992],[7.24094867616035,45.85068544509987,1991],[7.241030615378976,45.85061772049671,1991],[7.2411070702071605,45.85057687482409,1990],[7.241166965435735,45.85052782316533,1989],[7.24127066241293,45.85051992252421,1989],[7.241334661620055,45.850535721635396,1988],[7.241567003399441,45.85050831544602,1987],[7.241622142728372,45.850483951373405,1986],[7.241734428200091,45.85053050360699,1986],[7.24181378758931,45.85060421352052,1985],[7.241862699300354,45.85059857514251,1984],[7.2419282783550285,45.85063250166612,1983],[7.241859550677459,45.85069116072874,1983],[7.241851351631186,45.850720660293945,1982],[7.242078944056266,45.850739105469636,1981],[7.242119742693811,45.85073866587153,1980],[7.242168061335331,45.85070018833145,1980],[7.242208362761101,45.85069345516233,1979],[7.242246749317902,45.8506838906851,1978],[7.242263637001401,45.850656836094856,1978],[7.24229552974593,45.85063071262246,1977],[7.2425284342106835,45.85064234972453,1976],[7.242756718885955,45.85056199227034,1975],[7.242800336619476,45.85051363709711,1975],[7.24287307215692,45.8504715080727,1974],[7.242964111539529,45.850444893741496,1973],[7.2430079124837,45.85039680591845,1972],[7.243116182590891,45.850389801978714,1972],[7.243323989734237,45.850323135782524,1971],[7.243369335877181,45.85032330839581,1970],[7.243412799546495,45.850304404469505,1969],[7.243533798032524,45.85032023370249,1969],[7.24358794826688,45.85028744888619,1968],[7.243640416703209,45.850284228843215,1967],[7.244014602168712,45.8500819702824,1967],[7.244249371459538,45.850000904886045,1966],[7.244382261676347,45.84970831342344,1965],[7.244360261564821,45.84962681677043,1964],[7.244324261137559,45.84958891804898,1964],[7.244408956146566,45.849447521779084,1963],[7.244404654908881,45.84937572417415,1962],[7.244432477748565,45.849326586495,1961],[7.2445421267438475,45.84933098611907,1961],[7.244711421108814,45.8492674859069,1960],[7.244862416564488,45.849243884834436,1959],[7.244956213998116,45.849254083381275,1958],[7.24505121050034,45.84921118342798,1958],[7.245067307828521,45.84910008750739,1957],[7.245283699811861,45.84901588811199,1956],[7.245478195100317,45.84901768486309,1956],[7.245599790207742,45.84896258520852,1955],[7.245654388626612,45.848964285078594,1954],[7.245796684487071,45.84891118530992,1953],[7.24593208063898,45.84889888359987,1953],[7.246126174569219,45.84884678310195,1952],[7.246154371995021,45.84878698436037,1951],[7.246217770096632,45.84873978570759,1950],[7.2462521670162685,45.848683686787645,1950],[7.24664355104487,45.84836289343891,1949],[7.246720247720255,45.84830629428385,1948],[7.246828143667089,45.84828609367387,1947],[7.246877741927129,45.84825049410115,1947],[7.247037505485022,45.84810660005755,1946],[7.247053013260248,45.84802769558115,1945],[7.2471504632237975,45.84795635241027,1945],[7.247126927380554,45.84783590590619,1944],[7.247386435139962,45.84760904509339,1943],[7.247462143159709,45.847511048151695,1942],[7.247665584843063,45.84737419201577,1942],[7.247825947512912,45.847196271867276,1941],[7.248021895217713,45.84699007523436,1940],[7.248128598600784,45.8469111687835,1939],[7.248156543070418,45.84697285238249,1939],[7.248226173072794,45.846864546239864,1938],[7.248310650591605,45.84675041945549,1937],[7.248398021333051,45.84668917662203,1936],[7.248500830617335,45.8466498488472,1936],[7.248577497079507,45.84661023895749,1935],[7.248585686777104,45.846539672544885,1934],[7.248586584709926,45.84643287565555,1934],[7.2486549816095005,45.846373977031796,1933],[7.248642881276147,45.8463194793913,1932],[7.248722178581033,45.846267879779646,1931],[7.249028868315089,45.84618817893282,1931],[7.249258860497642,45.84608088016419,1930],[7.249308258029077,45.846017581262586,1929],[7.249288956358741,45.84595398370256,1928],[7.2493448527200135,45.84585278731906,1928],[7.249447848699385,45.8457528887323,1927],[7.249463846124742,45.84566949209674,1926],[7.249436145463084,45.84558679476384,1925],[7.249454744300049,45.84552609654824,1925],[7.249528349615428,45.84546982973047,1924],[7.249595036424717,45.845344601843294,1923],[7.2496587345166175,45.84527990274112,1923],[7.249727128379123,45.845103608249254,1922],[7.249801126316718,45.84506480898237,1921],[7.249847024410369,45.84501690994198,1920],[7.249840623531323,45.84496211182191,1920],[7.24985912222462,45.84491891331685,1919],[7.249937117138338,45.844780716959484,1918],[7.250050211445326,45.844633320701284,1917],[7.250074780193825,45.844599088663415,1917],[7.250122977714629,45.844542689636015,1916],[7.2501463758244435,45.84444579312375,1915],[7.250206273274204,45.844398994026456,1914],[7.250270099947913,45.84435752752996,1914],[7.250311497596973,45.84432062807955,1913],[7.250334891640047,45.84399423873262,1912],[7.250406084944314,45.843782345911826,1912],[7.25046038307873,45.84371604700679,1911],[7.250757274457858,45.843747242226456,1910],[7.251297061635133,45.84385323254468,1909],[7.251855247179938,45.84387282511776,1909],[7.252146139669317,45.84392331992512,1908],[7.252266936238323,45.84390921853922,1907],[7.252349033638652,45.843927817516615,1906],[7.252458330245888,45.84391251663785,1906],[7.252499030172068,45.84392201548913,1905],[7.252708125494968,45.84403530899177,1904],[7.252853324076522,45.84414930340886,1903],[7.252945423751782,45.8442521989696,1903],[7.253016822291513,45.84427249692198,1902],[7.2530531220215275,45.844322594878975,1901],[7.253207682505602,45.84442768568958,1901],[7.253245782618309,45.84449918261202,1900],[7.253300680666343,45.844462383215514,1899],[7.253370975697941,45.84434388659576,1898],[7.253391571873088,45.844191792001986,1898],[7.2534362708057305,45.844138593533096,1897],[7.253468167226233,45.844046195980276,1896],[7.253496803124182,45.84400250024447,1895],[7.253579501784197,45.84401959905861,1895],[7.253774095955873,45.84399439724308,1894],[7.253834294297924,45.844006796607545,1893],[7.2538963476112786,45.844040908108,1892],[7.253965091950831,45.84410199170327,1892],[7.254013517012715,45.8442316466988,1891],[7.25410022045375,45.844279021657144,1890],[7.254136371198059,45.84437272312647,1890],[7.254164692714009,45.8444227779952,1889],[7.2541930379955115,45.84445133121676,1888],[7.254198630136977,45.844484491425064,1887],[7.25422478039214,45.84450977184045,1887],[7.254239278995448,45.84452680260425,1886],[7.254261791797819,45.84454395494407,1885],[7.254282065540612,45.844536561318264,1884],[7.2543152511892295,45.844532866174085,1884],[7.254348896768641,45.84451447046304,1883],[7.254381562803671,45.844495358640366,1882],[7.2544154930530835,45.844467862435145,1881],[7.254443676114416,45.84443187380513,1881],[7.254474010651842,45.84442323251826,1880],[7.254527776506391,45.84440234237423,1879],[7.254568213112807,45.84435507261485,1879],[7.254634773062007,45.84436169238646,1878],[7.25465462770949,45.84438370746315,1877],[7.2546917371607,45.84438672527218,1876],[7.254813458495014,45.8443238008436,1876],[7.254834978572107,45.84429261284954,1875],[7.254904099618299,45.84433263614824,1874],[7.255015444860844,45.844313929558936,1873],[7.255079629628786,45.84429635026066,1873],[7.25520237949047,45.844336745248036,1872],[7.255235154566293,45.84431413368311,1871],[7.255260860956969,45.84434896732786,1870],[7.255333958740971,45.844363181198986,1870],[7.25542255643774,45.84437806466566,1869],[7.255595904819252,45.844474863573446,1868],[7.25561393612526,45.84445902997526,1868],[7.25568658379241,45.84451697878563,1867],[7.2557279824036724,45.84453097746227,1866],[7.255788530663717,45.84461699646807,1865],[7.255901029717204,45.844724491611885,1865],[7.255974149187309,45.844759044550024,1864],[7.256219544417151,45.84490163674182,1863],[7.256325642002382,45.84493923459207,1862],[7.2564813382993165,45.844969531311094,1862],[7.256539237978501,45.84500472912348,1861],[7.2565568382750865,45.84506182729242,1860],[7.256613138200874,45.84512032433514,1859],[7.256612673719568,45.845273052546915,1859],[7.256614242200124,45.84536941606195,1858],[7.256744741646242,45.8454894103465,1857],[7.2568247396599705,45.845509208916376,1857],[7.25700513656835,45.845600503262595,1856],[7.257138134367378,45.84567869857176,1855],[7.257181233102619,45.84572179670626,1854],[7.257233695922201,45.84573199265488,1854],[7.257284031056068,45.845729495231836,1853],[7.25735433082192,45.845796791881824,1852],[7.25744769293008,45.8458510818786,1851],[7.257492758065069,45.8459363390439,1851],[7.257472405535688,45.845962292696875,1850],[7.257532334524014,45.84603289349397,1849],[7.257489531130288,45.84605108203995,1848],[7.257502532543773,45.84615027865334,1848],[7.257634332094507,45.84627177230352,1847],[7.2577898845833895,45.84636174949712,1846],[7.257792275812095,45.846365595843615,1846],[7.257807427719676,45.846393841630494,1845],[7.25783647312087,45.846426501603496,1844],[7.257849862532663,45.846447017047716,1843],[7.257864884619472,45.84647946314103,1843],[7.257891142928829,45.84650507736972,1842],[7.2579305703490276,45.84653421898125,1841],[7.257967410508826,45.84657400101702,1840],[7.257992416406375,45.84659959612252,1840],[7.258002180027846,45.84667205795981,1839],[7.258012998279992,45.84671074381615,1838],[7.258031642476391,45.846723459507466,1837],[7.2580564686040745,45.8467426471608,1837],[7.2580415972872085,45.84682989272514,1836],[7.257972064711536,45.84692509091876,1835],[7.257959695464564,45.84703770539644,1835],[7.257879862743999,45.847173503933234,1834],[7.257869761690592,45.847253974703996,1833],[7.257722949755818,45.84736183407025,1832],[7.257564656192156,45.847434833211146,1832],[7.2575243575264405,45.84748363168296,1831],[7.257237567965884,45.84759063228311,1830],[7.257166070200913,45.8476306310517,1829],[7.257185271676986,45.84770742843464,1829],[7.257176073447024,45.84779602588615,1828],[7.257231373542737,45.84791772085233,1827],[7.257305271678414,45.84793401935487,1826],[7.257345072292534,45.847973417426665,1826],[7.257441069302101,45.84801071521975,1825],[7.257749562174535,45.848057609302934,1824],[7.257815267521071,45.84806032239882,1824],[7.257886349485262,45.84803058995783,1823],[7.258002055080588,45.84803470720733,1822],[7.258133250714586,45.84801550645834,1821],[7.258413840282915,45.84785220870191,1821],[7.258632233390969,45.8478102075615,1820],[7.258666500333619,45.847803571000405,1819],[7.258711633680487,45.84778639947936,1818],[7.258743091114272,45.847773922001345,1818],[7.258771868690114,45.84776700642355,1817],[7.258802508519697,45.847764672534055,1816],[7.25881852431133,45.84776526677382,1815],[7.258835357198572,45.847771826339994,1815],[7.258839036807916,45.84778238770997,1814],[7.258851317908923,45.847790279257914,1813],[7.2588639145132,45.84778802044592,1812],[7.258889982494193,45.847771608602756,1812],[7.258892030708332,45.847758141000014,1811],[7.258894013409537,45.84775486086784,1810],[7.258902975385104,45.84774064000435,1810],[7.25893081823199,45.84773160944271,1809],[7.2589627636907945,45.84773559840038,1808],[7.258978071194895,45.84774283492889,1807],[7.258975532934955,45.84775995553282,1807],[7.25897508508782,45.84777430616816,1806],[7.258981122619921,45.8477949038316,1805],[7.258978524139873,45.84782790294866,1804],[7.2590240235418815,45.847877700865894,1804],[7.2590407253956455,45.84800719596157,1803],[7.259029431905102,45.848300785648604,1802],[7.259016166148753,45.8485232365967,1801],[7.25904424870299,45.84861891506924,1801],[7.259042056968949,45.84864094347862,1800],[7.25905978515594,45.848650931412216,1799],[7.259076540844694,45.84864391984223,1799],[7.259084892926533,45.84863319173216,1798],[7.259324684358345,45.848544396421005,1797],[7.259363628410711,45.848538905570926,1796],[7.2594533843133195,45.848496850726484,1796],[7.259615619083369,45.84846597335736,1795],[7.259707515947153,45.848431573381795,1794],[7.2597225153867795,45.848460172097425,1793],[7.2596675187262205,45.84856726898339,1793],[7.2596689194706645,45.84862516658057,1792],[7.259668698971679,45.84865250557613,1791],[7.259663231457776,45.84866712985257,1790],[7.259642883246738,45.84868501777683,1790],[7.259633863873618,45.84869294653308,1789],[7.259614654766122,45.848714365568235,1788],[7.259607712221538,45.84872809252874,1788],[7.259602492763445,45.848766883089944,1787],[7.259603628990496,45.84877525458442,1786],[7.259606160108813,45.8487939033015,1785],[7.259589127190744,45.848825860769644,1785],[7.259571388845936,45.848848352553595,1784],[7.259505650157275,45.84891161028694,1783],[7.259474082593625,45.84895971802891,1782],[7.259441534159718,45.848991088949624,1782],[7.259399577454055,45.8490349233806,1781],[7.2593622313521875,45.8490755005991,1780],[7.25932474994857,45.849120453544046,1779],[7.259271130851316,45.84916866262176,1779],[7.25921629369014,45.84919164025676,1778],[7.259181798184404,45.84920512191267,1777],[7.259178976314873,45.84921523407424,1777],[7.259195689528145,45.84922564393808,1776],[7.259457325364109,45.849228901747615,1775],[7.259479757837096,45.84922752176997,1774],[7.259502114763791,45.84922567351542,1774],[7.259560727082839,45.84922621643678,1773],[7.25962181332874,45.84921173842996,1772],[7.25963800425465,45.84920673246591,1771],[7.259641549453617,45.849206747776634,1771],[7.259650970654417,45.84922478953162,1770],[7.259654137406637,45.84924374764407,1769],[7.259644205038697,45.84927301236852,1768],[7.2596263233248495,45.84930005438366,1768],[7.2595995684301435,45.84932240879834,1767],[7.259573847805066,45.849343728616674,1766],[7.2595244327238895,45.84938569797523,1766],[7.259461101348003,45.849423954110804,1765],[7.259419047635989,45.84945483007512,1764],[7.259404654448589,45.84949855887188,1763],[7.259399143072087,45.84951458382958,1763],[7.259393566177704,45.84953270848478,1762],[7.259378387595395,45.84953737972378,1761],[7.259363948432471,45.84955046681241,1760],[7.25935320962952,45.84957341533357,1760],[7.259342908966497,45.84958236318922,1759],[7.259318561014529,45.84959179722141,1758],[7.259285110503467,45.84960389436765,1757],[7.259236480074276,45.849620662703785,1757],[7.25921300384653,45.849634312289794,1756],[7.25919956616234,45.84964741461917,1755],[7.259165766078263,45.84967071191567,1755],[7.2591365367402805,45.84970808710009,1754],[7.259133409907698,45.84972186227992,1753],[7.259133051509721,45.84972344179046,1752],[7.259155697656268,45.84973639378801,1752],[7.259188667662249,45.84973969806192,1751],[7.259248352931331,45.849736334214775,1750],[7.259498845946151,45.849737631041066,1749],[7.259519245379651,45.849749529887454,1749],[7.2597286388826205,45.84972262813125,1748],[7.259803308860162,45.84969863562557,1747],[7.259868315940192,45.849662856540526,1746],[7.259926145528427,45.84965638412994,1746],[7.259953182889483,45.84964103716289,1745],[7.259975020759876,45.849635767053016,1744],[7.259997368276418,45.849642235838516,1744],[7.260010308953902,45.84965311374192,1743],[7.260016301700164,45.84966983868471,1742],[7.260012554582202,45.84969355619531,1741],[7.260018344113841,45.849732859174864,1741],[7.259998462049725,45.84975177310665,1740],[7.259989412742479,45.84976074008126,1739],[7.259989820638346,45.84977177719869,1738],[7.260081359802719,45.84984128212848,1738],[7.260073134563945,45.84995881652101,1737],[7.2600494929034545,45.849995404006215,1736],[7.259981038740017,45.850039614472934,1735],[7.259950908841975,45.85005946134591,1735],[7.259950151317912,45.850059550611405,1734],[7.2599125839762655,45.85007508729028,1733],[7.259892591311396,45.850089490312044,1733],[7.259880003041309,45.85010616532229,1732],[7.259876910354899,45.850110262899754,1731],[7.25985321439814,45.85013091338895,1730],[7.2598255013269135,45.85015185189349,1730],[7.259801087673376,45.85016338662293,1729],[7.2597641848085175,45.85017367983559,1728],[7.259636479573047,45.8501939310792,1727],[7.259592348515767,45.85020835690531,1727],[7.259499847492595,45.850233911872294,1726],[7.259468266668697,45.8502463003709,1725],[7.259420540294824,45.850266233602966,1724],[7.259357056566482,45.85029328094351,1724],[7.259277654526807,45.85031658451811,1723],[7.259231265209089,45.85034179158543,1722],[7.25921554025316,45.85036396387512,1722],[7.2592161380052165,45.850368540692756,1721],[7.259217967307542,45.85038256060801,1720],[7.2592311959788685,45.850392217131215,1719],[7.259255073354431,45.850397833634545,1719],[7.259285148317329,45.85039759170326,1718],[7.259348972269403,45.85039576243759,1717],[7.259394182371742,45.85039224904487,1716],[7.259440448620643,45.850387001147034,1716],[7.259461783382279,45.850378837038065,1715],[7.259470372290532,45.85037555045046,1714],[7.2594915398803765,45.850371670684325,1713],[7.259516899030935,45.85037801084219,1713],[7.259544164320671,45.850387531080514,1712],[7.259566793148577,45.850393041191495,1711],[7.259568341843903,45.850393807321275,1711],[7.259617452760823,45.850403434469634,1710],[7.259796094239192,45.85040379972688,1709],[7.260087535681925,45.85035406120377,1708],[7.26022933713012,45.850346799327845,1708],[7.260406588004622,45.85029304188288,1707],[7.2604898992787925,45.85027289319431,1706],[7.260509813070268,45.85027109484252,1705],[7.260547181329583,45.85027796775864,1705],[7.2605614222044,45.850277308869686,1704],[7.260576431746035,45.85027806214745,1703],[7.260594321679641,45.850274833399396,1702],[7.260611803625776,45.850268621100355,1702],[7.260636238986623,45.850256386296415,1701],[7.2607131583372,45.850232343743976,1700],[7.260824835258527,45.85018641930621,1700],[7.260906109816797,45.85015123742023,1699],[7.2609489696973855,45.85012667617254,1698],[7.261050235350946,45.85009319898855,1697],[7.261206338112237,45.8500367440525,1697],[7.261303640881566,45.85000180585786,1696],[7.261373763556004,45.85000287315992,1695],[7.261392463053331,45.8499994099972,1694],[7.261513795577653,45.850012597134764,1694],[7.261691890173572,45.84996479620533,1693],[7.262197123374838,45.84993861667971,1692],[7.262492883989587,45.84985831562564,1691],[7.2625748481149595,45.8498446540219,1691],[7.262639396101796,45.84983162841785,1690],[7.262723106839826,45.84984690889235,1689],[7.26281439530561,45.849876311883946,1689],[7.262897800982812,45.84990139263848,1688],[7.262913262839666,45.84991983829466,1687],[7.262927287108155,45.84992005155674,1686],[7.262955248470311,45.84992327767797,1686],[7.263022844864701,45.84994111471881,1685],[7.263107512770993,45.849990026899356,1684],[7.263184297870532,45.85003461777248,1683],[7.263270648861431,45.85011027223975,1683],[7.263479746613156,45.85030489970893,1682],[7.263480647941612,45.850388897137464,1681],[7.263404852144168,45.85047439453228,1680],[7.263327154436758,45.85049719490715,1680],[7.263216059171168,45.85060279254934,1679],[7.263247258762306,45.85064379034983,1678],[7.263198061066234,45.85068069016254,1678],[7.263196761516945,45.85070608936087,1677],[7.263379659834141,45.850900680465045,1676],[7.263434659586552,45.850915879444436,1675],[7.263503560209567,45.851108871384966,1675],[7.26357196011007,45.85118216822976,1674],[7.263790856365817,45.85131796075946,1673],[7.263846256997809,45.851374258797684,1672],[7.26392025513454,45.851396656800745,1672],[7.2640215531801955,45.85146595314446,1671],[7.264096851729917,45.85149135173013,1670],[7.264208649252671,45.8515018502847,1669],[7.26431524721283,45.85154794734408,1669],[7.26454974167363,45.851595642706975,1668],[7.264643139193824,45.851649740084625,1667],[7.264646639726356,45.85168613871079,1667],[7.26480223755956,45.85177123411793,1666],[7.264881335781843,45.85179483221758,1665],[7.264932235797746,45.85183582997126,1664],[7.265123445247521,45.851892755436324,1664],[7.265135143879484,45.85186385638945,1663],[7.265186842412944,45.851846055692334,1662],[7.265332039672007,45.851858753350925,1661],[7.2654106357115245,45.85181045450097,1661],[7.265555131202231,45.851782053458365,1660],[7.2656527281444925,45.851719355175135,1659],[7.265732925407843,45.851693154813844,1658],[7.2658921065806155,45.85171412302846,1658],[7.265931284591059,45.85171487077369,1657],[7.265949404012478,45.851712344002465,1656],[7.265974272820224,45.85168610730431,1656],[7.265991694712099,45.851641548833655,1655],[7.265978801613747,45.85160493296869,1654],[7.265957021730312,45.851531763849785,1653],[7.265940991515017,45.85146708658798,1653],[7.265959894257658,45.85143935886255,1652],[7.266002187187969,45.85143299674347,1651],[7.266014512063787,45.851423378785064,1650],[7.266003188193161,45.85140079497708,1650],[7.265997656172102,45.85138530320409,1649],[7.266001008523107,45.851341930721695,1648],[7.26601411806822,45.85130711093019,1647],[7.266045519630761,45.85126416511619,1647],[7.266098396498415,45.85123975399072,1646],[7.266184190532695,45.85123563616161,1645],[7.266458687061738,45.85133191412801,1645],[7.266536985246306,45.851327213358005,1644],[7.266621281361706,45.85127261438047,1643],[7.266731678569576,45.85125771346469,1642],[7.266753877471523,45.851271912720655,1642],[7.26681247640107,45.85125741293143,1641],[7.266924170949391,45.851183713844605,1640],[7.267006366515447,45.851037717765855,1639],[7.267134265024746,45.851157412166195,1639],[7.26716496216098,45.85103851621097,1638],[7.267194060762713,45.85101701642073,1637],[7.267298460192543,45.85109571192829,1636],[7.267328155873922,45.850918317882154,1636],[7.267402554824357,45.85096001568482,1635],[7.267536051669325,45.851004312621406,1634],[7.267592548353435,45.85091681513541,1634],[7.267664246741317,45.850961412244914,1633],[7.267689446257756,45.85094991295515,1632],[7.267691645337879,45.850904813754426,1631],[7.267754140782952,45.8507660184228,1631],[7.267786240034308,45.85075521776777,1630],[7.267902939111014,45.85087691238127,1629],[7.267939238474144,45.850884611806805,1628],[7.267942837190261,45.85081251459589,1628],[7.267971434270271,45.8507484161678,1627],[7.268163525806547,45.85056611995534,1626],[7.268237326856216,45.850679315501324,1625],[7.268316521722902,45.85054831896429,1625],[7.268431816832588,45.85043432144423,1624],[7.268656607965661,45.85032042275214,1623],[7.268874501002028,45.85028912114221,1623],[7.269133892582657,45.85016842222239,1622],[7.269350486602168,45.85016621904611,1621],[7.269621478165127,45.85012981708905,1620],[7.269642077467033,45.85014161634699,1620],[7.269716275460677,45.850114616676635,1619],[7.269755974126698,45.85012121586285,1618],[7.269845743747621,45.85009154663485,1617],[7.269892765865682,45.85004199513353,1617],[7.269950164052538,45.85003819503471,1616],[7.269941264835466,45.85009669252365,1615],[7.270005845201823,45.85012103384737,1614],[7.270142983352931,45.850154152176515,1614],[7.270248034124284,45.850170513523295,1613]]}}]}