{"type":"FeatureCollection","features":[{"type":"Feature","properties":{"slug":"av2-s1","sct_code":"AV2_S1","source":"Catasto Sentieri VdA"},"geometry":{"type":"LineString","coordinates":[[6.839526637738969,45.7668791199678,1200],[6.839557533699282,45.76688238122877,1201],[6.839702236081617,45.76678875558042,1202],[6.839891930019597,45.766762602219316,1202],[6.840028678559991,45.76679790404925,1203],[6.840102913110119,45.766856412301316,1204],[6.840341471758385,45.76685640110729,1205],[6.840387472254654,45.76700140102537,1205],[6.840394041624772,45.76699872967238,1206],[6.840513266119421,45.76699265685001,1207],[6.840636671631091,45.76721098731024,1208],[6.840923114164116,45.76736463826235,1208],[6.841167510771689,45.76746443611617,1209],[6.841269333228487,45.76749472083411,1210],[6.841359973722868,45.7675336983817,1211],[6.841493551317772,45.767569893474416,1211],[6.8416659600141125,45.76760109792233,1212],[6.841892438725996,45.76758480173315,1213],[6.8422193635500586,45.76749662879608,1214],[6.842408189295533,45.76752965801057,1214],[6.842457380891364,45.76751445651221,1215],[6.842532996221048,45.767516115450725,1216],[6.842624824664346,45.76753468580262,1217],[6.843723559522267,45.76775519196217,1217],[6.844096593133136,45.7677532340924,1218],[6.844251501694314,45.76773815716924,1219],[6.844435150503214,45.767690723567306,1220],[6.84458771426817,45.76769049970047,1220],[6.844855858219231,45.76774056316925,1221],[6.845265713357905,45.76778429927218,1222],[6.84545848275376,45.767787936223364,1223],[6.8457940019741415,45.76775826329265,1223],[6.84637127134811,45.76779615265986,1224],[6.846565425942601,45.767763811518755,1225],[6.8466310674089765,45.76772904691106,1226],[6.846659193659617,45.767666573145725,1226],[6.8465108647930935,45.7675107662699,1227],[6.8464504175588665,45.76741061996212,1228],[6.846492780081115,45.76731241234523,1229],[6.846570925990144,45.76728688415188,1229],[6.846699091657722,45.76729830139228,1230],[6.846785934088434,45.767380944064726,1231],[6.847005485822061,45.76769110329843,1232],[6.847040577906937,45.76778177072479,1232],[6.847128460070641,45.76783743097301,1233],[6.8474473203215265,45.76790644557931,1234],[6.8475862624090595,45.767972068454014,1235],[6.848208762679657,45.7685058331753,1235],[6.848516160455062,45.768538626468896,1236],[6.849070504088667,45.76850406558425,1237],[6.849365396758517,45.76852762047887,1238],[6.853233942780467,45.76959947110883,1238],[6.858718325180411,45.77113352603407,1239],[6.860050253815362,45.77161752108167,1240],[6.861493062994997,45.7722295849474,1241],[6.861644541324689,45.77230442595704,1241],[6.861895401500486,45.772471133193356,1242],[6.862136504913026,45.77255665203513,1243],[6.86232791776718,45.77259623738068,1244],[6.862509194185082,45.772623751025144,1244],[6.862698111472766,45.77264037267167,1245],[6.863205751587526,45.77263559611595,1246],[6.863955576721796,45.772619914947526,1247],[6.864140127619307,45.7726301440338,1247],[6.8644251069181745,45.77271312858493,1248],[6.864695366752251,45.77284785604033,1249],[6.864791925908731,45.77287910498047,1250],[6.865012545689722,45.77288917805574,1250],[6.865218125571039,45.77293474955922,1251],[6.865397750275088,45.77301891426376,1252],[6.865565577581219,45.77312049572357,1253],[6.865642064952153,45.77320996075334,1253],[6.865671948439427,45.773270821298716,1254],[6.865827364204246,45.773579745280216,1255],[6.866012948988124,45.773772225295545,1256],[6.866189113890701,45.77387452325308,1256],[6.866341289407802,45.7739313698758,1257],[6.866545563056785,45.77397118840605,1258],[6.866756627222432,45.77398503444605,1259],[6.86726995360797,45.77398748346878,1260],[6.867471657627233,45.77397048393019,1260],[6.867761271535324,45.77409896896049,1261],[6.868155428653356,45.77425326712418,1262],[6.8683948355828806,45.7743837439028,1263],[6.868600897934444,45.77452989250739,1263],[6.8687520494698,45.774613718514715,1264],[6.8692009786080055,45.774830815108075,1265],[6.869642614483261,45.77505506794121,1266],[6.869820160605808,45.775121383738025,1266],[6.870824946840686,45.77541913866435,1267],[6.871087504510986,45.7755171091768,1268],[6.871822066092307,45.7756042788065,1269],[6.872010657962795,45.775638542572096,1269],[6.872301196947755,45.77568797314777,1270],[6.872519044969548,45.77572653256566,1271],[6.8726748028242595,45.7757437098278,1272],[6.872788719990313,45.77574345199024,1272],[6.872904833775005,45.775730149021186,1273],[6.872946919793174,45.775696432788436,1274],[6.8729732371240155,45.775630301615344,1275],[6.872978623859012,45.77557805641875,1275],[6.872997576775606,45.77548204659066,1276],[6.872997009973568,45.77547067281275,1277],[6.873197008347822,45.77532522023187,1278],[6.873607628060013,45.77512427900729,1278],[6.873652280734455,45.77512008807411,1279],[6.873931984630415,45.77509674385551,1280],[6.874227565973632,45.77505822880809,1281],[6.874340415241169,45.775041293986845,1281],[6.874440786495839,45.77503959339855,1282],[6.8745446439475515,45.77503557785223,1283],[6.874611126844386,45.77503086666383,1284],[6.874658922426833,45.77502580856861,1284],[6.874760150788227,45.775001519613916,1285],[6.874836122218817,45.774970812103625,1286],[6.874886972450231,45.774940945774915,1287],[6.875641073516602,45.774736261649494,1287],[6.875677335263956,45.77471105501541,1288],[6.875812720522174,45.774682641872076,1289],[6.875869913474219,45.77465396414618,1290],[6.87603248156979,45.77462605632138,1290],[6.87604090696817,45.77462773231241,1291],[6.87608700828236,45.77461521933749,1292],[6.876427008005581,45.774645219755804,1293],[6.876687008011864,45.7747152199572,1293],[6.876897008478491,45.77494522029094,1294],[6.877064775323748,45.77502910293572,1295],[6.877079718102729,45.77502949231087,1296],[6.877178027840064,45.77503726819816,1296],[6.877243316789721,45.775049705473684,1297],[6.877289839663817,45.77504767381416,1298],[6.877441115984015,45.77509331378691,1299],[6.8775666390013175,45.775145612403534,1299],[6.877584036840457,45.775157534767644,1300],[6.877651090912683,45.775182574810664,1301],[6.87770951501433,45.775211022268465,1302],[6.877833925801963,45.77524783513966,1302],[6.877893566808912,45.775244184777485,1303],[6.877913022388893,45.77522432200802,1304],[6.8779127719712605,45.77521451573299,1305],[6.877935961613493,45.77520108934765,1305],[6.877955509817874,45.77517990340783,1306],[6.877955479730452,45.77513588555541,1307],[6.877960682596418,45.7750883953097,1308],[6.8779787095432985,45.77506136853017,1308],[6.878014611832074,45.77505608714156,1309],[6.878062180377264,45.77505697098013,1310],[6.8780934374434946,45.77503970630273,1311],[6.878106591400867,45.77503615515937,1311],[6.878107007621791,45.775035219632755,1312],[6.877837007555123,45.774725219321105,1313],[6.877809948432071,45.7745356720904,1314],[6.877887007722797,45.77446521913626,1314],[6.8783775995319045,45.77440583793478,1315],[6.878377007687665,45.774315219079504,1316],[6.87848700792054,45.77424521925979,1317],[6.878375137423004,45.77411224212842,1317],[6.878437007432925,45.77401521954892,1318],[6.878537007981446,45.77393521879084,1319],[6.878807007786127,45.773925219223464,1320],[6.878997007303154,45.77378521860626,1321],[6.879227008278543,45.773545218886845,1321],[6.879302525365024,45.77350697368371,1322],[6.8795303314536875,45.7733949144415,1323],[6.879664464579445,45.77335457652066,1324],[6.879795095576107,45.77336176035685,1324],[6.880104398626223,45.77325240190155,1325],[6.880286098028346,45.773212947076786,1326],[6.880397007363904,45.773155218362916,1327],[6.880567008037427,45.77296521838394,1327],[6.8806470077224455,45.77297521844846,1328],[6.880681796662863,45.773021913674,1329],[6.880664479721258,45.77307512683098,1330],[6.880684131958231,45.773139734016375,1330],[6.880728289224582,45.77318576062197,1331],[6.8807790293037225,45.77319265066201,1332],[6.880857169952764,45.77305966807308,1333],[6.88135700825787,45.77256521838635,1333],[6.881567007451407,45.77249521833236,1334],[6.881797007952887,45.772245217354154,1335],[6.8819970075826795,45.772205218067576,1336],[6.88196063401307,45.77211323715959,1336],[6.881898347323464,45.772052152546664,1337],[6.8820364481893215,45.77195180748433,1338],[6.882133014989205,45.77181470503381,1339],[6.882146661820673,45.77176856104178,1339],[6.88220185691493,45.7717475754804,1340],[6.88232624641791,45.771762373976216,1341],[6.882442049714279,45.771678419032405,1342],[6.882470895571773,45.77163493566905,1342],[6.882569370279096,45.77159333912322,1343],[6.882614917387139,45.77153529552361,1344],[6.882699417832299,45.771503551024125,1345],[6.882757199293645,45.77150402731287,1345],[6.8828340844932185,45.77149385362231,1346],[6.882873573215468,45.771438671396396,1347],[6.88286932907536,45.77142212076513,1348],[6.882910779663216,45.771366855187296,1348],[6.8829168521666215,45.771328240080464,1349],[6.882975443938794,45.77121749766504,1350],[6.883056107626629,45.77115237154686,1351],[6.883075852752694,45.77114675666634,1351],[6.883137008113781,45.77106521635043,1352],[6.883180129866933,45.77101964286685,1353],[6.883234152809483,45.770939747009336,1354],[6.883269251505095,45.77073101624737,1354],[6.883267583616537,45.77072159683249,1355],[6.883327007296599,45.770565216021936,1356],[6.883797007427013,45.77009521597884,1357],[6.883822044635059,45.77007147826205,1357],[6.88401205219947,45.769958113794715,1358],[6.884095063969359,45.769875780831164,1359],[6.884202725800107,45.769759700490866,1360],[6.884249946227894,45.769702282164204,1360],[6.884281500427166,45.769632081688854,1361],[6.8843208274732905,45.76953614943787,1362],[6.884317547967398,45.7695105108415,1363],[6.884305684619797,45.769487092978125,1363],[6.884300435016614,45.76946855534233,1364],[6.8842911700660805,45.76942139258594,1365],[6.884274328268032,45.76937230374701,1366],[6.884271272351862,45.7693407208087,1366],[6.884273088683115,45.76931517661459,1367],[6.884282257051875,45.7692975019191,1368],[6.88430791722739,45.769293218683366,1369],[6.884340885791693,45.769297993104615,1369],[6.884375259810858,45.769310526848976,1370],[6.8843751778985585,45.76931082235064,1371],[6.884389687772777,45.76931109114354,1372],[6.884408508137849,45.76930787105558,1372],[6.884409436550685,45.76928332477607,1373],[6.884410385441713,45.769258237040994,1374],[6.88442224201634,45.769214439350385,1375],[6.884458554274177,45.76915324923519,1375],[6.884485214429666,45.76907760449594,1376],[6.884510570602437,45.76903643571281,1377],[6.884553542563962,45.76897893765757,1378],[6.884592668064607,45.76893326530275,1379],[6.884645778238329,45.768922352984895,1379],[6.88468945048994,45.7689362478383,1380],[6.884718858787065,45.76896772392776,1381],[6.884732323905839,45.76899616133836,1382],[6.884742720465,45.76901099424161,1382],[6.884750764736267,45.769023039299334,1383],[6.88477414257392,45.76903417938023,1384],[6.884796675587475,45.769022699756285,1385],[6.884839479854508,45.768995237918624,1385],[6.8848504151945455,45.768995143430566,1386],[6.8849485922341955,45.768959274476416,1387],[6.88497799643022,45.76894783746438,1388],[6.885045415379841,45.76891815462901,1388],[6.885073178904837,45.76890320308476,1389],[6.885112744343672,45.76889084984034,1390],[6.885149406185255,45.76886535597169,1391],[6.885230794126333,45.76878969033175,1391],[6.885347007823056,45.76873521510688,1392],[6.885570207681672,45.76867370472149,1393],[6.885582788870591,45.76866548611074,1394],[6.885674259072944,45.76862911073416,1394],[6.885741765879708,45.76859704936009,1395],[6.885846331119563,45.7685740022139,1396],[6.88592197332311,45.768551609447634,1397],[6.885967173272566,45.76852508349052,1397],[6.886010449516458,45.76850447038923,1398],[6.886039462285524,45.76850143869899,1399],[6.886079872621714,45.76851170391238,1400],[6.886108391199638,45.768521748998985,1400],[6.88611580303243,45.76852334428348,1401],[6.886236821798618,45.76848999234479,1402],[6.886329619584503,45.76849283043542,1403],[6.886358767090455,45.7684862324281,1403],[6.886439775540038,45.76845680027519,1404],[6.886542910769319,45.76842658766646,1405],[6.886608808943947,45.768392117156836,1406],[6.886610120798674,45.768387111909554,1406],[6.886617007415508,45.76838521421811,1407],[6.886676800348754,45.76833597414673,1408],[6.886722898051272,45.76828567147138,1409],[6.886795105609545,45.76821919633709,1409],[6.886854118835436,45.76818697804104,1410],[6.886927190919154,45.76816365589582,1411],[6.886967008201277,45.76813521453174,1412],[6.887068867111393,45.76809603845675,1412],[6.887072809543554,45.76809019981625,1413],[6.887175502082069,45.76802666820001,1414],[6.887260085758569,45.76799254300025,1415],[6.887339796865327,45.767952379117375,1415],[6.887432604631838,45.767925543385815,1416],[6.8875172764937735,45.76788904077318,1417],[6.887656755872776,45.767841654873145,1418],[6.8877241721027,45.76781197040229,1418],[6.88778126224233,45.76778566364016,1419],[6.887835888927753,45.76777953559161,1420],[6.8878770085565595,45.76778521399167,1421],[6.887917007418674,45.767805214073356,1421],[6.887882906102241,45.76783988907656,1422],[6.887853393137097,45.767901206038665,1423],[6.887825309775546,45.76796968689227,1424],[6.88779918651357,45.76807627374083,1424],[6.887796695045845,45.76814225411106,1425],[6.8878136294208145,45.76818896439574,1426],[6.887821135530214,45.76821527600354,1427],[6.887840487189676,45.76824299656592,1427],[6.887867749057495,45.76828632821389,1428],[6.887892018219355,45.768318898318974,1429],[6.887910030087429,45.76833707597854,1430],[6.88794216458811,45.76838644710473,1430],[6.887947074012556,45.76843650371137,1431],[6.888017008218238,45.76848521477469,1432],[6.888013230506304,45.76853022341202,1433],[6.887983717291396,45.768591540397,1433],[6.8879542489064205,45.76865166832644,1434],[6.887939591957249,45.768679651882806,1435],[6.88790825294939,45.76869929750539,1436],[6.887864969141691,45.76876511749074,1436],[6.887851327826132,45.76881126228459,1437],[6.887824582535744,45.768889285987356,1438],[6.8878038509934285,45.768895309174084,1439],[6.887810319533328,45.76890686764345,1440],[6.887771440122161,45.76896860538236,1440],[6.887753259284631,45.76902239950075,1441],[6.887757925131627,45.769056390974356,1442],[6.887759056061366,45.76911648984918,1443],[6.887763407640219,45.76915880374434,1443],[6.887774247503567,45.7692234951696,1444],[6.887761638965033,45.769261323615986,1445],[6.887733028228514,45.76928806440121,1446],[6.887726561835449,45.76932422973097,1446],[6.887710573729464,45.769364977555654,1447],[6.887705987212276,45.769396419048036,1448],[6.887715505452308,45.76941443963921,1449],[6.887736825872453,45.76943505826916,1449],[6.887770729404017,45.769460073289174,1450],[6.887827007598886,45.76948521589404,1451],[6.88785864203732,45.76948415475144,1452],[6.887999008198203,45.7695034053155,1452],[6.888082538748514,45.76953097429537,1453],[6.8881383927876545,45.76955996474985,1454],[6.888165748572134,45.76957831515162,1455],[6.888191697069314,45.76958890712807,1455],[6.888222765152997,45.769598998827725,1456],[6.888283335665432,45.76961558452274,1457],[6.888321733995771,45.76963413997006,1458],[6.888366411118741,45.76966649237606,1458],[6.888375134651168,45.76967654530723,1459],[6.888468159844654,45.76970901576058,1460],[6.888511339900789,45.7697112560014,1461],[6.8885794217177,45.76973154914104,1461],[6.888630807349707,45.76974380117339,1462],[6.888664153622948,45.7697610732282,1463],[6.888692610611013,45.769787361668605,1464],[6.888887008052325,45.769855215855,1464],[6.888982161507019,45.76992955450954,1465],[6.889026889872149,45.76994652561665,1466],[6.889036948288516,45.76995028116576,1467],[6.889064147532406,45.76997279212384,1467],[6.88908225130265,45.769988592439276,1468],[6.8891294091417565,45.77002277521101,1469],[6.889165326760854,45.77003949970695,1470],[6.889191141082206,45.77005365770362,1470],[6.8892088635672915,45.770079563099166,1471],[6.889215408881638,45.77010883063937,1472],[6.88921420629404,45.770112785767274,1473],[6.88922415026059,45.770136206343835,1473],[6.889245516384443,45.770155635657375,1474],[6.8892937454708205,45.77020649282536,1475],[6.889448890642815,45.77038602608413,1476],[6.889473450434583,45.77043347106316,1476],[6.889500582751876,45.77045776639259,1477],[6.889535292364632,45.77048398565556,1478],[6.8895793680562445,45.77050978304833,1479],[6.889624022888514,45.770542729482415,1479],[6.889664275702952,45.77057975732241,1480],[6.889712440914764,45.77060979479779,1481],[6.88977724219476,45.770655787147746,1482],[6.889787008265873,45.77066521659154,1482],[6.88979415746384,45.77068550997926,1483],[6.889800616103334,45.77069455158824,1484],[6.889829402941079,45.77072006638538,1485],[6.889860180404261,45.77073788556118,1485],[6.889900367546751,45.77075409377225,1486],[6.889974015433403,45.77078460106233,1487],[6.890011590427144,45.770793549711584,1488],[6.890207007698769,45.77090521637454,1488],[6.890236500264398,45.770924031476405,1489],[6.890249574689305,45.770937953880036,1490],[6.890263967005093,45.77096201367403,1491],[6.890271696361309,45.77100498389617,1491],[6.890292368091203,45.77104284056077,1492],[6.890295510752243,45.771100891119254,1493],[6.890296094573004,45.77114685613905,1494],[6.890292514530124,45.771174152652364,1494],[6.8903000670130385,45.77119927506438,1495],[6.890309025815978,45.77123215674828,1496],[6.890309222680686,45.771272014029414,1497],[6.8903219608566335,45.77129485338211,1498],[6.89035857788922,45.77131560467443,1498],[6.89033759909132,45.771392917303054,1499],[6.890376173811039,45.771451923891895,1500],[6.890379277176855,45.7715048469914,1501],[6.890398519110472,45.771535538866715,1501],[6.890421685587917,45.77156362646149,1502],[6.89041502442296,45.771604993364015,1503],[6.890413914626791,45.77163441644208,1504],[6.8904239261838205,45.77166196401963,1504],[6.890434574899972,45.77168387190516,1505],[6.890460917882463,45.77170739997229,1506],[6.890505030007025,45.771787782555,1507],[6.890528898649984,45.7718310508636,1507],[6.890550082831019,45.77187783921052,1508],[6.890551279148339,45.77191435593368,1509],[6.8905545888435045,45.77196119934782,1510],[6.89056742580077,45.77200396686491,1510],[6.890586220892222,45.77204654741063,1511],[6.890605395847707,45.77207902282486,1512],[6.890633157147275,45.77210188400307,1513],[6.890645985378337,45.77210713425906,1513],[6.890695246283339,45.77215325127123,1514],[6.890757007823711,45.772215217830315,1515],[6.890877008145147,45.772315218068535,1516],[6.8910062452157455,45.7723464137603,1516],[6.891047893858109,45.77236875543976,1517],[6.891061930470272,45.77237972082549,1518],[6.89112389017962,45.77240465888542,1519],[6.891173803850845,45.772410934105324,1519],[6.891292229719055,45.772369846952024,1520],[6.891365147112136,45.772352157978915,1521],[6.891451231131482,45.77232341093353,1522],[6.891514180278685,45.77229959024417,1522],[6.891592374825385,45.77225463681181,1523],[6.891607007621181,45.77224521783848,1524],[6.8917366893865495,45.772127325518774,1525],[6.8917647692641335,45.77211223418463,1525],[6.891805878493496,45.77208146674861,1526],[6.8918399921068145,45.77205592370392,1527],[6.891843857714378,45.77205218601809,1528],[6.891856510513706,45.77205741849862,1528],[6.891871975592626,45.772098152547976,1529],[6.8918708837872185,45.7721016291169,1530],[6.891897007857465,45.77213521725028,1531],[6.8919096101112025,45.772182124145736,1531],[6.891907104391045,45.77220349205668,1532],[6.891879516516567,45.77225889707372,1533],[6.891853159436734,45.77233982522659,1534],[6.891838732693943,45.77239376576848,1534],[6.8918489660177285,45.77243797197061,1535],[6.891860808851871,45.772484587633286,1536],[6.891880075586588,45.77251468567312,1537],[6.891907969945923,45.772541372438376,1537],[6.891954461320056,45.77257078312082,1538],[6.89201512711627,45.77258498883075,1539],[6.892066495539366,45.7725752298897,1540],[6.892101860860129,45.77253900369064,1540],[6.892115186072873,45.77250117991266,1541],[6.892169959594256,45.7724010694195,1542],[6.892226700880247,45.77229385686141,1543],[6.892230908191865,45.77227818530904,1543],[6.8924370082486766,45.77214521799488,1544],[6.8925020469564995,45.77212125621019,1545],[6.892561867323426,45.77208382054215,1546],[6.892641761153164,45.77203889774725,1546],[6.892653239639919,45.77203399542646,1547],[6.89273163885587,45.771910797605116,1548],[6.892773654341165,45.771877157357935,1549],[6.892834379937686,45.77182206652268,1549],[6.892859014722777,45.77179991700888,1550],[6.892901846048422,45.77174598287253,1551],[6.892973782281355,45.771686637214856,1552],[6.893064317879316,45.771584806316824,1552],[6.893116628334879,45.77150487420688,1553],[6.893216015850079,45.77139368928119,1554],[6.893318206590672,45.77132092272437,1555],[6.893375430878235,45.771291046923324,1555],[6.8934454430311405,45.7712376139532,1556],[6.893495202801868,45.77118023776014,1557],[6.893535529274234,45.77114767134643,1558],[6.893596017151328,45.77112142435746,1559],[6.89367308912032,45.77110619028731,1559],[6.893709390453521,45.77109020513758,1560],[6.89373558936069,45.77107165300763,1561],[6.893774395595881,45.77103429986798,1562],[6.893831932744242,45.770996101375594,1562],[6.893900556333563,45.770979522370695,1563],[6.893960550143551,45.770966352912204,1564],[6.894075792139501,45.77090810216065,1565],[6.894124252866123,45.77088520273967,1565],[6.894237984793583,45.77084447149941,1566],[6.894319439052831,45.77080314502401,1567],[6.894338779434394,45.77079191787511,1568],[6.8944525254378215,45.770774684480614,1568],[6.894504016687444,45.77075450044029,1569],[6.894531599687634,45.770744301876015,1570],[6.894646448342854,45.77071905740374,1571],[6.894756216520093,45.770728670194806,1571],[6.89482598223086,45.770736642753285,1572],[6.89489755468649,45.770732013565485,1573],[6.8949422153541695,45.7707197508354,1574],[6.8949770076564745,45.77069521662312,1574],[6.89499921689965,45.77065061050612,1575],[6.8950753940893525,45.77061394572884,1576],[6.895133869727656,45.7705959881678,1577],[6.895257041332767,45.7705852082914,1577],[6.895440247453803,45.770539407200054,1578],[6.895477684662998,45.7705169665054,1579],[6.8955702681202515,45.7704960685116,1580],[6.895639963517366,45.770496162874146,1580],[6.8956952177374955,45.770518595150534,1581],[6.89569722583222,45.77051947190461,1582],[6.895740190899312,45.7705206136777,1583],[6.895789365779654,45.77052389857913,1583],[6.895886107159792,45.770528060733696,1584],[6.895985396069284,45.77050966569619,1585],[6.895991028432333,45.77050777403428,1586],[6.896147008099363,45.77050521660432,1586],[6.896268288763523,45.77049108409038,1587],[6.896408259524793,45.77045321377169,1588],[6.896487118382404,45.77043563096229,1589],[6.896553033576191,45.77040994499859,1589],[6.896714450570602,45.770382662453024,1590],[6.896797402856135,45.77038929795865,1591],[6.896850242763505,45.77038551244222,1592],[6.896913724148063,45.770370025904555,1592],[6.8969603961085975,45.77034947119054,1593],[6.896999405892208,45.77034340489898,1594],[6.8972860081243885,45.770335216338495,1595],[6.897314749084007,45.77034010808396,1595],[6.897351963737634,45.77035668106889,1596],[6.897419513010632,45.770368631791804,1597],[6.89749001228198,45.77039253374368,1598],[6.8975761135821045,45.770408394641606,1598],[6.897692435737096,45.770434328996316,1599],[6.897778849932264,45.77044186816925,1600],[6.89778986103115,45.77044342634089,1601],[6.897936008503601,45.770565216530095,1601],[6.898246821654916,45.77068705694835,1602],[6.898262617722616,45.77070982208068,1603],[6.898311124143288,45.77073093903159,1604],[6.898364412614505,45.77076047129353,1604],[6.898404781023087,45.77077192123923,1605],[6.898455834051915,45.770770481849105,1606],[6.8984598247288655,45.77077055528329,1607],[6.898594026323643,45.7708231624022,1607],[6.8986302874112795,45.77085548102775,1608],[6.8986552339767675,45.77087021585029,1609],[6.898772451467126,45.770917580640095,1610],[6.898843991404379,45.770936444376765,1610],[6.898932598975899,45.77097614337584,1611],[6.899073915231095,45.77106083015414,1612],[6.899312153332014,45.771144920720666,1613],[6.899511273321658,45.77118427312278,1613],[6.899676059492698,45.771232510963436,1614],[6.899792295099914,45.77126082133162,1615],[6.899924545613679,45.77127009374254,1616],[6.900046234589692,45.77128898602518,1617],[6.900080433465177,45.77128366727346,1617],[6.900201094181504,45.77128469594778,1618],[6.900320905632081,45.771308312919906,1619],[6.900394198461223,45.771326179144154,1620],[6.900418007670692,45.771341216690594,1620],[6.90055100727167,45.77139680649399,1621],[6.90058127937002,45.771436824196144,1622],[6.900671449497579,45.77143491301437,1623],[6.900752734436441,45.77142064446413,1623],[6.900817738912724,45.771455149533274,1624],[6.9008841302328365,45.77149800828548,1625],[6.901002514752583,45.77155966713531,1626],[6.901106235893563,45.77160440171627,1626],[6.9012567651772585,45.77167022068664,1627],[6.901364419022367,45.77170075059473,1628],[6.901461657783833,45.77173703750156,1629],[6.90155156489234,45.77178746631911,1629],[6.90157600792228,45.77182521741161,1630],[6.901627416470677,45.771932320132954,1631],[6.901645320864138,45.772007195437624,1632],[6.901679796188166,45.77208515637711,1632],[6.901698041020617,45.77214259571868,1633],[6.901729965600448,45.772197907540914,1634],[6.901757330637756,45.772238858877,1635],[6.901824569732913,45.77225912861583,1635],[6.9019013334408195,45.77229741872725,1636],[6.901949619654614,45.77232447855595,1637],[6.902017487780079,45.77237331134897,1638],[6.902123490115377,45.77240262122196,1638],[6.902143748583258,45.7724066664868,1639],[6.9023721518998125,45.772527331913764,1640],[6.902379126032723,45.772567029218685,1641],[6.902401348390018,45.772609075816966,1641],[6.902428579077327,45.772653593247675,1642],[6.902476821261167,45.77268184191807,1643],[6.902532526336183,45.77269238219754,1644],[6.902549158618968,45.77270220486329,1644],[6.902568563734496,45.77272873400702,1645],[6.902588102611055,45.77275169687758,1646],[6.902624585930556,45.77277615990406,1647],[6.9026768049218745,45.772789015842136,1647],[6.90278600787225,45.772815218373474,1648],[6.902807755668873,45.77283305904211,1649],[6.90291456304976,45.7728635719356,1650],[6.903016405407897,45.772867821705084,1650],[6.90313438865258,45.77289497087075,1651],[6.90320439923836,45.77288673816931,1652],[6.903284022749046,45.772894148490245,1653],[6.903312323925802,45.772910133751104,1653],[6.903345275619638,45.77293810133575,1654],[6.903374785765097,45.77296719470512,1655],[6.903407871215261,45.772991596000786,1656],[6.903463310697073,45.77300926840136,1656],[6.903526142426023,45.77303320586281,1657],[6.903555023987444,45.773079655146304,1658],[6.903600898197402,45.77312570530084,1659],[6.9036460078484865,45.77316521868927,1659],[6.904171573060917,45.77362708123363,1660],[6.904231057713592,45.773662210292215,1661],[6.904303403284957,45.77372778033019,1662],[6.904318476964134,45.77377921256813,1662],[6.904288620823312,45.7738500446163,1663],[6.904279732779186,45.773860832510145,1664],[6.904256008342938,45.773965219581434,1665],[6.9042381456195105,45.77401745601088,1665],[6.904226845478645,45.77409219728039,1666],[6.904240041771047,45.774148353674846,1667],[6.90426038872447,45.77419512408467,1668],[6.904316008484686,45.77425521905375,1668],[6.904362125354538,45.774383768954195,1669],[6.904417415672846,45.77445080986552,1670],[6.904492586958235,45.77457710355277,1671],[6.904569228558887,45.77466416548815,1671],[6.904697187192317,45.77485626494425,1672],[6.904733857558463,45.7749211801684,1673],[6.904805314537727,45.775010525670794,1674],[6.9048517703418595,45.77504112030152,1674],[6.904931181288512,45.775099680291824,1675],[6.905058659397432,45.77512313588915,1676],[6.905173742422222,45.77513714290674,1677],[6.905282702276197,45.775178401023936,1678],[6.905422022016753,45.77522616342532,1678],[6.905554765321379,45.77524525345174,1679],[6.905659831422342,45.775254317676456,1680],[6.90574563102696,45.77527849508098,1681],[6.905846632239213,45.77530533001741,1681],[6.905998601659858,45.7753330993912,1682],[6.906069423878519,45.775348673712124,1683],[6.906123967246768,45.77534491513265,1684],[6.906256007339494,45.775335220238354,1684],[6.906269397422804,45.775562845229494,1685],[6.906262606059804,45.77559252789954,1686],[6.90625537308167,45.77564949939019,1687],[6.906276007385669,45.77567522057146,1687],[6.906292292424521,45.77574036009964,1688],[6.906296151265326,45.775809067359084,1689],[6.906316954782151,45.77588915595261,1690],[6.906327653102259,45.775966680440085,1690],[6.906337632694519,45.77601801900468,1691],[6.9063408597825005,45.77606804390482,1692],[6.9063712253945875,45.77611975618544,1693],[6.906393097476041,45.776143582913946,1693],[6.906406007610328,45.776195220908555,1694],[6.90640054320141,45.77624491096456,1695],[6.906418074040045,45.776276163676634,1696],[6.906468739440716,45.77633062780411,1696],[6.906477382626441,45.776335416133854,1697],[6.906518258913236,45.77641570432644,1698],[6.906692867443968,45.77652002623568,1699],[6.9068334196426315,45.77662580552939,1699],[6.906936228791234,45.77674070805214,1700],[6.9071174978226075,45.77700783837246,1701],[6.907211267074203,45.777289944966235,1702],[6.90721894095239,45.77729551472681,1702],[6.907264066522171,45.777361773021276,1703],[6.907265595173439,45.7774117667618,1704],[6.907246008352578,45.777435222440246,1705],[6.907186007503344,45.77752522215578,1705],[6.90718600800815,45.77763522255116,1706],[6.907237734194116,45.77781626268193,1707],[6.907245431360098,45.77790510787638,1708],[6.907242138832468,45.77799308294922,1708],[6.907313603594163,45.77808242787435,1709],[6.90739535224023,45.778169581436295,1710],[6.907517253153719,45.7782741261519,1711],[6.907638420082014,45.77835660051001,1711],[6.907716007744356,45.77846522315068,1712],[6.907784417593817,45.77858595437007,1713],[6.907820462128546,45.778622304612306,1714],[6.907913740228367,45.778673979076615,1714],[6.908015352580391,45.77870636401382,1715],[6.908436008027337,45.77904522356272,1716],[6.909798267585658,45.779712601133255,1717],[6.909870741803082,45.77976385453139,1717],[6.909917116734316,45.779796824439444,1718],[6.910082809165679,45.77988997293499,1719],[6.9101542699820335,45.779934108865135,1720],[6.910256091236441,45.77998474785508,1720],[6.910388097835434,45.78004664701561,1721],[6.910509898577952,45.78006315129013,1722],[6.910724344949723,45.78008016043465,1723],[6.910888811933575,45.78013789423628,1723],[6.911138405223796,45.78016982130223,1724],[6.911320752489426,45.78020408763272,1725],[6.911390637955453,45.780199418143965,1726],[6.911462488007303,45.78018764529581,1726],[6.91153831405172,45.78016048034906,1727],[6.911619059324987,45.78013816300019,1728],[6.911686744788283,45.78010133190506,1729],[6.91170286802297,45.78009213113236,1729],[6.91179600738808,45.78006522408645,1730],[6.911849262241519,45.780051958020195,1731],[6.911897146841836,45.78004450620977,1732],[6.911970518401342,45.78003751945592,1732],[6.912036782899687,45.78003873093956,1733],[6.9121138750789175,45.780068692806644,1734],[6.91211530397971,45.78007489961325,1735],[6.9121260084038685,45.78007522401438,1736],[6.912236007340073,45.78026522418211,1736],[6.912273901230326,45.78031371436361,1737],[6.912325907624536,45.780332510445675,1738],[6.912372993449727,45.78034645706398,1739],[6.912436938795414,45.780364281456514,1739],[6.912483758347575,45.780385361505026,1740],[6.912579275776808,45.780422797279826,1741],[6.912582673288638,45.78042285937777,1742],[6.912669650746324,45.780461328861115,1742],[6.9127794823549795,45.78051590753042,1743],[6.912836007566588,45.78101522496063,1744],[6.912923833362157,45.781125006767645,1745],[6.912956740036104,45.7811286233014,1745],[6.91308984857081,45.781115590013535,1746],[6.913238293636839,45.78110164692232,1747],[6.9132726127739295,45.78109943791055,1748],[6.913726008507644,45.78100522463498,1748],[6.913854930299753,45.78101381971883,1749],[6.913927082643717,45.78102857458506,1750],[6.914099372373761,45.78105908403748,1751],[6.914126566952197,45.781065614694164,1751],[6.914486497891216,45.781210179023,1752],[6.914569417316646,45.78122083683102,1753],[6.914641814604755,45.781240004190124,1754],[6.9147203876323164,45.78127593889554,1754],[6.9147907752630156,45.7813033967816,1755],[6.914921622755327,45.78135099283078,1756],[6.915063787594737,45.78141426099315,1757],[6.915230686810956,45.781498204738604,1757],[6.915245103479602,45.7815148615172,1758],[6.915246008383064,45.78151522545687,1759],[6.915381503127895,45.78161229726272,1760],[6.915393718666132,45.78161747053739,1760],[6.915510885813669,45.78166719594911,1761],[6.915555699242512,45.781696565430515,1762],[6.915593449007722,45.78173294431642,1763],[6.915655298683263,45.781761435712966,1763],[6.915779853074502,45.78184103710598,1764],[6.915855354424654,45.7819137947479,1765],[6.915885559294134,45.781947359085066,1766],[6.915900346431225,45.781984005574614,1766],[6.915916008033273,45.78199522614762,1767],[6.916019981959615,45.78208156755575,1768],[6.916113422082128,45.78217487660541,1769],[6.9161799852253605,45.78225936697126,1769],[6.916216230534435,45.782336166693966,1770],[6.9162342582433975,45.782390627659666,1771],[6.916246008269325,45.78240522583094,1772],[6.916324028018,45.78251730932775,1772],[6.9163662468618625,45.78253103498655,1773],[6.916384052310262,45.78255515280025,1774],[6.916403527487237,45.782625698035396,1775],[6.916403781947662,45.78263188335896,1775],[6.916537618387934,45.782824151188166,1776],[6.916593184155755,45.7828519225968,1777],[6.916612689244674,45.78287607227881,1778],[6.916637157353079,45.78290388031219,1778],[6.916683538911965,45.782936847569275,1779],[6.91672687595774,45.78296024208559,1780],[6.916800265732667,45.78299845964419,1781],[6.916890250446407,45.783047687802224,1781],[6.9169412422071535,45.78309382494809,1782],[6.916974118109455,45.78312416600585,1783],[6.917038836202956,45.78316698474033,1784],[6.917051713910474,45.78318768326806,1784],[6.917106007451557,45.78321422694751,1785],[6.917193395868792,45.783241414659514,1786],[6.917241445807792,45.78327388288121,1787],[6.917271144411388,45.783298218343084,1787],[6.917300977213932,45.78331898662464,1788],[6.917348200978977,45.783329364975934,1789],[6.917420098214913,45.78331640026679,1790],[6.917429702002369,45.783314931890395,1790],[6.917483532279067,45.783331679739405,1791],[6.917487831833276,45.7833353313593,1792],[6.9176583321099185,45.78345978567278,1793],[6.917752485689439,45.78353407199346,1793],[6.917801690533511,45.783582555917434,1794],[6.917847939238792,45.783619088993994,1795],[6.917924375428556,45.7836668794495,1796],[6.9180195922907535,45.783712632475535,1797],[6.9180550737895725,45.78372443277463,1797],[6.918088596311687,45.783731735777934,1798],[6.918155525702888,45.783743229955576,1799],[6.918223339492013,45.7837434112182,1800],[6.91833947815888,45.78377526955887,1800],[6.9184409610999555,45.78383541312082,1801],[6.918442612672159,45.783837318937735,1802],[6.918450248401278,45.7838398207518,1803],[6.9185347470297005,45.783851101188915,1803],[6.918627406631681,45.78387420401011,1804],[6.918751555257775,45.78391929381089,1805],[6.918907855620541,45.78396853896763,1806],[6.918992134801747,45.78401741397636,1806],[6.91903344762682,45.784043397088666,1807],[6.919065333728243,45.784054685133945,1808],[6.919098964903544,45.784064815093004,1809],[6.919171144990286,45.784089923173006,1809],[6.919226290848913,45.78411591073209,1810],[6.919275302377276,45.78412394200912,1811],[6.919336651736988,45.784120301108345,1812],[6.919443184529427,45.784129038211645,1812],[6.91948905049195,45.784137353214106,1813],[6.9197560078347,45.78420422803421,1814],[6.920189689717362,45.78459207492651,1815],[6.920534646532718,45.78473516740168,1815],[6.920629033912356,45.78487191221254,1816],[6.920878083990374,45.785033482578726,1817],[6.921194247739639,45.785150768126684,1818],[6.921236085372079,45.785214582102746,1818],[6.921826007586087,45.78555422878451,1819],[6.921946162233215,45.78573638289855,1820],[6.922067433405593,45.7858819438581,1821],[6.922196007337717,45.785954229062106,1821],[6.922524112932973,45.786038959859546,1822],[6.922830399615428,45.78617063487067,1823],[6.923516007861334,45.786334229659296,1824],[6.924306008485228,45.78668422980302,1824],[6.925806008437417,45.787514230779664,1825],[6.926131246974735,45.787606168843375,1826],[6.926487586106193,45.78787882556709,1827],[6.926976007448321,45.78815423060823,1827],[6.927096007350549,45.78831423145502,1828],[6.927846008603788,45.78883423117757,1829],[6.928416007452545,45.7890142318151,1830],[6.928506007464172,45.789104231593775,1830],[6.929096723561121,45.78940045508343,1831],[6.929381311579769,45.78961380661581,1832],[6.9298079003589566,45.789827053807784,1833],[6.93045454978197,45.79003319768064,1833],[6.930967147945885,45.79013982511116,1834],[6.931110877355588,45.790207860089424,1835],[6.931364733771728,45.790241010810554,1836],[6.931593663337692,45.7903733428302,1836],[6.9318721598887905,45.79047593862279,1837],[6.932001851600941,45.79069361599837,1838],[6.932196007526232,45.79074423306436,1839],[6.932359007946146,45.791006233214134,1839],[6.932509909695592,45.79103407294067,1840],[6.932734608141591,45.79107805594965,1841],[6.932917181084658,45.79110753316574,1842],[6.933079712843814,45.79112713022135,1842],[6.9333749764201675,45.79114436942359,1843],[6.93344221173785,45.79115421124763,1844],[6.933521121674677,45.79117021272774,1845],[6.933588836281643,45.79117857624811,1845],[6.933731423747188,45.79117460812369,1846],[6.9340196914630585,45.79125418104067,1847],[6.9342106011411975,45.791311169534815,1848],[6.934351035676982,45.79134071120907,1848],[6.934799052182527,45.791402816612816,1849],[6.9356502751309295,45.79151979481684,1850],[6.935980075359167,45.791564141011726,1851],[6.936235549020864,45.791645517000184,1851],[6.936366563088545,45.79169009147458,1852],[6.936433972604663,45.79174281415234,1853],[6.936512115327356,45.79182417871793,1854],[6.936566787908212,45.79194039050848,1855],[6.936623271311958,45.7920274930402,1855],[6.936687274702885,45.79210066805667,1856],[6.936894654347607,45.792258680923844,1857],[6.937091114885999,45.792378611116995,1858],[6.937283762647692,45.79256742883205,1858],[6.937396162960423,45.792659464193605,1859],[6.937559662894744,45.79276142276624,1860],[6.93766086574923,45.792808252966054,1861],[6.937827021622013,45.7928382548093,1861],[6.937921741592457,45.792838038917544,1862],[6.938121195517105,45.79279962540472,1863],[6.937963603616811,45.792897777059736,1864],[6.937859575721206,45.792992954308886,1864],[6.937835819509279,45.79301766837328,1865],[6.9378137904159285,45.79305541129404,1866],[6.937806858168113,45.79309470487871,1867],[6.937809221271077,45.793129692134094,1867],[6.937829034899266,45.793178843603556,1868],[6.937849976356576,45.79322804603482,1869],[6.93790814144539,45.793387593896234,1870],[6.937951078356084,45.79347871291609,1870],[6.938169349717681,45.79363883628781,1871],[6.938281525620529,45.793708939600286,1872],[6.938446917214676,45.793787855453786,1873],[6.9386593590133785,45.793878761133556,1873],[6.938840666922645,45.793947021728734,1874],[6.938978930365398,45.79397657700883,1875],[6.939055186721152,45.79397369134189,1876],[6.939148176654417,45.79395896314901,1876],[6.939256158287881,45.793935070121165,1877],[6.939533523570082,45.79380003146581,1878],[6.939553772424193,45.79366596476253,1879],[6.93959916403809,45.79354186970983,1879],[6.939641101209018,45.793465298156434,1880],[6.939713236751674,45.79339997839137,1881],[6.939876476035206,45.79331434063755,1882],[6.939917770339436,45.79328482929262,1882],[6.939929455250809,45.79325517087846,1883],[6.939916920266801,45.793179996405385,1884],[6.9399287047354346,45.793090983944204,1885],[6.939939656535796,45.79302456041081,1885],[6.9399782729193396,45.79299194685763,1886],[6.939997668124031,45.79297326145344,1887],[6.939977975390417,45.79295387191817,1888],[6.939841707073117,45.79295974124377,1888],[6.939675286849762,45.79295317046634,1889],[6.939482629563092,45.79296635030145,1890],[6.93927385212999,45.79295544513091,1891],[6.9392582146256965,45.79295613413554,1891],[6.939173402457587,45.79292792350704,1892],[6.939104919009894,45.7928687314966,1893],[6.93913077798458,45.79282828796958,1894],[6.939246008216349,45.79275423524223,1894],[6.9395044089369575,45.79259979490986,1895],[6.939560210263209,45.79254028830734,1896],[6.939836007864983,45.79245423484339,1897],[6.939971619741462,45.7924684455861,1897],[6.940106007727943,45.79246423429354,1898],[6.940197756197606,45.79245735112386,1899],[6.9405179561357055,45.79245992495966,1900],[6.940580579540147,45.792454776318394,1900],[6.940704214419892,45.79244461187814,1901],[6.940783437757996,45.792426301229526,1902],[6.940878275779424,45.792398136542296,1903],[6.940941360988578,45.79236246440396,1903],[6.940977576372138,45.792331642433055,1904],[6.941003217335475,45.79230964565271,1905],[6.941049882848729,45.79229533723093,1906],[6.941101903400887,45.79228046648771,1906],[6.941191019938206,45.79224694298299,1907],[6.941351301135197,45.79219011181163,1908],[6.941562931612781,45.79213661985242,1909],[6.94169024193057,45.79210576084599,1909],[6.941742053558718,45.792090090397984,1910],[6.941754001147641,45.792083765922015,1911],[6.941758861741359,45.792073920523436,1912],[6.941758461166556,45.79206191378675,1912],[6.9417520207160885,45.79204408556023,1913],[6.941697790148406,45.792002847916955,1914],[6.941616102749016,45.79196473271834,1915],[6.941531062814207,45.79190694216266,1916],[6.941408749715258,45.791769404581174,1916],[6.941361158023281,45.79165681765947,1917],[6.941357132399121,45.79155236854631,1918],[6.941384471409457,45.791428469378964,1919],[6.941383183849893,45.79134130564922,1919],[6.941374456552465,45.79131102713541,1920],[6.941355979729997,45.79128590930497,1921],[6.941319392899076,45.79124101576658,1922],[6.941196369231717,45.791138084809305,1922],[6.941033262411057,45.791047020163376,1923],[6.940794555101742,45.79092597681239,1924],[6.940701555676215,45.790853776260874,1925],[6.940595456791438,45.79074374867029,1925],[6.940569936595229,45.790703750919434,1926],[6.940569366705314,45.790656260092256,1927],[6.940589103646734,45.790618529299934,1928],[6.940653346652743,45.79059010832426,1928],[6.940750298974142,45.790583988183435,1929],[6.940821102807151,45.7905949772672,1930],[6.940894579604127,45.7906212092107,1931],[6.940944062764642,45.79065128649168,1931],[6.940976307373004,45.790668640322984,1932],[6.941049833144179,45.79070144074329,1933],[6.9411409634230115,45.79073242444547,1934],[6.941211790493609,45.79074530471874,1934],[6.941251261063911,45.7907502842791,1935],[6.9412794781920795,45.79075025918613,1936],[6.941326161629268,45.79074576606146,1937],[6.941389884668755,45.79073411140626,1937],[6.941517444883073,45.790707735762034,1938],[6.941754850003246,45.79065973389316,1939],[6.942003627305871,45.79061353674727,1940],[6.942127184687374,45.790592289704946,1940],[6.942218692637779,45.7905923381943,1941],[6.942250904885976,45.79059772036366,1942],[6.9423114976312545,45.79060894757146,1943],[6.942352100584468,45.79062461639337,1943],[6.942375878674965,45.79064158327858,1944],[6.9424354902175915,45.790679466743725,1945],[6.942591078160773,45.790761757924365,1946],[6.942774483061391,45.79083414622841,1946],[6.942930605752216,45.79088123736401,1947],[6.9431926335751015,45.79095157406003,1948],[6.943403903038705,45.791012860563164,1949],[6.9435128511368704,45.791046697766745,1949],[6.943651874256663,45.791102548056806,1950],[6.943833396513066,45.79118477074726,1951],[6.9439749098810655,45.79125587008563,1952],[6.944033938493761,45.791288941329036,1952],[6.9441107827396245,45.79135594215406,1953],[6.944229383578429,45.791448768250106,1954],[6.944317976804409,45.79151771391723,1955],[6.944393105499342,45.791569213544975,1955],[6.944500983601206,45.7916218353676,1956],[6.944625355899628,45.79166141692766,1957],[6.944719130057654,45.79168284267044,1958],[6.944755572716974,45.79168723279603,1958],[6.9448043663417485,45.7916875780093,1959],[6.944853336413816,45.79168312458954,1960],[6.944936014267607,45.79167447589465,1961],[6.945025416421381,45.791648876808715,1961],[6.945139938519361,45.79162453065962,1962],[6.945245383531008,45.7915981534783,1963],[6.945417443415336,45.7915644393763,1964],[6.945578422400291,45.79154172776148,1964],[6.945695512528798,45.7915304969307,1965],[6.945930218699717,45.7915144464504,1966],[6.946081538742019,45.79150556524732,1967],[6.946197002262788,45.791501411474854,1967],[6.946377289840542,45.79148847761593,1968],[6.94650559609171,45.791462510338015,1969],[6.94661815434615,45.79142932396915,1970],[6.9467311402982235,45.791373074097926,1970],[6.946936427285228,45.79140262850745,1971],[6.947150633730057,45.79144632160495,1972],[6.94785596928235,45.7915554012089,1973],[6.948072479076429,45.791578233811215,1974],[6.948267396528437,45.791602135295584,1974],[6.948683075754655,45.791715676954965,1975],[6.948806007423396,45.7918942341831,1976],[6.949156008550206,45.7920342342777,1977],[6.949216008431046,45.791994234111115,1977],[6.949236007628342,45.791994234097494,1978],[6.949456008403687,45.79209423435747,1979],[6.949586008474893,45.7920242345999,1980],[6.9496671788429,45.79199603234874,1980],[6.949526157489121,45.79189145971973,1981],[6.949583057320802,45.79182915887457,1982],[6.949567666389782,45.791811425117814,1983],[6.949566793165056,45.791742008995726,1983],[6.949688266493315,45.79179408243735,1984],[6.949982673322515,45.79183536941771,1985],[6.950078325935458,45.791857315000456,1986],[6.9502218664495885,45.79188487405937,1986],[6.950362401175762,45.79190167285614,1987],[6.950427738870107,45.79190284539782,1988],[6.950506870006878,45.791925782109,1989],[6.950617376392047,45.79190219815419,1989],[6.95068249316714,45.791914554253616,1990],[6.950751692141693,45.79192888267509,1991],[6.950867257247063,45.791930956171534,1992],[6.9511375198235825,45.79193461495863,1992],[6.951301562422871,45.79193324010259,1993],[6.9513423002171395,45.791932898882784,1994],[6.951453930512748,45.79193196342883,1995],[6.951572677419965,45.79194004083635,1995],[6.951705325065291,45.791940041025555,1996],[6.951838930615567,45.791960281545414,1997],[6.952032455602066,45.791969700361236,1998],[6.95224410697717,45.791994909472784,1998],[6.952475719283208,45.79203237205498,1999],[6.952562001395448,45.79204462589489,2000],[6.952665756673927,45.792044107013915,2001],[6.952851437648859,45.79203553846448,2001],[6.953076438152671,45.792025867011034,2002],[6.953175343498569,45.79201398217186,2003],[6.95343019601303,45.79196154792821,2004],[6.953439090090426,45.79196036172301,2004],[6.953530411627734,45.79192599594765,2005],[6.953646460541764,45.79191907476184,2006],[6.953545574719852,45.79186326388724,2007],[6.953634920101815,45.791882865839746,2007],[6.953789212786246,45.79188563027109,2008],[6.953790200678615,45.79185864635988,2009],[6.953973830693983,45.79176293024355,2010],[6.954016025643204,45.79166468023078,2010],[6.9541989961790724,45.79158695301051,2011],[6.9543668041651845,45.79157195768013,2012],[6.954382295410307,45.791500230846445,2013],[6.954487131626741,45.79144810528953,2013],[6.954527679558758,45.79139482827265,2014],[6.954632515443068,45.79134270257566,2015],[6.954619986994378,45.791333477668786,2016],[6.954489435885714,45.79138514279756,2016],[6.954399103389462,45.7913925254443,2017],[6.954400749357128,45.791347552237895,2018],[6.954441297294147,45.79129427525094,2019],[6.954560965643275,45.79118841204823,2019],[6.954664813658735,45.791163270241185,2020],[6.954730747177663,45.791119448302005,2021],[6.955012626171161,45.79115149742446,2022],[6.95512669889702,45.79119854257511,2022],[6.955090429727716,45.791134889427944,2023],[6.95500174316997,45.79109729933336,2024],[6.954990531093302,45.791052095886215,2025],[6.955069321762281,45.79100850396544,2025],[6.955250643452631,45.79097574822133,2026],[6.955326472458019,45.79101310793942,2027],[6.955375599375911,45.79107699119579,2028],[6.955406578924586,45.79093353719081,2028],[6.955382180009158,45.790897098248024,2029],[6.955599441722548,45.790936989651875,2030],[6.955575371677554,45.79089155609953,2031],[6.955625814747585,45.79091946065772,2031],[6.955613944209444,45.79089224656031,2032],[6.95565251674273,45.79089293700806,2033],[6.955718778155979,45.79084011982853,2034],[6.9556680061251726,45.79082120996076,2035],[6.955723054821741,45.79072318938332,2035],[6.955826901479213,45.79069804649397,2036],[6.955789644924825,45.79066137750662,2037],[6.955872823314656,45.79066516319196,2038],[6.955956380368686,45.79071544787316,2038],[6.9560217370645265,45.79064753032303,2039],[6.956011182087918,45.79058433765708,2040],[6.956049007370694,45.7905682330942,2041],[6.956146008410027,45.790774233529305,2041],[6.956226008530242,45.79087423363341,2042],[6.95629600844493,45.79086423287333,2043],[6.956396007755049,45.79129423360715,2044],[6.9565160078585295,45.79153423343257,2044],[6.9565460075134675,45.79166423391034,2045],[6.956676008465889,45.79170423425574,2046],[6.956726008400111,45.79165423345071,2047],[6.9568160083844415,45.7916342341619,2047],[6.956836007967446,45.79168423350454,2048],[6.9569960075849036,45.791544233775824,2049],[6.9570060085342735,45.79163423352873,2050],[6.95706600852655,45.791614233832796,2050],[6.957286008016208,45.79183423392145,2051],[6.957416007587514,45.79159423390884,2052],[6.957676008494299,45.79095423359483,2053],[6.9577560076175375,45.79092423334071,2053],[6.957856008179395,45.79095423362984,2054],[6.957926007395735,45.79082423309098,2055],[6.957956008070354,45.79081423346659,2056],[6.958046007781007,45.79103423343396,2056],[6.95813600821817,45.79109423348721,2057],[6.958316008082237,45.79130423332986,2058],[6.958456007428605,45.79113423344567,2059],[6.958466008495115,45.79106423322835,2059],[6.958546007426214,45.79095423294208,2060],[6.95861600768182,45.79114423350304,2061],[6.958706007571136,45.791274233871185,2062],[6.958976008499437,45.79115423354535,2062],[6.959096007897312,45.79098423368106,2063],[6.959436008206116,45.79076423336035,2064],[6.959606007561247,45.7906042330173,2065],[6.959666007466661,45.790494232874295,2065],[6.959825007371194,45.790294232618415,2066],[6.959965008447187,45.79015423238835,2067],[6.960105008243554,45.78985423208804,2068],[6.9601250078432475,45.789764231987434,2068],[6.960075007858047,45.78952423242733,2069],[6.959985008341748,45.78938423171173,2070],[6.960035007856159,45.78917423134624,2071],[6.960005007649643,45.78898423143392,2071],[6.959984039579264,45.788895534608166,2072],[6.960064345548696,45.788885072083055,2073],[6.960158931313059,45.78886483164276,2074],[6.960416401163897,45.78886042931765,2074],[6.960560454466617,45.78879099742625,2075],[6.96062506796805,45.78878315066133,2076],[6.960868039757186,45.78882349113506,2077],[6.961086282004892,45.78883638799631,2077],[6.961318365609639,45.78882252989234,2078],[6.96160384546583,45.78875562109004,2079],[6.961783844427255,45.788758833516326,2080],[6.962088806947328,45.788863281446176,2080],[6.962420140626161,45.78895019795826,2081],[6.962788716765546,45.78900125812921,2082],[6.963306849630155,45.789125663652484,2083],[6.963714695892617,45.7893044637252,2083],[6.96384251828576,45.7893737813372,2084],[6.963983023057156,45.789461347570956,2085],[6.964022814131935,45.78948941855049,2086],[6.964056244767319,45.78952867900996,2086],[6.964058257245253,45.78956678356233,2087],[6.9641050409070795,45.78958962654331,2088],[6.964449662889515,45.78967577405987,2089],[6.964790925991562,45.789784166712685,2089],[6.965100055977855,45.78992308718776,2090],[6.965196724826568,45.78998942886064,2091],[6.965389539631396,45.790121757022334,2092],[6.965491624967105,45.79032158649739,2093],[6.965455448437874,45.79070796604533,2093],[6.96547944005235,45.790964774609115,2094],[6.966000853702778,45.79097027069793,2095],[6.966195335803519,45.79080926998958,2096],[6.966388899555894,45.7908596598955,2096],[6.966389835198021,45.79085883860535,2097],[6.966391327424411,45.79085979943119,2098],[6.966403647566888,45.790860018799414,2099],[6.96642375727791,45.790856510232764,2099],[6.966443179317907,45.790848527852575,2100],[6.966462162357513,45.79082923657917,2101],[6.966483918248412,45.79079215020952,2102],[6.966498127653957,45.79076385080402,2102],[6.966498207725495,45.79076370102068,2103],[6.96650619577182,45.7907465955178,2104],[6.96651535166308,45.79072861615405,2105],[6.966545487519679,45.790689076018815,2105],[6.966559253503021,45.79067296353746,2106],[6.966583018306708,45.7906507827018,2107],[6.966661268311516,45.79059752638264,2108],[6.966721147444118,45.79055844102205,2108],[6.966771560145212,45.79052245880033,2109],[6.966795227461147,45.790502953844275,2110],[6.966812388084064,45.79059218644196,2111],[6.9668437227611175,45.790665759311175,2111],[6.966879364910325,45.790749521852845,2112],[6.9669088035957625,45.79089860425158,2113],[6.966901102325426,45.79104018600069,2114],[6.966881969360734,45.7912623116529,2114],[6.966863148060059,45.791335587486486,2115],[6.966817189634514,45.79141625569376,2116],[6.966498682219303,45.7918178261089,2117],[6.966328354704851,45.79204134940565,2117],[6.966319134876561,45.79207271140757,2118],[6.966319155863559,45.792107211730574,2119],[6.966326261205793,45.79214563102467,2120],[6.966344031588652,45.792194723143915,2120],[6.966369441103844,45.79224083349652,2121],[6.966451783663383,45.79228730141995,2122],[6.9665461964287605,45.792311483750375,2123],[6.967141056100962,45.792416579783215,2123],[6.967446545047918,45.792478676967136,2124],[6.967530379658187,45.792472792055705,2125],[6.967610807925441,45.792492010159556,2126],[6.9676788583354545,45.79252493627691,2126],[6.967971000412481,45.79274636681453,2127],[6.968103558514844,45.792816230089485,2128],[6.968120478146608,45.79282198902318,2129],[6.968265039107599,45.79286857875438,2129],[6.968374011037048,45.792888361688625,2130],[6.968539702509962,45.79291510274693,2131],[6.96872774621677,45.792935101882584,2132],[6.968845057716506,45.79293599925988,2132],[6.968941139324203,45.792912724271176,2133],[6.969024357855368,45.79286899716545,2134],[6.9691289349422245,45.79278641286745,2135],[6.969403104584261,45.79256627440199,2135],[6.969876580955903,45.79222760751151,2136],[6.9700021793522104,45.79210717889471,2137],[6.970089276792594,45.791973952037075,2138],[6.970256680576738,45.79167544532879,2138],[6.970330010311853,45.79160474423104,2139],[6.970442905681412,45.7915340765416,2140],[6.970552984526597,45.79149093723137,2141],[6.970748294329131,45.79143677804439,2141],[6.97081716150794,45.791405440387486,2142],[6.9708869031611105,45.79134880782076,2143],[6.970915854821642,45.79126157416508,2144],[6.970961337956578,45.79119248495609,2144],[6.971015028212134,45.79113406315539,2145],[6.971109108264325,45.79107288282845,2146],[6.971236500543951,45.791035666752066,2147],[6.971305680963863,45.79102949445985,2147],[6.971379255371468,45.79103004976731,2148],[6.971476327929451,45.79103440478499,2149],[6.971574710462706,45.791047049977344,2150],[6.971630036805349,45.79106193660237,2150],[6.971652147906633,45.7910743549041,2151],[6.97166817762524,45.79109154979001,2152]]}}]}