{"type":"FeatureCollection","features":[{"type":"Feature","properties":{"slug":"av2-s12","sct_code":"AV2_S12","source":"Catasto Sentieri VdA"},"geometry":{"type":"LineString","coordinates":[[7.552767336338868,45.61214783414674,2186],[7.552894827278514,45.61224374834037,2185],[7.552988543090785,45.61232016285261,2183],[7.553093265301449,45.61239349355938,2182],[7.5531573302211,45.612426830157,2181],[7.553216484526299,45.61243917332644,2179],[7.553284666573061,45.6124431287305,2178],[7.553384032492662,45.61243356664214,2177],[7.553487505597574,45.61243564941925,2175],[7.553664090762197,45.61245759729147,2174],[7.554081561244389,45.61254732517971,2173],[7.554234815136278,45.61259160642592,2171],[7.554489574909919,45.612690198148215,2170],[7.554719353570092,45.612778612896406,2169],[7.555036794417729,45.61295700761027,2167],[7.555491008684474,45.61326427916428,2166],[7.55582114070276,45.61344874296393,2165],[7.555977899217902,45.61350922967615,2163],[7.55608654741261,45.61358528767166,2162],[7.556243926184786,45.61369978800229,2161],[7.556585752891444,45.61387357583316,2159],[7.557025413534903,45.61404564465445,2158],[7.557102723276253,45.61408618942476,2157],[7.5571430946514795,45.61414389633068,2155],[7.557178270547444,45.61423245597405,2154],[7.557180851308345,45.61430359878769,2153],[7.557177261325981,45.61435765858313,2151],[7.557134709652816,45.61438494677695,2150],[7.55706979575456,45.614415629240966,2149],[7.556819482253278,45.614464942665634,2147],[7.55677454088356,45.614513878770246,2146],[7.556766404238191,45.61454977884598,2145],[7.556828640071594,45.6145832018658,2143],[7.55698630521808,45.61470220333168,2142],[7.55694895238703,45.61474559912518,2141],[7.556899146569649,45.61478097273337,2139],[7.556752096145418,45.614810618998156,2138],[7.556542488004564,45.6148259716007,2137],[7.556251780544466,45.61479979365453,2135],[7.555734774787481,45.61477420450286,2134],[7.555565212803734,45.61478211225425,2133],[7.554989095026657,45.61485133281436,2131],[7.554659102661288,45.61490566028854,2130],[7.5545948913779934,45.61494456069379,2129],[7.5544183122754465,45.615171844345966,2127],[7.554190815966123,45.615290474526695,2126],[7.554157596651616,45.61536656014549,2125],[7.554147973101721,45.61549112351695,2123],[7.554153930540536,45.61556018406121,2122],[7.554188888905451,45.61561913308056,2121],[7.554328853572399,45.615747550304114,2119],[7.554466565472497,45.615865683420196,2118],[7.554591978246246,45.61598939958106,2117],[7.554818593463631,45.61620221530174,2115],[7.5549129750284045,45.61622591128449,2114],[7.555046970959106,45.61623660548133,2113],[7.555073238991984,45.61625944139903,2111],[7.555083764557729,45.61628657491685,2110],[7.555068075254724,45.616304379674204,2109],[7.554994513345372,45.61634395046449,2107],[7.55495457523471,45.61641967767634,2106],[7.554969470422185,45.61646064479013,2105],[7.5549994596512215,45.616479023843446,2103],[7.555152226384282,45.61650796043388,2102],[7.555250714676458,45.616553857058044,2101],[7.555349353254836,45.616658677809035,2099],[7.55541089390873,45.61673455729122,2098],[7.555443726807888,45.61675803509805,2097],[7.555506070010396,45.6167750545725,2095],[7.555569813531462,45.61678049879539,2094],[7.555631552716369,45.616778187818035,2093],[7.555676875406716,45.61677180430325,2091],[7.55573241400178,45.61671067166532,2090],[7.555792377332139,45.616677765401015,2089],[7.556218499339032,45.61652512890564,2087],[7.556425390500763,45.61637726096323,2086],[7.556539588239323,45.61633995975671,2085],[7.556928500006303,45.61633562503718,2083],[7.55716143227824,45.616391024009346,2082],[7.557813491368312,45.616584200732284,2081],[7.558565686081904,45.61670258412959,2079],[7.559210781037405,45.6168221695971,2078],[7.559380378984789,45.616837665954975,2077],[7.559804974175144,45.61684295854433,2075],[7.559967073595016,45.6168696544803,2074],[7.5601098712509724,45.6168700524737,2073],[7.56044486682542,45.61682464792781,2071],[7.560646764304002,45.61683414368577,2070],[7.560749263198623,45.61682124300334,2069],[7.560997057264224,45.61672264090155,2067],[7.561145555973933,45.61672733886506,2066],[7.561603451620242,45.61679582878561,2065],[7.56173408925943,45.616796260622685,2063],[7.56186414967558,45.616835772464164,2062],[7.561916567894643,45.61683577541825,2061],[7.561942542789236,45.616828257437014,2059],[7.561988905718273,45.6168242030994,2058],[7.56208469995772,45.61682540913784,2057],[7.5621492029670865,45.61683578984223,2055],[7.562209747519257,45.616845533832816,2054],[7.562308765701846,45.616849872014264,2053],[7.562386902041381,45.61685240185239,2051],[7.562485622763199,45.61686832996221,2050],[7.562557761086315,45.61689010693543,2049],[7.562590456965524,45.61690365856814,2047],[7.562635601319492,45.61690422670245,2046],[7.562679545549677,45.61690864462487,2045],[7.562731982496007,45.616925535488654,2043],[7.562796550702953,45.6169418067177,2042],[7.562851229958642,45.616957181218744,2041],[7.56296721780507,45.61698704597364,2039],[7.563095254425294,45.61701957429253,2038],[7.5632147391751925,45.61704194648707,2037],[7.563322659992548,45.61708581532604,2035],[7.56341821663202,45.6170962924969,2034],[7.563473938416284,45.61711399839689,2033],[7.563521971484612,45.617130833508114,2031],[7.5635656002422325,45.61714761410842,2030],[7.563617741684653,45.6171760955733,2029],[7.563707265001949,45.61720717307631,2027],[7.563794779268922,45.61723068894492,2026],[7.5638551213882295,45.6172399497782,2025],[7.563891477121836,45.617239633746024,2023],[7.563971994456478,45.61723523578157,2022],[7.564062381107108,45.617232507262486,2021],[7.5641238049466555,45.61724255471494,2019],[7.564189435879116,45.61726038483852,2018],[7.56426818123951,45.61728224378607,2017],[7.56432490500931,45.61730382587348,2015],[7.5643683960983426,45.61732601476746,2014],[7.564464763874041,45.61734790246655,2013],[7.5645265428859885,45.61734404085636,2011],[7.564616733779639,45.61734903925459,2010],[7.564663784292949,45.617361224366626,2009],[7.564687989057157,45.617362301703814,2007],[7.56472648725279,45.61736433091421,2006],[7.5647505527256005,45.61737081681925,2005],[7.564779987196025,45.617382781416914,2003],[7.564818229097099,45.61739485577716,2002],[7.5648588906890835,45.61739845845035,2001],[7.564906158154569,45.61740214411038,1999],[7.56504288982117,45.61739613221071,1998],[7.565161099802122,45.61738215855353,1997],[7.565245804797143,45.617386314376255,1995],[7.565299699123687,45.61738931085668,1994],[7.565348205997993,45.61738760067077,1993],[7.565381474398552,45.617378743306446,1991],[7.565438745592828,45.617356302904724,1990],[7.565443743397201,45.61735566902191,1989],[7.565443785462389,45.61735401971866,1987],[7.56550151479596,45.61733619430722,1986],[7.565542472001583,45.61732820572508,1985],[7.565621828849621,45.61732611060731,1983],[7.56568795297911,45.61732462242167,1982],[7.565759740468643,45.61731702182108,1981],[7.565813751704655,45.61731538145707,1979],[7.5658525812016695,45.617304467815316,1978],[7.565891118800189,45.61730495170451,1977],[7.565978600718191,45.61730834708756,1975],[7.566008855611675,45.61730952170784,1974],[7.566070338998655,45.617317250275434,1973],[7.5661267894127,45.617306365146376,1971],[7.566180094476084,45.61728925611081,1970],[7.566272804967118,45.617238633392176,1969],[7.566392588404553,45.61720612773145,1967],[7.566441024354183,45.61718565419445,1966],[7.566532879747562,45.61714682677324,1965],[7.5667043370393445,45.61707477659955,1963],[7.566893429554242,45.61700217428261,1962],[7.566972088761766,45.6169944674259,1961],[7.567040286645731,45.61698778495932,1959],[7.5670866024857,45.61697625556474,1958],[7.567137831039398,45.61696350247989,1957],[7.567227190870268,45.616957859442415,1955],[7.567467887360466,45.61699821986627,1954],[7.567606686304786,45.6170401164454,1953],[7.5678684845905515,45.617091010480756,1951],[7.568200479942399,45.617095603956436,1950],[7.568349178062865,45.61708260233772,1949],[7.568531378208576,45.61715459655693,1947],[7.56872867632172,45.61718480573473,1946],[7.568775817383955,45.61717360192163,1945],[7.5688170492745215,45.6171547949439,1943],[7.568954330462922,45.617127143919866,1942],[7.569108717749892,45.617119802938944,1941],[7.5692126708491445,45.61710332699174,1939],[7.5693129671618795,45.61710071935425,1938],[7.569417649438557,45.617098938825514,1937],[7.569490497020175,45.617092894580395,1935],[7.569560689987174,45.617087793620314,1934],[7.570258952275108,45.616965072022346,1933],[7.570837306576795,45.6169487770415,1931],[7.570942924346227,45.61693368755756,1930],[7.571120176520921,45.61689339388579,1929],[7.571293004529463,45.61685381685933,1927],[7.571505745774695,45.61680391810746,1926],[7.571624170183479,45.616781438362004,1925],[7.571772356276866,45.61675797784793,1923],[7.571885902580932,45.61671070285834,1922],[7.571994625049964,45.61668085044006,1921],[7.572301918925462,45.61660284758745,1919],[7.5726836137500335,45.616535043532636,1918],[7.57300760952857,45.61651793844063,1917],[7.573274605057988,45.61648513423109,1915],[7.573386903712642,45.616456233330666,1914],[7.573652799331414,45.616444529283726,1913],[7.5739442966797474,45.61645902313895,1911],[7.574049603846003,45.616482424775555,1910],[7.574190104792276,45.6164925368639,1909],[7.574353479329179,45.616521628781896,1907],[7.574442488960397,45.61652969642117,1906],[7.574569606340695,45.61655524374337,1905],[7.574648570307099,45.61656859618212,1903],[7.574725371953491,45.61658037615989,1902],[7.5747764760107446,45.61660652009832,1901],[7.574865237675043,45.61666791716868,1899],[7.574982465148344,45.61669256746671,1898],[7.575075665423302,45.61670918897462,1897],[7.575206786562565,45.61675063129973,1895],[7.575263611973932,45.61676834521221,1894],[7.575361509069055,45.61677343034988,1893],[7.575428107593087,45.6167966764132,1891],[7.575558372419381,45.61682844538273,1890],[7.5756500216475375,45.61686282529508,1889],[7.57580603410379,45.6169217741097,1887],[7.5758677359169555,45.616947659072544,1886],[7.575972694129547,45.616951677836845,1885],[7.576093004444712,45.6169415839564,1883],[7.576260662167806,45.616932080158485,1882],[7.576394799153955,45.61694148105322,1881],[7.576515643684879,45.616953808772905,1879],[7.576659377982369,45.61697569595399,1878],[7.576745359492724,45.61697290339835,1877],[7.576853657192731,45.616958794117906,1875],[7.576959022079548,45.61692996172356,1874],[7.577040065955329,45.61690469204005,1873],[7.577089354034261,45.616872070033814,1871],[7.577115362711519,45.61684534059103,1870],[7.577118424280487,45.616811369519795,1869],[7.577098325053917,45.616778656237635,1867],[7.57708996600013,45.61676077478294,1866],[7.57709045467907,45.61674145722995,1865],[7.577102326154913,45.61670759591231,1863],[7.577127404357528,45.616674092634966,1862],[7.577176359921992,45.616654605695686,1861],[7.577221777982886,45.61664435080906,1859],[7.5772592139237,45.61664481713801,1858],[7.57729981725286,45.61665073323987,1857],[7.577346811436063,45.616665231008696,1855],[7.577384998289728,45.61667961995925,1854],[7.5774218675234115,45.61670249456396,1853],[7.577442162322866,45.61672748130901,1851],[7.577472249925425,45.61675722718681,1850],[7.57749366571305,45.61678145472234,1849],[7.577526119580716,45.61684833191439,1847],[7.577541971085519,45.61687480872641,1846],[7.577571992664099,45.61695073733629,1845],[7.5776131954892945,45.61702004204391,1843],[7.577680927043532,45.61708561867394,1842],[7.5777387841151755,45.61714972039525,1841],[7.577799962542871,45.61721308938176,1839],[7.577889041087065,45.61726212105366,1838],[7.57790446854796,45.61727225443225,1837],[7.578107435032993,45.61732320522308,1835],[7.578232133674556,45.61732310231113,1834],[7.5783864743399425,45.617278554542246,1833],[7.578561488565324,45.61728305223774,1831],[7.578755573136544,45.617273872759014,1830],[7.578794520915075,45.61725812640402,1829],[7.578846917168981,45.61724784609305,1827],[7.5789271786757215,45.61723890703841,1826],[7.57900449897243,45.61724530725967,1825],[7.579117179305927,45.61726059449537,1823],[7.5792364176081435,45.61729299525244,1822],[7.579344109075864,45.617302836877506,1821],[7.579529397043005,45.61724948995976,1819],[7.5797236061710915,45.61719574693531,1818],[7.579801046773397,45.6171607079124,1817],[7.5798361410984985,45.61714064964731,1815],[7.579960535779049,45.61709968411366,1814],[7.580073275053782,45.617084081578184,1813],[7.580240620609153,45.61708693504048,1811],[7.580588235309257,45.617134722675644,1810],[7.580840167054734,45.617116028313305,1809],[7.581385430804942,45.61716540600643,1807],[7.58171231059785,45.617233052882064,1806],[7.582012334658039,45.61728111557966,1805],[7.5820867299168935,45.61733828644405,1803],[7.582300393402998,45.617389037647335,1802],[7.5824888295331645,45.61743867519913,1801],[7.582915081388518,45.61754896865953,1799],[7.583028080493572,45.617559865439446,1798],[7.583106360397847,45.61761893977666,1796],[7.583218684489936,45.617663617581776,1795],[7.583280034619747,45.61767674555708,1794],[7.583335341939558,45.61766738316574,1792],[7.583382688870902,45.6176679704152,1791],[7.5834851287599445,45.61770284689461,1790],[7.583610141353923,45.61773339934012,1788],[7.583714085332501,45.61776096768305,1787],[7.583795394672728,45.61782691155363,1786],[7.583855345569969,45.617837500769355,1784],[7.583939663894551,45.61785709665624,1783],[7.583981984089402,45.6178823553017,1782],[7.58401477490738,45.61792333975205,1780],[7.584073057333468,45.61797356532077,1779],[7.584173709283296,45.61801072139826,1778],[7.584265326989699,45.6180466385165,1776],[7.584330916895843,45.61806638900079,1775],[7.584423188922908,45.61812009231461,1774],[7.58447060703889,45.618161644949666,1772],[7.5844735285292435,45.618171799760646,1771],[7.584483773143875,45.618207412044356,1770],[7.58453263583949,45.61827912775047,1768],[7.584556724283534,45.618298975824665,1767],[7.584710226889737,45.61845936800639,1766],[7.584819227600737,45.618540563050594,1764],[7.5849233956885715,45.618674929240946,1763],[7.584949612490991,45.61869201787879,1762],[7.585020621846696,45.61871531298262,1760],[7.585104668478419,45.61874572619822,1759],[7.585156880857991,45.618771879207266,1758],[7.585183962141365,45.61878999288008,1756],[7.585199164685918,45.61879868326934,1755],[7.585285131424026,45.618843944311905,1754],[7.5853087609165355,45.61887155415681,1752],[7.585397430487841,45.61888616155742,1751],[7.585477540764774,45.61889797527332,1750],[7.585540841772203,45.618921174587896,1748],[7.585606407611514,45.61898575299305,1747],[7.5856581929388645,45.61902890643175,1746],[7.585697502079374,45.61904420926341,1744],[7.585751433482452,45.61902772890287,1743],[7.5858325311552415,45.61897992936721,1742],[7.585959629704645,45.6189428277919,1740],[7.585983315867059,45.618937281368666,1739],[7.586024493848581,45.61891692119422,1738],[7.586128814730639,45.61888574973883,1736],[7.586187465994817,45.61887488103882,1735],[7.5862442250880475,45.61885162280687,1734],[7.586297719941384,45.618826777821354,1732],[7.586336783295519,45.61880639226055,1731],[7.58639952817863,45.61880794199936,1730],[7.586451105839813,45.61881553698899,1728],[7.58650766514389,45.618844062661196,1727],[7.58655085567042,45.618878606355864,1726],[7.586617519718364,45.61889952720746,1724],[7.586674584016819,45.61890796315187,1723],[7.586757303979811,45.61890357547464,1722],[7.586825632591463,45.618902102323204,1720],[7.586891525344761,45.6189098742297,1719],[7.586922201534726,45.61891643724669,1718],[7.586984461268705,45.61893730339404,1716],[7.5870379107375605,45.61895806141704,1715],[7.587062423382652,45.61897240487067,1714],[7.587107322941363,45.61899770236095,1712],[7.587302623536249,45.619046097360275,1711],[7.587799216166273,45.61891739152416,1710],[7.588101516025377,45.61898378279065,1708],[7.588167116370791,45.6190202806237,1707],[7.588270518768358,45.619123775334835,1706],[7.588707414621368,45.61910976722855,1704],[7.5887111140935675,45.61908516718675,1703],[7.588629513940235,45.619049270322655,1702],[7.588706912400822,45.619012469611334,1700],[7.588783111875552,45.61899916839731,1699],[7.588838212471129,45.61903026709571,1698],[7.5889315112306,45.619035764418285,1696],[7.589044912315623,45.61909006074455,1695],[7.589068712423602,45.61912055934568,1694],[7.589226612934345,45.619159554931244,1692],[7.589296914211412,45.6192348510476,1691],[7.5895720144783985,45.619329143104615,1690],[7.589699817172635,45.61946113615629,1688],[7.589802617200511,45.61949073338243,1687],[7.589823516358708,45.61949443238771,1686],[7.5898664156512,45.6194541330016,1684],[7.590227912625093,45.61942652686707,1683],[7.5903134661637575,45.619433408977926,1682],[7.590439573713994,45.619455834403254,1680],[7.590548486867938,45.61950510095147,1679],[7.590609724634622,45.61952286076295,1678],[7.590693989842623,45.61954477048196,1676],[7.590737861172023,45.61955226754587,1675],[7.590752176303195,45.61955244417171,1674],[7.590847260840772,45.619538158593606,1672],[7.590882748945697,45.619528548927384,1671],[7.590953066968203,45.61953559992244,1670],[7.591003892295613,45.619573327858845,1668],[7.591079310526808,45.61960110372833,1667],[7.591094711806815,45.61963370257457,1666],[7.591219212321377,45.619702597793534,1664],[7.591460309358867,45.619678694262426,1663],[7.591594310084076,45.619722889465386,1662],[7.591691509495296,45.61972208802795,1660],[7.591946608599211,45.6197842805148,1659],[7.592051508408404,45.61978217858974,1658],[7.592291708914815,45.61985487139445,1656],[7.5924647092422894,45.61992636565281,1655],[7.592693909891022,45.62006065703492,1654],[7.592763110928969,45.6200827549422,1652],[7.592795810872485,45.620122652946684,1651],[7.592889111329987,45.62013145121527,1650],[7.592919811564457,45.62015294959577,1648],[7.592927311697892,45.62019994829985,1647],[7.593076313117309,45.62028844264157,1646],[7.593215314555288,45.62039783658133,1644],[7.5932915168649995,45.620529531149835,1643],[7.593396617915377,45.62057092730224,1642],[7.593445718309627,45.620637724098216,1640],[7.593490221165042,45.62072362136912,1639],[7.5935148236204135,45.62084171662783,1638],[7.593618225026042,45.6209670106664,1636],[7.593696726526451,45.621008107812095,1635],[7.5937683279132315,45.621093604159384,1634],[7.593869827082129,45.62112290087476,1632],[7.5940395262232565,45.62113329757264,1631],[7.594164926951971,45.621173793499864,1630],[7.594269227605956,45.621261088912334,1628],[7.594305729674717,45.621337586052285,1627],[7.594368430205362,45.62139158249866,1626],[7.594544628647678,45.6213907796402,1624],[7.5949155271548285,45.62142737020619,1623],[7.594957727621679,45.621449869074695,1622],[7.595035827202545,45.621453567804444,1620],[7.595165627665035,45.62150726318588,1619],[7.595269028887557,45.62160235833188,1618],[7.595458930687452,45.621695251663546,1616],[7.595688131570612,45.621839042639934,1615],[7.595790435748371,45.6220044355546,1614],[7.5957694358723735,45.62202413554731,1612],[7.595838641072973,45.62225252696647,1611],[7.596015743064226,45.62241221826828,1610],[7.5961009469316965,45.62258731136545,1608],[7.596195547541256,45.622622008041866,1607],[7.596167249760904,45.62274120493718,1606],[7.596266152951611,45.622899798767435,1604],[7.596331656085068,45.62304989220939,1603],[7.5964157575606555,45.62312388816766,1602],[7.596630056506958,45.62316758264497,1600],[7.596883758637688,45.62334187229181,1599],[7.596970460600589,45.623436568105106,1598],[7.597104960640957,45.62345536474715,1596],[7.5972225621233225,45.623577358302505,1595],[7.597447763150121,45.62366085124636,1594],[7.597465963054917,45.62368635051564,1592],[7.597544562472889,45.62368664869706,1591],[7.597699663689233,45.62379384240478,1590],[7.597829464424822,45.62383343873141,1588],[7.597965761367895,45.62377043730237,1587],[7.598015561622712,45.6237704365472,1586],[7.598120661556917,45.62380433342283,1584],[7.598251163338327,45.62391302728983,1583],[7.598570066138294,45.62412571467349,1582],[7.598663866434567,45.62414631157062,1580],[7.598833664297952,45.62412750945706,1579],[7.599115260753997,45.62405670507846,1578],[7.599243060600305,45.62407210206067,1576],[7.599314462252087,45.62420009736022,1575],[7.599420062333128,45.62422829452323,1574],[7.599471837123502,45.624223093335985,1572],[7.5995153212379805,45.62416180878454,1571],[7.599596611311635,45.62408242019988,1570],[7.59966801377404,45.62404619472401,1568],[7.59996402875588,45.62401426895734,1567],[7.600142042839753,45.62403190955631,1566],[7.600252052676899,45.62406708243888,1564],[7.60038245444708,45.62416297633494,1563],[7.600592554721692,45.62425226978879,1562],[7.600849352858288,45.62424976427366,1560],[7.601068752434394,45.62428895853307,1559],[7.601350550445842,45.624270053676696,1558],[7.601456550548126,45.62430305032918,1556],[7.601659448840683,45.62428644674901,1555],[7.601687949091078,45.62430734607581,1554],[7.601910747913939,45.624347040267665,1552],[7.602172244250978,45.62423893811482,1551],[7.602297113020688,45.624163964733576,1550],[7.6024454585661925,45.624133893170054,1548],[7.602539258852642,45.62415589009233,1547],[7.602615058169401,45.62415238912881,1546],[7.602682254843078,45.62406888991603,1544],[7.6029294515821215,45.62397598789043,1543],[7.603137443767858,45.62372559126817,1542],[7.603356540009005,45.62364878893528,1540],[7.603435845298148,45.62357464145662,1539],[7.603593243758994,45.623522039616525,1538],[7.6037924312103895,45.62341518720507,1536],[7.6038162312358635,45.623382688564824,1535],[7.603824828802029,45.62329359036422,1534],[7.603747228437188,45.623267592801874,1532],[7.603747927466923,45.62321789494805,1531],[7.603804124694205,45.62313009597373,1530],[7.603909822030519,45.62305569652797,1528],[7.603887222726409,45.62303239738646,1527],[7.603817121670016,45.623008099962284,1526],[7.6038121210171905,45.62297180109079,1524],[7.603846119930723,45.62292390179326,1523],[7.603878116613417,45.62280350432163,1522],[7.603860213500881,45.62263481025445,1520],[7.603823913053002,45.62260311157541,1519],[7.603819411345781,45.62255901338766,1518],[7.603880010465882,45.62252891320363,1516],[7.603923510167828,45.62252581222091,1515],[7.603996509945097,45.62253971049139,1514],[7.604027010017006,45.62256990891133,1512],[7.604050710256445,45.62257220843193,1511],[7.6040939091167505,45.622515908628735,1510],[7.6041734072970035,45.622470009001816,1508],[7.604248406063401,45.622466107440175,1507],[7.604293307020192,45.62248210583922,1506],[7.604397503230185,45.62238200677369,1504],[7.604508915306445,45.62233464721183,1503],[7.604558000201473,45.62231860550377,1502],[7.60463894346979,45.622288313332035,1500],[7.604721297978942,45.62225640471404,1499],[7.604829167231287,45.62216889980764,1498],[7.605011476567955,45.62219083632255,1496],[7.605207116257177,45.622252741861914,1495],[7.605435661215718,45.622331746045475,1494],[7.605509948782847,45.622345134330985,1492],[7.605687693557427,45.62236211225088,1491],[7.605802049971844,45.622381742731335,1490],[7.605924637524974,45.62241338419766,1488],[7.606423568051079,45.62246043768034,1487],[7.606649238545021,45.62246628261627,1486],[7.606865384750731,45.62253085125828,1484],[7.606990327954544,45.622559399766345,1483],[7.607024972114208,45.62248781662927,1482],[7.6071643871570735,45.622118031532445,1480],[7.607225995187539,45.62201441959514,1479],[7.6073382911864975,45.62191606283923,1478],[7.607630423248356,45.621751917854894,1476],[7.607412994564553,45.621667843982074,1475],[7.607105995978903,45.621555940812954,1474],[7.607059297781894,45.6215232711891,1472],[7.607201289501633,45.621391375541734,1471],[7.607533703954818,45.62101382105134,1470],[7.607573911599414,45.620962925281,1468],[7.607674101032482,45.620737646496174,1467],[7.607719837569914,45.62069412484595,1466],[7.607790677271594,45.620651435706186,1464],[7.607875519989265,45.620628122010814,1463],[7.608011651881146,45.620601955458866,1462],[7.608086602909971,45.620598679043844,1460],[7.608218292165153,45.62059751788097,1459],[7.608464300722882,45.620537907279285,1458],[7.608680874906747,45.6205113365358,1456],[7.60902921861316,45.620502277133355,1455],[7.609613823195283,45.62051403226012,1454],[7.6103387871704005,45.62049865032702,1452],[7.610630585959507,45.62050954388329,1451],[7.610795669424055,45.62054940615942,1450],[7.610975410879666,45.62057542965134,1448],[7.611216571258168,45.62075639082497,1447],[7.611770964671944,45.62098865845856,1446],[7.611872131192591,45.621015538234225,1444],[7.612057633669189,45.62101901395427,1443],[7.612235637227612,45.621010340010734,1442],[7.612724853929972,45.620974943666845,1440],[7.613034351134768,45.62095953805161,1439],[7.613347697898892,45.62096627867286,1438],[7.61367787427865,45.621044488515665,1436],[7.61400543476993,45.62117417851335,1435],[7.614148935101085,45.621240473729515,1434],[7.614301545223893,45.62130105222692,1432],[7.614466523931688,45.62137061745386,1431],[7.614786157886437,45.6214734076413,1430],[7.615061415017737,45.62153912768134,1428],[7.616411476048203,45.621785623416244,1427],[7.616766547657817,45.62181870651132,1426],[7.617047319130732,45.621789237656195,1424],[7.617736028646864,45.621717141457054,1423],[7.618035285044269,45.62170783674195,1422],[7.61837919944342,45.62173170711368,1420],[7.618505202425755,45.62178296822626,1419],[7.618570680058077,45.6217728630188,1418],[7.618770657815393,45.62183803443615,1416],[7.619084642590426,45.62190327971974,1415],[7.6198513803431895,45.62223250064131,1414],[7.620062082667696,45.622236854697576,1412],[7.620327323397079,45.62216759603405,1411]]}}]}