{"type":"FeatureCollection","features":[{"type":"Feature","properties":{"slug":"pds-s9","sct_code":"PDS_S9","source":"Catasto Sentieri VdA"},"geometry":{"type":"LineString","coordinates":[[7.691896047031319,45.59081938090135,756],[7.691675008767649,45.59093208486441,759],[7.690634532700882,45.59088644498831,763],[7.689955008053893,45.59089208484369,766],[7.689385007635451,45.590772084924225,770],[7.689125008472927,45.590802084444256,773],[7.688699225046995,45.59072864722367,776],[7.688625008238782,45.590792084778805,780],[7.688645008330048,45.590942085054124,783],[7.688715007620774,45.59105208488381,786],[7.6890550076078865,45.5912620851056,790],[7.689375007784826,45.59156208550287,793],[7.689595008180666,45.591902085555674,797],[7.6897150086125245,45.59193208551938,800],[7.690235008150903,45.59218208602276,803],[7.69042500870676,45.59243208579096,807],[7.6900750085833565,45.592442085544796,810],[7.690235008280026,45.592542086150914,814],[7.690275007632221,45.5926320860433,817],[7.6902050085217075,45.59271208573689,820],[7.68988500770912,45.592702086338974,824],[7.689675008581873,45.59282208571588,827],[7.689215008273843,45.59266208566728,830],[7.689085008199367,45.5926920863915,834],[7.6889750079075085,45.59258208582033,837],[7.688755007545325,45.592522086112204,841],[7.688585008110316,45.592522085710975,844],[7.688435008401272,45.59259208579572,847],[7.688345007637859,45.59258208573396,851],[7.687945008225825,45.59293208576513,854],[7.687895007978527,45.59311208612865,858],[7.687755008482004,45.59313208674769,861],[7.687675007707706,45.593212086085394,864],[7.6875060076460295,45.593222086387634,868],[7.687186008332804,45.59312208639839,871],[7.687086008106865,45.59299208588942,874],[7.687006008599291,45.593022086537125,878],[7.6869460085609065,45.593142085974975,881],[7.686966008133317,45.59323208661769,885],[7.686716008654523,45.59317208644506,888],[7.686656008484117,45.5931420865158,891],[7.686656008643697,45.593182086727495,895],[7.686616008682544,45.59320208636864,898],[7.686606007856938,45.59335208668761,902],[7.686686008399792,45.59340208675049,905],[7.6869460079304535,45.593492086219186,908],[7.686936007728662,45.593622086913356,912],[7.686876008657917,45.59364208624822,915],[7.686756008559274,45.59359208636085,918],[7.686696008386997,45.59366208652201,922],[7.686756008228167,45.5937620870093,925],[7.686626008246355,45.59382208711037,929],[7.6865460085433135,45.5938120863245,932],[7.68619600805425,45.59353208641363,935],[7.686006007602608,45.593582086161014,939],[7.685826008180589,45.59351208663155,942],[7.685616008638444,45.59338208645362,946],[7.685576007714282,45.59326208633723,949],[7.685326007791266,45.59316208650586,952],[7.685116008604254,45.59323208645649,956],[7.68489600783291,45.59296208653154,959],[7.684926008055851,45.592902086455055,962],[7.684876008156326,45.592812086550765,966],[7.684756007939758,45.59271208631016,969],[7.684776008026842,45.59257208589714,973],[7.684696007768148,45.59252208629127,976],[7.684686007822749,45.59248208612811,979],[7.684556008366801,45.59247208599002,983],[7.684479506450965,45.59243210024859,986],[7.684263008671259,45.59238225626223,990],[7.684074943958538,45.59235951757256,993],[7.683964228921314,45.592271708769744,996],[7.683949406078668,45.592224214752804,1000],[7.683859880347677,45.59198858231279,1003],[7.68373890048535,45.59178702327214,1006],[7.683602548774456,45.59158743990942,1010],[7.683382742772799,45.591417026206344,1013],[7.683197451966747,45.59134386435053,1017],[7.682506991211927,45.591439212566,1020],[7.682389153820326,45.59166034813043,1023],[7.6823776992530854,45.59175680030838,1027],[7.68238711752504,45.59181286930344,1030],[7.682520630082136,45.592199133751144,1034],[7.682676007700562,45.59254208568925,1037],[7.682664404537112,45.59276927019964,1040],[7.682682431084815,45.5929814798681,1044],[7.682832985220019,45.59342578460582,1047],[7.682716008712055,45.593862086852376,1050],[7.682615265411003,45.59414860039517,1054],[7.682624856390994,45.594262782840026,1057],[7.682660024378572,45.59433206214772,1061],[7.682866007782322,45.594612087217534,1064],[7.682831227595701,45.5947456648902,1067],[7.682816008178714,45.594902087896514,1071],[7.682817771428369,45.59505866984297,1074],[7.6828360080537,45.5951920875333,1078],[7.683006007988207,45.59577208808128,1081],[7.683532849717917,45.59650169428111,1084],[7.683674219280006,45.59668384875112,1088],[7.6838260076397615,45.59694208844064,1091],[7.684036008168492,45.597282088981714,1094],[7.684066008155288,45.59739208882327,1098],[7.68440600804881,45.59777208969791,1101],[7.684526008339848,45.59786208949872,1105],[7.684482936462816,45.597959258627476,1108],[7.684536008779124,45.59798208910279,1111],[7.684776007539304,45.59823208971043,1115],[7.684936008773789,45.59856208989232,1118],[7.6850860080824575,45.59870208974942,1122],[7.685226008421726,45.59873208971624,1125],[7.685346008168253,45.59882209043326,1128],[7.685396008618114,45.59892208986339,1132],[7.685596007669444,45.59913208988437,1135],[7.6857260084069,45.59915209045291,1138],[7.68612600781042,45.59896209021933,1142],[7.686336008784104,45.59903209043945,1145],[7.686476007919537,45.59915208991582,1149],[7.686626008579246,45.59915209030603,1152],[7.686856008391991,45.599312090165405,1155],[7.686966007862618,45.59934209050454,1159],[7.687004702856909,45.599388052949315,1162],[7.687186008350131,45.59939209016492,1166],[7.687366008423427,45.599432090729785,1169],[7.68782600844518,45.599652090621255,1172],[7.688261915897763,45.59975692838369,1176],[7.688473659456404,45.59987058023468,1179],[7.6884887944062505,45.59981550841375,1182],[7.688269713663626,45.59966403134502,1186],[7.6882607858561185,45.59963882756424,1189],[7.688315562259766,45.59962652257518,1193],[7.689078231217539,45.59980862189347,1196],[7.689144400766453,45.59985282247094,1199],[7.689177366099914,45.599913278004536,1203],[7.689154831624503,45.59998048529094,1206],[7.689112536928858,45.600028096204646,1210],[7.68838148041492,45.60043674260646,1213],[7.68831029741205,45.60050367278072,1216],[7.688383451728677,45.60050224828192,1220],[7.688462903888952,45.600477786669174,1223],[7.688930008714815,45.60040809133514,1226],[7.688986007838361,45.6004220912042,1230],[7.688900008183464,45.60045809076979,1233],[7.6887760078622644,45.600562091107406,1237],[7.688746007862422,45.600632091036374,1240],[7.688676008070564,45.60068209113933,1243],[7.688726008220978,45.60071209127089,1247],[7.688446008395046,45.60081209141898,1250],[7.688276007702104,45.60092209121402,1254],[7.6882460085555575,45.60096209157458,1257],[7.6880060082117145,45.601002091189585,1260],[7.687946007571422,45.601112091175345,1264],[7.6878460081737945,45.601202091933345,1267],[7.687756007631316,45.60124209140006,1270],[7.687696008408014,45.601332091639144,1274],[7.687616007903356,45.601382091393575,1277],[7.687516007653013,45.60156209197065,1281],[7.687426008715778,45.60159209138029,1284],[7.6873160085356895,45.60167209213632,1287],[7.687176008204597,45.601712091643215,1291],[7.686976007875358,45.60182209209728,1294],[7.686856008655889,45.60184209199232,1298],[7.686776008143522,45.6019620916447,1301],[7.686676007880582,45.60202209191874,1304],[7.686636007982731,45.60211209202946,1308],[7.686716008316257,45.60237209254917,1311],[7.6866060081034835,45.60256209234268,1314],[7.686666007912396,45.60258209243088,1318],[7.686666007946895,45.60264209220173,1321],[7.686566007520965,45.60277209285219,1325],[7.68656600870735,45.60285209225714,1328],[7.686692647462086,45.60288312844674,1331],[7.686861829322643,45.60297660653569,1335],[7.687345845248466,45.60310643598827,1338],[7.687526008257771,45.60312209296949,1342],[7.687488156299062,45.60320474374595,1345],[7.687335096920936,45.60324008850871,1348],[7.687204528991142,45.60330834172547,1352],[7.686994562620223,45.6035946869352,1355],[7.686825857666138,45.603757640807956,1358],[7.686819496761968,45.60378294973167,1362],[7.686843223786276,45.603804734262994,1365],[7.686934370720155,45.603816763021634,1369],[7.68700013442289,45.603801047694255,1372],[7.687204500966664,45.6036649655987,1375],[7.687258362270742,45.603686736366036,1379],[7.687268859145053,45.60374797195821,1382],[7.68725263807225,45.603778207989265,1386],[7.687073575466271,45.603972905758106,1389],[7.687002766404517,45.60401799551095,1392],[7.68678610029529,45.60407661956937,1396],[7.686349034629023,45.60403514067089,1399],[7.6861794321431445,45.604060642132744,1402],[7.686145182073141,45.6040886454578,1406],[7.686161745844991,45.60412065356459,1409],[7.6862669533691825,45.60420602051255,1413],[7.686393977393377,45.60426868641503,1416],[7.686769740649644,45.604354553977075,1419],[7.686826191778077,45.60438625552286,1423],[7.686764843232114,45.60442704353614,1426],[7.686700955382081,45.604439270011646,1430],[7.686414908761043,45.604410238571475,1433],[7.6863451215973075,45.604411506121124,1436],[7.686251246373928,45.60443940874482,1440],[7.686226870237628,45.6044509193199,1443],[7.686219855491552,45.604487741618435,1446],[7.686322210077975,45.60459647758642,1450],[7.686936419088733,45.60484457970422,1453],[7.687455580027613,45.6049566654019,1457],[7.687540058685677,45.6049529539799,1460]]}}]}