{"type":"FeatureCollection","features":[{"type":"Feature","properties":{"slug":"pds-s2","sct_code":"PDS_S2","source":"Catasto Sentieri VdA"},"geometry":{"type":"LineString","coordinates":[[7.609104595431336,45.786072567222945,1489],[7.609149935078997,45.78610114489526,1496],[7.609392495435056,45.78611034778559,1503],[7.609803357825601,45.78609567170153,1510],[7.610140411115843,45.786044050205405,1517],[7.611691007574642,45.78617822891919,1524],[7.611715132534373,45.78625663532463,1531],[7.611731007987739,45.78630822899748,1538],[7.612181007586205,45.7863882296151,1545],[7.612631008412951,45.786388229661,1552],[7.6144510075605,45.78589822913059,1559],[7.614451007880889,45.786008229194266,1567],[7.615024625610147,45.78610226542697,1574],[7.615058432919104,45.78616567853357,1581],[7.615362956048549,45.786466385268675,1588],[7.615770704590026,45.78675484133518,1595],[7.616157509298638,45.7869800389915,1602],[7.6166096117643125,45.78729603070364,1609],[7.616754175816919,45.787432788177036,1616],[7.617057212694721,45.78779422543065,1623],[7.617352665641957,45.788072315814,1630],[7.617659248517026,45.78855080031269,1637],[7.617893783148582,45.78882140174445,1644],[7.618186697367668,45.78907245782746,1651],[7.6184554473637665,45.789260217710925,1658],[7.619257277238623,45.789742435988025,1665],[7.6193831169070725,45.7898564626113,1672],[7.619498533151467,45.790001864729646,1679],[7.619750826015842,45.79020517345047,1686],[7.619835477574855,45.790293950655176,1693],[7.619928554191358,45.79043233208477,1700],[7.620026068261506,45.790521264532835,1707],[7.620608835253118,45.790888321040654,1714],[7.62135277588279,45.79111106236404,1722],[7.621674769323781,45.79122745350423,1729],[7.621825011312006,45.79126526796394,1736],[7.622570346544884,45.79130125873545,1743],[7.622618579358806,45.79130184029866,1750],[7.622683665636113,45.79127112344862,1757],[7.622754628723941,45.79126297854839,1764],[7.622808849240824,45.79128163312761,1771],[7.622823707762293,45.79133131475281,1778],[7.622790832149974,45.79136016989539,1785],[7.623065261967621,45.791448982322684,1792],[7.623351945500486,45.7915626930043,1799],[7.623904800567731,45.791708861033676,1806],[7.62399683334912,45.791759472112254,1813],[7.624134216194855,45.791797128637846,1820],[7.624723719629845,45.79189198147264,1827],[7.624938996028127,45.79190132327138,1834],[7.625050987339994,45.79192517237526,1841],[7.625265773341031,45.792085265243315,1848],[7.625578244628087,45.79219703053323,1855],[7.626010080771196,45.79229447989585,1862],[7.626306753179779,45.792394802599425,1869],[7.626720745938036,45.792564038320265,1877],[7.627002404020396,45.79275193312326,1884],[7.627495356154177,45.7929806179263,1891],[7.627669178331234,45.79310646238117,1898],[7.627969349777953,45.79319557221748,1905],[7.628457905934351,45.79321043934144,1912],[7.629180023231366,45.79353862282756,1919],[7.6296486996917245,45.79370850406687,1926],[7.629725600047919,45.79372067707035,1933],[7.629774165920037,45.793707758929635,1940],[7.629797833474608,45.79366079044515,1947],[7.629515372167117,45.79337388798244,1954],[7.629485697361306,45.79327227690673,1961],[7.629529430862036,45.79319404762697,1968],[7.629663936298847,45.79321816229113,1975],[7.6302235504951845,45.79348363671588,1982],[7.630327352336889,45.79357938604059,1989],[7.630798662409444,45.793904551891096,1996],[7.63138107417425,45.79415904328299,2003],[7.631577528904644,45.79428065267767,2010],[7.631657646200488,45.79429286291296,2017],[7.631722345728355,45.79427788708066,2025],[7.631771572346729,45.79423797465863,2032],[7.631791967710409,45.79419321668702,2039],[7.631695452427637,45.79393104766832,2046],[7.631688062879398,45.79383870455022,2053],[7.631590502435857,45.79361927504564,2060],[7.631574842729708,45.793470580036505,2067],[7.631615963526406,45.79336756742656,2074],[7.631904565809944,45.79287824937711,2081],[7.631905776917367,45.792828761400145,2088],[7.631891075081706,45.79277233251226,2095],[7.631762758321624,45.79262678849882,2102],[7.631723961238582,45.79237206105639,2109],[7.6317355349900255,45.792293445725875,2116],[7.631768736933103,45.79225109124569,2123],[7.6318621541374725,45.79224545973247,2130],[7.632220672369742,45.79244776281278,2137],[7.632316865201957,45.792460165063744,2144],[7.632395525424873,45.792400353728745,2151],[7.632435983547809,45.79232433422897,2158],[7.632530611350972,45.79226921417605,2165],[7.632597533506402,45.792294766483664,2172],[7.632656759098169,45.79237197922746,2180],[7.632726786999708,45.79240206885813,2187],[7.632823695038578,45.79238522777438,2194],[7.6328704187253535,45.79231603344475,2201],[7.632912421195516,45.79191376586693,2208],[7.632829231552116,45.791764262835116,2215],[7.632815959334773,45.79164934822321,2222],[7.63286507280622,45.79161393418663,2229],[7.632922402685803,45.79163712139813,2236],[7.633051875328185,45.79173542558681,2243],[7.633103544288292,45.79172704338477,2250],[7.633060426044744,45.79151726692238,2257],[7.6327783984773765,45.79121237671569,2264],[7.6327894806461,45.79089074312975,2271],[7.632460944472654,45.789989015338584,2278],[7.632346044503572,45.7898211313837,2285],[7.631767471382465,45.789411432813296,2292],[7.631587528476025,45.789141513895316,2299],[7.631576902007064,45.78891862529726,2306],[7.631621454863054,45.78880665326449,2313],[7.631566385714176,45.78869123778106,2320],[7.631521909856162,45.788274433835234,2328],[7.631466709359245,45.788033010304524,2335],[7.631465652466381,45.78768197975853,2342],[7.631488302899198,45.7875449941046,2349],[7.631617806805518,45.78724728016375,2356],[7.63170954167702,45.78717862540744,2363],[7.631774398048115,45.787156901066965,2370],[7.632090267434687,45.78712918221516,2377],[7.632255678083408,45.78707265978721,2384],[7.632397701078359,45.787051858972355,2391],[7.632831930263338,45.78705030623105,2398],[7.632843776190418,45.78696044340323,2405],[7.632808987948978,45.78680476912869,2412],[7.63285831709898,45.78676035719041,2419],[7.6329199572773945,45.78673859370825,2426],[7.633000174107391,45.78674630398441,2433],[7.633073520480476,45.786771932914625,2440],[7.633141041248273,45.78677274082865,2447],[7.63319309050013,45.78674861232715,2454],[7.633204582602862,45.786278475769166,2461],[7.633374387900415,45.78604199507574,2468],[7.633402172319424,45.785826316389574,2475],[7.633582913229408,45.78540545672153,2483],[7.633704211637224,45.78517964586969,2490],[7.633756973646952,45.7851262741278,2497],[7.633954006842583,45.785223135279416,2504],[7.634049226720903,45.785406533238756,2511],[7.634144145849398,45.78573393490234,2518],[7.634271794165826,45.785906469804175,2525],[7.634714980182022,45.78632803864856,2532],[7.634820399363731,45.78648905667284,2539],[7.634930492347289,45.78672213412452,2546],[7.635104123240143,45.78698747223281,2553],[7.635207207956052,45.787112460151754,2560],[7.635293526850751,45.78713374240625,2567],[7.636150007695296,45.787487230444164,2574],[7.636740007842961,45.7883182305176,2581],[7.637260008078518,45.78829723091731,2588],[7.6377800079681375,45.78537722864345,2595],[7.638160008359478,45.78499722809691,2602],[7.638700008586623,45.78484722813157,2609],[7.642970008000914,45.78557722890596,2616],[7.643830007972841,45.78582822918218,2623],[7.644370007587642,45.78604722939512,2630],[7.645760008664461,45.78625722927872,2638],[7.64625000830569,45.7864772290192,2645],[7.651530007561983,45.78771722995574,2652],[7.656680007569201,45.78806723077164,2659],[7.6583300083461285,45.78849723093678,2666],[7.658680007672436,45.78887723146323,2673],[7.659860008578755,45.788857231377854,2680],[7.660160008322906,45.78898723189816,2687],[7.661170008159577,45.78864723104423,2694],[7.661880008753317,45.78862723076329,2701],[7.664450008730786,45.788087230963676,2708]]}}]}